{"type":"FeatureCollection","features":[{"type":"Feature","properties":{"cadnum":"0910346500:05:004:0034"},"geometry":{"type":"Polygon","coordinates":[[[39.060113,48.065902],[39.060169,48.065888],[39.060367,48.065859],[39.060473,48.065838],[39.060476,48.065838],[39.060279,48.06547],[39.05995,48.065557],[39.060113,48.065902]]]}},{"type":"Feature","properties":{"cadnum":"0910346500:05:004:0035"},"geometry":{"type":"Polygon","coordinates":[[[39.05995,48.065557],[39.060279,48.06547],[39.060236,48.065391],[39.059926,48.065469],[39.059917,48.065487],[39.05995,48.065557]]]}}]}