{"type":"FeatureCollection","features":[{"type":"Feature","properties":{"cadnum":"1223884800:02:001:0060"},"geometry":{"type":"Polygon","coordinates":[[[36.546495,48.544915],[36.545935,48.545161],[36.545935,48.545649],[36.545935,48.545762],[36.545935,48.546544],[36.546945,48.546101],[36.54681599999907,48.545761999997545],[36.546495,48.544915]]]}},{"type":"Feature","properties":{"cadnum":"1223884800:02:001:0059"},"geometry":{"type":"Polygon","coordinates":[[[36.545935,48.548165],[36.546758,48.548008],[36.547148,48.547796],[36.547486,48.547536],[36.546945,48.546101],[36.545935,48.546544],[36.545935,48.548165]]]}},{"type":"Feature","properties":{"cadnum":"1223884800:02:001:5001"},"geometry":{"type":"Polygon","coordinates":[[[36.545935,48.549269],[36.547907,48.548618],[36.547493,48.547555],[36.547163,48.547806],[36.546768,48.548021],[36.545935,48.548179],[36.545935,48.549269]]]}},{"type":"Feature","properties":{"cadnum":"1223884800:02:001:0061"},"geometry":{"type":"Polygon","coordinates":[[[36.545935,48.545159],[36.546494,48.544914],[36.546097,48.543859],[36.545935,48.543931],[36.545935,48.545159]]]}},{"type":"Feature","properties":{"cadnum":"1223884800:02:001:0062"},"geometry":{"type":"Polygon","coordinates":[[[36.545935,48.543931],[36.546097,48.543859],[36.545935,48.543429],[36.545935,48.543931]]]}}]}