{"type":"FeatureCollection","features":[{"type":"Feature","properties":{"cadnum":"1400000000:03:000:0000"},"geometry":{"type":"Polygon","coordinates":[[[36.897669,48.36351312962963],[36.897865,48.362603],[36.897525300459286,48.36259376903422],[36.892982,48.36246],[36.89276407329843,48.363492],[36.892764,48.363492],[36.892755425403806,48.363532952426624],[36.89274,48.363606],[36.892740130743725,48.363606],[36.892322,48.365603],[36.897195,48.365743],[36.897213,48.365641],[36.897528,48.364173],[36.897669,48.363517],[36.897669,48.36351312962963]]]}},{"type":"Feature","properties":{"cadnum":"1400000000:01:026:0000"},"geometry":{"type":"Polygon","coordinates":[[[37.443382,47.176819],[37.4434,47.176772],[37.443383,47.17677],[37.443392,47.176733],[37.443417,47.176732],[37.443455,47.176634],[37.443413,47.176628],[37.443313,47.176612],[37.44325,47.176602],[37.443207,47.176594],[37.442973,47.176556],[37.442907,47.176731],[37.443382,47.176819]]]}}]}