{"type":"FeatureCollection","features":[{"type":"Feature","properties":{"cadnum":"1410986000:02:000:0012"},"geometry":{"type":"Polygon","coordinates":[[[38.419817,48.362615],[38.419876,48.362621],[38.419943,48.362257],[38.419979,48.362099],[38.419476,48.362108],[38.419275,48.362312241935484],[38.419275,48.362312],[38.419085,48.362505],[38.418995,48.362595],[38.419104,48.3626166686747],[38.419104,48.362617],[38.419161,48.362628],[38.419275,48.36265],[38.419275,48.36264988235294],[38.419484,48.36269],[38.419643,48.362719],[38.41979,48.362746],[38.419817,48.362615]]]}}]}