{"type":"FeatureCollection","features":[{"type":"Feature","properties":{"cadnum":"1410167601:00:001:1421"},"geometry":{"type":"Polygon","coordinates":[[[37.917282,47.848759],[37.91646,47.848464],[37.91463,47.850088],[37.91463078227571,47.850088],[37.913904,47.85073481499513],[37.913904,47.850734],[37.913684,47.850929],[37.913904,47.851003],[37.913904,47.85100228824273],[37.914524,47.85121],[37.91578568310428,47.850088],[37.915786,47.850088],[37.917282,47.848759]]]}},{"type":"Feature","properties":{"cadnum":"1410167601:00:001:1132"},"geometry":{"type":"Polygon","coordinates":[[[37.930357,47.876435],[37.930231,47.876185],[37.930221,47.876187],[37.929971,47.876217],[37.929728,47.876254],[37.929854,47.876507],[37.930101,47.876471],[37.930212,47.876455390625004],[37.930212,47.876456],[37.930357,47.876435]]]}},{"type":"Feature","properties":{"cadnum":"1410167601:00:001:1334"},"geometry":{"type":"Polygon","coordinates":[[[37.931278,47.876293],[37.931529,47.876272],[37.931435,47.876009],[37.931183,47.876031],[37.931278,47.876293]]]}},{"type":"Feature","properties":{"cadnum":"1410167601:00:001:1088"},"geometry":{"type":"Polygon","coordinates":[[[37.930347,47.877567],[37.930298,47.877311],[37.930212,47.87732],[37.930212,47.87732023966942],[37.930177,47.877324],[37.930221,47.877583],[37.930347,47.877567]]]}},{"type":"Feature","properties":{"cadnum":"1410167601:00:001:1085"},"geometry":{"type":"Polygon","coordinates":[[[37.930554,47.877287],[37.93081,47.877263],[37.93073,47.877001],[37.930478,47.877025],[37.930554,47.877287]]]}},{"type":"Feature","properties":{"cadnum":"1410167601:00:001:1367"},"geometry":{"type":"Polygon","coordinates":[[[37.931942,47.876248],[37.932297,47.876223],[37.93223,47.876009],[37.932149,47.87598],[37.931898,47.875991],[37.931942,47.876248]]]}},{"type":"Feature","properties":{"cadnum":"1410167601:00:001:1031"},"geometry":{"type":"Polygon","coordinates":[[[37.930437,47.87673],[37.930693,47.876708],[37.930617,47.876453],[37.93037,47.876476],[37.930437,47.87673]]]}},{"type":"Feature","properties":{"cadnum":"1410167601:00:001:1389"},"geometry":{"type":"Polygon","coordinates":[[[37.931978,47.876504],[37.932216,47.876489],[37.932252,47.87648],[37.932265,47.876458],[37.932301,47.876296],[37.932292,47.876223],[37.931942,47.876248],[37.931978,47.876504]]]}},{"type":"Feature","properties":{"cadnum":"1410167601:00:001:1087"},"geometry":{"type":"Polygon","coordinates":[[[37.930514,47.876995],[37.930437,47.87673],[37.930212,47.876751],[37.930212,47.87675109852216],[37.930181,47.876754],[37.930263,47.877016],[37.930384,47.877006],[37.930384,47.877005876494025],[37.930514,47.876995]]]}},{"type":"Feature","properties":{"cadnum":"1410167601:00:001:1086"},"geometry":{"type":"Polygon","coordinates":[[[37.945974,47.866139],[37.94628,47.866061],[37.946068,47.865684],[37.945825,47.865745],[37.945763,47.865763],[37.945974,47.866139]]]}},{"type":"Feature","properties":{"cadnum":"1410167601:00:001:1050"},"geometry":{"type":"Polygon","coordinates":[[[37.945511,47.866335],[37.94601,47.866203],[37.945763,47.865763],[37.945605,47.865801],[37.945265,47.865895],[37.945511,47.866335]]]}},{"type":"Feature","properties":{"cadnum":"1410167601:00:001:1346"},"geometry":{"type":"Polygon","coordinates":[[[37.946863,47.86536],[37.946863,47.865359272727275],[37.947029,47.865314],[37.946764,47.864807],[37.946486,47.864886],[37.946612,47.865091],[37.946787,47.86538],[37.946863,47.86536]]]}},{"type":"Feature","properties":{"cadnum":"1410167601:00:001:1414"},"geometry":{"type":"Polygon","coordinates":[[[37.91703,47.875537],[37.91713,47.875422],[37.917124,47.875254],[37.917013,47.875145],[37.916963,47.875033],[37.916977,47.874934],[37.917296,47.874669],[37.9176,47.874564],[37.918315,47.873563],[37.918432,47.873394],[37.918436,47.873383],[37.918481,47.873253],[37.918392,47.873153],[37.917573,47.872954],[37.915233,47.872283],[37.91508,47.872325],[37.915049,47.872385],[37.91495,47.87256],[37.914942,47.872572],[37.913904,47.87413028784119],[37.913904,47.874129],[37.913688,47.874452],[37.913733,47.874474916666664],[37.913733,47.874475],[37.91380274999977,47.87451043749988],[37.913904,47.874562],[37.913904,47.87456187903226],[37.914353,47.87479],[37.916222,47.875356],[37.916918,47.875558],[37.91703,47.875537]],[[37.917493,47.873223],[37.917502,47.873208],[37.917524,47.873214],[37.917516,47.873232],[37.917493,47.873223]],[[37.915377,47.872602],[37.915386,47.872584],[37.915413,47.87259],[37.9154,47.872608],[37.915377,47.872602]]]}},{"type":"Feature","properties":{"cadnum":"1410167601:00:001:1335"},"geometry":{"type":"Polygon","coordinates":[[[37.919554,47.874064],[37.919397,47.87411234451219],[37.919397,47.874112],[37.918288,47.874455],[37.918131,47.875458],[37.918059,47.875886],[37.91806009589041,47.875886],[37.918019,47.876136],[37.917875,47.877115],[37.918485,47.877378],[37.919397,47.87767],[37.919397,47.877669830449825],[37.920093,47.877893],[37.922007,47.878387],[37.922636,47.878489],[37.923,47.878477],[37.923336,47.878333],[37.924217,47.876754],[37.924675,47.876721],[37.924719,47.876697981481485],[37.924719,47.876698],[37.92472321428495,47.876695776786114],[37.924891,47.876608],[37.924891,47.876607262711865],[37.925191,47.876449],[37.925179,47.875771],[37.92517811915888,47.875771],[37.925173,47.875458],[37.925281,47.875058],[37.925263,47.874509],[37.924994,47.874133],[37.92476,47.873976],[37.921185,47.87454],[37.919554,47.874064]]]}},{"type":"Feature","properties":{"cadnum":"1410167601:00:001:1100"},"geometry":{"type":"Polygon","coordinates":[[[37.93032009832989,47.87549862337665],[37.930384,47.875494],[37.930384,47.87549367158672],[37.930483,47.875486],[37.930406,47.875229],[37.9303619090907,47.87523263636365],[37.930168,47.875247],[37.929921,47.875265],[37.929997,47.875522],[37.930212,47.87550644444445],[37.930212,47.875507],[37.93032009832989,47.87549862337665]]]}},{"type":"Feature","properties":{"cadnum":"1410167601:00:001:0005"},"geometry":{"type":"Polygon","coordinates":[[[37.929751,47.875669],[37.929491,47.875687],[37.92952519095477,47.875771],[37.929524,47.875771],[37.92955391262131,47.87584156310667],[37.929572,47.875886],[37.929572750000005,47.875886],[37.929602,47.875955],[37.929863,47.875935],[37.929794,47.875771],[37.92979377419355,47.875771],[37.929751,47.875669]]]}},{"type":"Feature","properties":{"cadnum":"1410167601:00:001:1097"},"geometry":{"type":"Polygon","coordinates":[[[37.930311,47.875805],[37.930231,47.875549],[37.929988,47.875558],[37.93007,47.875814],[37.930212,47.87580869709544],[37.930212,47.87581],[37.930311,47.875805]]]}},{"type":"Feature","properties":{"cadnum":"1410167601:00:001:1099"},"geometry":{"type":"Polygon","coordinates":[[[37.928986,47.875597],[37.929261,47.875576],[37.929185,47.875319],[37.928906,47.875341],[37.928986,47.875597]]]}},{"type":"Feature","properties":{"cadnum":"1410167601:00:001:1098"},"geometry":{"type":"Polygon","coordinates":[[[37.929751,47.87554],[37.929997,47.875522],[37.929921,47.875265],[37.929674,47.875287],[37.929751,47.87554]]]}},{"type":"Feature","properties":{"cadnum":"1410167601:00:001:1135"},"geometry":{"type":"Polygon","coordinates":[[[37.929342,47.874193],[37.929584,47.874175],[37.929831,47.874157],[37.929755,47.873904],[37.929265,47.873943],[37.929342,47.874193]]]}},{"type":"Feature","properties":{"cadnum":"1410167601:00:001:1422"},"geometry":{"type":"Polygon","coordinates":[[[37.929495,47.875847],[37.929741,47.875832],[37.929841,47.875826],[37.929764,47.875558],[37.929221,47.875603],[37.92927146640316,47.875771],[37.929271,47.875771],[37.929297,47.875856],[37.929495,47.875847]]]}},{"type":"Feature","properties":{"cadnum":"1410167601:00:001:1437"},"geometry":{"type":"Polygon","coordinates":[[[37.92989,47.873829],[37.930137,47.87381],[37.930034,47.873566],[37.929822,47.873575],[37.92989,47.873829]]]}},{"type":"Feature","properties":{"cadnum":"1410167601:00:001:1017"},"geometry":{"type":"Polygon","coordinates":[[[37.931955,47.864599],[37.93174,47.864644],[37.931771021276596,47.864716],[37.93177,47.864716],[37.93180559024392,47.864796234146375],[37.931821,47.864832],[37.931821455252916,47.864832],[37.931884,47.864973],[37.932104,47.864928],[37.932008,47.864716],[37.93200772532189,47.864716],[37.931955,47.864599]]]}},{"type":"Feature","properties":{"cadnum":"1410167601:00:001:1053"},"geometry":{"type":"Polygon","coordinates":[[[37.934894,47.86453],[37.935127,47.864473],[37.935015,47.864262],[37.934781,47.864316],[37.934894,47.86453]]]}},{"type":"Feature","properties":{"cadnum":"1410167601:00:001:1362"},"geometry":{"type":"Polygon","coordinates":[[[37.933936,47.864811],[37.933947,47.864832],[37.9339473,47.864832],[37.934049,47.865021],[37.934292,47.864964],[37.934179,47.864751],[37.933936,47.864811]]]}},{"type":"Feature","properties":{"cadnum":"1410167601:00:001:1073"},"geometry":{"type":"Polygon","coordinates":[[[37.93174,47.864644],[37.931489,47.864699],[37.93149628571428,47.864716],[37.931495,47.864716],[37.931632,47.865028],[37.931884,47.864973],[37.93180559024392,47.864796234146375],[37.93174,47.864644]]]}},{"type":"Feature","properties":{"cadnum":"1410167601:00:001:1341"},"geometry":{"type":"Polygon","coordinates":[[[37.933582,47.864657],[37.93334698333332,47.864716],[37.933346,47.864716],[37.933343,47.864717],[37.933404,47.864832],[37.93340458767773,47.864832],[37.933456,47.864928],[37.933699,47.86487],[37.9336157346941,47.86471914285755],[37.933582,47.864657]]]}},{"type":"Feature","properties":{"cadnum":"1410167601:00:001:1122"},"geometry":{"type":"Polygon","coordinates":[[[37.920422,47.853386],[37.92012233161954,47.853659],[37.920122,47.853659],[37.92008223655914,47.85369552688172],[37.919995,47.853775],[37.91999572151899,47.853775],[37.91995,47.853817],[37.921311,47.854226],[37.921747,47.853832],[37.921526,47.853757],[37.921236,47.853659],[37.92123437735849,47.853659],[37.920422,47.853386]]]}},{"type":"Feature","properties":{"cadnum":"1410167601:00:001:1121"},"geometry":{"type":"Polygon","coordinates":[[[37.92224,47.864184],[37.921742,47.864084],[37.921418,47.864021],[37.920974,47.863894],[37.92007663539445,47.864716],[37.920076,47.864716],[37.919397,47.865339082352946],[37.919397,47.865338],[37.918696,47.86598],[37.919226,47.866128944365194],[37.919226,47.86613],[37.921248,47.866699],[37.921311,47.866612],[37.92047,47.865232],[37.920669,47.865042],[37.921194,47.865298],[37.921894,47.864931],[37.921939125581396,47.864832],[37.92194,47.864832],[37.92224,47.864184]]]}},{"type":"Feature","properties":{"cadnum":"1410167601:00:001:0075"},"geometry":{"type":"Polygon","coordinates":[[[37.936393,47.865651],[37.93664,47.865582],[37.93651,47.86537],[37.936263,47.865437],[37.936393,47.865651]]]}},{"type":"Feature","properties":{"cadnum":"1410167601:00:001:1405"},"geometry":{"type":"Polygon","coordinates":[[[37.935827,47.866357],[37.935693,47.866145],[37.93545,47.866214],[37.935584,47.866426],[37.935705,47.866391641975305],[37.935705,47.866392],[37.935827,47.866357]]]}},{"type":"Feature","properties":{"cadnum":"1410167601:00:001:1426"},"geometry":{"type":"Polygon","coordinates":[[[37.935998,47.866016],[37.936263,47.86594],[37.936133,47.865727],[37.935908,47.86579],[37.935867,47.865801],[37.935998,47.866016]]]}},{"type":"Feature","properties":{"cadnum":"1410167601:00:001:1438"},"geometry":{"type":"Polygon","coordinates":[[[37.93673,47.867121],[37.936825,47.866922],[37.936529,47.866859],[37.936433,47.867058],[37.93673,47.867121]]]}},{"type":"Feature","properties":{"cadnum":"1410167601:00:001:1058"},"geometry":{"type":"Polygon","coordinates":[[[37.939821,47.864385],[37.93889168232662,47.864716],[37.93889,47.864716],[37.938253,47.864943],[37.9385,47.865269],[37.937647,47.865573],[37.937764,47.865729],[37.939187,47.865269],[37.93925,47.86535],[37.939255,47.86537],[37.939236,47.865404],[37.939399,47.865365],[37.93934,47.865359],[37.939309,47.865341],[37.939236,47.865253],[37.940194,47.864928],[37.940148,47.864807],[37.939821,47.864385]]]}},{"type":"Feature","properties":{"cadnum":"1410167601:00:001:1395"},"geometry":{"type":"Polygon","coordinates":[[[37.936313,47.868233],[37.93625,47.868282],[37.93620909090909,47.868402],[37.936209,47.868402],[37.936205,47.868414],[37.93639,47.868517],[37.93639206617647,47.868517],[37.936452,47.86855],[37.936632,47.868402],[37.936313,47.868233]]]}},{"type":"Feature","properties":{"cadnum":"1410167601:00:001:1407"},"geometry":{"type":"Polygon","coordinates":[[[37.936246,47.864693],[37.936183,47.864708],[37.93615306060605,47.864716],[37.936152,47.864716],[37.935936,47.864774],[37.935968,47.864832],[37.935969740384614,47.864832],[37.936057,47.864982],[37.936366,47.864901],[37.936307369863314,47.86479963013752],[37.936246,47.864693]]]}},{"type":"Feature","properties":{"cadnum":"1410167601:00:001:1418"},"geometry":{"type":"Polygon","coordinates":[[[37.93664,47.865582],[37.936896,47.865515],[37.936766,47.865305],[37.93651,47.86537],[37.93664,47.865582]]]}},{"type":"Feature","properties":{"cadnum":"1410167601:00:001:1337"},"geometry":{"type":"Polygon","coordinates":[[[37.936932,47.867603],[37.937054,47.867487],[37.936618,47.867278],[37.936563,47.867423],[37.936932,47.867603]]]}},{"type":"Feature","properties":{"cadnum":"1410167601:00:001:1403"},"geometry":{"type":"Polygon","coordinates":[[[37.937269,47.868255],[37.937435,47.868116],[37.937125,47.867947],[37.937081,47.86798],[37.936955,47.868086],[37.937269,47.868255]]]}},{"type":"Feature","properties":{"cadnum":"1410167601:00:001:1013"},"geometry":{"type":"Polygon","coordinates":[[[37.936201,47.868517],[37.936201947368424,47.868517],[37.936142,47.868568],[37.936586,47.868809],[37.936722,47.868695],[37.936276,47.868454],[37.936201,47.868517]]]}},{"type":"Feature","properties":{"cadnum":"1410167601:00:001:1428"},"geometry":{"type":"Polygon","coordinates":[[[37.936263,47.86594],[37.936519,47.865865],[37.936389,47.865651],[37.936156,47.86572],[37.936133,47.865727],[37.936263,47.86594]]]}},{"type":"Feature","properties":{"cadnum":"1410167601:00:001:1001"},"geometry":{"type":"Polygon","coordinates":[[[37.936016,47.865506],[37.936267,47.865431],[37.936133,47.86522],[37.935877,47.865292],[37.936016,47.865506]]]}},{"type":"Feature","properties":{"cadnum":"1410167601:00:001:1338"},"geometry":{"type":"Polygon","coordinates":[[[37.935796,47.865109],[37.935705,47.864941],[37.935705,47.86494144444444],[37.93567,47.864877],[37.935446,47.864931],[37.935567,47.865163],[37.935796,47.865109]]]}},{"type":"Feature","properties":{"cadnum":"1410167601:00:001:1400"},"geometry":{"type":"Polygon","coordinates":[[[37.937112,47.86839],[37.937269,47.868255],[37.936955,47.868086],[37.936942,47.868101],[37.936798,47.868222],[37.937112,47.86839]]]}},{"type":"Feature","properties":{"cadnum":"1410167601:00:001:1370"},"geometry":{"type":"Polygon","coordinates":[[[37.936177,47.866805],[37.936425,47.86673],[37.936295,47.866531],[37.936043,47.866603],[37.936177,47.866805]]]}},{"type":"Feature","properties":{"cadnum":"1410167601:00:001:1089"},"geometry":{"type":"Polygon","coordinates":[[[37.929849,47.877621],[37.930221,47.877583],[37.930177,47.877324],[37.930051,47.877338],[37.9298,47.877365],[37.929849,47.877621]]]}},{"type":"Feature","properties":{"cadnum":"1410167601:00:001:1344"},"geometry":{"type":"Polygon","coordinates":[[[37.929208,47.876712],[37.929454,47.876697],[37.929409,47.876404],[37.929153,47.876407],[37.929208,47.876712]]]}},{"type":"Feature","properties":{"cadnum":"1410167601:00:001:1354"},"geometry":{"type":"Polygon","coordinates":[[[37.929445,47.876995],[37.929688,47.876976],[37.929642,47.876726],[37.929401,47.876745],[37.929445,47.876995]]]}},{"type":"Feature","properties":{"cadnum":"1410167601:00:001:1131"},"geometry":{"type":"Polygon","coordinates":[[[37.929971,47.876217],[37.930221,47.876187],[37.930118,47.875928],[37.929863,47.875964],[37.929971,47.876217]]]}},{"type":"Feature","properties":{"cadnum":"1410167601:00:001:1377"},"geometry":{"type":"Polygon","coordinates":[[[37.931525,47.875714],[37.931781,47.875696],[37.931705,47.875428],[37.931443,47.875449],[37.931525,47.875714]]]}},{"type":"Feature","properties":{"cadnum":"1410167601:00:001:1402"},"geometry":{"type":"Polygon","coordinates":[[[37.932764,47.875227],[37.932997,47.874961],[37.932521,47.874768],[37.932764,47.875227]]]}},{"type":"Feature","properties":{"cadnum":"1410167601:00:001:1373"},"geometry":{"type":"Polygon","coordinates":[[[37.9328,47.871855],[37.932684167146974,47.872086],[37.932684,47.872086],[37.932626000000255,47.8722019999995],[37.932626,47.872202],[37.932611,47.872232],[37.932948,47.872358],[37.933097,47.872195],[37.933002,47.872086],[37.93300178529412,47.872086],[37.9328,47.871855]]]}},{"type":"Feature","properties":{"cadnum":"1410167601:00:001:1116"},"geometry":{"type":"Polygon","coordinates":[[[37.93086,47.875446],[37.931098,47.875428],[37.931022,47.875178],[37.930936,47.874922],[37.930707,47.87494],[37.930783,47.875196],[37.93086,47.875446]]]}},{"type":"Feature","properties":{"cadnum":"1410167601:00:001:1372"},"geometry":{"type":"Polygon","coordinates":[[[37.932823,47.8725],[37.932948,47.872358],[37.932611,47.872232],[37.932481,47.872373],[37.932823,47.8725]]]}},{"type":"Feature","properties":{"cadnum":"1410167601:00:001:1404"},"geometry":{"type":"Polygon","coordinates":[[[37.933873,47.872909],[37.934031,47.872771],[37.933789,47.872539],[37.933541,47.872328],[37.933384,47.872472],[37.933775,47.872831],[37.933873,47.872909]]]}},{"type":"Feature","properties":{"cadnum":"1410167601:00:001:1084"},"geometry":{"type":"Polygon","coordinates":[[[37.933789,47.874711],[37.933919,47.874573],[37.933569,47.874434],[37.933437,47.874569],[37.933789,47.874711]]]}},{"type":"Feature","properties":{"cadnum":"1410167601:00:001:1340"},"geometry":{"type":"Polygon","coordinates":[[[37.933443,47.875121],[37.933563,47.874979],[37.933223,47.87485],[37.933097,47.874991],[37.933443,47.875121]]]}},{"type":"Feature","properties":{"cadnum":"1410167601:00:001:1396"},"geometry":{"type":"Polygon","coordinates":[[[37.934309,47.873579],[37.934439,47.873403],[37.934099,47.873274],[37.934166,47.87319],[37.934017,47.873126],[37.933955,47.873193],[37.934053,47.87334],[37.934003,47.873403],[37.933959,47.873446],[37.934309,47.873579]]]}},{"type":"Feature","properties":{"cadnum":"1410167601:00:001:1095"},"geometry":{"type":"Polygon","coordinates":[[[37.932374,47.874723],[37.932678,47.874365],[37.932338,47.874229],[37.932265,47.87431],[37.932154,47.874265],[37.932374,47.874723]]]}},{"type":"Feature","properties":{"cadnum":"1410167601:00:001:1118"},"geometry":{"type":"Polygon","coordinates":[[[37.92286,47.850456],[37.922613,47.850372],[37.922124,47.850209],[37.919397,47.85263477804626],[37.919397,47.852634],[37.919227,47.852786],[37.919963,47.853033],[37.92286,47.850456]]]}},{"type":"Feature","properties":{"cadnum":"1410167601:00:001:1360"},"geometry":{"type":"Polygon","coordinates":[[[37.920242,47.849579],[37.919824,47.84944],[37.91937229184624,47.849841854076594],[37.91922401865672,47.849973],[37.919223,47.849973],[37.916927,47.852014],[37.917704,47.852276],[37.919226,47.850923011222676],[37.919226,47.850924],[37.92027925393619,47.84998525164638],[37.920602,47.8497],[37.920242,47.849579]]]}},{"type":"Feature","properties":{"cadnum":"1410167601:00:001:1119"},"geometry":{"type":"Polygon","coordinates":[[[37.921984,47.85369],[37.92203,47.853651],[37.923179,47.852629],[37.921912,47.852207],[37.920705,47.85328],[37.921638,47.853594],[37.921984,47.85369]]]}},{"type":"Feature","properties":{"cadnum":"1410167601:00:001:0247"},"geometry":{"type":"Polygon","coordinates":[[[37.916577,47.862632],[37.915619,47.862357],[37.913904,47.863928325556735],[37.913904,47.863927],[37.913321,47.864461],[37.913733,47.86457689708404],[37.913733,47.864578],[37.914281,47.864732],[37.916577,47.862632]]]}},{"type":"Feature","properties":{"cadnum":"1410167601:00:001:1398"},"geometry":{"type":"Polygon","coordinates":[[[37.916164,47.867574],[37.915656,47.867429],[37.91459535845588,47.868402],[37.914595,47.868402],[37.913878403869425,47.8690604038694],[37.913472,47.869432],[37.913904,47.869555],[37.913904,47.86955435655737],[37.913977,47.869575],[37.915259,47.868402],[37.91525873170731,47.868402],[37.916164,47.867574]]]}},{"type":"Feature","properties":{"cadnum":"1410167601:00:001:1123"},"geometry":{"type":"Polygon","coordinates":[[[37.916824,47.859989],[37.917897,47.859015],[37.917722,47.859055],[37.917516,47.859006],[37.91739,47.858888],[37.91739,47.858745],[37.91752,47.858627],[37.917726,47.858584],[37.917929,47.858629],[37.918055,47.858747],[37.918055,47.858877],[37.918917,47.858097],[37.917763,47.857765],[37.915669,47.859657],[37.916707,47.859956],[37.916824,47.859989]]]}},{"type":"Feature","properties":{"cadnum":"1410167601:00:001:1388"},"geometry":{"type":"Polygon","coordinates":[[[37.953439,47.862915],[37.953655,47.862857],[37.953457,47.862505],[37.953237,47.862562],[37.953439,47.862915]]]}},{"type":"Feature","properties":{"cadnum":"1410167601:00:001:1440"},"geometry":{"type":"Polygon","coordinates":[[[37.930393,47.870303],[37.930703,47.870132],[37.930546,47.870017],[37.930227,47.870174],[37.93029,47.870357],[37.930384,47.870309],[37.930384,47.870307718446604],[37.930393,47.870303]]]}},{"type":"Feature","properties":{"cadnum":"1410167601:00:001:1039"},"geometry":{"type":"Polygon","coordinates":[[[37.930384,47.86889137229437],[37.930443,47.868921],[37.930622,47.868773],[37.9305,47.868535],[37.930343,47.868486],[37.930187,47.868724],[37.93016,47.868778],[37.930212,47.86880446428571],[37.930212,47.868805],[37.93029120000013,47.868844771428634],[37.930384,47.868892],[37.930384,47.86889137229437]]]}},{"type":"Feature","properties":{"cadnum":"1410167601:00:001:1427"},"geometry":{"type":"Polygon","coordinates":[[[37.930212,47.87003687301587],[37.930212,47.870037],[37.93024400000116,47.87002722222187],[37.930384,47.869985],[37.930384,47.86998444444445],[37.930464,47.86996],[37.930384,47.869904126984125],[37.930384,47.869904],[37.93028199999898,47.869832888888176],[37.930212,47.869784],[37.930212,47.86978408714597],[37.929925,47.869584],[37.930195,47.870042],[37.930212,47.87003687301587]]]}},{"type":"Feature","properties":{"cadnum":"1410167601:00:001:0014"},"geometry":{"type":"Polygon","coordinates":[[[37.983375,47.858729],[37.983631,47.858666],[37.983883,47.858602],[37.98374,47.858352],[37.983237,47.858482],[37.983375,47.858729]]]}},{"type":"Feature","properties":{"cadnum":"1410167601:00:001:1350"},"geometry":{"type":"Polygon","coordinates":[[[37.952783,47.860643],[37.952505,47.86017],[37.952185,47.860255],[37.952185,47.860255212041885],[37.951974,47.860311],[37.952226,47.860791],[37.952356,47.860757],[37.952356,47.86075645780969],[37.952783,47.860643]]]}},{"type":"Feature","properties":{"cadnum":"1410167601:00:001:1413"},"geometry":{"type":"Polygon","coordinates":[[[37.95785,47.85914658083832],[37.958012,47.859214],[37.961232,47.858916],[37.961268,47.858774],[37.960559,47.858497],[37.960253,47.85825],[37.959301,47.85837],[37.959264,47.858171],[37.958375,47.858157],[37.957678,47.85819],[37.957678,47.858190264264266],[37.957184,47.858214],[37.956515,47.858238],[37.956148,47.85825],[37.955398,47.858323],[37.954926,47.858334],[37.954238,47.858338],[37.953785,47.858352],[37.954167,47.858837],[37.955322,47.85866],[37.956318,47.858506],[37.957184,47.858868],[37.957678,47.85907494594595],[37.957678,47.859075],[37.95769764705759,47.85908317647007],[37.95785,47.859147],[37.95785,47.85914658083832]]]}},{"type":"Feature","properties":{"cadnum":"1410167601:00:001:1415"},"geometry":{"type":"Polygon","coordinates":[[[37.952356,47.859896],[37.952356,47.85989596934175],[37.953335,47.859715],[37.952536,47.858365],[37.952185,47.858376],[37.952185,47.85837618181818],[37.952092,47.858379],[37.951794,47.858359],[37.951678,47.858412],[37.951687,47.858539],[37.952226,47.85992],[37.952356,47.859896]]]}},{"type":"Feature","properties":{"cadnum":"1410167601:00:001:0997"},"geometry":{"type":"Polygon","coordinates":[[[37.912786,47.846432],[37.912817,47.84642],[37.912719,47.846293],[37.912686,47.846302],[37.912786,47.846432]]]}},{"type":"Feature","properties":{"cadnum":"1410167601:00:001:0166"},"geometry":{"type":"Polygon","coordinates":[[[37.921428,47.846492],[37.920818,47.846287],[37.920291,47.846287],[37.919397,47.8470827859155],[37.919397,47.847082],[37.918638,47.847758],[37.918782,47.847891],[37.918359,47.848795],[37.918139,47.848873],[37.918248,47.848913],[37.918579,47.849025],[37.919226,47.84844918581907],[37.919226,47.84845],[37.921428,47.846492]]]}},{"type":"Feature","properties":{"cadnum":"1410167601:00:001:1127"},"geometry":{"type":"Polygon","coordinates":[[[37.93324,47.852099],[37.93281,47.851683],[37.930712,47.853549],[37.931152,47.853775],[37.931153263736256,47.853775],[37.931282,47.853841],[37.93135597802198,47.853775],[37.931356,47.853775],[37.93324,47.852099]]]}},{"type":"Feature","properties":{"cadnum":"1410167601:00:001:1005"},"geometry":{"type":"Polygon","coordinates":[[[37.939511,47.862963],[37.939753,47.862857],[37.939519,47.862634],[37.939309,47.862725],[37.939286,47.862743],[37.939313,47.862783],[37.939511,47.862963]]]}},{"type":"Feature","properties":{"cadnum":"1410167601:00:001:1037"},"geometry":{"type":"Polygon","coordinates":[[[37.936205,47.864476],[37.936299,47.864277],[37.935984,47.864208],[37.93589,47.864407],[37.936205,47.864476]]]}},{"type":"Feature","properties":{"cadnum":"1410167601:00:001:1067"},"geometry":{"type":"Polygon","coordinates":[[[37.94137,47.861783],[37.94137,47.861782589519656],[37.941536,47.861713],[37.941312,47.861475],[37.941198,47.861522],[37.941198,47.86152212],[37.941087,47.861568],[37.941198,47.86168959545454],[37.941198,47.86169],[37.941307,47.861809],[37.94137,47.861783]]]}},{"type":"Feature","properties":{"cadnum":"1410167601:00:001:1041"},"geometry":{"type":"Polygon","coordinates":[[[37.940858,47.861999],[37.941083,47.861903],[37.940863,47.861658],[37.940628,47.861745],[37.940858,47.861999]]]}},{"type":"Feature","properties":{"cadnum":"1410167601:00:001:1408"},"geometry":{"type":"Polygon","coordinates":[[[37.939753,47.862857],[37.939978,47.862755],[37.939739,47.862529],[37.939519,47.862634],[37.939753,47.862857]]]}},{"type":"Feature","properties":{"cadnum":"1410167601:00:001:1052"},"geometry":{"type":"Polygon","coordinates":[[[37.941198,47.86186064],[37.941198,47.861861],[37.941312,47.861812],[37.941307,47.861809],[37.941087,47.861568],[37.940863,47.861658],[37.941083,47.861903],[37.941087,47.861908],[37.941198,47.86186064]]]}},{"type":"Feature","properties":{"cadnum":"1410167601:00:001:1435"},"geometry":{"type":"Polygon","coordinates":[[[37.930864,47.869656],[37.931017,47.869517],[37.93064,47.869306],[37.930504,47.869441],[37.930864,47.869656]]]}},{"type":"Feature","properties":{"cadnum":"1410167601:00:001:1366"},"geometry":{"type":"Polygon","coordinates":[[[37.931605,47.868968],[37.931646,47.868839],[37.931049,47.868691],[37.93099,47.868876],[37.931605,47.868968]]]}},{"type":"Feature","properties":{"cadnum":"1410167601:00:001:1342"},"geometry":{"type":"Polygon","coordinates":[[[37.931493,47.871135],[37.931745,47.870924],[37.931569,47.870806],[37.931322,47.87102],[37.931493,47.871135]]]}},{"type":"Feature","properties":{"cadnum":"1410167601:00:001:1359"},"geometry":{"type":"Polygon","coordinates":[[[37.931762,47.871581],[37.932023,47.871379],[37.931848,47.871268],[37.931596,47.871469],[37.931762,47.871581]]]}},{"type":"Feature","properties":{"cadnum":"1410167601:00:001:1091"},"geometry":{"type":"Polygon","coordinates":[[[37.932238,47.870728],[37.932527,47.870529],[37.932355,47.870418],[37.932068,47.870614],[37.932238,47.870728]]]}},{"type":"Feature","properties":{"cadnum":"1410167601:00:001:1343"},"geometry":{"type":"Polygon","coordinates":[[[37.932395,47.870948],[37.932625,47.870795],[37.932651,47.870813],[37.93271,47.87077],[37.932531,47.870643],[37.932234,47.870831],[37.932395,47.870948]]]}},{"type":"Feature","properties":{"cadnum":"1410167601:00:001:1419"},"geometry":{"type":"Polygon","coordinates":[[[37.932445,47.87006],[37.932733,47.86987],[37.932571,47.869761],[37.932284,47.869948],[37.932445,47.87006]]]}},{"type":"Feature","properties":{"cadnum":"1410167601:00:001:1074"},"geometry":{"type":"Polygon","coordinates":[[[37.933272,47.868306],[37.93314223115577,47.868402],[37.933142,47.868402],[37.933003,47.868505],[37.933022,47.868517],[37.933023,47.868517],[37.933183,47.868613],[37.933451,47.868414],[37.933272,47.868306]]]}},{"type":"Feature","properties":{"cadnum":"1410167601:00:001:1076"},"geometry":{"type":"Polygon","coordinates":[[[37.933074,47.87206],[37.933223,47.871885],[37.933334,47.871746],[37.932993,47.871557],[37.932774,47.871795],[37.933074,47.87206]]]}},{"type":"Feature","properties":{"cadnum":"1410167601:00:001:1358"},"geometry":{"type":"Polygon","coordinates":[[[37.93107,47.871581],[37.931292,47.871431],[37.931044,47.871259],[37.930824,47.871458],[37.93107,47.871581]]]}},{"type":"Feature","properties":{"cadnum":"1410167601:00:001:1368"},"geometry":{"type":"Polygon","coordinates":[[[37.931439,47.871385],[37.931699,47.871189],[37.931529,47.871081],[37.931278,47.871279],[37.931439,47.871385]]]}},{"type":"Feature","properties":{"cadnum":"1410167601:00:001:1336"},"geometry":{"type":"Polygon","coordinates":[[[37.934345,47.869189],[37.934556,47.86905],[37.934597,47.869026],[37.934632,47.869002],[37.934475,47.86889],[37.934408,47.868936],[37.934368,47.868959],[37.934188,47.86908],[37.934345,47.869189]]]}},{"type":"Feature","properties":{"cadnum":"1410167601:00:001:1069"},"geometry":{"type":"Polygon","coordinates":[[[37.934538,47.870587],[37.934785,47.870406],[37.934592,47.870288],[37.934341,47.870475],[37.934538,47.870587]]]}},{"type":"Feature","properties":{"cadnum":"1410167601:00:001:1392"},"geometry":{"type":"Polygon","coordinates":[[[37.933806,47.868514],[37.933672,47.868411],[37.933492,47.868517],[37.93349215730338,47.868517],[37.93337,47.868589],[37.933506,47.868691],[37.93380091525424,47.868517],[37.933801,47.868517],[37.933806,47.868514]]]}},{"type":"Feature","properties":{"cadnum":"1410167601:00:001:1029"},"geometry":{"type":"Polygon","coordinates":[[[37.93386,47.871093],[37.934202,47.87084],[37.934053,47.87075],[37.933712,47.871002],[37.93386,47.871093]]]}},{"type":"Feature","properties":{"cadnum":"1410167601:00:001:1423"},"geometry":{"type":"Polygon","coordinates":[[[37.934206,47.870008],[37.934479,47.869812],[37.934318,47.86971],[37.93404,47.869903],[37.934206,47.870008]]]}},{"type":"Feature","properties":{"cadnum":"1410167601:00:001:1436"},"geometry":{"type":"Polygon","coordinates":[[[37.933645,47.872141],[37.933793,47.871987],[37.9335,47.87181],[37.93338,47.871945],[37.933645,47.872141]]]}},{"type":"Feature","properties":{"cadnum":"1410167601:00:001:1424"},"geometry":{"type":"Polygon","coordinates":[[[37.934278,47.870493],[37.934552,47.870297],[37.934368,47.87018],[37.934093,47.870375],[37.934278,47.870493]]]}},{"type":"Feature","properties":{"cadnum":"1410167601:00:001:1023"},"geometry":{"type":"Polygon","coordinates":[[[37.935598,47.869388],[37.935684,47.869213],[37.935473,47.869104],[37.935315,47.869236],[37.935598,47.869388]]]}},{"type":"Feature","properties":{"cadnum":"1410167601:00:001:1133"},"geometry":{"type":"Polygon","coordinates":[[[37.934296,47.869662],[37.934588,47.869468],[37.934426,47.869357],[37.934129,47.86955],[37.934296,47.869662]]]}},{"type":"Feature","properties":{"cadnum":"1410167601:00:001:1361"},"geometry":{"type":"Polygon","coordinates":[[[37.93368,47.870484],[37.933972,47.870301],[37.933816,47.870189],[37.933523,47.870373],[37.93368,47.870484]]]}},{"type":"Feature","properties":{"cadnum":"1410167601:00:001:1417"},"geometry":{"type":"Polygon","coordinates":[[[37.934031,47.869086],[37.934323,47.868903],[37.934156,47.868782],[37.933865,47.868968],[37.934031,47.869086]]]}},{"type":"Feature","properties":{"cadnum":"1410167601:00:001:1094"},"geometry":{"type":"Polygon","coordinates":[[[37.932611,47.870174],[37.9329,47.869984],[37.932733,47.86987],[37.932445,47.87006],[37.932611,47.870174]]]}},{"type":"Feature","properties":{"cadnum":"1410167601:00:001:1003"},"geometry":{"type":"Polygon","coordinates":[[[37.935877,47.869076],[37.935877,47.86907590614887],[37.936016,47.868954],[37.935783,47.868833],[37.935473,47.869104],[37.935705,47.86922396581196],[37.935705,47.869225],[37.935707,47.869225],[37.935877,47.869076]]]}},{"type":"Feature","properties":{"cadnum":"1410167601:00:001:1441"},"geometry":{"type":"Polygon","coordinates":[[[37.930563,47.870442],[37.930873,47.87027],[37.930703,47.870132],[37.930393,47.870303],[37.930563,47.870442]]]}},{"type":"Feature","properties":{"cadnum":"1410167601:00:001:1061"},"geometry":{"type":"Polygon","coordinates":[[[37.93333,47.869095],[37.9336,47.868894],[37.933433,47.868791],[37.933164,47.868993],[37.93333,47.869095]]]}},{"type":"Feature","properties":{"cadnum":"1410167601:00:001:1410"},"geometry":{"type":"Polygon","coordinates":[[[37.932118,47.869834],[37.932405,47.869644],[37.932234,47.869529],[37.931951,47.869719],[37.932118,47.869834]]]}},{"type":"Feature","properties":{"cadnum":"1410167601:00:001:1411"},"geometry":{"type":"Polygon","coordinates":[[[37.934129,47.868369],[37.933891,47.868517],[37.93389117218543,47.868517],[37.933833,47.868553],[37.933999,47.868671],[37.934292,47.868486],[37.934129,47.868369]]]}},{"type":"Feature","properties":{"cadnum":"1410167601:00:001:1101"},"geometry":{"type":"Polygon","coordinates":[[[37.933523,47.870373],[37.933816,47.870189],[37.93381,47.870185],[37.933649,47.870071],[37.933357,47.870255],[37.933523,47.870373]]]}},{"type":"Feature","properties":{"cadnum":"1410167601:00:001:1063"},"geometry":{"type":"Polygon","coordinates":[[[37.93381,47.870185],[37.934103,47.870002],[37.933942,47.869888],[37.933649,47.870071],[37.93381,47.870185]]]}},{"type":"Feature","properties":{"cadnum":"1410167601:00:001:1007"},"geometry":{"type":"Polygon","coordinates":[[[37.936129,47.86993],[37.935967,47.869839],[37.935705,47.870054],[37.935705,47.8700543931624],[37.935643,47.870105],[37.935705,47.87013804191617],[37.935705,47.870139],[37.93581,47.870194],[37.935877,47.87014],[37.935877,47.87013855172413],[37.936129,47.86993]]]}},{"type":"Feature","properties":{"cadnum":"1410167601:00:001:1113"},"geometry":{"type":"Polygon","coordinates":[[[37.932284,47.869948],[37.932571,47.869761],[37.932405,47.869644],[37.932118,47.869834],[37.932284,47.869948]]]}},{"type":"Feature","properties":{"cadnum":"1410167601:00:001:1104"},"geometry":{"type":"Polygon","coordinates":[[[37.949773,47.863409],[37.950008,47.863331],[37.949657,47.862755],[37.949437,47.862821],[37.949773,47.863409]]]}},{"type":"Feature","properties":{"cadnum":"1410167601:00:001:1125"},"geometry":{"type":"Polygon","coordinates":[[[37.94853,47.860818],[37.948287,47.860893],[37.948426,47.861146],[37.9484262674772,47.861146],[37.948544,47.86136],[37.948777,47.861749],[37.948786,47.861764],[37.949024,47.861689],[37.94902,47.861676],[37.948794,47.861282],[37.94871651792828,47.861146],[37.948717,47.861146],[37.94853,47.860818]]]}},{"type":"Feature","properties":{"cadnum":"1410167601:00:001:1399"},"geometry":{"type":"Polygon","coordinates":[[[37.947676,47.862129],[37.947874,47.862068],[37.947739,47.861854],[37.947752,47.861852],[37.947393,47.861327],[37.947209,47.861378],[37.947676,47.862129]]]}},{"type":"Feature","properties":{"cadnum":"1410167601:00:001:1382"},"geometry":{"type":"Polygon","coordinates":[[[37.948943,47.860501],[37.948674,47.860565],[37.948764,47.860721],[37.9489376,47.861031],[37.948937,47.861031],[37.949266,47.861616],[37.94949,47.861562],[37.9492745574388,47.861146],[37.949276,47.861146],[37.948943,47.860501]]]}},{"type":"Feature","properties":{"cadnum":"1410167601:00:001:1016"},"geometry":{"type":"Polygon","coordinates":[[[37.951125,47.862102],[37.951278,47.862068],[37.951027,47.861562],[37.950825,47.861607],[37.95096,47.861879],[37.95105,47.861861],[37.951121,47.86199],[37.951085,47.86202],[37.951125,47.862102]]]}},{"type":"Feature","properties":{"cadnum":"1410167601:00:001:1349"},"geometry":{"type":"Polygon","coordinates":[[[37.951926,47.861899],[37.952159,47.861845],[37.951903,47.861312],[37.951876,47.861251],[37.951647,47.861296],[37.951697,47.861399],[37.951926,47.861899]]]}},{"type":"Feature","properties":{"cadnum":"1410167601:00:001:1351"},"geometry":{"type":"Polygon","coordinates":[[[37.94971,47.864579],[37.949945,47.864515],[37.949649,47.864042],[37.949442,47.864096],[37.94971,47.864579]]]}},{"type":"Feature","properties":{"cadnum":"1410167601:00:001:1352"},"geometry":{"type":"Polygon","coordinates":[[[37.948135,47.864449],[37.947928,47.864506],[37.948086,47.864832],[37.94808666885246,47.864832],[37.948179,47.865021],[37.948448,47.864949],[37.948301,47.864716],[37.948300916449085,47.864716],[37.948135,47.864449]]]}},{"type":"Feature","properties":{"cadnum":"1410167601:00:001:1394"},"geometry":{"type":"Polygon","coordinates":[[[37.947573,47.864608],[37.947286,47.864687],[37.947303399999996,47.864716],[37.947303,47.864716],[37.94736700000002,47.86482200000003],[37.947373,47.864832],[37.94737303773585,47.864832],[37.947591,47.865193],[37.947874,47.865118],[37.94764918153841,47.8647382646153],[37.947573,47.864608]]]}},{"type":"Feature","properties":{"cadnum":"1410167601:00:001:1345"},"geometry":{"type":"Polygon","coordinates":[[[37.949069,47.864069],[37.949338,47.863997],[37.949055,47.863512],[37.948821,47.863572],[37.948282,47.863708],[37.948368,47.863871],[37.948871,47.863737],[37.949069,47.864069]]]}},{"type":"Feature","properties":{"cadnum":"1410167601:00:001:1353"},"geometry":{"type":"Polygon","coordinates":[[[37.948601,47.864193],[37.949069,47.864069],[37.948871,47.863737],[37.948368,47.863871],[37.948517,47.86415],[37.948601,47.864193]]]}},{"type":"Feature","properties":{"cadnum":"1410167601:00:001:1071"},"geometry":{"type":"Polygon","coordinates":[[[37.950452,47.860218],[37.950196,47.860272],[37.9506267368421,47.861031],[37.950626,47.861031],[37.95066872491897,47.8611049870548],[37.950692,47.861146],[37.9506924084507,47.861146],[37.950708,47.861173],[37.950955,47.861113],[37.950452,47.860218]]]}},{"type":"Feature","properties":{"cadnum":"1410167601:00:001:0010"},"geometry":{"type":"Polygon","coordinates":[[[37.936806,47.869707],[37.937054,47.869495],[37.936875,47.869403],[37.936627,47.869613],[37.936806,47.869707]]]}},{"type":"Feature","properties":{"cadnum":"1410167601:00:001:1004"},"geometry":{"type":"Polygon","coordinates":[[[37.93793,47.87024],[37.938158,47.870017],[37.93797,47.86993],[37.937741,47.870153],[37.93793,47.87024]]]}},{"type":"Feature","properties":{"cadnum":"1410167601:00:000:0000"},"geometry":{"type":"Polygon","coordinates":[[[37.937359,47.869279],[37.937628,47.86908],[37.937454,47.868968],[37.937179,47.869167],[37.937359,47.869279]]]}},{"type":"Feature","properties":{"cadnum":"1410167601:00:001:1107"},"geometry":{"type":"Polygon","coordinates":[[[37.937171,47.868806],[37.937418,47.868592],[37.937206,47.868481],[37.936959,47.868695],[37.937171,47.868806]]]}},{"type":"Feature","properties":{"cadnum":"1410167601:00:001:0059"},"geometry":{"type":"Polygon","coordinates":[[[37.936909,47.869366],[37.937179,47.869167],[37.937013,47.869065],[37.936846,47.868963],[37.936573,47.869162],[37.936909,47.869366]]]}},{"type":"Feature","properties":{"cadnum":"1410167601:00:001:1034"},"geometry":{"type":"Polygon","coordinates":[[[37.936609,47.870125],[37.936833,47.869903],[37.936645,47.869815],[37.93642,47.870038],[37.936609,47.870125]]]}},{"type":"Feature","properties":{"cadnum":"1410167601:00:001:1387"},"geometry":{"type":"Polygon","coordinates":[[[37.937642,47.869441],[37.937903,47.869236],[37.937724,47.869131],[37.937462,47.869336],[37.937642,47.869441]]]}},{"type":"Feature","properties":{"cadnum":"1410167601:00:001:1120"},"geometry":{"type":"Polygon","coordinates":[[[37.938248,47.870011],[37.938483,47.869791],[37.938298,47.869701],[37.938261,47.869685],[37.938091,47.869602],[37.938068,47.869593],[37.937835,47.869812],[37.938033,47.869906],[37.938248,47.870011]]]}},{"type":"Feature","properties":{"cadnum":"1410167601:00:001:1022"},"geometry":{"type":"Polygon","coordinates":[[[37.938823,47.869406],[37.939049,47.869227],[37.9388,47.869089],[37.938576,47.869267],[37.938823,47.869406]]]}},{"type":"Feature","properties":{"cadnum":"1410167601:00:001:1434"},"geometry":{"type":"Polygon","coordinates":[[[37.936433,47.868968],[37.936586,47.868809],[37.93615,47.868574],[37.936087,47.868769],[37.936433,47.868968]]]}},{"type":"Feature","properties":{"cadnum":"1410167601:00:001:1080"},"geometry":{"type":"Polygon","coordinates":[[[37.936627,47.869613],[37.936875,47.869403],[37.936703,47.869312],[37.936456,47.869526],[37.936627,47.869613]]]}},{"type":"Feature","properties":{"cadnum":"1410167601:00:001:1425"},"geometry":{"type":"Polygon","coordinates":[[[37.937768,47.869872],[37.938001,47.869653],[37.93784,47.869575],[37.937817,47.869565],[37.937584,47.869785],[37.937768,47.869872]]]}},{"type":"Feature","properties":{"cadnum":"1410167601:00:001:1105"},"geometry":{"type":"Polygon","coordinates":[[[37.936627,47.870656],[37.93695,47.870394],[37.936789,47.870301],[37.93646,47.870562],[37.936627,47.870656]]]}},{"type":"Feature","properties":{"cadnum":"1410167601:00:001:1401"},"geometry":{"type":"Polygon","coordinates":[[[37.937359,47.869279],[37.937628,47.86908],[37.937454,47.868968],[37.937179,47.869167],[37.937359,47.869279]]]}},{"type":"Feature","properties":{"cadnum":"1410167601:00:001:1025"},"geometry":{"type":"Polygon","coordinates":[[[37.937171,47.869897],[37.937418,47.869683],[37.937238,47.869589],[37.936991,47.8698],[37.937171,47.869897]]]}},{"type":"Feature","properties":{"cadnum":"1410167601:00:001:1128"},"geometry":{"type":"Polygon","coordinates":[[[37.949028,47.86535],[37.949253,47.865278],[37.948943,47.864811],[37.948817,47.864843],[37.94871,47.864874],[37.949028,47.86535]]]}},{"type":"Feature","properties":{"cadnum":"1410167601:00:001:1365"},"geometry":{"type":"Polygon","coordinates":[[[37.947406,47.865832],[37.947676,47.86576],[37.947398,47.865265],[37.947129,47.865343],[37.947406,47.865832]]]}},{"type":"Feature","properties":{"cadnum":"1410167601:00:001:1432"},"geometry":{"type":"Polygon","coordinates":[[[37.941796,47.861595],[37.942026,47.861484],[37.942008,47.861466],[37.942106,47.861423],[37.941923,47.861285],[37.94155,47.861445],[37.941796,47.861595]]]}},{"type":"Feature","properties":{"cadnum":"1410167601:00:001:1129"},"geometry":{"type":"Polygon","coordinates":[[[37.941446,47.862723],[37.941886,47.862538],[37.941743,47.862397],[37.941284,47.862596],[37.941446,47.862723]]]}},{"type":"Feature","properties":{"cadnum":"1410167601:00:001:1433"},"geometry":{"type":"Polygon","coordinates":[[[37.942385,47.861086],[37.942244,47.861146],[37.9422457035176,47.861146],[37.941923,47.861285],[37.942106,47.861423],[37.942169,47.861378],[37.942475,47.861158],[37.94246,47.861146],[37.942385,47.861086]]]}},{"type":"Feature","properties":{"cadnum":"1410167601:00:001:1033"},"geometry":{"type":"Polygon","coordinates":[[[37.944514,47.864021],[37.944901,47.863918],[37.944699,47.863523],[37.944676,47.863482],[37.944307,47.863566],[37.944514,47.864021]]]}},{"type":"Feature","properties":{"cadnum":"1410167601:00:001:0021"},"geometry":{"type":"Polygon","coordinates":[[[37.944901,47.863918],[37.945354,47.863795],[37.945259,47.863629],[37.945269,47.863626],[37.945259,47.863611],[37.945278,47.863608],[37.945143,47.863385],[37.944699,47.863523],[37.944901,47.863918]]]}},{"type":"Feature","properties":{"cadnum":"1410167601:00:001:1021"},"geometry":{"type":"Polygon","coordinates":[[[37.941886,47.862538],[37.942578,47.862165],[37.942484,47.862095],[37.942169,47.862231],[37.94212,47.862189],[37.942098,47.862201],[37.942125,47.862231],[37.941743,47.862397],[37.941886,47.862538]]]}},{"type":"Feature","properties":{"cadnum":"1410167601:00:001:1363"},"geometry":{"type":"Polygon","coordinates":[[[37.944699,47.863523],[37.945143,47.863385],[37.945202,47.863367],[37.945031,47.863072],[37.944523,47.863234],[37.944676,47.863482],[37.944699,47.863523]]]}},{"type":"Feature","properties":{"cadnum":"1410167601:00:001:1429"},"geometry":{"type":"Polygon","coordinates":[[[37.932697,47.865627],[37.932728,47.865621],[37.932913,47.865573],[37.932791,47.865365],[37.93258,47.865419],[37.932697,47.865627]]]}},{"type":"Feature","properties":{"cadnum":"1410167601:00:001:1430"},"geometry":{"type":"Polygon","coordinates":[[[37.932913,47.865573],[37.933087,47.865531],[37.933124,47.865519],[37.933003,47.86531],[37.932791,47.865365],[37.932913,47.865573]]]}},{"type":"Feature","properties":{"cadnum":"1410167601:00:001:0019"},"geometry":{"type":"Polygon","coordinates":[[[37.934669,47.865528],[37.934888,47.865461],[37.934718,47.865169],[37.934494,47.865223],[37.934669,47.865528]]]}},{"type":"Feature","properties":{"cadnum":"1410167601:00:001:1106"},"geometry":{"type":"Polygon","coordinates":[[[37.933541,47.865841],[37.933726,47.865787],[37.933896,47.865736],[37.933703,47.86538],[37.93355,47.865419],[37.933527,47.865425],[37.933339,47.86547],[37.933541,47.865841]]]}},{"type":"Feature","properties":{"cadnum":"1410167601:00:001:1077"},"geometry":{"type":"Polygon","coordinates":[[[37.93355,47.865419],[37.933703,47.86538],[37.933802,47.865356],[37.93369,47.865145],[37.933437,47.865209],[37.93355,47.865419]]]}},{"type":"Feature","properties":{"cadnum":"1410167601:00:001:1416"},"geometry":{"type":"Polygon","coordinates":[[[37.935338,47.866495],[37.935437,47.866468],[37.935584,47.866426],[37.93545,47.866214],[37.935204,47.866284],[37.935338,47.866495]]]}},{"type":"Feature","properties":{"cadnum":"1410167601:00:001:1412"},"geometry":{"type":"Polygon","coordinates":[[[37.934282,47.865624],[37.934453,47.865573],[37.934273,47.865241],[37.934099,47.865283],[37.934282,47.865624]]]}},{"type":"Feature","properties":{"cadnum":"1410167601:01:001:0007"},"geometry":{"type":"Polygon","coordinates":[[[37.935194,47.867872],[37.93558,47.867751],[37.935428,47.867552],[37.935019,47.867697],[37.935194,47.867872]]]}},{"type":"Feature","properties":{"cadnum":"1410167601:00:001:1015"},"geometry":{"type":"Polygon","coordinates":[[[37.934462,47.865166],[37.934714,47.8651],[37.934592,47.864892],[37.934341,47.864955],[37.934462,47.865166]]]}},{"type":"Feature","properties":{"cadnum":"1410167601:00:001:1078"},"geometry":{"type":"Polygon","coordinates":[[[37.934435,47.866471],[37.934709,47.866386],[37.934565,47.866176],[37.934309,47.866254],[37.934292,47.866259],[37.934435,47.866471]]]}},{"type":"Feature","properties":{"cadnum":"1410167601:00:001:0055"},"geometry":{"type":"Polygon","coordinates":[[[37.931789,47.865329],[37.932045,47.865265],[37.931929,47.865055],[37.931672,47.865118],[37.931789,47.865329]]]}},{"type":"Feature","properties":{"cadnum":"1410167601:00:001:1038"},"geometry":{"type":"Polygon","coordinates":[[[37.935135,47.865413],[37.935307,47.865361],[37.935135,47.865057],[37.935108,47.865064],[37.934961,47.865102],[37.935135,47.865413]]]}},{"type":"Feature","properties":{"cadnum":"1410167601:00:001:1381"},"geometry":{"type":"Polygon","coordinates":[[[37.93267,47.865361],[37.932894,47.865305],[37.932894,47.865289],[37.932787,47.865084],[37.932548,47.865142],[37.93267,47.865361]]]}},{"type":"Feature","properties":{"cadnum":"1410167601:00:001:0007"},"geometry":{"type":"Polygon","coordinates":[[[37.935194,47.867872],[37.93558,47.867751],[37.935428,47.867552],[37.935019,47.867697],[37.935194,47.867872]]]}},{"type":"Feature","properties":{"cadnum":"1410167601:00:001:1439"},"geometry":{"type":"Polygon","coordinates":[[[37.934449,47.86729],[37.934638,47.867242],[37.934728,47.867218],[37.934588,47.86701],[37.934305,47.867083],[37.934449,47.86729]]]}},{"type":"Feature","properties":{"cadnum":"1410167601:00:001:1364"},"geometry":{"type":"Polygon","coordinates":[[[37.951261,47.861046],[37.951651,47.860926],[37.951297,47.860293],[37.950905,47.860414],[37.951261,47.861046]]]}},{"type":"Feature","properties":{"cadnum":"1410167601:00:001:1032"},"geometry":{"type":"Polygon","coordinates":[[[37.970476,47.854492],[37.970683,47.854402],[37.970453,47.854157],[37.970241,47.854248],[37.970476,47.854492]]]}},{"type":"Feature","properties":{"cadnum":"1410167601:00:001:1068"},"geometry":{"type":"Polygon","coordinates":[[[37.969227,47.854917],[37.969528,47.854775],[37.969537,47.854724],[37.969366,47.854507],[37.969231,47.854564],[37.969021,47.85448],[37.968845,47.854549],[37.969227,47.854917]]]}},{"type":"Feature","properties":{"cadnum":"1410167601:00:001:1431"},"geometry":{"type":"Polygon","coordinates":[[[37.919397,47.84455323063584],[37.920956,47.845075],[37.921118,47.84493],[37.921441,47.844644],[37.919814,47.844099],[37.919226,47.843902],[37.919226,47.84390261404994],[37.917034,47.843167],[37.91655,47.843598],[37.918333,47.844195],[37.918931,47.844397],[37.919397,47.844554],[37.919397,47.84455323063584]]]}},{"type":"Feature","properties":{"cadnum":"1410167601:00:001:0998"},"geometry":{"type":"Polygon","coordinates":[[[37.916958,47.844997],[37.916985,47.844985],[37.916891,47.844858],[37.91686,47.844867],[37.916958,47.844997]]]}},{"type":"Feature","properties":{"cadnum":"1410167601:00:001:1109"},"geometry":{"type":"Polygon","coordinates":[[[37.913069,47.842555],[37.9130380625,47.8426],[37.913036,47.8426],[37.91292,47.842772],[37.913051,47.843457],[37.912983,47.843614],[37.913733,47.843865628664496],[37.913733,47.843866],[37.915499,47.844458],[37.916388,47.843668],[37.913733,47.842778],[37.913733,47.84277843081312],[37.91354458898306,47.842715],[37.913546,47.842715],[37.913069,47.842555]]]}},{"type":"Feature","properties":{"cadnum":"1410167601:00:001:0006"},"geometry":{"type":"Polygon","coordinates":[[[37.926175,47.83345],[37.925273,47.833915],[37.927810419354834,47.835226],[37.92781,47.835226],[37.930212,47.83646619347319],[37.930212,47.836467],[37.930829,47.836785],[37.931795,47.836369],[37.930212,47.835547],[37.930212,47.83554774242424],[37.92981360583942,47.835341],[37.929815,47.835341],[37.926175,47.83345]]]}},{"type":"Feature","properties":{"cadnum":"1410167601:00:001:1393"},"geometry":{"type":"Polygon","coordinates":[[[37.917151,47.83803],[37.916159,47.838274],[37.915791,47.838488],[37.917062064814814,47.838913],[37.917061,47.838913],[37.919226,47.83963682919521],[37.919226,47.839638],[37.920453,47.840047],[37.920273,47.839884],[37.919615352214215,47.839028],[37.919616,47.839028],[37.919226,47.838519],[37.919226,47.838519239669424],[37.919034,47.838268],[37.917151,47.83803]]]}},{"type":"Feature","properties":{"cadnum":"1410167601:00:001:0999"},"geometry":{"type":"Polygon","coordinates":[[[37.921455,47.843451],[37.921481,47.843439],[37.921388,47.843312],[37.921355,47.843321],[37.921455,47.843451]]]}}]}