{"type":"FeatureCollection","features":[{"type":"Feature","properties":{"cadnum":"1410345600:00:001:0260"},"geometry":{"type":"Polygon","coordinates":[[[38.023781,48.664745],[38.023643,48.664303],[38.0234,48.664336],[38.023534,48.664781],[38.023767,48.664748],[38.023767,48.664747043243246],[38.023781,48.664745]]]}},{"type":"Feature","properties":{"cadnum":"1410345600:00:001:0970"},"geometry":{"type":"Polygon","coordinates":[[[38.022807,48.661711],[38.02292,48.662],[38.02292101107011,48.662],[38.02309,48.662428],[38.02322,48.662405],[38.023767,48.662308],[38.023767,48.66230723984526],[38.024113,48.662245],[38.02395,48.661886],[38.02394960655738,48.661886],[38.023836,48.661634],[38.023809,48.66161],[38.023767,48.661607],[38.022941,48.661696],[38.022807,48.661711]]]}},{"type":"Feature","properties":{"cadnum":"1410345600:00:002:0076"},"geometry":{"type":"Polygon","coordinates":[[[38.020773,48.663494],[38.021042,48.663452],[38.020863,48.663034],[38.020597,48.663057],[38.02062,48.663134],[38.020773,48.663494]]]}},{"type":"Feature","properties":{"cadnum":"1410345600:00:002:0082"},"geometry":{"type":"Polygon","coordinates":[[[38.021297,48.665223],[38.021536,48.66519],[38.021429,48.664947],[38.02119,48.664983],[38.021297,48.665223]]]}},{"type":"Feature","properties":{"cadnum":"1410345600:00:002:0008"},"geometry":{"type":"Polygon","coordinates":[[[38.019937,48.663642],[38.020247,48.663639],[38.020179,48.6632],[38.020157,48.663037],[38.019865,48.66301],[38.019888,48.6632],[38.019937,48.663642]]]}},{"type":"Feature","properties":{"cadnum":"1410345600:00:002:0037"},"geometry":{"type":"Polygon","coordinates":[[[38.021073,48.663636],[38.021289,48.663618],[38.021033,48.663037],[38.020817,48.663052],[38.021073,48.663636]]]}},{"type":"Feature","properties":{"cadnum":"1410345600:00:002:0077"},"geometry":{"type":"Polygon","coordinates":[[[38.018364,48.662948],[38.018737,48.662945],[38.018557,48.66245],[38.018207,48.662434],[38.018364,48.662948]]]}},{"type":"Feature","properties":{"cadnum":"1410345600:00:002:0075"},"geometry":{"type":"Polygon","coordinates":[[[38.018926,48.661524],[38.01867,48.66153],[38.01878134468085,48.661886],[38.018781,48.661886],[38.01878744607333,48.66190550785352],[38.018817,48.662],[38.01881866956522,48.662],[38.018819,48.662001],[38.0188275,48.662],[38.01883,48.662],[38.018836,48.661999],[38.018836,48.662],[38.01883631300813,48.662],[38.018913,48.662245],[38.019159,48.662218],[38.01908545783132,48.662],[38.019086,48.662],[38.018926,48.661524]]]}},{"type":"Feature","properties":{"cadnum":"1410345600:00:001:0856"},"geometry":{"type":"Polygon","coordinates":[[[38.02083,48.66546],[38.020745,48.665318],[38.02000896624471,48.665514],[38.020007,48.665514],[38.019855,48.665555],[38.019898,48.665628],[38.0198989020979,48.665628],[38.019941,48.665698],[38.02020235869566,48.665628],[38.020203,48.665628],[38.02083,48.66546]]]}},{"type":"Feature","properties":{"cadnum":"1410345600:00:002:0001"},"geometry":{"type":"Polygon","coordinates":[[[38.018103,48.66453765517241],[38.018103,48.664538],[38.01825154838677,48.6645205806452],[38.018274,48.664518],[38.018274,48.664517947882736],[38.01841,48.664502],[38.018274,48.663954],[38.017943,48.66398],[38.0181,48.664538],[38.018103,48.66453765517241]]]}},{"type":"Feature","properties":{"cadnum":"1410345600:00:002:0073"},"geometry":{"type":"Polygon","coordinates":[[[38.018062,48.662],[38.018063233766235,48.662],[38.018077,48.66204],[38.018103,48.662038416243654],[38.018103,48.662039],[38.018182469339905,48.66203357547168],[38.018274,48.662028],[38.018274,48.66202732764505],[38.018396,48.662019],[38.01836694835688,48.66194469483586],[38.018329,48.661845],[38.018213,48.661544],[38.017907,48.661548],[38.018062,48.662]]]}},{"type":"Feature","properties":{"cadnum":"1410345600:00:002:0083"},"geometry":{"type":"Polygon","coordinates":[[[38.021536,48.66519],[38.021662,48.665167],[38.02154,48.6649],[38.021423,48.664932],[38.021429,48.664947],[38.021536,48.66519]]]}},{"type":"Feature","properties":{"cadnum":"1410345600:00:002:0043"},"geometry":{"type":"Polygon","coordinates":[[[38.020538,48.663716],[38.020417,48.66307],[38.020157,48.663037],[38.020179,48.6632],[38.020247,48.663639],[38.020255,48.663713],[38.020538,48.663716]]]}},{"type":"Feature","properties":{"cadnum":"1410345600:00:002:0067"},"geometry":{"type":"Polygon","coordinates":[[[38.019096,48.664402],[38.019316,48.664372],[38.019255,48.6642],[38.019129,48.663841],[38.018899,48.663805],[38.019039,48.664226],[38.019096,48.664402]]]}},{"type":"Feature","properties":{"cadnum":"1410345600:00:002:0086"},"geometry":{"type":"Polygon","coordinates":[[[38.019847,48.665559],[38.019817,48.665514],[38.01981623728813,48.665514],[38.019605,48.665205],[38.019429,48.66522],[38.01960785639687,48.665514],[38.019607,48.665514],[38.019662,48.665603],[38.019677,48.665628],[38.01967801466992,48.665628],[38.019924,48.666012],[38.020058,48.665974],[38.019896,48.665715],[38.019941,48.665704],[38.019891731034484,48.665628],[38.019892,48.665628],[38.019847,48.665559]]]}},{"type":"Feature","properties":{"cadnum":"1410345600:00:001:0026"},"geometry":{"type":"Polygon","coordinates":[[[38.025192,48.661812],[38.02543,48.661779],[38.025341,48.661533],[38.025102,48.661568],[38.025192,48.661812]]]}},{"type":"Feature","properties":{"cadnum":"1410345600:00:001:0376"},"geometry":{"type":"Polygon","coordinates":[[[38.026194,48.661156],[38.026562,48.661102],[38.026507,48.660942],[38.026153,48.660987],[38.026194,48.661156]]]}},{"type":"Feature","properties":{"cadnum":"1410345600:00:001:0040"},"geometry":{"type":"Polygon","coordinates":[[[38.028785,48.661307],[38.0291,48.66126],[38.029054,48.661011],[38.028704,48.661064],[38.028785,48.661307]]]}},{"type":"Feature","properties":{"cadnum":"1410345600:00:002:0030"},"geometry":{"type":"Polygon","coordinates":[[[38.020081,48.650361],[38.020041,48.648751],[38.018819,48.648751],[38.018854,48.650097],[38.019416,48.650353],[38.018805558475684,48.651],[38.018804,48.651],[38.018274,48.651564022824545],[38.018274,48.651564],[38.01788,48.651982],[38.016568,48.652569],[38.016626,48.652831],[38.01576,48.653196],[38.01584,48.654086],[38.015526,48.65424],[38.01590727791563,48.654629],[38.015906,48.654629],[38.015921,48.654643],[38.014125,48.655569],[38.014205,48.655682],[38.014165,48.655727],[38.014313,48.656228],[38.014515,48.656406],[38.014614,48.656762],[38.014492,48.656839],[38.014492,48.657088],[38.015154,48.657053],[38.016999,48.657154],[38.0181,48.657839],[38.018103,48.657838500000004],[38.018103,48.657839],[38.01825600000123,48.65781299999979],[38.018274,48.65781],[38.018274,48.657809941176474],[38.018868,48.657709],[38.019263,48.656821],[38.022255,48.65602],[38.021459,48.654629],[38.02145887648456,48.654629],[38.020081,48.652217],[38.020081,48.651114],[38.020081,48.651],[38.020081,48.650361]]]}},{"type":"Feature","properties":{"cadnum":"1410345600:00:002:0056"},"geometry":{"type":"Polygon","coordinates":[[[38.011062,48.656207],[38.011079,48.656192],[38.011062,48.65618],[38.011039,48.656195],[38.011062,48.656207]]]}},{"type":"Feature","properties":{"cadnum":"1410345600:00:002:0062"},"geometry":{"type":"Polygon","coordinates":[[[38.01019,48.658299],[38.010201,48.658371],[38.0102013884007,48.658371],[38.01028,48.658868],[38.010491,48.658898],[38.010666,48.659191],[38.011488,48.659061],[38.011412,48.6587],[38.011385,48.658702],[38.011339,48.658454],[38.010765,48.658501],[38.010716,48.658296],[38.01019,48.658299]]]}},{"type":"Feature","properties":{"cadnum":"1410345600:00:002:0029"},"geometry":{"type":"Polygon","coordinates":[[[38.014515,48.658234],[38.014462,48.657988],[38.015251,48.657904],[38.015148,48.65759],[38.014614,48.657628],[38.014492,48.657088],[38.014492,48.656839],[38.014614,48.656762],[38.014515,48.656406],[38.014313,48.656228],[38.014165,48.655727],[38.014205,48.655682],[38.014125,48.655569],[38.013833,48.655563],[38.013609,48.655572],[38.012609,48.655818],[38.012609,48.6558182358643],[38.012162,48.655928],[38.011704,48.655928],[38.011596,48.655991],[38.011318,48.656498],[38.011183,48.656614],[38.011196,48.656928],[38.011339,48.656981],[38.011429,48.657296],[38.01094,48.657352],[38.011138,48.658257],[38.010716,48.658299],[38.010733,48.658371],[38.01073346534653,48.658371],[38.010765,48.658501],[38.011339,48.658454],[38.011385,48.658702],[38.011412,48.6587],[38.011488,48.659061],[38.011825,48.658984],[38.011856,48.659023],[38.012094,48.65902],[38.012561,48.660892],[38.012609,48.66088785454545],[38.012609,48.660889],[38.01297,48.660856],[38.012884,48.660227],[38.012647,48.659242],[38.012781,48.659222],[38.012781,48.65922192712551],[38.013141,48.659168],[38.013177,48.659257],[38.013181,48.659254],[38.013383,48.659239],[38.01337,48.65916],[38.01337,48.659147],[38.014569,48.65907],[38.01445819512197,48.65830751219523],[38.014448,48.658234],[38.014515,48.658234]]]}},{"type":"Feature","properties":{"cadnum":"1410345600:00:002:0055"},"geometry":{"type":"Polygon","coordinates":[[[38.010563,48.656552],[38.010586,48.656536],[38.010567,48.656525],[38.010546,48.656536],[38.010563,48.656552]]]}},{"type":"Feature","properties":{"cadnum":"1410345600:00:002:0058"},"geometry":{"type":"Polygon","coordinates":[[[38.012184,48.655771],[38.012211,48.655768],[38.012207,48.65575],[38.01218,48.655753],[38.012184,48.655771]]]}},{"type":"Feature","properties":{"cadnum":"1410345600:00:002:0057"},"geometry":{"type":"Polygon","coordinates":[[[38.011582,48.655923],[38.011605,48.65591],[38.011559,48.655866],[38.011641,48.655833],[38.011622,48.655818],[38.011525,48.655863],[38.011582,48.655923]]]}},{"type":"Feature","properties":{"cadnum":"1410345600:00:001:0580"},"geometry":{"type":"Polygon","coordinates":[[[38.021612,48.659851],[38.02185,48.659815],[38.021796,48.659571],[38.021553,48.659613],[38.021612,48.659851]]]}},{"type":"Feature","properties":{"cadnum":"1410345600:00:001:0675"},"geometry":{"type":"Polygon","coordinates":[[[38.019838,48.658322],[38.019849,48.658371],[38.01985002564103,48.658371],[38.019905,48.658595],[38.020358,48.658548],[38.020297,48.658281],[38.019838,48.658322]]]}},{"type":"Feature","properties":{"cadnum":"1410345600:00:001:0543"},"geometry":{"type":"Polygon","coordinates":[[[38.020071,48.660405],[38.020184,48.660391],[38.020417,48.660361],[38.020364,48.660103],[38.020018,48.660145],[38.020071,48.660405]]]}},{"type":"Feature","properties":{"cadnum":"1410345600:00:001:0680"},"geometry":{"type":"Polygon","coordinates":[[[38.020377,48.659186],[38.020826,48.659091],[38.020696,48.658936],[38.020287,48.659017],[38.020377,48.659186]]]}},{"type":"Feature","properties":{"cadnum":"1410345600:00:001:0541"},"geometry":{"type":"Polygon","coordinates":[[[38.019725,48.660447],[38.019955,48.660417],[38.020071,48.660405],[38.020018,48.660145],[38.019672,48.660189],[38.019725,48.660447]]]}},{"type":"Feature","properties":{"cadnum":"1410345600:00:001:0746"},"geometry":{"type":"Polygon","coordinates":[[[38.021235,48.656943],[38.021675,48.656836],[38.02154,48.65659],[38.021293,48.656649],[38.0211,48.656697],[38.021235,48.656943]]]}},{"type":"Feature","properties":{"cadnum":"1410345600:00:001:0737"},"geometry":{"type":"Polygon","coordinates":[[[38.021828,48.657118],[38.022056,48.657062],[38.021922,48.656827],[38.021693,48.656884],[38.021828,48.657118]]]}},{"type":"Feature","properties":{"cadnum":"1410345600:00:002:0031"},"geometry":{"type":"Polygon","coordinates":[[[38.015131,48.661913],[38.015243,48.661907],[38.015647,48.66188],[38.015513,48.661289],[38.014511,48.661379],[38.01453149384886,48.661886],[38.014531,48.661886],[38.014534,48.661948],[38.015131,48.661913]]]}},{"type":"Feature","properties":{"cadnum":"1410345600:00:002:0010"},"geometry":{"type":"Polygon","coordinates":[[[38.017116,48.661749],[38.017031,48.661557],[38.016685,48.661559],[38.016752,48.661758],[38.01679537190083,48.661886],[38.016795,48.661886],[38.01682676470611,48.66197864705949],[38.016834,48.662],[38.01683408571429,48.662],[38.016855,48.662061],[38.017246,48.662052],[38.017218803921665,48.66199015686296],[38.017116,48.661749]]]}},{"type":"Feature","properties":{"cadnum":"1410345600:00:002:0081"},"geometry":{"type":"Polygon","coordinates":[[[38.016456,48.665306],[38.016739,48.665256],[38.016582,48.66484],[38.01633,48.664873],[38.016402,48.665072],[38.016362,48.665078],[38.016456,48.665306]]]}},{"type":"Feature","properties":{"cadnum":"1410345600:00:002:0078"},"geometry":{"type":"Polygon","coordinates":[[[38.015567,48.664695],[38.015756,48.66468],[38.015756,48.664689],[38.01585,48.66468],[38.01584,48.664639],[38.015863,48.664636],[38.015859,48.664627],[38.01585,48.664559],[38.015603,48.664576],[38.015589,48.66458],[38.015593,48.664612],[38.015553,48.664615],[38.015567,48.664695]]]}},{"type":"Feature","properties":{"cadnum":"1410345600:00:002:0017"},"geometry":{"type":"Polygon","coordinates":[[[38.015018,48.665381],[38.015261,48.6653],[38.01554,48.665205],[38.015341,48.664983],[38.015091,48.66506],[38.014879,48.665122],[38.015018,48.665381]]]}},{"type":"Feature","properties":{"cadnum":"1410345600:00:002:0066"},"geometry":{"type":"Polygon","coordinates":[[[38.016752,48.662977],[38.017171,48.66296],[38.017138,48.662817],[38.017071,48.662524],[38.016649,48.66255],[38.016716,48.662832],[38.016752,48.662977]]]}},{"type":"Feature","properties":{"cadnum":"1410345600:00:002:0080"},"geometry":{"type":"Polygon","coordinates":[[[38.017462,48.665458],[38.017211,48.66549],[38.01722734782609,48.665514],[38.017227,48.665514],[38.01730499999986,48.665627999999785],[38.017305,48.665628],[38.017318,48.665647],[38.017597,48.665997],[38.017767,48.665965],[38.017678,48.665814],[38.01757,48.665636],[38.017559402173895,48.66561876086954],[38.017462,48.665458]]]}},{"type":"Feature","properties":{"cadnum":"1410345600:00:002:0018"},"geometry":{"type":"Polygon","coordinates":[[[38.014785,48.665152],[38.014879,48.665122],[38.015091,48.66506],[38.015341,48.664983],[38.015184,48.664811],[38.014664,48.664959],[38.014785,48.665152]]]}},{"type":"Feature","properties":{"cadnum":"1410345600:00:002:0084"},"geometry":{"type":"Polygon","coordinates":[[[38.016446,48.66705],[38.017075,48.666813],[38.016878,48.666594],[38.016263,48.666825],[38.016446,48.66705]]]}},{"type":"Feature","properties":{"cadnum":"1410345600:00:002:0048"},"geometry":{"type":"Polygon","coordinates":[[[38.017148,48.666751],[38.017404,48.666709],[38.017475,48.666698],[38.01748,48.666709],[38.017938,48.666636],[38.017812,48.66643],[38.017264,48.666511],[38.016968,48.666552],[38.017148,48.666751]]]}},{"type":"Feature","properties":{"cadnum":"1410345600:00:002:0004"},"geometry":{"type":"Polygon","coordinates":[[[38.016605,48.667474],[38.017372,48.667202],[38.017224,48.667018],[38.016456,48.667287],[38.016605,48.667474]]]}},{"type":"Feature","properties":{"cadnum":"1410345600:00:002:0085"},"geometry":{"type":"Polygon","coordinates":[[[38.016339,48.667202],[38.017152,48.666902],[38.017075,48.666813],[38.016263,48.667118],[38.016339,48.667202]]]}},{"type":"Feature","properties":{"cadnum":"1410345600:00:001:1000"},"geometry":{"type":"Polygon","coordinates":[[[38.016129,48.666383],[38.016509,48.666229],[38.016303,48.665994],[38.015917,48.666152],[38.016129,48.666383]]]}},{"type":"Feature","properties":{"cadnum":"1410345600:00:002:0061"},"geometry":{"type":"Polygon","coordinates":[[[38.013959,48.65554],[38.014008,48.655474],[38.013926,48.65545],[38.013918,48.655468],[38.013972,48.65548],[38.013932,48.655531],[38.013959,48.65554]]]}},{"type":"Feature","properties":{"cadnum":"1410345600:00:002:0059"},"geometry":{"type":"Polygon","coordinates":[[[38.0128,48.655676],[38.012827,48.655673],[38.012823,48.655652],[38.012795,48.655659],[38.0128,48.655676]]]}},{"type":"Feature","properties":{"cadnum":"1410345600:00:002:0060"},"geometry":{"type":"Polygon","coordinates":[[[38.013429,48.655581],[38.01345,48.655572],[38.013442,48.655558],[38.013415,48.655563],[38.013429,48.655581]]]}},{"type":"Feature","properties":{"cadnum":"1410345600:00:002:0079"},"geometry":{"type":"Polygon","coordinates":[[[38.010963,48.659156],[38.011519,48.659067],[38.011488,48.65891],[38.011475,48.658854],[38.011448,48.658705],[38.011421,48.658709],[38.011372,48.658462],[38.010792,48.658513],[38.010617,48.658531],[38.010657,48.658818],[38.010869,48.658818],[38.010963,48.659156]]]}},{"type":"Feature","properties":{"cadnum":"1410345600:00:002:0051"},"geometry":{"type":"Polygon","coordinates":[[[38.013963,48.659571],[38.013995,48.659569],[38.014089,48.659563],[38.014322,48.659545],[38.014368,48.659539],[38.014561,48.659525],[38.014488,48.659319],[38.014062,48.659355],[38.013926,48.659367],[38.013963,48.659571]]]}}]}