{"type":"FeatureCollection","features":[{"type":"Feature","properties":{"cadnum":"1410636300:02:015:0036"},"geometry":{"type":"Polygon","coordinates":[[[37.966977,48.319627],[37.966977,48.319615],[37.966779,48.319632],[37.966788339622646,48.319677],[37.966788,48.319677],[37.96679879999992,48.31972739999964],[37.966812,48.319791],[37.96681242857143,48.319791],[37.966824,48.319845],[37.966765,48.319851],[37.966784,48.319922],[37.966842,48.319916],[37.966855,48.319958],[37.967035,48.319937],[37.967102,48.31997],[37.967358,48.319946],[37.967323,48.319779],[37.967197,48.319791],[37.96720059999999,48.319791],[37.96717,48.319794],[37.96717,48.319803],[37.967017,48.319818],[37.96700994482759,48.319785910344834],[37.966977,48.319627]]]}},{"type":"Feature","properties":{"cadnum":"1410636300:01:003:0057"},"geometry":{"type":"Polygon","coordinates":[[[38.070634,48.327185],[38.070724,48.327152],[38.070628,48.327039],[38.070544,48.327072],[38.070634,48.327185]]]}},{"type":"Feature","properties":{"cadnum":"1410636300:01:003:0116"},"geometry":{"type":"Polygon","coordinates":[[[38.052491,48.348948],[38.052434,48.348879],[38.05240304761903,48.348891],[38.052403,48.348891],[38.0523957647078,48.34889382352866],[38.052109,48.349005],[38.052110875000004,48.349005],[38.052034,48.349035],[38.052038,48.349041],[38.052074,48.349089],[38.052168,48.34905],[38.052187,48.349068],[38.052168,48.349074],[38.0522,48.349113],[38.052204,48.349122],[38.052451,48.349026],[38.052523,48.349127],[38.052564,48.349113],[38.052505,48.349035],[38.052523,48.348987],[38.052491,48.348948]]]}}]}