{"type":"FeatureCollection","features":[{"type":"Feature","properties":{"cadnum":"1410636900:01:000:0008"},"geometry":{"type":"Polygon","coordinates":[[[37.968275,48.219007],[37.968664,48.219796554455435],[37.968664,48.219798],[37.968679,48.219827],[37.96931418694885,48.220956],[37.969313,48.220956],[37.969317,48.220961],[37.969384,48.221018],[37.969725,48.221641],[37.97053,48.223334],[37.970511,48.223389],[37.970619,48.22378],[37.971085,48.22473],[37.97108537008734,48.22473],[37.971478,48.225531],[37.971954,48.226192],[37.972694,48.226722],[37.974157,48.22770449174312],[37.974157,48.227705],[37.975007,48.228275],[37.975006,48.228275],[37.977684,48.230073],[37.978103,48.230304],[37.97965,48.231142745782435],[37.97965,48.231143],[37.981323,48.232049],[37.98132337810945,48.232049],[37.982967,48.232939],[37.983887,48.23343],[37.984027,48.233804],[37.983726,48.234061],[37.982765,48.23348],[37.982451,48.233642],[37.981847,48.235707],[37.98184817277487,48.235707],[37.981826,48.235784],[37.981767,48.236762],[37.981925,48.237176],[37.982872,48.238423],[37.9840118947281,48.239266736835624],[37.985315,48.240232],[37.985315,48.240231481034485],[37.986304,48.240963],[37.986866,48.241385],[37.986632,48.241396],[37.986673,48.241642],[37.987153,48.2416],[37.989048,48.243025],[37.98904901322199,48.243025],[37.990637,48.24421848169456],[37.990637,48.244219],[37.992439,48.245573],[37.992552,48.245857],[37.992422,48.246161],[37.991932352490416,48.246568],[37.991931,48.246568],[37.990637,48.247645],[37.990637,48.24764511298208],[37.988967,48.249033],[37.988042,48.24979],[37.98749844052864,48.250226],[37.987497,48.250226],[37.987476,48.250244],[37.987402,48.250341],[37.987403026703504,48.250341],[37.986659,48.25133],[37.986596,48.251976],[37.9866,48.252628],[37.986843,48.253157],[37.987373,48.253836],[37.987424555555556,48.253884],[37.987424,48.253884],[37.989897,48.256187],[37.990808,48.257049],[37.990808,48.25704874538745],[37.99145,48.257656],[37.99145038888888,48.257656],[37.991671,48.257865],[37.993045,48.25915],[37.99469,48.260044],[37.996001,48.2606],[37.99613,48.260631714285715],[37.99613,48.260632],[37.99622875378959,48.26065599262601],[37.996302,48.260674],[37.996302,48.2606737880842],[37.998463775330386,48.261199],[37.998462,48.261199],[38.001623,48.26196625142514],[38.001623,48.261967],[38.00511,48.262814],[38.00519,48.262852],[38.006538,48.263815],[38.007116,48.264252046012274],[38.007116,48.264253],[38.00719,48.264308],[38.007288,48.26438],[38.007288,48.264379370737075],[38.008099,48.26497],[38.00810016869301,48.26497],[38.010657,48.266829],[38.011259,48.267289],[38.011525,48.267343],[38.011748,48.267444],[38.011919,48.267585],[38.011919,48.267651],[38.011905,48.267701],[38.012081,48.267741],[38.012609,48.26803598959881],[38.012609,48.268037],[38.012754,48.268117],[38.012781,48.268138],[38.012781,48.26813709774436],[38.01302,48.268315],[38.012917,48.26839],[38.01295904854369,48.268512],[38.012958,48.268512],[38.012988,48.268596],[38.013025,48.268626],[38.01302549999999,48.268626],[38.013343,48.26888],[38.01372,48.269194],[38.013626,48.269248],[38.013676,48.26931],[38.013237,48.272283],[38.01323803910615,48.272283],[38.013123,48.273063],[38.012609,48.273507],[38.012609,48.273507428265525],[38.012314,48.273762],[38.012198,48.273828],[38.012314,48.274004],[38.012251,48.274025],[38.012158,48.274127],[38.011879,48.274426],[38.011829,48.274468],[38.012184,48.274725],[38.011762,48.274996],[38.011798,48.275011],[38.011466,48.275197],[38.011268,48.275332],[38.011232,48.275388],[38.011062,48.275478],[38.010599348571425,48.275824],[38.010598,48.275824],[38.010594,48.275828],[38.009938,48.276288],[38.009854,48.27633],[38.009848,48.276336],[38.010073,48.276462],[38.009741,48.2767],[38.010181,48.277167],[38.009911,48.277298],[38.009418,48.276892],[38.009072,48.277113],[38.008869,48.276859],[38.007288,48.277876323445525],[38.007288,48.277876],[38.004616,48.279594],[38.004616797058816,48.279594],[38.001623,48.28152],[38.001623,48.28152155854596],[37.99911135399674,48.283136],[37.999111,48.283136],[37.99613,48.285054],[37.99613,48.28505422222222],[37.995915,48.285192],[37.995345,48.285614],[37.994142472501935,48.286791],[37.994142,48.286791],[37.990808,48.29005461027104],[37.990808,48.290054],[37.99040747826086,48.290446],[37.990407,48.290446],[37.986627690297055,48.294144836216674],[37.98655,48.29422],[37.985166037615016,48.29557344827834],[37.98293177846028,48.297755],[37.982931,48.297755],[37.97980304956615,48.30081049562344],[37.979072,48.301524],[37.97907225080385,48.301524],[37.976004,48.30452],[37.975329,48.305178],[37.97533019301033,48.305178],[37.974157,48.306323],[37.974157,48.30632384741671],[37.972258,48.308177],[37.97194306870229,48.308717],[37.971943,48.308717],[37.97193366037757,48.30873313207511],[37.971876,48.308832],[37.971876421052634,48.308832],[37.971778,48.309002],[37.972105,48.309841],[37.974157,48.31216057194244],[37.974157,48.312161],[37.97434301851851,48.312371],[37.974342,48.312371],[37.974949,48.313055],[37.977051,48.312775],[37.976719,48.312404],[37.974157,48.309501],[37.974157,48.309501041575494],[37.973872,48.309178],[37.973866,48.309151],[37.974157,48.30883761538462],[37.974157,48.308839],[37.9741634262295,48.308832],[37.974164,48.308832],[37.975004,48.307929],[37.976418,48.306405],[37.977741,48.305064],[37.977740375093774,48.305064],[37.978942,48.303845],[37.97965,48.30316757272727],[37.97965,48.303168],[37.981380002953415,48.30151059117596],[37.985144,48.29790629623984],[37.985144,48.297908],[37.98518324183006,48.29787],[37.985184,48.29787],[37.987265,48.295876],[37.988217,48.294962],[37.989115,48.294101],[37.98911404176905,48.294101],[37.98942,48.293808],[37.990637,48.2926225648415],[37.990637,48.292623],[37.992871,48.290446],[37.99287006770833,48.290446],[37.99613,48.287271492814874],[37.99613,48.287272],[37.99626184457456,48.287143103169996],[37.996302,48.287104],[37.996302,48.287103845528456],[37.99660205405559,48.2868104999985],[37.997303,48.286128],[38.000093,48.284343],[38.000089,48.284283],[38.001036,48.28374],[38.001703920000004,48.28331232],[38.00198,48.283136],[38.00197824273505,48.283136],[38.007288,48.27974],[38.007288,48.27973970537262],[38.007622835099426,48.27952499309049],[38.01037,48.277767],[38.010077,48.277517],[38.01046,48.277322],[38.010752,48.277522],[38.01209,48.276668],[38.011798,48.276518],[38.012395,48.276473],[38.012609,48.27633550777202],[38.012609,48.276336],[38.01322466015625,48.275939],[38.013226,48.275939],[38.013576,48.275714],[38.013909,48.275939],[38.013910625,48.275939],[38.014286,48.276192],[38.0146703125,48.275939],[38.014671,48.275939],[38.015005,48.27572],[38.015921,48.273881],[38.01625216754232,48.272283],[38.016253,48.272283],[38.016568,48.27077],[38.016568,48.269741],[38.016563,48.268832],[38.016457425,48.268626],[38.016458,48.268626],[38.015467,48.266677],[38.015171,48.266147],[38.013716,48.26502],[38.013487,48.264855],[38.013486354752345,48.264855],[38.012781,48.2643468997107],[38.012781,48.264346],[38.010441,48.262661],[38.008550680734174,48.261298255046036],[38.008232,48.261067],[38.00736,48.260567],[38.007116,48.26049],[38.007116,48.26049011729622],[38.006282,48.260224],[38.001623,48.259118],[38.001623,48.25911818249492],[37.997362,48.258107],[37.99676,48.257927],[37.996357,48.257604],[37.99629,48.257541],[37.996289859154935,48.257541],[37.99613,48.257391],[37.99613,48.25739140806827],[37.995013,48.256342],[37.993221,48.254671],[37.99251550444727,48.253998],[37.992516,48.253998],[37.990751,48.252314],[37.990637,48.251978],[37.990637,48.25197833333333],[37.990625,48.251943],[37.990637,48.25193230285714],[37.990637,48.251933],[37.9908,48.251787],[37.990808,48.251781],[37.990808,48.25178026131387],[37.99217,48.250633],[37.992511503685506,48.250341],[37.992512,48.250341],[37.99526,48.248001],[37.996302,48.246966],[37.996302,48.24696497175142],[37.996307,48.24696],[37.996424,48.246568],[37.99642332650862,48.246568],[37.996666,48.245755],[37.996387,48.244839],[37.99613,48.244505],[37.99613,48.24450543392505],[37.995795,48.24407],[37.994259,48.24291],[37.99425892922214,48.24291],[37.990808,48.24030031478537],[37.990808,48.2403],[37.98949868442679,48.23930998360699],[37.989394,48.23923],[37.985985,48.236655],[37.985797,48.236284],[37.985845,48.236117],[37.985778,48.236068],[37.98525426086956,48.235707],[37.985255,48.235707],[37.984305,48.235052],[37.984925,48.233068],[37.985315,48.233248],[37.985315,48.233247780100335],[37.98634,48.23372],[37.986529,48.233762],[37.986336,48.232524],[37.985971704057455,48.23196427446328],[37.985935,48.231907],[37.985195,48.231291],[37.981183,48.228568],[37.98091358361775,48.228389],[37.980914,48.228389],[37.979822,48.22766330379747],[37.979822,48.227662],[37.975488,48.224777],[37.975394,48.224645],[37.975379,48.224615],[37.975378987864076,48.224615],[37.974157,48.222173],[37.974157,48.222173220230474],[37.97359151612906,48.22104297653965],[37.973121,48.2201],[37.970251,48.217724],[37.970241,48.217526],[37.97006706161061,48.21740936492839],[37.969771,48.217209],[37.969375,48.217161],[37.968836,48.21685700703235],[37.968836,48.216857],[37.968436,48.216631],[37.96805612195122,48.217296],[37.968055,48.217296],[37.967951,48.217481],[37.968275,48.219007]],[[38.004324,48.281582],[38.004189,48.281582],[38.004189,48.281495],[38.004324,48.281495],[38.004324,48.281582]],[[38.003942,48.281345],[38.003808,48.281345],[38.003812,48.281259],[38.003942,48.281259],[38.003942,48.281345]],[[38.003772,48.281791],[38.003906,48.281791],[38.003906,48.281881],[38.003772,48.281877],[38.003772,48.281791]],[[38.003713,48.281728],[38.003583,48.281728],[38.003583,48.281642],[38.003713,48.281642],[38.003713,48.281728]],[[38.003615,48.282027],[38.003485,48.282027],[38.003485,48.281937],[38.003615,48.281941],[38.003615,48.282027]],[[38.003466,48.281002],[38.003332,48.281002],[38.003336,48.280915],[38.003466,48.280915],[38.003466,48.281002]],[[38.003232,48.281812],[38.003102,48.281812],[38.003102,48.281722],[38.003237,48.281725],[38.003232,48.281812]],[[38.003147,48.280745],[38.003017,48.280745],[38.003017,48.280658],[38.003152,48.280658],[38.003147,48.280745]],[[38.002886,48.281363],[38.002756,48.281363],[38.002756,48.281274],[38.002886,48.281274],[38.002886,48.281363]],[[38.002433,48.281465],[38.002567,48.281465],[38.002567,48.281555],[38.002433,48.281552],[38.002433,48.281465]],[[38.002536,48.281148],[38.002406,48.281148],[38.002406,48.281059],[38.00254,48.281062],[38.002536,48.281148]],[[38.00215,48.281552],[38.00202,48.281552],[38.00202,48.281462],[38.00215,48.281462],[38.00215,48.281552]],[[38.000313,48.283049],[38.000179,48.283049],[38.000183,48.28296],[38.000313,48.28296],[38.000313,48.283049]],[[38.000007,48.282783],[37.999877,48.282783],[37.999877,48.282694],[38.000007,48.282694],[38.000007,48.282783]],[[38.001225,48.283501],[38.001225,48.283411],[38.001359,48.283414],[38.001359,48.283501],[38.001225,48.283501]],[[38.000951,48.283644],[38.000955,48.283554],[38.001085,48.283557],[38.001085,48.283644],[38.000951,48.283644]],[[38.000645,48.283414],[38.00065,48.283324],[38.00078,48.283324],[38.00078,48.283414],[38.000645,48.283414]],[[37.998238,48.2853],[37.998242,48.285211],[37.998372,48.285213],[37.998372,48.2853],[37.998238,48.2853]],[[37.997695,48.285309],[37.997699,48.285222],[37.997829,48.285222],[37.997829,48.285309],[37.997695,48.285309]],[[37.997263,48.285022],[37.997267,48.284941],[37.997399,48.284941],[37.997399,48.285022],[37.997263,48.285022]],[[37.996644,48.285063],[37.996644,48.284974],[37.996778,48.284974],[37.996778,48.285063],[37.996644,48.285063]],[[37.996558,48.284881],[37.996563,48.284792],[37.996693,48.284795],[37.996693,48.284881],[37.996558,48.284881]]]}},{"type":"Feature","properties":{"cadnum":"1410636900:02:025:0001"},"geometry":{"type":"Polygon","coordinates":[[[37.977577,48.316024],[37.978937,48.31756],[37.979822,48.318469],[37.979822,48.318468261946904],[37.98078,48.31945],[37.980964395894425,48.319677],[37.980963,48.319677],[37.983034,48.322216],[37.984111,48.323444],[37.98411213237925,48.323444],[37.984503,48.323889],[37.985315,48.324212],[37.985315,48.32421067866005],[37.98595,48.324462],[37.986793,48.325128],[37.98839735060976,48.326982],[37.988397,48.326982],[37.990441,48.329341],[37.990476,48.329345],[37.990808,48.329731],[37.990808,48.32972939597315],[37.990935,48.329876],[37.990912,48.329885],[37.99156032329085,48.330634],[37.99156,48.330634],[37.994822,48.3344],[37.99482372487645,48.3344],[37.996302,48.336107],[37.996302,48.33610653357532],[37.997232,48.33718],[37.997317,48.337192],[37.997833,48.337729],[37.997743,48.337771],[37.99788904562738,48.337938],[37.997888,48.337938],[37.997973,48.338034],[37.998036,48.337995],[37.998084,48.338052],[37.99808538461538,48.338052],[37.998678,48.338736],[37.998606,48.338765],[38.000615,48.341082],[38.001144,48.341703],[38.00114543478261,48.341703],[38.001623,48.34226175769746],[38.001623,48.342262],[38.002896,48.343751],[38.004301,48.34454],[38.006049,48.344423],[38.007288,48.344052],[38.007288,48.344051415180935],[38.012609,48.342455584819064],[38.012609,48.342456],[38.013981,48.342044],[38.015496,48.341589],[38.01549528088702,48.341589],[38.018274,48.340756],[38.018274,48.34075548453608],[38.018976,48.340544],[38.019393,48.340586],[38.02017959623993,48.341589],[38.020179,48.341589],[38.021262,48.342969],[38.023596,48.34310107682776],[38.023596,48.343102],[38.023683,48.343106],[38.02256577916942,48.341703],[38.022566,48.341703],[38.021953,48.340933],[38.02145,48.3411],[38.021289,48.340885],[38.021783,48.340721],[38.021217,48.34001],[38.020588,48.339517],[38.019982,48.339311],[38.018944,48.339204],[38.018123,48.339351],[38.018103,48.339357],[38.018103,48.33935705005441],[38.012719079862705,48.34098570054208],[38.010721470108706,48.341589],[38.010721,48.341589],[38.0104936754067,48.34165779643032],[38.010344,48.341703],[38.010344308890915,48.341703],[38.007116,48.34268],[38.007116,48.3426800097229],[38.005231,48.34325],[38.004944,48.343268],[38.004688,48.343145],[38.003341,48.341589],[38.00334041714285,48.341589],[38.001623,48.339603],[38.001623,48.339603111662534],[38.000183,48.337938],[38.00018243813064,48.337938],[37.99712356186936,48.3344],[37.997124,48.3344],[37.99613,48.333251],[37.99613,48.333251169129724],[37.993964616477264,48.330748],[37.993965,48.330748],[37.993382,48.330073],[37.993279,48.329951],[37.992816,48.330031],[37.992399,48.329628],[37.992256,48.329536],[37.9916,48.328813],[37.990849,48.327827],[37.990637,48.327508],[37.990637,48.32750800970874],[37.990602,48.327455],[37.990637,48.327438349514566],[37.990637,48.327439],[37.990776469387384,48.32737200000018],[37.990808,48.327357],[37.990808,48.32735685294117],[37.990841,48.327341],[37.990885,48.327382],[37.991038,48.327362],[37.990709,48.326982],[37.99070862436548,48.326982],[37.990637,48.326899],[37.990637,48.32689946225536],[37.988661,48.324615],[37.987489,48.32359],[37.98678198468214,48.32342273522962],[37.986331,48.323315],[37.985144,48.321959],[37.985144,48.32195946357616],[37.984862,48.321637],[37.98333245714286,48.319791],[37.983333,48.319791],[37.982917,48.319289],[37.982616,48.318924],[37.98073,48.316938],[37.980021903719916,48.316138],[37.980022,48.316138],[37.97965,48.315717],[37.97965,48.31571738938368],[37.977015,48.312736],[37.974914,48.313013],[37.977577169279996,48.316024],[37.977577,48.316024]],[[37.993512,48.330312],[37.993512,48.330357],[37.993445,48.330357],[37.993445,48.330312],[37.993512,48.330312]],[[37.992988,48.33047],[37.992988,48.330516],[37.992919,48.330516],[37.992919,48.33047],[37.992988,48.33047]],[[37.992273,48.330673],[37.992273,48.330718],[37.992206,48.330718],[37.992206,48.330673],[37.992273,48.330673]]]}},{"type":"Feature","properties":{"cadnum":"1410636900:02:002:0010"},"geometry":{"type":"Polygon","coordinates":[[[38.046258,48.326015],[38.04703,48.326003],[38.047017,48.325908],[38.046981,48.325478],[38.04574,48.3243467841472],[38.04574,48.324346],[38.045023,48.323692],[38.044654,48.323354],[38.044474,48.323628],[38.043382,48.325316],[38.043069,48.325952],[38.042835,48.326764],[38.042617,48.327096],[38.04261772727273,48.327096],[38.042606,48.327114],[38.042857,48.327054],[38.043132,48.326293],[38.043311,48.326188],[38.043922,48.326197],[38.045568,48.32620695929593],[38.045568,48.326207],[38.04561969117106,48.326207272058795],[38.04574,48.326208],[38.04574,48.32620790526315],[38.045948,48.326209],[38.046258,48.326185],[38.046258,48.326015]]]}},{"type":"Feature","properties":{"cadnum":"1410636900:02:017:0222"},"geometry":{"type":"Polygon","coordinates":[[[38.029666,48.306731],[38.029751,48.306707],[38.029737,48.306684],[38.029679,48.306701],[38.029666,48.306677],[38.029633,48.306684],[38.029666,48.306731]]]}},{"type":"Feature","properties":{"cadnum":"1410636900:02:016:0164"},"geometry":{"type":"Polygon","coordinates":[[[38.016066,48.296029],[38.016146,48.29601],[38.016267,48.295978],[38.016389,48.29595],[38.016348,48.295897],[38.016307,48.295813],[38.016006,48.295281],[38.015913,48.295308],[38.01576,48.295345],[38.015679,48.295362],[38.016066,48.296029]]]}},{"type":"Feature","properties":{"cadnum":"1410636900:02:018:0281"},"geometry":{"type":"Polygon","coordinates":[[[38.040625,48.303292],[38.040702,48.303265],[38.040683,48.303245],[38.040755,48.303221],[38.040746,48.303212],[38.040724,48.303185],[38.04071,48.303188],[38.040688,48.303158],[38.040553,48.303203],[38.040545,48.303205],[38.040589,48.303265],[38.040602,48.303263],[38.040625,48.303292]]]}}]}