{"type":"FeatureCollection","features":[{"type":"Feature","properties":{"cadnum":"1411570501:00:002:0003"},"geometry":{"type":"Polygon","coordinates":[[[37.029505,48.52321169565217],[37.029517,48.523213],[37.029544,48.52313],[37.029629,48.522832],[37.029333,48.522798],[37.029333,48.522798305343514],[37.029243,48.522788],[37.029157,48.523076],[37.029131,48.523169],[37.029333,48.52319222459893],[37.029333,48.523193],[37.02945651851813,48.523206425925885],[37.029505,48.523212],[37.029505,48.52321169565217]]]}},{"type":"Feature","properties":{"cadnum":"1411570501:00:002:0005"},"geometry":{"type":"Polygon","coordinates":[[[37.031476,48.521699],[37.031524,48.521476],[37.031264,48.521455],[37.031178,48.521446],[37.030985,48.521428],[37.030945,48.521621],[37.030941,48.521652],[37.031008,48.521657],[37.031121,48.521666],[37.031282,48.521681],[37.031476,48.521699]]]}},{"type":"Feature","properties":{"cadnum":"1411570501:00:002:0056"},"geometry":{"type":"Polygon","coordinates":[[[37.030402,48.522859],[37.030438,48.522686],[37.030442,48.522654],[37.030482,48.522481],[37.030415,48.522475],[37.030366,48.52247],[37.030173,48.522452],[37.030142,48.522574],[37.030083,48.52283],[37.030142,48.522836],[37.030186,48.522838],[37.030281,48.522847],[37.030402,48.522859]]]}},{"type":"Feature","properties":{"cadnum":"1411570501:00:002:0001"},"geometry":{"type":"Polygon","coordinates":[[[37.030834,48.521208],[37.030878,48.520982],[37.030492,48.520946],[37.030249,48.520925],[37.030199,48.521152],[37.030438,48.521172],[37.030834,48.521208]]]}},{"type":"Feature","properties":{"cadnum":"1411570501:00:002:0004"},"geometry":{"type":"Polygon","coordinates":[[[37.03148,48.522951],[37.031601,48.522571],[37.031215,48.522523],[37.031121,48.522909],[37.03148,48.522951]]]}},{"type":"Feature","properties":{"cadnum":"1411570501:00:002:0002"},"geometry":{"type":"Polygon","coordinates":[[[37.028381,48.523314],[37.028467,48.523017],[37.028494,48.522931],[37.028551,48.52271],[37.028287,48.522675],[37.028219,48.522895],[37.028192,48.522981],[37.028107,48.523275],[37.028381,48.523314]]]}}]}