{"type":"FeatureCollection","features":[{"type":"Feature","properties":{"cadnum":"1411746200:05:000:0038"},"geometry":{"type":"Polygon","coordinates":[[[37.40902,48.559351],[37.408907,48.559062],[37.408361,48.559154],[37.408361,48.559154848101265],[37.407901,48.559232],[37.408018,48.559514],[37.408533,48.559431],[37.408533,48.559430072837635],[37.40902,48.559351]]]}},{"type":"Feature","properties":{"cadnum":"1411746200:05:000:0015"},"geometry":{"type":"Polygon","coordinates":[[[37.405605,48.558527],[37.406324,48.558375],[37.406177,48.558033],[37.405439,48.558156],[37.405605,48.558527]]]}},{"type":"Feature","properties":{"cadnum":"1411746200:05:000:0036"},"geometry":{"type":"Polygon","coordinates":[[[37.407412,48.558138],[37.407433,48.558135],[37.407775,48.558079],[37.408427,48.557986],[37.408337,48.557698],[37.40773,48.557793],[37.407295,48.557867],[37.40733,48.55796],[37.407344,48.557992],[37.407412,48.558138]]]}},{"type":"Feature","properties":{"cadnum":"1411746200:05:000:0018"},"geometry":{"type":"Polygon","coordinates":[[[37.405242,48.55947],[37.406527,48.559223],[37.40641,48.558946],[37.405121,48.559193],[37.405242,48.55947]]]}},{"type":"Feature","properties":{"cadnum":"1411746200:05:000:0033"},"geometry":{"type":"Polygon","coordinates":[[[37.407852,48.556479],[37.407363352941196,48.556557],[37.407361,48.556557],[37.406787,48.556649],[37.406796,48.556671],[37.40679655862069,48.556671],[37.40685,48.556794],[37.4069,48.556919],[37.407259,48.556859],[37.407439,48.556832],[37.407959,48.556749],[37.407883,48.556557],[37.407882468749996,48.556557],[37.407852,48.556479]]]}},{"type":"Feature","properties":{"cadnum":"1411746200:05:000:0011"},"geometry":{"type":"Polygon","coordinates":[[[37.406527,48.559223],[37.406936,48.559146],[37.407546,48.559029],[37.407425,48.558753],[37.406814,48.558869],[37.40641,48.558946],[37.406527,48.559223]]]}},{"type":"Feature","properties":{"cadnum":"1411746200:05:000:0007"},"geometry":{"type":"Polygon","coordinates":[[[37.406324,48.558375],[37.406999,48.558233],[37.407183,48.558191],[37.407047,48.557885],[37.406859,48.557918],[37.406177,48.558033],[37.406324,48.558375]]]}},{"type":"Feature","properties":{"cadnum":"1411746200:01:000:0110"},"geometry":{"type":"Polygon","coordinates":[[[37.474399,48.571044],[37.475032,48.570913],[37.475005,48.570854],[37.474969,48.57086],[37.474368,48.57097],[37.474399,48.571044]]]}},{"type":"Feature","properties":{"cadnum":"1411746200:01:000:0169"},"geometry":{"type":"Polygon","coordinates":[[[37.474969,48.57086],[37.474951,48.570729],[37.47430050819678,48.57084806323184],[37.473856,48.570928],[37.473873,48.571059],[37.474451,48.570954],[37.474451,48.57095384057971],[37.474969,48.57086]]]}},{"type":"Feature","properties":{"cadnum":"1411746200:01:000:0119"},"geometry":{"type":"Polygon","coordinates":[[[37.474389,48.568904],[37.474251,48.568743],[37.473146,48.569135],[37.473263,48.569254],[37.474389,48.568904]]]}},{"type":"Feature","properties":{"cadnum":"1411746200:01:000:0045"},"geometry":{"type":"Polygon","coordinates":[[[37.474399,48.571044],[37.474368,48.57097],[37.4736687603306,48.571098],[37.473665,48.571098],[37.47327645465164,48.57116981389887],[37.473046,48.571212],[37.47304820895522,48.571212],[37.47294,48.571232],[37.472553,48.571303],[37.472517,48.571309],[37.472535,48.571413],[37.472567,48.571406],[37.472984,48.571332],[37.4735727179487,48.571212],[37.473573,48.571212],[37.474279,48.57106840677966],[37.474279,48.571069],[37.474399,48.571044]]]}},{"type":"Feature","properties":{"cadnum":"1411746200:03:000:0044"},"geometry":{"type":"Polygon","coordinates":[[[37.374035,48.564689],[37.374044,48.564663],[37.374057,48.564609],[37.374088,48.564496],[37.374098,48.564469],[37.374107,48.564431],[37.374161,48.564231],[37.373904,48.564226],[37.373837,48.564222],[37.373545,48.564217],[37.373541,48.564253],[37.373486,48.564253],[37.373491,48.564217],[37.373451,48.564217],[37.373432,48.564277],[37.373392,48.564413],[37.373352,48.56463],[37.373784,48.564669],[37.374035,48.564689]]]}},{"type":"Feature","properties":{"cadnum":"1411746200:03:000:0025"},"geometry":{"type":"Polygon","coordinates":[[[37.373109,48.565599],[37.373186,48.565299],[37.3727,48.565233],[37.37262,48.565546],[37.373109,48.565599]]]}},{"type":"Feature","properties":{"cadnum":"1411746200:03:000:0003"},"geometry":{"type":"Polygon","coordinates":[[[37.373019,48.567388],[37.37274,48.56735],[37.3727150625,48.567464],[37.372715,48.567464],[37.372705,48.56751],[37.372688,48.567577],[37.37268921465969,48.567577],[37.37266,48.567701],[37.373289,48.567784],[37.373329,48.567593],[37.373811,48.567659],[37.373845,48.567498],[37.373019,48.567388]]]}},{"type":"Feature","properties":{"cadnum":"1411746200:03:000:0005"},"geometry":{"type":"Polygon","coordinates":[[[37.373725,48.565665],[37.373797,48.565385],[37.373365,48.565326],[37.373186,48.565299],[37.373109,48.565599],[37.373321,48.565623],[37.373725,48.565665]]]}},{"type":"Feature","properties":{"cadnum":"1411746200:03:000:0022"},"geometry":{"type":"Polygon","coordinates":[[[37.37231,48.566725],[37.372359,48.566553],[37.372264,48.566538],[37.372216,48.566711],[37.37231,48.566725]]]}},{"type":"Feature","properties":{"cadnum":"1411746200:03:000:0006"},"geometry":{"type":"Polygon","coordinates":[[[37.375574,48.56684987534626],[37.375763,48.566886],[37.375845,48.566675],[37.375574,48.56662973137697],[37.375574,48.566629],[37.375189,48.566565],[37.374991,48.566533],[37.37492,48.566723],[37.375094,48.566758],[37.375574,48.56685],[37.375574,48.56684987534626]]]}},{"type":"Feature","properties":{"cadnum":"1411746200:03:000:0002"},"geometry":{"type":"Polygon","coordinates":[[[37.372216,48.566711],[37.372264,48.566538],[37.371438,48.566414],[37.371438,48.566423],[37.371232,48.56639],[37.371182,48.566553],[37.372216,48.566711]]]}},{"type":"Feature","properties":{"cadnum":"1411746200:01:000:0013"},"geometry":{"type":"Polygon","coordinates":[[[37.452307,48.57321705723906],[37.452307,48.573218],[37.452476,48.573163],[37.452139,48.572664],[37.452126,48.572642],[37.451847,48.572732],[37.451856,48.572753],[37.452179,48.573258],[37.452307,48.57321705723906]]]}},{"type":"Feature","properties":{"cadnum":"1411746200:01:000:0155"},"geometry":{"type":"Polygon","coordinates":[[[37.449193,48.574239],[37.449434,48.57414],[37.449246,48.573787],[37.44913,48.573561],[37.449067,48.573579],[37.449008,48.573597],[37.44895,48.573611],[37.448874,48.573635],[37.448864,48.573638],[37.449,48.573885],[37.449193,48.574239]]]}},{"type":"Feature","properties":{"cadnum":"1411746200:01:000:0006"},"geometry":{"type":"Polygon","coordinates":[[[37.451941,48.57412],[37.452197,48.574049],[37.452187,48.574037],[37.452017,48.573787],[37.451833,48.57351],[37.451698,48.573552],[37.451573,48.573588],[37.451761,48.573862],[37.451937,48.574111],[37.451941,48.57412]]]}},{"type":"Feature","properties":{"cadnum":"1411746200:01:000:0092"},"geometry":{"type":"Polygon","coordinates":[[[37.45236628865947,48.57327407216505],[37.452478,48.573239],[37.452478,48.573238408450706],[37.45252,48.573225],[37.452476,48.573163],[37.452179,48.573258],[37.45222,48.57332],[37.452307,48.573292686046514],[37.452307,48.573293],[37.45236628865947,48.57327407216505]]]}},{"type":"Feature","properties":{"cadnum":"1411746200:01:000:0182"},"geometry":{"type":"Polygon","coordinates":[[[37.45027,48.574679],[37.450463,48.574607],[37.450782,48.574488],[37.450724,48.574423],[37.450585,48.574265],[37.450553,48.574245],[37.450468,48.574259],[37.45018,48.57434],[37.450028,48.574384],[37.450042,48.574405],[37.45027,48.574679]]]}},{"type":"Feature","properties":{"cadnum":"1411746200:01:000:0011"},"geometry":{"type":"Polygon","coordinates":[[[37.451334,48.57357],[37.451577,48.57349],[37.451298,48.573036],[37.451191,48.57286],[37.450948,48.572934],[37.451051,48.573104],[37.451334,48.57357]]]}},{"type":"Feature","properties":{"cadnum":"1411746200:01:000:0184"},"geometry":{"type":"Polygon","coordinates":[[[37.451367,48.574209],[37.4516,48.574144],[37.451573,48.574102],[37.451478,48.573957],[37.451235,48.573588],[37.451164,48.573611],[37.451011,48.573659],[37.451245,48.574021],[37.451338,48.574171],[37.451367,48.574209]]]}},{"type":"Feature","properties":{"cadnum":"1411746200:01:000:0251"},"geometry":{"type":"Polygon","coordinates":[[[37.452478,48.57441563398692],[37.452516,48.574474],[37.452619,48.574631],[37.452637,48.574651],[37.452898,48.574518],[37.452885,48.574494],[37.452781,48.574336],[37.452629,48.574105],[37.452478,48.57418106766917],[37.452478,48.574181],[37.452363,48.574239],[37.452478,48.574416],[37.452478,48.57441563398692]]]}},{"type":"Feature","properties":{"cadnum":"1411746200:01:000:0263"},"geometry":{"type":"Polygon","coordinates":[[[37.450818,48.57467],[37.450662269662914,48.574733],[37.450661,48.574733],[37.450598,48.574759],[37.450667,48.574847],[37.45066744075829,48.574847],[37.450931,48.575181],[37.451097,48.575391],[37.451312,48.575294],[37.451145,48.575083],[37.450868,48.574733],[37.45086783050848,48.574733],[37.450818,48.57467]]]}},{"type":"Feature","properties":{"cadnum":"1411746200:03:000:0048"},"geometry":{"type":"Polygon","coordinates":[[[37.330093,48.574733],[37.328202,48.576889],[37.327174,48.57803],[37.327489,48.578108],[37.32751,48.578114],[37.327524,48.578117],[37.327546,48.578123],[37.327951,48.578224],[37.327992,48.578233],[37.328532,48.578368],[37.328531,48.578368],[37.330547,48.578871],[37.331457,48.5790963974122],[37.331457,48.579097],[37.33272,48.579409],[37.33464,48.579885],[37.33695,48.58043876712329],[37.33695,48.580439],[37.342615,48.581798],[37.342615,48.58179722029372],[37.34346948467967,48.582002],[37.343468,48.582002],[37.343904090907685,48.58210615463008],[37.343941,48.582115],[37.34394112608696,48.582115],[37.344431,48.582232],[37.344785,48.582318],[37.344844,48.582215],[37.34446137089203,48.582115],[37.344463,48.582115],[37.34251819592413,48.581606655172244],[37.339674,48.580862],[37.339063,48.580726],[37.338843,48.580616],[37.338632,48.580327],[37.33812,48.579977],[37.337823,48.579734],[37.337487,48.579237],[37.337441,48.578904],[37.337333,48.578368],[37.33733277562327,48.578368],[37.337284,48.57812],[37.337137,48.577793],[37.337010252086614,48.57763710684449],[37.336875,48.577469],[37.335479,48.577083],[37.335147,48.576904],[37.33477,48.57686],[37.333659,48.576604],[37.333323,48.576515],[37.333202,48.576224],[37.333372,48.575924],[37.332407,48.575552],[37.332038,48.575428],[37.331845,48.57541],[37.33155199705054,48.57545304424773],[37.331378,48.575478],[37.330471,48.57525],[37.330269,48.575184],[37.330282,48.574922],[37.3302400952384,48.57483200000066],[37.33016,48.574658],[37.33009412698412,48.574733],[37.330093,48.574733]]]}},{"type":"Feature","properties":{"cadnum":"1411746200:03:000:0047"},"geometry":{"type":"Polygon","coordinates":[[[37.359423,48.560201],[37.359374,48.560193],[37.359373666666656,48.560193],[37.359127,48.560153],[37.359111375000005,48.560193],[37.359111,48.560193],[37.359077,48.560281],[37.359066,48.560307],[37.35906708056872,48.560307],[37.358916,48.560703],[37.358923,48.560704173184355],[37.358923,48.560705],[37.35908519178131,48.56073135616447],[37.359095,48.560733],[37.359095,48.56073295],[37.359243,48.560757],[37.359383,48.560329],[37.359389875,48.560307],[37.35939,48.560307],[37.359423,48.560201]]]}},{"type":"Feature","properties":{"cadnum":"1411746200:03:000:0056"},"geometry":{"type":"Polygon","coordinates":[[[37.361377,48.560055],[37.361499,48.559731],[37.361224,48.559686],[37.361094,48.560049],[37.361071,48.560129],[37.361063,48.560162],[37.36105082142857,48.560193],[37.36105,48.560193],[37.361008,48.560302],[37.361006,48.560307],[37.36100603030303,48.560307],[37.360995,48.560335],[37.361261,48.560376],[37.36130376315776,48.56025560526355],[37.361377,48.560055]]]}},{"type":"Feature","properties":{"cadnum":"1411746200:03:000:0030"},"geometry":{"type":"Polygon","coordinates":[[[37.35906,48.558908],[37.358923,48.558879],[37.358923,48.558879077777775],[37.35879,48.558851],[37.35862,48.559291],[37.358893,48.559336],[37.358923,48.55925911377247],[37.358923,48.55926],[37.35906,48.558908]]]}},{"type":"Feature","properties":{"cadnum":"1411746200:01:000:0058"},"geometry":{"type":"Polygon","coordinates":[[[37.468372,48.57053],[37.468309,48.570515],[37.468007,48.570857],[37.467841036630034,48.571098],[37.467841,48.571098],[37.467819,48.57113],[37.467581,48.571428],[37.46746,48.571552],[37.467244,48.57179],[37.466978,48.572072],[37.466758,48.572298],[37.466565,48.572459],[37.466502,48.572506],[37.466489,48.572518],[37.466458,48.572533],[37.466435,48.572545],[37.466412,48.572554],[37.466332,48.572578],[37.466156,48.572625],[37.465649,48.572809],[37.465397,48.572926],[37.465074,48.573091],[37.46489,48.573225],[37.46454,48.573478],[37.464064,48.573814],[37.463996,48.573862],[37.463848,48.573953],[37.463465,48.57418901081081],[37.463465,48.574189],[37.46268,48.57467],[37.462527,48.574803],[37.462482,48.574847],[37.462482357664236,48.574847],[37.462388,48.57494],[37.462277,48.575092],[37.462177,48.575273],[37.462141,48.5754],[37.462124,48.575508],[37.462118,48.575609],[37.462114,48.575675],[37.462124,48.575873],[37.462213,48.57708],[37.462271,48.577725],[37.462254,48.577829],[37.462227,48.577915],[37.4622,48.577968],[37.462154,48.578037],[37.462091,48.578114],[37.462028,48.578177],[37.46179804605263,48.578368],[37.461798,48.578368],[37.461521,48.578598],[37.460732,48.579178],[37.459384,48.580248],[37.459091,48.580446],[37.458413,48.580851],[37.4578,48.581212],[37.4578,48.581212034965034],[37.457686,48.581279],[37.45752,48.58138],[37.457084,48.581656],[37.456985,48.581715],[37.456801,48.581829],[37.456747,48.581861],[37.456326,48.582115],[37.45632645138889,48.582115],[37.456275,48.582146],[37.455655,48.582529],[37.455445,48.582666],[37.45521,48.582838],[37.454996,48.583041],[37.454959,48.583073],[37.454927,48.583109],[37.454721,48.583331],[37.45456,48.583534],[37.45443,48.583709],[37.454196,48.584071],[37.454065,48.584294],[37.45394,48.584565],[37.454003,48.58458],[37.454128,48.584309],[37.454258,48.584086],[37.454493,48.583727],[37.454617,48.583555],[37.45478,48.583353],[37.45499,48.583133],[37.455022,48.583097],[37.455053,48.583067],[37.455269,48.582868],[37.455499,48.582702],[37.455709,48.582569],[37.456329,48.582185],[37.456632,48.582002],[37.456631632558135,48.582002],[37.456801,48.5819],[37.456833,48.581879],[37.456954,48.581798],[37.45708,48.581721],[37.457129,48.581688],[37.457564,48.581412],[37.457699,48.581332],[37.4578,48.58127535810811],[37.4578,48.581276],[37.457847,48.581249],[37.457972,48.581179],[37.457972,48.58117799816176],[37.458391,48.58094],[37.458472,48.580893],[37.45915,48.580488],[37.459441,48.580286],[37.460793,48.579213],[37.46158,48.578631],[37.461902,48.578368],[37.46190175735294,48.578368],[37.462097,48.578209],[37.462168,48.578144],[37.462236,48.57806],[37.462285,48.57799],[37.462311,48.57793],[37.46234,48.577838],[37.462357,48.577725],[37.462298,48.577166],[37.46229,48.577076],[37.4622,48.575873],[37.462191,48.575675],[37.462191,48.575612],[37.4622,48.57551],[37.462218,48.57541],[37.462254,48.575288],[37.462344,48.575113],[37.462456,48.574966],[37.46257231578947,48.574847],[37.462573,48.574847],[37.462586,48.574833],[37.462743,48.574706],[37.463293,48.574364725761775],[37.463293,48.574365],[37.463898,48.57399],[37.464072,48.573885],[37.464118,48.573849],[37.464594,48.573514],[37.464944,48.573258],[37.465124,48.573127],[37.465443,48.572964],[37.46569,48.572851],[37.466189,48.57267],[37.466363,48.572622],[37.466449,48.572598],[37.466476,48.572583],[37.466502,48.572572],[37.466539,48.572551],[37.466556,48.572539],[37.466624,48.572488],[37.466812,48.572325],[37.467037,48.572096],[37.467302,48.571814],[37.467518,48.571576],[37.46764,48.571448],[37.467877,48.571148],[37.468066,48.570878],[37.468372,48.57053]]]}},{"type":"Feature","properties":{"cadnum":"1411746200:01:000:0151"},"geometry":{"type":"Polygon","coordinates":[[[37.462766,48.572316],[37.462173,48.571799],[37.462091,48.57184],[37.462011,48.571882],[37.462604,48.572393],[37.462995,48.572768],[37.463368,48.573145],[37.463682,48.573517],[37.463659,48.573715],[37.463293,48.573994],[37.463293,48.57399445598194],[37.463022,48.5742],[37.462514,48.57451],[37.462290338278926,48.574733],[37.462289,48.574733],[37.462118,48.574904],[37.462002,48.575131],[37.461908,48.575362],[37.461885,48.575829],[37.462002,48.577195],[37.462074,48.577647],[37.462078,48.577766],[37.462002,48.577924],[37.461898,48.578021],[37.461225,48.578481],[37.46122613114754,48.578481],[37.460946,48.578673],[37.460546,48.579041],[37.460116,48.579389],[37.459181,48.580045],[37.458692,48.580358],[37.458189,48.580655],[37.4578,48.580881],[37.4578,48.58088151839465],[37.457673,48.580955],[37.457143,48.581243],[37.456329,48.58176],[37.456419,48.581793],[37.456508,48.581825],[37.457277,48.581344],[37.4578,48.58105764258555],[37.4578,48.581058],[37.457803,48.581056],[37.457972,48.580959],[37.457972,48.5809585],[37.458323,48.580756],[37.458831,48.580455],[37.459325,48.58014],[37.460269,48.579478],[37.460709,48.579124],[37.461099,48.578759],[37.461674,48.578368],[37.46167362198391,48.578368],[37.462057,48.578108],[37.462187,48.577983],[37.462281,48.577784],[37.462277,48.577638],[37.462204,48.577184],[37.462087,48.575825],[37.462105,48.575383],[37.462195,48.575169],[37.462298,48.574964],[37.46241550649351,48.574847],[37.462416,48.574847],[37.462667,48.574598],[37.46317,48.574292],[37.463293,48.57419693559322],[37.463293,48.574197],[37.46331042975189,48.57418346446294],[37.463465,48.574064],[37.463465,48.57406342882883],[37.463848,48.573766],[37.463879,48.573487],[37.463543,48.573074],[37.46343173038457,48.57296228530611],[37.463166,48.572693],[37.462766,48.572316]]]}},{"type":"Feature","properties":{"cadnum":"1411746200:01:000:0031"},"geometry":{"type":"Polygon","coordinates":[[[37.470393,48.583989],[37.470837,48.583953],[37.471012,48.583938],[37.471219,48.583921],[37.471299,48.583911],[37.471309,48.583911],[37.471345,48.583905],[37.471322,48.583851],[37.471309,48.583813],[37.471277,48.583724],[37.471273,48.583724],[37.471242,48.583727],[37.470927,48.583754],[37.470927,48.583748],[37.470797,48.58376],[37.470343,48.583802],[37.470393,48.583989]]]}},{"type":"Feature","properties":{"cadnum":"1411746200:01:000:0189"},"geometry":{"type":"Polygon","coordinates":[[[37.470464,48.583534],[37.471169,48.583487],[37.471183,48.583487],[37.471169,48.583317],[37.471143,48.583317],[37.470456,48.583373],[37.470464,48.583534]]]}},{"type":"Feature","properties":{"cadnum":"1411746200:01:000:0166"},"geometry":{"type":"Polygon","coordinates":[[[37.472468,48.583935],[37.472674,48.583921],[37.472624,48.583736],[37.472427,48.583748],[37.472468,48.583935]]]}},{"type":"Feature","properties":{"cadnum":"1411746200:01:000:0275"},"geometry":{"type":"Polygon","coordinates":[[[37.471865,48.582999],[37.472615,48.582957],[37.47262,48.582812],[37.471843,48.582851],[37.471772,48.582857],[37.471668,48.582862],[37.471533,48.582877],[37.471493,48.582877],[37.471456,48.582996],[37.471506,48.582996],[37.471552,48.582993],[37.471704,48.582996],[37.471865,48.582999]]]}},{"type":"Feature","properties":{"cadnum":"1411746200:01:000:0125"},"geometry":{"type":"Polygon","coordinates":[[[37.473074,48.584363],[37.473622,48.584313],[37.473743,48.584304],[37.473936,48.58428],[37.473968,48.584276],[37.473923,48.584084],[37.473886,48.584086],[37.473626,48.58411],[37.473016,48.584161],[37.473074,48.584363]]]}},{"type":"Feature","properties":{"cadnum":"1411746200:01:000:0162"},"geometry":{"type":"Polygon","coordinates":[[[37.471538,48.582732],[37.471928,48.582708],[37.472162,48.582693],[37.472242,48.582408],[37.471938,48.582417],[37.471615,48.582428],[37.471538,48.582732]]]}},{"type":"Feature","properties":{"cadnum":"1411746200:01:000:0253"},"geometry":{"type":"Polygon","coordinates":[[[37.47262,48.582812],[37.473393,48.582773],[37.47394,48.582743],[37.473982,48.582741],[37.473986,48.582624],[37.473955,48.582628],[37.473402,48.58266],[37.47263,48.582705],[37.47262,48.582812]]]}},{"type":"Feature","properties":{"cadnum":"1411746200:01:000:0100"},"geometry":{"type":"Polygon","coordinates":[[[37.469875,48.583843],[37.469988,48.583831],[37.47028,48.583807],[37.470248,48.583623],[37.469854,48.583659],[37.469875,48.583843]]]}},{"type":"Feature","properties":{"cadnum":"1411746200:01:000:0102"},"geometry":{"type":"Polygon","coordinates":[[[37.470037,48.584018],[37.470393,48.583989],[37.470343,48.583802],[37.47028,48.583807],[37.469988,48.583831],[37.470037,48.584018]]]}},{"type":"Feature","properties":{"cadnum":"1411746200:01:000:0030"},"geometry":{"type":"Polygon","coordinates":[[[37.47028,48.583807],[37.470343,48.583802],[37.470797,48.58376],[37.470927,48.583748],[37.470927,48.583754],[37.471242,48.583727],[37.471273,48.583724],[37.471219,48.58354],[37.471187,48.583543],[37.471039,48.583555],[37.470896,48.583567],[37.470873,48.583569],[37.470248,48.583623],[37.47028,48.583807]]]}},{"type":"Feature","properties":{"cadnum":"1411746200:01:000:0033"},"geometry":{"type":"Polygon","coordinates":[[[37.470927,48.584824],[37.471556,48.584731],[37.471825,48.58469],[37.471753,48.58447],[37.471735,48.584472],[37.471479,48.584503],[37.471493,48.58455],[37.470864,48.584639],[37.470927,48.584824]]]}},{"type":"Feature","properties":{"cadnum":"1411746200:01:000:0084"},"geometry":{"type":"Polygon","coordinates":[[[37.47041,48.584357],[37.471106,48.584285],[37.471179,48.584276],[37.471299,48.584265],[37.47143,48.58425],[37.471479,48.584244],[37.471408,48.584086],[37.471322,48.584093],[37.471219,48.584104],[37.471066,48.584119],[37.470334,48.58419],[37.47041,48.584357]]]}},{"type":"Feature","properties":{"cadnum":"1411746200:01:000:0180"},"geometry":{"type":"Polygon","coordinates":[[[37.4712,48.58565],[37.471704,48.585572],[37.472104,48.585513],[37.472045,48.585344],[37.471645,48.585403],[37.471143,48.585477],[37.4712,48.58565]]]}},{"type":"Feature","properties":{"cadnum":"1411746200:01:000:0163"},"geometry":{"type":"Polygon","coordinates":[[[37.472162,48.582693],[37.472678,48.582663],[37.472718,48.582393],[37.472242,48.582408],[37.472162,48.582693]]]}},{"type":"Feature","properties":{"cadnum":"1411746200:01:000:0304"},"geometry":{"type":"Polygon","coordinates":[[[37.472944,48.5833],[37.473667,48.58324],[37.473752,48.58323],[37.473806,48.583011],[37.47377,48.583014],[37.472944,48.58308],[37.472944,48.5833]]]}},{"type":"Feature","properties":{"cadnum":"1411746200:01:000:0268"},"geometry":{"type":"Polygon","coordinates":[[[37.4744139815501,48.58290559409593],[37.474451,48.582904],[37.474451,48.582903837288136],[37.474574,48.582898],[37.474888,48.58288],[37.474888,48.582595],[37.474458,48.582622],[37.474313,48.582631],[37.474282,48.582633],[37.474279,48.582644],[37.474279,48.58264475],[37.47421,48.582915],[37.474242,48.582913],[37.474279,48.582911406698564],[37.474279,48.582912],[37.4744139815501,48.58290559409593]]]}},{"type":"Feature","properties":{"cadnum":"1411746200:01:000:0126"},"geometry":{"type":"Polygon","coordinates":[[[37.472948,48.584372],[37.473074,48.584363],[37.473016,48.584161],[37.47289,48.584173],[37.472948,48.584372]]]}},{"type":"Feature","properties":{"cadnum":"1411746200:01:000:0280"},"geometry":{"type":"Polygon","coordinates":[[[37.474022,48.585655],[37.47359,48.585685],[37.473514,48.585688],[37.473528,48.585749],[37.47352910747664,48.585749],[37.473567,48.585902],[37.47408,48.585872],[37.474279,48.58586041438356],[37.474279,48.585861],[37.474372,48.585855],[37.474403,48.585855],[37.474346,48.585635],[37.474345,48.585635],[37.474334,48.585635],[37.474313,48.585637],[37.474022,48.585655]]]}},{"type":"Feature","properties":{"cadnum":"1411746200:01:000:0291"},"geometry":{"type":"Polygon","coordinates":[[[37.473339,48.585005],[37.474116,48.584928],[37.474152,48.584921],[37.474102,48.584705],[37.474066,48.584707],[37.473284,48.584785],[37.473339,48.585005]]]}},{"type":"Feature","properties":{"cadnum":"1411746200:01:000:0301"},"geometry":{"type":"Polygon","coordinates":[[[37.474326,48.583974],[37.474368,48.583974],[37.474458,48.583968],[37.474515,48.583965],[37.474582,48.583956],[37.474682,48.583944],[37.475248,48.58389],[37.475207,48.583751],[37.474534,48.583813],[37.474451,48.58382016078431],[37.474451,48.58382],[37.474169,48.583843],[37.474133,48.583846],[37.474165,48.583956],[37.474175,48.583985],[37.474279,48.583977423841056],[37.474279,48.583978],[37.474326,48.583974]]]}},{"type":"Feature","properties":{"cadnum":"1411746200:01:000:0309"},"geometry":{"type":"Polygon","coordinates":[[[37.473343,48.585236],[37.47421,48.585156],[37.474161,48.584945],[37.473294,48.585034],[37.473343,48.585236]]]}},{"type":"Feature","properties":{"cadnum":"1411746200:01:000:0165"},"geometry":{"type":"Polygon","coordinates":[[[37.472674,48.583921],[37.473299,48.58387],[37.473662,48.58384],[37.473617,48.583664],[37.473271,48.583688],[37.472624,48.583736],[37.472674,48.583921]]]}},{"type":"Feature","properties":{"cadnum":"1411746200:01:000:0192"},"geometry":{"type":"Polygon","coordinates":[[[37.474525,48.584256],[37.475108,48.584217],[37.475087,48.584078],[37.474502,48.584117],[37.474279,48.584133],[37.474279,48.58413325445293],[37.474058,48.584149],[37.473999,48.584152],[37.47403,48.584289],[37.474089,48.584283],[37.474451,48.584261],[37.474451,48.58426051219512],[37.474525,48.584256]]]}},{"type":"Feature","properties":{"cadnum":"1411746200:01:000:0220"},"geometry":{"type":"Polygon","coordinates":[[[37.472351,48.585549],[37.472387,48.585545],[37.472844,48.585504],[37.473397,48.58545],[37.473384,48.585344],[37.472808,48.585408],[37.472768,48.585412],[37.472741,48.585415],[37.472705,48.585417],[37.472508,48.585412],[37.472508,48.585403],[37.472498,48.585403],[37.472481,48.585406],[37.472481,48.585412],[37.472337,48.585436],[37.472305,48.585441],[37.472351,48.585549]]]}},{"type":"Feature","properties":{"cadnum":"1411746200:04:000:0014"},"geometry":{"type":"Polygon","coordinates":[[[37.446985,48.606508],[37.446916,48.606503],[37.446883,48.606699],[37.446879,48.606728],[37.446812,48.60721],[37.446814,48.60721015028902],[37.446814,48.607211],[37.447013,48.607225],[37.44708,48.606743],[37.447086,48.606714],[37.447117,48.606518],[37.446985,48.60650814925373],[37.446985,48.606508]]]}},{"type":"Feature","properties":{"cadnum":"1411746200:04:000:0018"},"geometry":{"type":"Polygon","coordinates":[[[37.44772452451709,48.607433],[37.447724,48.607433],[37.447719,48.607845],[37.447962,48.607848],[37.447965626506026,48.607547],[37.447966,48.607547],[37.447975,48.606886],[37.447979,48.606595],[37.447736,48.60658],[37.447732,48.606874],[37.44772452451709,48.607433]]]}},{"type":"Feature","properties":{"cadnum":"1411746200:04:000:0042"},"geometry":{"type":"Polygon","coordinates":[[[37.448401,48.607385],[37.448451,48.606992],[37.448491,48.606992],[37.44851,48.606734],[37.448434,48.606717],[37.448191,48.606699],[37.448123,48.60737],[37.448401,48.607385]]]}},{"type":"Feature","properties":{"cadnum":"1411746200:04:000:0037"},"geometry":{"type":"Polygon","coordinates":[[[37.456411,48.610762],[37.456445,48.610584],[37.456531,48.61017],[37.456294,48.610155],[37.456212,48.610569],[37.456177,48.610747],[37.456411,48.610762]]]}},{"type":"Feature","properties":{"cadnum":"1411746200:02:000:0069"},"geometry":{"type":"Polygon","coordinates":[[[37.418807,48.57121],[37.419071,48.571133],[37.419047,48.571098],[37.41904681818182,48.571098],[37.418919,48.570913],[37.418735,48.57097],[37.418538,48.571029],[37.418339,48.571089],[37.41830627272728,48.571098],[37.418304,48.571098],[37.418299,48.5711],[37.418379,48.571212],[37.4183794295302,48.571212],[37.418406,48.571249],[37.418452,48.57132],[37.418506,48.571303],[37.41880052688172,48.571212],[37.418801,48.571212],[37.418807,48.57121]]]}},{"type":"Feature","properties":{"cadnum":"1411746200:02:000:0071"},"geometry":{"type":"Polygon","coordinates":[[[37.417536,48.570957],[37.417683,48.570862],[37.417513,48.570803],[37.417477,48.570809],[37.417433,48.570791],[37.41724,48.570791],[37.416826,48.571071],[37.416982,48.571212],[37.41698332467533,48.571212],[37.417028,48.571252],[37.417253,48.571115],[37.417536,48.570957]]]}},{"type":"Feature","properties":{"cadnum":"1411746200:02:000:0063"},"geometry":{"type":"Polygon","coordinates":[[[37.418353,48.571053],[37.418591,48.570981],[37.418789,48.570922],[37.418784,48.570735],[37.418519,48.570794],[37.418479,48.570807],[37.418326,48.570851],[37.418236,48.57088],[37.418353,48.571053]]]}},{"type":"Feature","properties":{"cadnum":"1411746200:03:000:0058"},"geometry":{"type":"Polygon","coordinates":[[[37.379168,48.565462],[37.379245,48.565231],[37.37725,48.564793],[37.377193,48.564978],[37.376627,48.566738],[37.37639163408819,48.567464],[37.376391,48.567464],[37.376056,48.568503],[37.375975,48.568732],[37.377723,48.568925],[37.378042,48.568934],[37.37848140952381,48.567577],[37.378482,48.567577],[37.379168,48.565462]]]}},{"type":"Feature","properties":{"cadnum":"1411746200:01:000:0115"},"geometry":{"type":"Polygon","coordinates":[[[37.468958,48.56738163333333],[37.469029970873784,48.567464],[37.469029,48.567464],[37.469099,48.567543],[37.469238,48.567487],[37.468969,48.567177],[37.468958,48.56718147857143],[37.468958,48.567181],[37.468829,48.567234],[37.468958,48.567382],[37.468958,48.56738163333333]]]}},{"type":"Feature","properties":{"cadnum":"1411746200:01:000:0051"},"geometry":{"type":"Polygon","coordinates":[[[37.469099,48.567543],[37.469128,48.567577],[37.46912869097222,48.567577],[37.469602,48.568119],[37.469917,48.568479],[37.469934,48.5685],[37.470078,48.568443],[37.47006,48.568423],[37.469741,48.568063],[37.469238,48.567487],[37.469099,48.567543]]]}},{"type":"Feature","properties":{"cadnum":"1411746200:01:000:0277"},"geometry":{"type":"Polygon","coordinates":[[[37.468958,48.56833058536585],[37.468991,48.568366],[37.469189,48.568586],[37.469206,48.568604],[37.469351,48.568542],[37.469332,48.568523],[37.469144,48.568304],[37.468958,48.568091502793294],[37.468958,48.568091],[37.468613,48.567697],[37.468439,48.567772],[37.468786,48.56814574373796],[37.468786,48.568146],[37.468851698794175,48.56821650602301],[37.468958,48.568331],[37.468958,48.56833058536585]]]}},{"type":"Feature","properties":{"cadnum":"1411746200:01:000:0312"},"geometry":{"type":"Polygon","coordinates":[[[37.468958,48.56966665853658],[37.469032,48.569793],[37.469135,48.569977],[37.469152,48.570007],[37.469166,48.570003],[37.469189,48.569992],[37.469386,48.569912],[37.469368,48.569879],[37.469269,48.569734],[37.468958,48.56925066242038],[37.468958,48.56925],[37.468955,48.569246],[37.468786,48.569289],[37.468786,48.56928904716981],[37.468743,48.5693],[37.468958,48.569667],[37.468958,48.56966665853658]]]}},{"type":"Feature","properties":{"cadnum":"1411746200:01:000:0300"},"geometry":{"type":"Polygon","coordinates":[[[37.469818,48.570393],[37.469858,48.570378],[37.470091,48.57028],[37.470554,48.570117],[37.470388,48.569891],[37.469925,48.570096],[37.469881,48.570137],[37.469818,48.570164],[37.469759,48.570185],[37.469737,48.570221],[37.469777,48.570307],[37.469768,48.570307],[37.469818,48.570393]]]}},{"type":"Feature","properties":{"cadnum":"1411746200:01:000:0194"},"geometry":{"type":"Polygon","coordinates":[[[37.470428,48.571142],[37.470491,48.571127],[37.470846,48.571044],[37.47121,48.570957],[37.471133,48.570809],[37.470703,48.570901],[37.470406,48.570964],[37.470343,48.570976],[37.470334,48.570979],[37.470428,48.571142]]]}},{"type":"Feature","properties":{"cadnum":"1411746200:01:000:0061"},"geometry":{"type":"Polygon","coordinates":[[[37.470854,48.567577],[37.470855782608695,48.567577],[37.470621,48.567677],[37.47076,48.56787],[37.47077,48.567882],[37.470842,48.567974],[37.470917,48.568075],[37.471143,48.567983],[37.471169,48.567971],[37.471223,48.567926],[37.470999,48.567516],[37.470854,48.567577]]]}},{"type":"Feature","properties":{"cadnum":"1411746200:01:000:0118"},"geometry":{"type":"Polygon","coordinates":[[[37.472548,48.568937],[37.474273,48.568309],[37.474133,48.568155],[37.472435,48.568809],[37.472548,48.568937]]]}},{"type":"Feature","properties":{"cadnum":"1411746200:01:000:0168"},"geometry":{"type":"Polygon","coordinates":[[[37.473873,48.571059],[37.473856,48.570928],[37.47302,48.57108],[37.472921094736854,48.571098],[37.472917,48.571098],[37.472498,48.571175],[37.472502,48.571212],[37.47250324626866,48.571212],[37.472517,48.571309],[37.473043,48.571213],[37.473168377861384,48.571189517175796],[37.473873,48.571059]]]}},{"type":"Feature","properties":{"cadnum":"1411746200:01:000:0101"},"geometry":{"type":"Polygon","coordinates":[[[37.472252,48.57025],[37.472674,48.570168],[37.47294,48.57012],[37.473424,48.570034],[37.473321,48.569893],[37.472877,48.569974],[37.472525,48.57004],[37.472148,48.570111],[37.472252,48.57025]]]}},{"type":"Feature","properties":{"cadnum":"1411746200:01:000:0150"},"geometry":{"type":"Polygon","coordinates":[[[37.473424,48.570034],[37.474349,48.569867],[37.474246,48.569727],[37.473321,48.569893],[37.473424,48.570034]]]}},{"type":"Feature","properties":{"cadnum":"1411746200:01:000:0055"},"geometry":{"type":"Polygon","coordinates":[[[37.471848,48.569697],[37.473263,48.569254],[37.473146,48.569135],[37.471781,48.569617],[37.471848,48.569697]]]}},{"type":"Feature","properties":{"cadnum":"1411746200:01:000:0158"},"geometry":{"type":"Polygon","coordinates":[[[37.471902,48.56995],[37.471932,48.569941],[37.472072,48.569908],[37.472441,48.569844],[37.473127,48.569683],[37.473056,48.569549],[37.472481,48.569686],[37.472221,48.569734],[37.471982,48.56979],[37.471843,48.569829],[37.471812,48.569837],[37.471902,48.56995]]]}},{"type":"Feature","properties":{"cadnum":"1411746200:01:000:0303"},"geometry":{"type":"Polygon","coordinates":[[[37.470087,48.569597],[37.470361,48.569481],[37.470343,48.569459],[37.470173,48.569228],[37.47006,48.56908],[37.469984,48.568978],[37.469732,48.569062],[37.469965,48.569427],[37.470068,48.569576],[37.470087,48.569597]]]}},{"type":"Feature","properties":{"cadnum":"1411746200:01:000:0060"},"geometry":{"type":"Polygon","coordinates":[[[37.469494,48.567133],[37.469351,48.567192],[37.469598272727275,48.567464],[37.469598,48.567464],[37.46967385714397,48.56754714285836],[37.469701,48.567577],[37.46970109793814,48.567577],[37.469952,48.567852],[37.46997,48.56787],[37.470037,48.567935],[37.470181,48.568113],[37.4702,48.568131],[37.470347,48.568071],[37.47033,48.568051],[37.470096,48.567795],[37.46989775830816,48.567577],[37.469898,48.567577],[37.469494,48.567133]]]}},{"type":"Feature","properties":{"cadnum":"1411746200:01:000:0196"},"geometry":{"type":"Polygon","coordinates":[[[37.470343,48.570976],[37.470406,48.570964],[37.470703,48.570901],[37.471133,48.570809],[37.471057,48.570661],[37.470599,48.57077],[37.47033,48.570836],[37.470271,48.570848],[37.470343,48.570976]]]}},{"type":"Feature","properties":{"cadnum":"1411746200:01:000:0191"},"geometry":{"type":"Polygon","coordinates":[[[37.470127,48.569023],[37.470531,48.568875],[37.470766,48.568785],[37.470819,48.568767],[37.47067,48.568604],[37.470621,48.568624],[37.470388,48.56871],[37.469997,48.56886],[37.470127,48.569023]]]}},{"type":"Feature","properties":{"cadnum":"1411746200:01:000:0185"},"geometry":{"type":"Polygon","coordinates":[[[37.470923,48.568595],[37.470976,48.568574],[37.471232,48.568458],[37.471749,48.568227],[37.471552,48.568084],[37.47107,48.5683],[37.470837,48.568408],[37.470783,48.568432],[37.470923,48.568595]]]}},{"type":"Feature","properties":{"cadnum":"1411746200:01:000:0041"},"geometry":{"type":"Polygon","coordinates":[[[37.470783,48.568432],[37.471116,48.56828],[37.47121,48.568238],[37.471802,48.567968],[37.471645,48.567837],[37.470986,48.568164],[37.470684,48.568313],[37.470783,48.568432]]]}},{"type":"Feature","properties":{"cadnum":"1411746200:01:000:0298"},"geometry":{"type":"Polygon","coordinates":[[[37.470739,48.570295],[37.47138,48.570212],[37.471475,48.570203],[37.471619,48.570188],[37.471848,48.570161],[37.471861,48.570155],[37.471898,48.570149],[37.471808,48.570031],[37.471781,48.570001],[37.471772,48.569989],[37.471739,48.569995],[37.471483,48.57004],[37.471326,48.570063],[37.470653,48.570155],[37.470739,48.570295]]]}},{"type":"Feature","properties":{"cadnum":"1411746200:01:000:0054"},"geometry":{"type":"Polygon","coordinates":[[[37.471412,48.569362],[37.471713,48.569249],[37.471843,48.569195],[37.472548,48.568937],[37.472435,48.568809],[37.471735,48.569076],[37.471686,48.569097],[37.471628,48.569121],[37.471552,48.569151],[37.471456,48.569186],[37.471318,48.569252],[37.471412,48.569362]]]}},{"type":"Feature","properties":{"cadnum":"1411746200:01:000:0289"},"geometry":{"type":"Polygon","coordinates":[[[37.463465,48.573097260188085],[37.463682,48.573368],[37.464707,48.573017],[37.464575,48.572851],[37.464558,48.572827],[37.46454,48.572807],[37.464518,48.572785],[37.464485,48.57277],[37.464302,48.572744],[37.464265,48.572735],[37.464202,48.572741],[37.464176,48.572721],[37.464141,48.572714],[37.464005,48.572756],[37.463465,48.572936],[37.463363,48.57297],[37.463465,48.573098],[37.463465,48.573097260188085]]]}},{"type":"Feature","properties":{"cadnum":"1411746200:01:000:0195"},"geometry":{"type":"Polygon","coordinates":[[[37.462024,48.571876],[37.462244,48.571763],[37.462208,48.571734],[37.462083,48.57162],[37.461745,48.571342],[37.461535,48.571442],[37.461858,48.57173],[37.461988,48.571844],[37.462024,48.571876]]]}},{"type":"Feature","properties":{"cadnum":"1411746200:04:000:0040"},"geometry":{"type":"Polygon","coordinates":[[[37.439442,48.608938],[37.439409,48.608291],[37.439409,48.608145],[37.43918,48.608143],[37.439185,48.608436],[37.43922,48.608935],[37.439442,48.608938]]]}},{"type":"Feature","properties":{"cadnum":"1411746200:04:000:0027"},"geometry":{"type":"Polygon","coordinates":[[[37.441449,48.608603],[37.44132,48.608603],[37.440923,48.608603],[37.440923,48.608882],[37.44132,48.608882],[37.441449,48.608882],[37.441449,48.608603]]]}},{"type":"Feature","properties":{"cadnum":"1411746200:04:000:0026"},"geometry":{"type":"Polygon","coordinates":[[[37.441449,48.608534],[37.441444,48.608264],[37.441359,48.608264],[37.441251,48.608288],[37.441247,48.608246],[37.441,48.608229],[37.44096,48.608237],[37.440941,48.608261],[37.440931,48.608288],[37.440927,48.608311],[37.440923,48.608603],[37.44132,48.608603],[37.441449,48.608603],[37.441449,48.608534]]]}},{"type":"Feature","properties":{"cadnum":"1411746200:03:000:0027"},"geometry":{"type":"Polygon","coordinates":[[[37.378229,48.565495],[37.378266,48.565322],[37.378162,48.565313],[37.37813,48.565489],[37.378229,48.565495]]]}},{"type":"Feature","properties":{"cadnum":"1411746200:03:000:0026"},"geometry":{"type":"Polygon","coordinates":[[[37.376258,48.566978],[37.376339,48.566755],[37.375845,48.566675],[37.375763,48.566886],[37.376258,48.566978]]]}},{"type":"Feature","properties":{"cadnum":"1411746200:03:000:0007"},"geometry":{"type":"Polygon","coordinates":[[[37.37813,48.565489],[37.378162,48.565313],[37.377403,48.565254],[37.377161,48.565233],[37.377111,48.565414],[37.377371,48.565436],[37.37813,48.565489]]]}},{"type":"Feature","properties":{"cadnum":"1411746200:04:000:0020"},"geometry":{"type":"Polygon","coordinates":[[[37.444803,48.606743],[37.444826,48.606499],[37.444835,48.606437],[37.444845,48.606295],[37.444539,48.606254],[37.444526,48.606408],[37.444516,48.606473],[37.444499,48.606702],[37.444803,48.606743]]]}},{"type":"Feature","properties":{"cadnum":"1411746200:04:000:0038"},"geometry":{"type":"Polygon","coordinates":[[[37.445509,48.607025],[37.445549,48.606752],[37.445585,48.60649],[37.445316,48.606485],[37.445279,48.606598],[37.445275,48.606633],[37.445262,48.606734],[37.445226,48.606996],[37.445509,48.607025]]]}},{"type":"Feature","properties":{"cadnum":"1411746200:04:000:0007"},"geometry":{"type":"Polygon","coordinates":[[[37.44338,48.606829],[37.443555,48.606256],[37.443596,48.606125],[37.443321,48.606093],[37.443281,48.606221],[37.443111,48.606796],[37.44338,48.606829]]]}},{"type":"Feature","properties":{"cadnum":"1411746200:04:000:0043"},"geometry":{"type":"Polygon","coordinates":[[[37.443299,48.605997],[37.443451,48.605469],[37.443147,48.605427],[37.443016,48.605959],[37.443299,48.605997]]]}},{"type":"Feature","properties":{"cadnum":"1411746200:02:000:0027"},"geometry":{"type":"Polygon","coordinates":[[[37.419519,48.576377],[37.419297,48.576369],[37.419255,48.576607],[37.419348,48.576611875],[37.419348,48.576612],[37.419503,48.57662],[37.420014,48.576643],[37.420056,48.576408],[37.419727,48.576384],[37.419519,48.57637741424802],[37.419519,48.576377]]]}},{"type":"Feature","properties":{"cadnum":"1411746200:02:000:0065"},"geometry":{"type":"Polygon","coordinates":[[[37.419947,48.575127],[37.419916,48.575127],[37.419624,48.575136],[37.419427,48.57514],[37.419348,48.57514],[37.419348,48.57514038256658],[37.419014,48.575142],[37.419008,48.575327],[37.419348,48.575327],[37.419519,48.575327],[37.419934,48.575327],[37.419947,48.575127]]]}},{"type":"Feature","properties":{"cadnum":"1411746200:02:000:0030"},"geometry":{"type":"Polygon","coordinates":[[[37.419519,48.57616],[37.419255,48.576147],[37.41922,48.576367],[37.419297,48.576369],[37.419348,48.576370837837835],[37.419348,48.576372],[37.419727,48.576384],[37.420056,48.576408],[37.420073,48.576274],[37.420091,48.576188],[37.419519,48.57616028532974],[37.419519,48.57616]]]}},{"type":"Feature","properties":{"cadnum":"1411746200:02:000:0077"},"geometry":{"type":"Polygon","coordinates":[[[37.419519,48.577229],[37.41945299999996,48.577225999999996],[37.419348,48.577221],[37.419348,48.57722122727272],[37.419255,48.577217],[37.419207,48.577541],[37.419348,48.57754823076923],[37.419348,48.577549],[37.419723,48.577567],[37.419773,48.57757],[37.419786,48.577463],[37.4198,48.577241],[37.419768,48.577241],[37.419519,48.57722914285714],[37.419519,48.577229]]]}},{"type":"Feature","properties":{"cadnum":"1411746200:02:000:0007"},"geometry":{"type":"Polygon","coordinates":[[[37.416916,48.575228],[37.416934,48.575036],[37.416951,48.574869],[37.416548,48.574848],[37.416529,48.575014],[37.416511,48.575208],[37.416916,48.575228]]]}},{"type":"Feature","properties":{"cadnum":"1411746200:02:000:0062"},"geometry":{"type":"Polygon","coordinates":[[[37.415739,48.57738],[37.415743,48.577303],[37.415748,48.577085],[37.415815,48.577085],[37.415846,48.57688],[37.415379,48.576869],[37.415263,48.57708],[37.415209,48.577184],[37.415159,48.577273],[37.415146,48.577309],[37.415129,48.577344],[37.415703,48.57738],[37.415739,48.57738]]]}},{"type":"Feature","properties":{"cadnum":"1411746200:02:000:0031"},"geometry":{"type":"Polygon","coordinates":[[[37.41922,48.576367],[37.419255,48.576147],[37.419058,48.576135],[37.419049,48.576248],[37.418972,48.576245],[37.418959,48.576358],[37.41922,48.576367]]]}},{"type":"Feature","properties":{"cadnum":"1411746200:02:000:0028"},"geometry":{"type":"Polygon","coordinates":[[[37.419255,48.576607],[37.419297,48.576369],[37.418959,48.576358],[37.418945,48.57645],[37.418986,48.57645],[37.418968,48.576596],[37.419255,48.576607]]]}},{"type":"Feature","properties":{"cadnum":"1411746200:02:000:0013"},"geometry":{"type":"Polygon","coordinates":[[[37.4178,48.57694],[37.417819,48.576756],[37.417783,48.576756],[37.417221,48.576735],[37.417207,48.576917],[37.417567,48.576931],[37.417626,48.576931],[37.417639,48.576935],[37.41776,48.576937],[37.417769,48.576937],[37.4178,48.57694]]]}},{"type":"Feature","properties":{"cadnum":"1411746200:01:000:0283"},"geometry":{"type":"Polygon","coordinates":[[[37.446578,48.577594],[37.446812,48.577585],[37.446763,48.577204],[37.44674,48.577035],[37.446384,48.577041],[37.446384,48.57705],[37.446403,48.577202],[37.446407,48.577219],[37.446578,48.577594]]]}},{"type":"Feature","properties":{"cadnum":"1411746200:01:000:0089"},"geometry":{"type":"Polygon","coordinates":[[[37.446232,48.575853],[37.446515,48.575775],[37.446398,48.575567],[37.446084,48.575624],[37.446232,48.575853]]]}},{"type":"Feature","properties":{"cadnum":"1411746200:01:000:0153"},"geometry":{"type":"Polygon","coordinates":[[[37.446946,48.575281],[37.446897,48.575154],[37.446856,48.575047],[37.44634,48.5751],[37.446417,48.575329],[37.446744,48.5753],[37.446814,48.57529341584158],[37.446814,48.575294],[37.446946,48.575281]]]}},{"type":"Feature","properties":{"cadnum":"1411746200:01:000:0286"},"geometry":{"type":"Polygon","coordinates":[[[37.446985,48.577588],[37.446985,48.577586843373496],[37.447229,48.577567],[37.44713,48.577288],[37.447109,48.57725],[37.447076,48.577068],[37.447076,48.577056],[37.44708,48.577029],[37.446985,48.577029],[37.446814,48.577029],[37.446736,48.577029],[37.446744,48.577059],[37.446797,48.577276],[37.446897,48.577594],[37.446985,48.577588]]]}},{"type":"Feature","properties":{"cadnum":"1411746200:01:000:0001"},"geometry":{"type":"Polygon","coordinates":[[[37.445608,48.576021],[37.44581,48.575966],[37.446232,48.575853],[37.446084,48.575624],[37.445451,48.575737],[37.445545,48.575909],[37.445608,48.576021]]]}},{"type":"Feature","properties":{"cadnum":"1411746200:01:000:0144"},"geometry":{"type":"Polygon","coordinates":[[[37.446985,48.576145],[37.446985,48.57614498233215],[37.447212,48.576076],[37.44695,48.575734],[37.446916,48.575692],[37.446814,48.575557],[37.446814,48.57555750442478],[37.446803,48.575543],[37.446596,48.575579],[37.44657,48.575567],[37.446515,48.575582],[37.446637,48.575752],[37.446663,48.57579],[37.446929,48.576162],[37.446985,48.576145]]]}},{"type":"Feature","properties":{"cadnum":"1411746200:03:000:0057"},"geometry":{"type":"Polygon","coordinates":[[[37.377547,48.563381],[37.377744,48.562742],[37.37747,48.562695],[37.377277,48.563334],[37.377547,48.563381]]]}},{"type":"Feature","properties":{"cadnum":"1411746200:03:000:0016"},"geometry":{"type":"Polygon","coordinates":[[[37.358647,48.559972],[37.358714,48.559794],[37.358893,48.559336],[37.35862,48.559291],[37.358448,48.55974],[37.358381,48.559915],[37.358647,48.559972]]]}},{"type":"Feature","properties":{"cadnum":"1411746200:03:000:0045"},"geometry":{"type":"Polygon","coordinates":[[[37.370652,48.561919],[37.370675,48.561847],[37.370298,48.561746],[37.370266,48.561833],[37.370652,48.561919]]]}},{"type":"Feature","properties":{"cadnum":"1411746200:01:000:0121"},"geometry":{"type":"Polygon","coordinates":[[[37.469351,48.567192],[37.469494,48.567133],[37.469135,48.566743],[37.468991,48.5668],[37.469351,48.567192]]]}},{"type":"Feature","properties":{"cadnum":"1411746200:02:000:0064"},"geometry":{"type":"Polygon","coordinates":[[[37.435138,48.578289],[37.435138,48.57812],[37.434711,48.578206],[37.43472257142857,48.578368],[37.434722,48.578368],[37.434725,48.578402],[37.434729,48.578481],[37.4347301259542,48.578481],[37.434742,48.578664],[37.434742,48.578684],[37.434842,48.578646],[37.434882,48.578628],[37.435142,48.578518],[37.435142,48.578497],[37.43513971428572,48.578398714286024],[37.435138,48.578289]]]}},{"type":"Feature","properties":{"cadnum":"1411746200:02:000:0033"},"geometry":{"type":"Polygon","coordinates":[[[37.418339,48.573291],[37.418888,48.573151],[37.418982,48.573139],[37.419004,48.573131],[37.419062,48.573115],[37.419207,48.57308],[37.419179,48.573029],[37.419175,48.573032],[37.419152,48.57299],[37.419112,48.572928],[37.419112,48.572922],[37.418978,48.572958],[37.418249,48.573131],[37.418339,48.573291]]]}},{"type":"Feature","properties":{"cadnum":"1411746200:02:000:0066"},"geometry":{"type":"Polygon","coordinates":[[[37.41944270642226,48.57184557798159],[37.419519,48.571827],[37.419519,48.571826709677424],[37.419534,48.571823],[37.419458,48.571635],[37.419071,48.571745],[37.418798,48.57182],[37.418758,48.571831],[37.418762,48.57184],[37.418779,48.571873],[37.418848,48.571995],[37.418874,48.571986],[37.419018,48.57195],[37.419211,48.571902],[37.419348,48.57186863961039],[37.419348,48.571869],[37.41944270642226,48.57184557798159]]]}},{"type":"Feature","properties":{"cadnum":"1411746200:02:000:0070"},"geometry":{"type":"Polygon","coordinates":[[[37.419615,48.57436],[37.419764,48.574349],[37.419794,48.574346],[37.419741,48.574191],[37.419691,48.574067],[37.41967,48.574069],[37.419561,48.574093],[37.419455607068315,48.574104380457406],[37.419211,48.574129],[37.419131,48.574131],[37.419089,48.574131],[37.419062,48.574405],[37.419348,48.57438184463895],[37.419348,48.574383],[37.419615,48.57436]]]}},{"type":"Feature","properties":{"cadnum":"1411746200:02:000:0072"},"geometry":{"type":"Polygon","coordinates":[[[37.419071,48.574281],[37.419089,48.574131],[37.419089,48.573814],[37.419058,48.573677],[37.418861,48.573704],[37.418793,48.573706],[37.418752,48.574281],[37.419071,48.574281]]]}},{"type":"Feature","properties":{"cadnum":"1411746200:01:000:0227"},"geometry":{"type":"Polygon","coordinates":[[[37.4744209428573,48.587671857142844],[37.474451,48.587669],[37.474451,48.58766886231884],[37.474831,48.587631],[37.474861,48.587628],[37.474835,48.587486],[37.474798,48.587489],[37.474493,48.587513],[37.474439,48.587521],[37.474336,48.587533],[37.473995,48.587572],[37.474026,48.587709],[37.474169,48.587694],[37.474188,48.587694],[37.474279,48.58768534980988],[37.474279,48.587686],[37.4744209428573,48.587671857142844]]]}},{"type":"Feature","properties":{"cadnum":"1411746200:01:000:0307"},"geometry":{"type":"Polygon","coordinates":[[[37.473496,48.5889],[37.473532,48.588894],[37.473622,48.588882],[37.473609,48.588855],[37.473699,48.588834],[37.473779,48.588819],[37.474148,48.58879],[37.474076,48.588641],[37.473739,48.588677],[37.473451,48.588718],[37.47342,48.588724],[37.473496,48.5889]]]}},{"type":"Feature","properties":{"cadnum":"1411746200:01:000:0235"},"geometry":{"type":"Polygon","coordinates":[[[37.472728,48.586491],[37.472764,48.586487],[37.473091,48.586469],[37.473334,48.586454],[37.473312,48.5863],[37.473119,48.586312],[37.472733,48.586333],[37.472697,48.586335],[37.472728,48.586491]]]}},{"type":"Feature","properties":{"cadnum":"1411746200:01:000:0179"},"geometry":{"type":"Polygon","coordinates":[[[37.475374,48.585626],[37.47528605714281,48.585635],[37.475279,48.585635],[37.475032,48.585661],[37.474735,48.585694],[37.474743,48.585749],[37.47474400862069,48.585749],[37.474754,48.58581],[37.47492,48.585792],[37.474924,48.585801],[37.475051,48.585789],[37.475059,48.585833],[37.475397,48.585795],[37.47538631226763,48.585720650557406],[37.475374,48.585626]]]}},{"type":"Feature","properties":{"cadnum":"1411746200:01:000:0094"},"geometry":{"type":"Polygon","coordinates":[[[37.450369,48.579109],[37.450463,48.578651],[37.44991,48.578628],[37.449799,48.578649],[37.449673,48.579035],[37.450369,48.579109]]]}},{"type":"Feature","properties":{"cadnum":"1411746200:01:000:0129"},"geometry":{"type":"Polygon","coordinates":[[[37.449309,48.578016],[37.449291,48.577998],[37.449021,48.578081],[37.44904,48.578102],[37.44921,48.578281],[37.449296565000004,48.578368],[37.449296,48.578368],[37.449529,48.578602],[37.449785,48.578492],[37.449774,48.578481],[37.449775,48.578481],[37.449309,48.578016]]]}},{"type":"Feature","properties":{"cadnum":"1411746200:01:000:0015"},"geometry":{"type":"Polygon","coordinates":[[[37.449673,48.579035],[37.449799,48.578649],[37.44961,48.578682],[37.449174,48.57875],[37.449071,48.578966],[37.449673,48.579035]]]}},{"type":"Feature","properties":{"cadnum":"1411746200:01:000:0130"},"geometry":{"type":"Polygon","coordinates":[[[37.44956,48.578631],[37.44982,48.57853],[37.449785,48.578492],[37.449529,48.578602],[37.44956,48.578631]]]}},{"type":"Feature","properties":{"cadnum":"1411746200:01:000:0152"},"geometry":{"type":"Polygon","coordinates":[[[37.447845,48.580417],[37.448182,48.580399],[37.448289,48.580396],[37.448717,48.580375],[37.44877,48.58017],[37.448258,48.580191],[37.448151,48.580197],[37.447809,48.580212],[37.447845,48.580417]]]}},{"type":"Feature","properties":{"cadnum":"1411746200:01:000:0173"},"geometry":{"type":"Polygon","coordinates":[[[37.464961,48.568437],[37.464967,48.568419],[37.46494,48.568417],[37.464935,48.568434],[37.464961,48.568437]]]}},{"type":"Feature","properties":{"cadnum":"1411746200:01:000:0308"},"geometry":{"type":"Polygon","coordinates":[[[37.466835,48.569615],[37.466984,48.569552],[37.466965,48.569531],[37.466915,48.569469],[37.466852,48.569391],[37.466319,48.568639],[37.466152,48.56869],[37.466215,48.568782],[37.466754,48.569519],[37.466822,48.569593],[37.466835,48.569615]]]}},{"type":"Feature","properties":{"cadnum":"1411746200:01:000:0294"},"geometry":{"type":"Polygon","coordinates":[[[37.468047,48.569091],[37.468061,48.569085],[37.468133,48.569056],[37.468164,48.569041],[37.46833,48.568967],[37.468309,48.568946],[37.468299,48.568934],[37.468196,48.568839],[37.468137,48.5688],[37.46789,48.568505],[37.467877,48.568485],[37.467626,48.568571],[37.467846,48.568857],[37.467963,48.568981],[37.468034,48.569062],[37.468039,48.569073],[37.468047,48.569091]]]}},{"type":"Feature","properties":{"cadnum":"1411746200:01:000:0282"},"geometry":{"type":"Polygon","coordinates":[[[37.467437,48.569356],[37.46759,48.569287],[37.467571,48.569267],[37.467361,48.569056],[37.466929,48.568423],[37.466764,48.568473],[37.467204,48.569124],[37.467271,48.569201],[37.467418,48.569338],[37.467437,48.569356]]]}},{"type":"Feature","properties":{"cadnum":"1411746200:01:000:0057"},"geometry":{"type":"Polygon","coordinates":[[[37.46833,48.568967],[37.468605,48.568836],[37.468582,48.568818],[37.468573,48.568812],[37.468389,48.568642],[37.468192,48.568381],[37.46789,48.568505],[37.468137,48.5688],[37.468196,48.568839],[37.468299,48.568934],[37.468309,48.568946],[37.46833,48.568967]]]}},{"type":"Feature","properties":{"cadnum":"1411746200:01:000:0050"},"geometry":{"type":"Polygon","coordinates":[[[37.464202,48.569507],[37.46432,48.569439],[37.464045,48.569225],[37.463929,48.569287],[37.464202,48.569507]]]}},{"type":"Feature","properties":{"cadnum":"1411746200:01:000:0174"},"geometry":{"type":"Polygon","coordinates":[[[37.46789,48.568505],[37.468192,48.568381],[37.468177,48.56836],[37.468043,48.568179],[37.467743,48.568304],[37.46786,48.568461],[37.467877,48.568485],[37.46789,48.568505]]]}},{"type":"Feature","properties":{"cadnum":"1411746200:01:000:0114"},"geometry":{"type":"Polygon","coordinates":[[[37.465214,48.570346],[37.465223,48.570342],[37.46525,48.570331],[37.465353,48.570283],[37.465326,48.570259],[37.465267,48.570197],[37.465223,48.570161],[37.46502,48.569998],[37.46481,48.569825],[37.46432,48.569439],[37.464202,48.569507],[37.46472,48.56993],[37.465183,48.570318],[37.465214,48.570346]]]}},{"type":"Feature","properties":{"cadnum":"1411746200:01:000:0049"},"geometry":{"type":"Polygon","coordinates":[[[37.467648,48.57004],[37.468047,48.569879],[37.467707,48.569529],[37.467527,48.569593],[37.467361,48.569656],[37.46741,48.569725],[37.467648,48.57004]]]}},{"type":"Feature","properties":{"cadnum":"1411746200:01:000:0188"},"geometry":{"type":"Polygon","coordinates":[[[37.464841,48.570673],[37.465083,48.570571],[37.465047,48.570536],[37.464881,48.570373],[37.464531,48.570021],[37.464307,48.570117],[37.464648,48.57047],[37.464805,48.57064],[37.464841,48.570673]]]}},{"type":"Feature","properties":{"cadnum":"1411746200:01:000:0176"},"geometry":{"type":"Polygon","coordinates":[[[37.466108,48.569998],[37.466242,48.569944],[37.466062,48.569742],[37.465533,48.569151],[37.465353,48.569216],[37.465892,48.569811],[37.465936,48.569796],[37.466108,48.569998]]]}},{"type":"Feature","properties":{"cadnum":"1411746200:01:000:0305"},"geometry":{"type":"Polygon","coordinates":[[[37.466709,48.569674],[37.466835,48.569615],[37.466822,48.569593],[37.466754,48.569519],[37.466215,48.568782],[37.466076,48.568827],[37.466598,48.56954],[37.466584,48.569546],[37.466615,48.569576],[37.466619,48.569573],[37.466691,48.569653],[37.466709,48.569674]]]}},{"type":"Feature","properties":{"cadnum":"1411746200:01:000:0172"},"geometry":{"type":"Polygon","coordinates":[[[37.465479,48.568562],[37.465676,48.568078],[37.4656,48.568063],[37.465397,48.568551],[37.465479,48.568562]]]}},{"type":"Feature","properties":{"cadnum":"1411746200:02:000:0014"},"geometry":{"type":"Polygon","coordinates":[[[37.423366,48.578322],[37.423127,48.578245],[37.423038919491525,48.578368],[37.423038,48.578368],[37.4229757047618,48.57845627619063],[37.422958,48.578481],[37.42295825752508,48.578481],[37.422827,48.578667],[37.422687,48.578866],[37.422916,48.578949],[37.423056,48.578756],[37.423251618556705,48.578481],[37.423252,48.578481],[37.423366,48.578322]]]}},{"type":"Feature","properties":{"cadnum":"1411746200:01:000:0146"},"geometry":{"type":"Polygon","coordinates":[[[37.469256,48.579724],[37.469355,48.579719],[37.469814,48.579686],[37.469785,48.579508],[37.469535,48.579523],[37.469219,48.579543],[37.468789,48.579567],[37.468812,48.579752],[37.468958,48.579743],[37.468958,48.57974279279279],[37.469256,48.579724]]]}},{"type":"Feature","properties":{"cadnum":"1411746200:01:000:0083"},"geometry":{"type":"Polygon","coordinates":[[[37.468906,48.579195],[37.469441,48.579169],[37.469741,48.579154],[37.469777,48.579151],[37.469795,48.578973],[37.469764,48.578973],[37.469427,48.578988],[37.469131,48.579005],[37.469112,48.579005],[37.468923,48.579017],[37.468906,48.579195]]]}},{"type":"Feature","properties":{"cadnum":"1411746200:01:000:0281"},"geometry":{"type":"Polygon","coordinates":[[[37.469041,48.580919],[37.469634,48.580877],[37.469661,48.580875],[37.469804,48.580866],[37.469974,48.580854],[37.470007,48.580851],[37.469974,48.58067],[37.469938,48.580673],[37.469647,48.58069],[37.468982,48.580735],[37.469041,48.580919]]]}},{"type":"Feature","properties":{"cadnum":"1411746200:01:000:0296"},"geometry":{"type":"Polygon","coordinates":[[[37.471825,48.581849],[37.471852,48.581846],[37.472881,48.58176],[37.472907,48.581606],[37.471879,48.58168],[37.471848,48.581683],[37.471825,48.581849]]]}},{"type":"Feature","properties":{"cadnum":"1411746200:01:000:0170"},"geometry":{"type":"Polygon","coordinates":[[[37.472091,48.58023],[37.472521,48.5802],[37.47294,48.580173],[37.472975,48.579891],[37.472773,48.5799],[37.472747,48.580034],[37.472553,48.580043],[37.472118,48.580063],[37.472091,48.58023]]]}},{"type":"Feature","properties":{"cadnum":"1411746200:01:000:0211"},"geometry":{"type":"Polygon","coordinates":[[[37.472059,48.580518],[37.472683,48.580464],[37.472751,48.580188],[37.472122,48.580226],[37.472091,48.58023],[37.472028,48.580518],[37.472059,48.580518]]]}},{"type":"Feature","properties":{"cadnum":"1411746200:01:000:0032"},"geometry":{"type":"Polygon","coordinates":[[[37.472337,48.579083],[37.472374,48.57908],[37.473716,48.579017],[37.473743,48.578884],[37.472395,48.578946],[37.472364,48.578949],[37.472337,48.579083]]]}},{"type":"Feature","properties":{"cadnum":"1411746200:01:000:0297"},"geometry":{"type":"Polygon","coordinates":[[[37.471794,48.581992],[37.471829,48.581989],[37.472854,48.581893],[37.472881,48.58176],[37.471852,48.581846],[37.471825,48.581849],[37.471794,48.581992]]]}},{"type":"Feature","properties":{"cadnum":"1411746200:01:000:0156"},"geometry":{"type":"Polygon","coordinates":[[[37.472898,48.581876],[37.4743,48.581787],[37.474336,48.581519],[37.47293,48.581576],[37.472898,48.581876]]]}},{"type":"Feature","properties":{"cadnum":"1411746200:01:000:0262"},"geometry":{"type":"Polygon","coordinates":[[[37.469301,48.578842],[37.469468,48.57883],[37.4698,48.578798],[37.469808,48.578556],[37.469462,48.578587],[37.469296,48.578604],[37.469301,48.578842]]]}},{"type":"Feature","properties":{"cadnum":"1411746200:01:000:0302"},"geometry":{"type":"Polygon","coordinates":[[[37.471049,48.581585],[37.471089,48.581582],[37.471152,48.581576],[37.471569,48.581537],[37.471596,48.581534],[37.471655,48.581216],[37.471609,48.581219],[37.471089,48.581261],[37.471049,48.581263],[37.471049,48.581585]]]}},{"type":"Feature","properties":{"cadnum":"1411746200:01:000:0171"},"geometry":{"type":"Polygon","coordinates":[[[37.472118,48.580063],[37.472391,48.580051],[37.472747,48.580034],[37.472773,48.5799],[37.472414,48.579915],[37.472144,48.579926],[37.472118,48.580063]]]}},{"type":"Feature","properties":{"cadnum":"1411746200:00:003:0019"},"geometry":{"type":"Polygon","coordinates":[[[37.360066,48.561131],[37.360129,48.560917],[37.359815,48.560876],[37.359752,48.561089],[37.360066,48.561131]]]}},{"type":"Feature","properties":{"cadnum":"1411746200:00:003:0010"},"geometry":{"type":"Polygon","coordinates":[[[37.360129,48.560917],[37.360201,48.560673],[37.360222,48.560593],[37.360201,48.560591],[37.360277,48.56034],[37.360125,48.56032],[37.359985,48.560299],[37.359886,48.560629],[37.359815,48.560876],[37.360129,48.560917]]]}},{"type":"Feature","properties":{"cadnum":"1411746200:05:000:0034"},"geometry":{"type":"Polygon","coordinates":[[[37.40924,48.562413],[37.409703,48.562347],[37.410232,48.562273],[37.410152,48.562074],[37.409621,48.562148],[37.409154,48.562213],[37.40924,48.562413]]]}},{"type":"Feature","properties":{"cadnum":"1411746200:05:000:0037"},"geometry":{"type":"Polygon","coordinates":[[[37.408714,48.561235],[37.409469,48.56114],[37.409374,48.560911],[37.408615,48.561006],[37.408714,48.561235]]]}},{"type":"Feature","properties":{"cadnum":"1411746200:01:000:0177"},"geometry":{"type":"Polygon","coordinates":[[[37.474332,48.573615],[37.474451,48.57359],[37.474451,48.57358967],[37.475032,48.573466],[37.474997,48.573288],[37.474451,48.573400545961],[37.474451,48.5734],[37.474273,48.573437],[37.474013,48.57349],[37.474072,48.573668],[37.474279,48.57362580384615],[37.474279,48.573627],[37.474332,48.573615]]]}},{"type":"Feature","properties":{"cadnum":"1411746200:01:000:0193"},"geometry":{"type":"Polygon","coordinates":[[[37.471808,48.57456],[37.471871,48.574551],[37.472234,48.574494],[37.472961,48.574382],[37.472926,48.574224],[37.472194,48.574343],[37.471835,48.574402],[37.471776,48.574411],[37.471808,48.57456]]]}},{"type":"Feature","properties":{"cadnum":"1411746200:01:000:0295"},"geometry":{"type":"Polygon","coordinates":[[[37.472091,48.572483],[37.472126,48.572477],[37.472131,48.572479],[37.472144,48.572477],[37.472144,48.572474],[37.472238,48.572455],[37.472274,48.57245],[37.472464,48.572414],[37.472481,48.572411],[37.472464,48.572358],[37.472347,48.572004],[37.471902,48.57206],[37.471991,48.572256],[37.472091,48.572474],[37.472091,48.572483]]]}},{"type":"Feature","properties":{"cadnum":"1411746200:01:000:0167"},"geometry":{"type":"Polygon","coordinates":[[[37.469103,48.574738],[37.469211,48.574732],[37.469198,48.574616],[37.469089,48.574622],[37.469103,48.574738]]]}},{"type":"Feature","properties":{"cadnum":"1411746200:01:000:0148"},"geometry":{"type":"Polygon","coordinates":[[[37.47267,48.573258],[37.473685,48.573065],[37.473613,48.572908],[37.472611,48.5731],[37.47267,48.573258]]]}},{"type":"Feature","properties":{"cadnum":"1411746200:01:000:0138"},"geometry":{"type":"Polygon","coordinates":[[[37.47442764561412,48.573009743859636],[37.474451,48.573005],[37.474451,48.573004833065816],[37.474902,48.57291],[37.474839,48.572744],[37.474279,48.572857],[37.474279,48.57285784244373],[37.473829,48.572949],[37.473856,48.573023],[37.473886,48.573122],[37.474259,48.573044],[37.474279,48.573039937500006],[37.474279,48.573041],[37.47442764561412,48.573009743859636]]]}},{"type":"Feature","properties":{"cadnum":"1411746200:01:000:0274"},"geometry":{"type":"Polygon","coordinates":[[[37.472557,48.572197],[37.472907,48.572135],[37.473856,48.571968],[37.47381,48.571853],[37.472966,48.571981],[37.472521,48.572028],[37.472512,48.572028],[37.472557,48.572197]]]}},{"type":"Feature","properties":{"cadnum":"1411746200:01:000:0139"},"geometry":{"type":"Polygon","coordinates":[[[37.472395,48.572884],[37.47341,48.572675],[37.47338,48.57258],[37.473353,48.572501],[37.473177,48.572539],[37.472337,48.572723],[37.472395,48.572884]]]}},{"type":"Feature","properties":{"cadnum":"1411746200:01:000:0137"},"geometry":{"type":"Polygon","coordinates":[[[37.472733,48.573424],[37.473397,48.5733],[37.47376,48.573232],[37.473685,48.573065],[37.473316,48.573136],[37.47267,48.573258],[37.472733,48.573424]]]}},{"type":"Feature","properties":{"cadnum":"1411746200:01:000:0147"},"geometry":{"type":"Polygon","coordinates":[[[37.472611,48.5731],[37.473613,48.572908],[37.473546,48.572761],[37.472544,48.572952],[37.472567,48.572999],[37.472611,48.5731]]]}},{"type":"Feature","properties":{"cadnum":"1411746200:01:000:0085"},"geometry":{"type":"Polygon","coordinates":[[[37.470774,48.571666],[37.470797,48.571662],[37.470833,48.571653],[37.470814,48.57162],[37.470882,48.571606],[37.47111,48.571558],[37.471062,48.571457],[37.470976,48.571279],[37.470837,48.57132],[37.470586,48.571362],[37.470621,48.571419],[37.470774,48.571666]]]}},{"type":"Feature","properties":{"cadnum":"1411746200:01:000:0026"},"geometry":{"type":"Polygon","coordinates":[[[37.470464,48.574426],[37.471066,48.574402],[37.471542,48.574387],[37.47147,48.574096],[37.47112,48.574108],[37.47046,48.574126],[37.470464,48.574426]]]}},{"type":"Feature","properties":{"cadnum":"1411746200:01:000:0271"},"geometry":{"type":"Polygon","coordinates":[[[37.471825,48.571989],[37.472095,48.571959],[37.472347,48.571933],[37.472368,48.571918],[37.472374,48.571902],[37.472374,48.5719],[37.472351,48.57176],[37.472347,48.571721],[37.472342,48.571704],[37.472328,48.571597],[37.472292,48.571603],[37.471794,48.571686],[37.471785,48.571769],[37.471772,48.571778],[37.471749,48.571787],[37.471825,48.571989]]]}},{"type":"Feature","properties":{"cadnum":"1411746200:01:000:0183"},"geometry":{"type":"Polygon","coordinates":[[[37.471385,48.573448],[37.471808,48.573377],[37.472059,48.573332],[37.472504,48.573258],[37.472458,48.573127],[37.472018,48.573202],[37.471766,48.573243],[37.47134,48.573314],[37.471385,48.573448]]]}},{"type":"Feature","properties":{"cadnum":"1411746200:01:000:0311"},"geometry":{"type":"Polygon","coordinates":[[[37.471435,48.5736],[37.471466,48.573594],[37.472548,48.573415],[37.472508,48.573258],[37.471686,48.573404],[37.471655,48.573407],[37.471605,48.573419],[37.471416,48.573446],[37.471385,48.573451],[37.471435,48.5736]]]}},{"type":"Feature","properties":{"cadnum":"1411746200:01:000:0190"},"geometry":{"type":"Polygon","coordinates":[[[37.471776,48.574411],[37.471835,48.574402],[37.472194,48.574343],[37.472831,48.574239],[37.472804,48.574108],[37.472152,48.574212],[37.471802,48.574265],[37.471745,48.574274],[37.471776,48.574411]]]}},{"type":"Feature","properties":{"cadnum":"1411746200:01:000:0161"},"geometry":{"type":"Polygon","coordinates":[[[37.452478,48.57559958415842],[37.45261,48.575722],[37.452961,48.57557],[37.452663,48.575285],[37.452478,48.57536502808989],[37.452478,48.575365],[37.452305,48.575439],[37.452307,48.57544086127167],[37.452307,48.575441],[37.4523497764703,48.575480670587964],[37.452478,48.5756],[37.452478,48.57559958415842]]]}},{"type":"Feature","properties":{"cadnum":"1411746200:01:000:0310"},"geometry":{"type":"Polygon","coordinates":[[[37.449174,48.577942],[37.449543,48.577778],[37.449524,48.577757],[37.449457,48.57768],[37.449287,48.577309],[37.449071,48.5774],[37.449017,48.577422],[37.449165,48.577921],[37.449174,48.577942]]]}},{"type":"Feature","properties":{"cadnum":"1411746200:01:000:0160"},"geometry":{"type":"Polygon","coordinates":[[[37.452307,48.575438144508674],[37.452307,48.575439],[37.452663,48.575285],[37.452493,48.575118],[37.45234,48.574966],[37.452319,48.574976],[37.452296,48.574952],[37.451927,48.5751],[37.45212,48.575276],[37.452305,48.575439],[37.452307,48.575438144508674]]]}},{"type":"Feature","properties":{"cadnum":"1411746200:01:000:0131"},"geometry":{"type":"Polygon","coordinates":[[[37.449296,48.577145],[37.449646,48.576999],[37.44947,48.576741],[37.449327,48.576554],[37.449313,48.576533],[37.449044,48.576679],[37.449147,48.576821],[37.449296,48.577145]]]}},{"type":"Feature","properties":{"cadnum":"1411746200:01:000:0306"},"geometry":{"type":"Polygon","coordinates":[[[37.448168,48.576807],[37.448267,48.576756],[37.447459,48.57601],[37.447229,48.575743],[37.447099,48.575793],[37.447422,48.576168],[37.448168,48.576807]]]}},{"type":"Feature","properties":{"cadnum":"1411746200:01:000:0134"},"geometry":{"type":"Polygon","coordinates":[[[37.449071,48.5774],[37.449287,48.577309],[37.449354,48.577279],[37.449323,48.577204],[37.449034,48.577327],[37.449071,48.5774]]]}},{"type":"Feature","properties":{"cadnum":"1411746200:01:000:0264"},"geometry":{"type":"Polygon","coordinates":[[[37.448613,48.577353],[37.448994,48.577241],[37.448868,48.576966],[37.448784,48.576789],[37.448545,48.576875],[37.448447,48.576911],[37.448613,48.577353]]]}},{"type":"Feature","properties":{"cadnum":"1411746200:01:000:0132"},"geometry":{"type":"Polygon","coordinates":[[[37.449354,48.577279],[37.449529,48.577208],[37.44973,48.577127],[37.449646,48.576999],[37.449296,48.577145],[37.449323,48.577204],[37.449354,48.577279]]]}},{"type":"Feature","properties":{"cadnum":"1411746200:01:000:0279"},"geometry":{"type":"Polygon","coordinates":[[[37.450126,48.57582],[37.450386,48.575704],[37.450373,48.575689],[37.450199,48.575496],[37.450153,48.575446],[37.449969,48.575223],[37.449677,48.575344],[37.449929,48.575612],[37.450113,48.575805],[37.450126,48.57582]]]}},{"type":"Feature","properties":{"cadnum":"1411746200:01:000:0157"},"geometry":{"type":"Polygon","coordinates":[[[37.451518,48.576239],[37.451676,48.576155],[37.451245,48.575796],[37.451174,48.575734],[37.450988,48.575579],[37.450832,48.575659],[37.451021,48.57582],[37.451101,48.575888],[37.451518,48.576239]]]}},{"type":"Feature","properties":{"cadnum":"1411746200:01:000:0269"},"geometry":{"type":"Polygon","coordinates":[[[37.450032,48.578322],[37.450248,48.578212],[37.449956,48.577939],[37.449803,48.577796],[37.449776,48.577772],[37.449566,48.577882],[37.449587,48.577903],[37.449807,48.578108],[37.450032,48.578322]]]}},{"type":"Feature","properties":{"cadnum":"1411746200:00:000:0142"},"geometry":{"type":"Polygon","coordinates":[[[37.451344,48.576367],[37.45155,48.576265],[37.451021,48.57582],[37.450971,48.575778],[37.450832,48.575659],[37.450684,48.575734],[37.450809,48.575856],[37.450904,48.575944],[37.451344,48.576367]]]}},{"type":"Feature","properties":{"cadnum":"1411746200:01:000:0027"},"geometry":{"type":"Polygon","coordinates":[[[37.451518,48.576239],[37.451676,48.576155],[37.451245,48.575796],[37.451174,48.575734],[37.450988,48.575579],[37.450832,48.575659],[37.451021,48.57582],[37.451101,48.575888],[37.451518,48.576239]]]}},{"type":"Feature","properties":{"cadnum":"1411746200:01:000:0133"},"geometry":{"type":"Polygon","coordinates":[[[37.449034,48.577327],[37.449323,48.577204],[37.449296,48.577145],[37.449147,48.576821],[37.449044,48.576679],[37.448784,48.576789],[37.448868,48.576966],[37.448994,48.577241],[37.449034,48.577327]]]}},{"type":"Feature","properties":{"cadnum":"1411746200:02:000:0061"},"geometry":{"type":"Polygon","coordinates":[[[37.425764,48.580696],[37.425922,48.580468],[37.426073,48.580241],[37.426087,48.580224],[37.425836,48.580138],[37.425823,48.580158],[37.42567,48.580384],[37.425597,48.580492],[37.425513,48.580613],[37.425701,48.580675],[37.425764,48.580696]]]}},{"type":"Feature","properties":{"cadnum":"1411746200:02:000:0075"},"geometry":{"type":"Polygon","coordinates":[[[37.430035,48.579323],[37.430014,48.579556],[37.430334,48.57956120325203],[37.430334,48.579562],[37.430803,48.57957],[37.430822,48.579338],[37.430334,48.579329],[37.430334,48.57932934819533],[37.430035,48.579323]]]}},{"type":"Feature","properties":{"cadnum":"1411746200:01:000:0293"},"geometry":{"type":"Polygon","coordinates":[[[37.474498,48.585249],[37.474529,48.585245],[37.474789,48.58523],[37.474982,48.585216],[37.475032,48.585212],[37.475001,48.584943],[37.474741,48.584954],[37.474458,48.584972],[37.474426,48.584975],[37.474493,48.585249],[37.474498,48.585249]]]}},{"type":"Feature","properties":{"cadnum":"1411746200:02:000:0067"},"geometry":{"type":"Polygon","coordinates":[[[37.420083,48.57836],[37.420083,48.578343],[37.420127,48.57793],[37.420146,48.577781],[37.41997,48.577775],[37.419947,48.577933],[37.41984,48.57793],[37.4198,48.578328],[37.4198,48.578343],[37.420083,48.57836]]]}},{"type":"Feature","properties":{"cadnum":"1411746200:02:000:0076"},"geometry":{"type":"Polygon","coordinates":[[[37.421987,48.577849],[37.42232,48.577725],[37.421691,48.577585],[37.421408,48.577532],[37.421385,48.577525],[37.421376,48.577523],[37.421299,48.577692],[37.421282,48.577728],[37.421278,48.577743],[37.421291,48.577746],[37.421318,48.577748],[37.421349,48.577754],[37.421367,48.577713],[37.421987,48.577849]]]}},{"type":"Feature","properties":{"cadnum":"1411746200:02:000:0074"},"geometry":{"type":"Polygon","coordinates":[[[37.421142,48.575668],[37.421156,48.575481],[37.420217,48.575448],[37.420163,48.575446],[37.42015,48.575627],[37.420194,48.575629],[37.420316,48.575636],[37.420387,48.575638],[37.421142,48.575668]]]}},{"type":"Feature","properties":{"cadnum":"1411746200:02:000:0020"},"geometry":{"type":"Polygon","coordinates":[[[37.421726,48.575502],[37.421735,48.575309],[37.421152,48.575291],[37.421138,48.575481],[37.421726,48.575502]]]}},{"type":"Feature","properties":{"cadnum":"1411746200:02:000:0010"},"geometry":{"type":"Polygon","coordinates":[[[37.421138,48.575481],[37.421152,48.575291],[37.420226,48.575264],[37.420173,48.575261],[37.420163,48.575446],[37.420217,48.575448],[37.421138,48.575481]]]}},{"type":"Feature","properties":{"cadnum":"1411746200:02:000:0023"},"geometry":{"type":"Polygon","coordinates":[[[37.423366,48.578322],[37.423748,48.57779],[37.423509,48.57771],[37.423127,48.578245],[37.423366,48.578322]]]}},{"type":"Feature","properties":{"cadnum":"1411746200:02:000:0068"},"geometry":{"type":"Polygon","coordinates":[[[37.419947,48.577933],[37.41997,48.577775],[37.419867,48.577772],[37.419871,48.577838],[37.419849,48.577838],[37.419844,48.577915],[37.41984,48.57793],[37.419947,48.577933]]]}},{"type":"Feature","properties":{"cadnum":"1411746200:02:000:0029"},"geometry":{"type":"Polygon","coordinates":[[[37.42024,48.575264],[37.420509,48.575252],[37.421209,48.575226],[37.421278,48.575053],[37.420496,48.575062],[37.420221,48.575065],[37.42024,48.575264]]]}},{"type":"Feature","properties":{"cadnum":"1411746200:01:000:0175"},"geometry":{"type":"Polygon","coordinates":[[[37.457516,48.574464],[37.457726,48.574378],[37.457542,48.574149],[37.457353,48.573918],[37.457088,48.574019],[37.457273,48.574209],[37.457267,48.574212],[37.457313,48.574259],[37.457516,48.574464]]]}},{"type":"Feature","properties":{"cadnum":"1411746200:01:000:0288"},"geometry":{"type":"Polygon","coordinates":[[[37.455728,48.574076],[37.456019,48.573939],[37.455583,48.573642],[37.455552,48.573615],[37.455386,48.573478],[37.455179,48.57357],[37.455346,48.573725],[37.455728,48.574076]]]}},{"type":"Feature","properties":{"cadnum":"1411746200:01:000:0143"},"geometry":{"type":"Polygon","coordinates":[[[37.455193,48.574319],[37.455453,48.574221],[37.45522,48.573915],[37.455162,48.57384],[37.455017,48.573653],[37.454784,48.573761],[37.454896,48.573912],[37.454933,48.573962],[37.455193,48.574319]]]}},{"type":"Feature","properties":{"cadnum":"1411746200:01:000:0181"},"geometry":{"type":"Polygon","coordinates":[[[37.455319,48.573303],[37.455619,48.573169],[37.45544,48.572981],[37.455197,48.572726],[37.454914,48.572851],[37.455149,48.573109],[37.455319,48.573303]]]}},{"type":"Feature","properties":{"cadnum":"1411746200:01:000:0265"},"geometry":{"type":"Polygon","coordinates":[[[37.455929,48.573012],[37.456095,48.572926],[37.455879,48.572717],[37.455265,48.572111],[37.455139,48.572179],[37.455723,48.572798],[37.455929,48.573012]]]}},{"type":"Feature","properties":{"cadnum":"1411746200:01:000:0284"},"geometry":{"type":"Polygon","coordinates":[[[37.456958,48.573232],[37.457227,48.572994],[37.456936,48.572839],[37.456724,48.572729],[37.456612,48.572794],[37.456455,48.57288],[37.456478,48.572898],[37.456604,48.572994],[37.456734,48.57308],[37.456828,48.573145],[37.456958,48.573232]]]}},{"type":"Feature","properties":{"cadnum":"1411746200:04:000:0029"},"geometry":{"type":"Polygon","coordinates":[[[37.445675,48.609675],[37.445729,48.609297],[37.445464,48.609283],[37.445405,48.60966],[37.445675,48.609675]]]}},{"type":"Feature","properties":{"cadnum":"1411746200:04:000:0021"},"geometry":{"type":"Polygon","coordinates":[[[37.444992,48.60837],[37.445011,48.608234],[37.445019,48.608157],[37.444552,48.608002],[37.444526,48.608207],[37.444512,48.60833],[37.444799,48.608353],[37.444992,48.60837]]]}},{"type":"Feature","properties":{"cadnum":"1411746200:04:000:0041"},"geometry":{"type":"Polygon","coordinates":[[[37.446551,48.608537],[37.446708,48.607842],[37.446434,48.607851],[37.4463,48.608502],[37.446551,48.608537]]]}},{"type":"Feature","properties":{"cadnum":"1411746200:04:000:0010"},"geometry":{"type":"Polygon","coordinates":[[[37.44559,48.608394],[37.445639,48.608124],[37.445419,48.608097],[37.445411,48.60813],[37.445401,48.608169],[37.445388,48.608205],[37.445342,48.608362],[37.445482,48.608383],[37.44559,48.608394]]]}},{"type":"Feature","properties":{"cadnum":"1411746200:04:000:0003"},"geometry":{"type":"Polygon","coordinates":[[[37.445935,48.609689],[37.446038,48.609015],[37.446101,48.608623],[37.445828,48.608608],[37.445774,48.608995],[37.445675,48.609675],[37.445935,48.609689]]]}},{"type":"Feature","properties":{"cadnum":"1411746200:04:000:0022"},"geometry":{"type":"Polygon","coordinates":[[[37.443677,48.608843],[37.443658,48.609092],[37.443924,48.609092],[37.44395,48.608861],[37.443964,48.608772],[37.444004,48.608412],[37.443717,48.608394],[37.443686,48.608754],[37.443677,48.608843]]]}},{"type":"Feature","properties":{"cadnum":"1411746200:04:000:0044"},"geometry":{"type":"Polygon","coordinates":[[[37.443231,48.608302],[37.443308,48.60778],[37.442971,48.607795],[37.442922,48.608282],[37.442922,48.608288],[37.44303,48.608297],[37.443088,48.608299],[37.443231,48.608302]]]}},{"type":"Feature","properties":{"cadnum":"1411746200:04:000:0004"},"geometry":{"type":"Polygon","coordinates":[[[37.445729,48.609297],[37.44577,48.609021],[37.445774,48.608995],[37.445828,48.608608],[37.445568,48.608594],[37.445505,48.609006],[37.445464,48.609283],[37.445729,48.609297]]]}},{"type":"Feature","properties":{"cadnum":"1411746200:04:000:0024"},"geometry":{"type":"Polygon","coordinates":[[[37.442459,48.609425],[37.442531,48.608489],[37.442549,48.608297],[37.442338,48.608291],[37.442316,48.608531],[37.442248,48.609419],[37.442459,48.609425]]]}},{"type":"Feature","properties":{"cadnum":"1411746200:04:000:0017"},"geometry":{"type":"Polygon","coordinates":[[[37.444382,48.6092],[37.44439,48.608763],[37.44439,48.608695],[37.444396,48.608439],[37.444157,48.608421],[37.444153,48.608691],[37.444153,48.608751],[37.444143,48.6092],[37.444382,48.6092]]]}},{"type":"Feature","properties":{"cadnum":"1411746200:04:000:0025"},"geometry":{"type":"Polygon","coordinates":[[[37.443641,48.60958],[37.443645,48.609443],[37.44365,48.609309],[37.443313,48.609301],[37.443304,48.609437],[37.443299,48.609571],[37.443641,48.60958]]]}},{"type":"Feature","properties":{"cadnum":"1411746200:04:000:0023"},"geometry":{"type":"Polygon","coordinates":[[[37.443941,48.60958],[37.443937,48.609523],[37.44391,48.60952],[37.443914,48.609398],[37.443919,48.609336],[37.443924,48.609092],[37.443658,48.609092],[37.44365,48.609333],[37.443645,48.609398],[37.443641,48.60958],[37.443941,48.60958]]]}},{"type":"Feature","properties":{"cadnum":"1411746200:01:000:0285"},"geometry":{"type":"Polygon","coordinates":[[[37.469009,48.577968],[37.469355,48.577944],[37.469808,48.577909],[37.46984,48.577909],[37.469827,48.577689],[37.469795,48.577692],[37.469315,48.577725],[37.468995,48.577748],[37.469009,48.577968]]]}},{"type":"Feature","properties":{"cadnum":"1411746200:01:000:0080"},"geometry":{"type":"Polygon","coordinates":[[[37.469089,48.577139],[37.469764,48.5771],[37.469759,48.577076],[37.46975,48.577041],[37.469651,48.57656],[37.469638,48.576501],[37.469561,48.576111],[37.469548,48.576054],[37.469341,48.575045],[37.468786,48.575075],[37.468786,48.575075052631576],[37.467514,48.575142],[37.46785,48.576866],[37.467864,48.576952],[37.467881,48.577041],[37.467967,48.577035],[37.46816,48.577026],[37.468173,48.577068],[37.468183,48.577104],[37.468206,48.577187],[37.46834,48.577178],[37.468958,48.577147],[37.468958,48.57714591749175],[37.469089,48.577139]],[[37.468519,48.576851],[37.468523,48.576893],[37.468452,48.576893],[37.468452,48.576851],[37.468519,48.576851]],[[37.468106,48.576334],[37.468336,48.576322],[37.468344,48.576376],[37.468393,48.576723],[37.468164,48.576735],[37.468106,48.576334]]]}},{"type":"Feature","properties":{"cadnum":"1411746200:01:000:0290"},"geometry":{"type":"Polygon","coordinates":[[[37.469875,48.576263],[37.470158,48.576242],[37.470653,48.576209],[37.470626,48.57603],[37.470123,48.576063],[37.46997,48.576072],[37.469848,48.576081],[37.469814,48.576084],[37.469818,48.576105],[37.469822,48.57614],[37.46984,48.576263],[37.469875,48.576263]]]}},{"type":"Feature","properties":{"cadnum":"1411746200:01:000:0299"},"geometry":{"type":"Polygon","coordinates":[[[37.471003,48.575329],[37.471753,48.575255],[37.471789,48.575252],[37.471749,48.575122],[37.471735,48.575089],[37.471699,48.575092],[37.470976,48.575154],[37.471003,48.575329]]]}},{"type":"Feature","properties":{"cadnum":"1411746200:01:000:0073"},"geometry":{"type":"Polygon","coordinates":[[[37.472148,48.575814],[37.472185,48.575811],[37.472953,48.575754],[37.472988,48.575594],[37.472531,48.575644],[37.472225,48.575666],[37.472225,48.575671],[37.472189,48.575675],[37.472131,48.57568],[37.472122,48.57568],[37.472148,48.575814]]]}},{"type":"Feature","properties":{"cadnum":"1411746200:01:000:0287"},"geometry":{"type":"Polygon","coordinates":[[[37.472548,48.578215],[37.473177,48.578177],[37.473209,48.577885],[37.472823,48.577921],[37.472553,48.577944],[37.472521,48.578215],[37.472548,48.578215]]]}},{"type":"Feature","properties":{"cadnum":"1411746200:01:000:0077"},"geometry":{"type":"Polygon","coordinates":[[[37.472319,48.576533],[37.472368,48.57653],[37.473209,48.576462],[37.473213,48.576322],[37.472315,48.576391],[37.472301,48.576391],[37.472284,48.576393],[37.472319,48.576533]]]}},{"type":"Feature","properties":{"cadnum":"1411746200:01:000:0036"},"geometry":{"type":"Polygon","coordinates":[[[37.469881,48.576444],[37.470168,48.57642],[37.470653,48.576387],[37.47063,48.576209],[37.470158,48.576242],[37.469854,48.576263],[37.469822,48.576265],[37.469827,48.576298],[37.469831,48.576331],[37.469844,48.576444],[37.469881,48.576444]]]}},{"type":"Feature","properties":{"cadnum":"1411746200:01:000:0292"},"geometry":{"type":"Polygon","coordinates":[[[37.469961,48.576997],[37.470743,48.576955],[37.470711,48.576777],[37.469934,48.576807],[37.469898,48.576809],[37.46993,48.576997],[37.469961,48.576997]]]}},{"type":"Feature","properties":{"cadnum":"1411746200:01:000:0164"},"geometry":{"type":"Polygon","coordinates":[[[37.470064,48.577981],[37.470294,48.577971],[37.470864,48.577948],[37.47086,48.577769],[37.470276,48.57779],[37.470047,48.577799],[37.470064,48.577981]]]}},{"type":"Feature","properties":{"cadnum":"1411746200:01:000:0039"},"geometry":{"type":"Polygon","coordinates":[[[37.470607,48.575351],[37.47064,48.575347],[37.471003,48.575329],[37.470972,48.575148],[37.470967,48.575113],[37.470603,48.575136],[37.470567,48.57514],[37.470607,48.575351]]]}},{"type":"Feature","properties":{"cadnum":"1411746200:01:000:0209"},"geometry":{"type":"Polygon","coordinates":[[[37.469907,48.57662],[37.470158,48.576602],[37.470204,48.576598],[37.470253,48.576596],[37.470284,48.576596],[37.470684,48.576578],[37.470653,48.576387],[37.470168,48.57642],[37.469881,48.576444],[37.469844,48.576444],[37.469858,48.576521],[37.469871,48.57662],[37.469907,48.57662]]]}},{"type":"Feature","properties":{"cadnum":"1411746200:01:000:0313"},"geometry":{"type":"Polygon","coordinates":[[[37.470976,48.575154],[37.471699,48.575089],[37.471735,48.575089],[37.471676,48.574926],[37.471645,48.574931],[37.471565,48.57494],[37.471448,48.574946],[37.470976,48.574979],[37.470994,48.575107],[37.470967,48.575109],[37.470976,48.575154]]]}},{"type":"Feature","properties":{"cadnum":"1411746200:02:000:0073"},"geometry":{"type":"Polygon","coordinates":[[[37.433144,48.579012],[37.433184,48.579005],[37.433238,48.578999],[37.43331,48.57899],[37.433656,48.578922],[37.433692,48.578631],[37.43313,48.578634],[37.433126,48.578649],[37.433126,48.578673],[37.433121,48.578789],[37.433144,48.579012]],[[37.433193,48.57899],[37.433184,48.578973],[37.433211,48.578966],[37.433216,48.578985],[37.433193,48.57899]]]}},{"type":"Feature","properties":{"cadnum":"1411746200:04:000:0019"},"geometry":{"type":"Polygon","coordinates":[[[37.447962,48.607952],[37.447962,48.607848],[37.447719,48.607845],[37.447719,48.60794],[37.447962,48.607952]]]}},{"type":"Feature","properties":{"cadnum":"1411746200:04:000:0030"},"geometry":{"type":"Polygon","coordinates":[[[37.448088,48.608647],[37.448092,48.608513],[37.448114,48.607905],[37.447962,48.607899],[37.447962,48.607952],[37.44784,48.607947],[37.447826,48.608498],[37.447826,48.608605],[37.448088,48.608647]]]}},{"type":"Feature","properties":{"cadnum":"1411746200:04:000:0039"},"geometry":{"type":"Polygon","coordinates":[[[37.450311,48.609054],[37.450386,48.608872],[37.45049,48.608636],[37.450055,48.608552],[37.449996,48.608795],[37.449942,48.608995],[37.450311,48.609054]]]}},{"type":"Feature","properties":{"cadnum":"1411746200:04:000:0028"},"geometry":{"type":"Polygon","coordinates":[[[37.448019,48.609535],[37.448088,48.609143],[37.448132,48.608872],[37.447831,48.608828],[37.447791,48.609098],[37.447732,48.609493],[37.448019,48.609535]]]}},{"type":"Feature","properties":{"cadnum":"1411746200:01:000:0140"},"geometry":{"type":"Polygon","coordinates":[[[37.474902,48.57291],[37.475265,48.572833],[37.475342,48.572818],[37.475324,48.572747],[37.475297,48.572651],[37.474839,48.572744],[37.474902,48.57291]]]}},{"type":"Feature","properties":{"cadnum":"1411746200:01:000:0178"},"geometry":{"type":"Polygon","coordinates":[[[37.475032,48.573466],[37.47536,48.573395],[37.475391,48.573204],[37.474997,48.573288],[37.475032,48.573466]]]}},{"type":"Feature","properties":{"cadnum":"1411746200:05:000:0035"},"geometry":{"type":"Polygon","coordinates":[[[37.406737,48.556488],[37.407282,48.556405],[37.407169,48.556125],[37.406626,48.556208],[37.406657,48.556292],[37.406674,48.55633],[37.406737,48.556488]]]}},{"type":"Feature","properties":{"cadnum":"1411746200:05:000:0032"},"geometry":{"type":"Polygon","coordinates":[[[37.405202,48.556191],[37.405341,48.556158],[37.405817,48.556039],[37.406212,48.55594],[37.406104,48.555664],[37.405732,48.555757],[37.405188,48.555891],[37.405108,48.555911],[37.405202,48.556191]]]}}]}