{"type":"FeatureCollection","features":[{"type":"Feature","properties":{"cadnum":"1411240000:00:001:0040"},"geometry":{"type":"Polygon","coordinates":[[[37.852411,48.403102],[37.852671,48.40298],[37.852347,48.402687],[37.852091,48.40281],[37.852271,48.402971],[37.852221,48.402994],[37.852231,48.403003],[37.852298,48.40306],[37.852307,48.403066],[37.852347,48.403045],[37.852411,48.403102]]]}},{"type":"Feature","properties":{"cadnum":"1411240000:00:001:0054"},"geometry":{"type":"Polygon","coordinates":[[[37.822783,48.403313],[37.822653,48.403394],[37.822666,48.403403],[37.822748,48.403459],[37.822788,48.403433],[37.822869,48.403489],[37.822855,48.403498],[37.823075,48.40365],[37.822942,48.403736],[37.82294339393939,48.403736],[37.822873,48.403782],[37.822672,48.40391],[37.822702,48.403939],[37.822901,48.404074],[37.823394,48.4038],[37.823439,48.403773],[37.82336494285628,48.40372122857083],[37.822783,48.403313]]]}},{"type":"Feature","properties":{"cadnum":"1411240000:00:001:0470"},"geometry":{"type":"Polygon","coordinates":[[[37.861348,48.401158],[37.861534,48.401067],[37.861706,48.400984],[37.861688,48.400955],[37.861924,48.400859],[37.861781,48.400728],[37.861299,48.40097],[37.861195,48.401021],[37.861348,48.401158]]]}}]}