{"type":"FeatureCollection","features":[{"type":"Feature","properties":{"cadnum":"1412047400:00:001:0093"},"geometry":{"type":"Polygon","coordinates":[[[38.262154,48.264257],[38.262441,48.264186],[38.262118,48.263659],[38.261808,48.263734],[38.262037,48.264081],[38.262154,48.264257]]]}},{"type":"Feature","properties":{"cadnum":"1412047400:00:001:0047"},"geometry":{"type":"Polygon","coordinates":[[[38.261759,48.264159],[38.262037,48.264081],[38.261808,48.263734],[38.261556,48.263797],[38.261759,48.264159]]]}},{"type":"Feature","properties":{"cadnum":"1412047400:00:001:0098"},"geometry":{"type":"Polygon","coordinates":[[[38.26802,48.263663],[38.268357,48.263555],[38.26807,48.263106],[38.267737,48.263199],[38.26802,48.263663]]]}},{"type":"Feature","properties":{"cadnum":"1412047400:00:001:0088"},"geometry":{"type":"Polygon","coordinates":[[[38.270423,48.26287],[38.270666,48.262789],[38.27059,48.262657],[38.270571,48.262631],[38.270342,48.262245],[38.270068,48.262305],[38.270423,48.26287]]]}},{"type":"Feature","properties":{"cadnum":"1412047400:00:001:0034"},"geometry":{"type":"Polygon","coordinates":[[[38.271263,48.259324],[38.271447,48.259088],[38.271227,48.259033],[38.271039,48.259279],[38.271263,48.259324]]]}},{"type":"Feature","properties":{"cadnum":"1412047400:00:001:0083"},"geometry":{"type":"Polygon","coordinates":[[[38.275049,48.2613],[38.274995,48.261207],[38.274946,48.261157],[38.274829,48.261103],[38.274663,48.261049],[38.274613,48.261032],[38.274596,48.261052],[38.274609,48.261058],[38.274519,48.261187],[38.274506,48.261192],[38.274503375,48.261199],[38.274503,48.261199],[38.274488,48.26124],[38.274322,48.261303],[38.274337,48.261313],[38.27433815384616,48.261313],[38.274385,48.261342],[38.27448291397849,48.261313],[38.274484,48.261313],[38.274699,48.261249],[38.274708,48.261247],[38.274852,48.261201],[38.274879,48.261249],[38.274263,48.261462],[38.274433,48.261518],[38.274546,48.261458],[38.275007613924046,48.261313],[38.275009,48.261313],[38.275049,48.2613]]]}},{"type":"Feature","properties":{"cadnum":"1412047400:00:001:0061"},"geometry":{"type":"Polygon","coordinates":[[[38.272121,48.260873],[38.272502,48.260516],[38.272081,48.260412],[38.27173,48.260669],[38.272121,48.260873]]]}},{"type":"Feature","properties":{"cadnum":"1412047400:00:001:0070"},"geometry":{"type":"Polygon","coordinates":[[[38.27372,48.260627],[38.274129,48.260232],[38.273957,48.26017],[38.273454,48.260558],[38.27372,48.260627]]]}},{"type":"Feature","properties":{"cadnum":"1412047400:00:001:0118"},"geometry":{"type":"Polygon","coordinates":[[[38.271473,48.260813],[38.272009,48.260418],[38.271626,48.26034],[38.271129,48.260759],[38.271473,48.260813]]]}},{"type":"Feature","properties":{"cadnum":"1412047400:00:001:0033"},"geometry":{"type":"Polygon","coordinates":[[[38.271223,48.259374],[38.271016,48.259312],[38.2708,48.259593],[38.27096,48.259638],[38.27096,48.259637164648915],[38.271213,48.259707],[38.271223,48.259374]]]}},{"type":"Feature","properties":{"cadnum":"1412047400:00:001:0066"},"geometry":{"type":"Polygon","coordinates":[[[38.271936,48.259108],[38.272242,48.25866],[38.272035,48.258582],[38.271659,48.259028],[38.271936,48.259108]]]}},{"type":"Feature","properties":{"cadnum":"1412047400:00:001:0059"},"geometry":{"type":"Polygon","coordinates":[[[38.273697,48.260104],[38.273873,48.259823],[38.273454,48.259703],[38.27319,48.260006],[38.273343,48.260048],[38.27337,48.260015],[38.273697,48.260104]]]}},{"type":"Feature","properties":{"cadnum":"1412047400:00:001:0087"},"geometry":{"type":"Polygon","coordinates":[[[38.25203,48.264844],[38.252012376344084,48.264855],[38.252011,48.264855],[38.251881,48.264937],[38.252237,48.265217],[38.2523,48.265175],[38.25238,48.265128],[38.252044,48.264855],[38.252043444444446,48.264855],[38.25203,48.264844]]]}},{"type":"Feature","properties":{"cadnum":"1412047400:00:000:0087"},"geometry":{"type":"Polygon","coordinates":[[[38.25203,48.264844],[38.252012376344084,48.264855],[38.252011,48.264855],[38.251881,48.264937],[38.252237,48.265217],[38.2523,48.265175],[38.25238,48.265128],[38.252044,48.264855],[38.252043444444446,48.264855],[38.25203,48.264844]]]}},{"type":"Feature","properties":{"cadnum":"1412047400:00:001:0095"},"geometry":{"type":"Polygon","coordinates":[[[38.252379,48.26497],[38.25237914893617,48.26497],[38.252466,48.265074],[38.252726,48.265438],[38.252866,48.265354],[38.252749,48.265203],[38.252713,48.265154],[38.252546,48.26493],[38.252485,48.264855],[38.25248468613139,48.264855],[38.252434,48.264793],[38.252350666666665,48.264855],[38.252349,48.264855],[38.252309,48.264886],[38.252379,48.26497]]]}},{"type":"Feature","properties":{"cadnum":"1412047400:00:001:0032"},"geometry":{"type":"Polygon","coordinates":[[[38.253818,48.26124],[38.253512,48.261351],[38.253103,48.261573],[38.253103,48.261599],[38.253112,48.261608],[38.253153,48.26168],[38.253593,48.261564],[38.253652,48.261566],[38.253755,48.26156],[38.253782,48.261546],[38.253782,48.261533],[38.253988,48.261447],[38.253881,48.261234],[38.253818,48.26124]]]}},{"type":"Feature","properties":{"cadnum":"1412047400:00:001:0029"},"geometry":{"type":"Polygon","coordinates":[[[38.25448,48.26431],[38.25448,48.26430917391304],[38.254648,48.264164],[38.254311,48.263872],[38.254309,48.263873],[38.254309,48.26387321904762],[38.254101,48.264],[38.254309,48.264185079889806],[38.254309,48.264186],[38.254464,48.264323],[38.25448,48.26431]]]}},{"type":"Feature","properties":{"cadnum":"1412047400:00:001:0080"},"geometry":{"type":"Polygon","coordinates":[[[38.254352,48.262398],[38.254352,48.262395],[38.254401,48.262386],[38.254455,48.262371],[38.254352,48.262182],[38.254002,48.262266],[38.254218,48.262473],[38.254298,48.262433],[38.254307,48.262422],[38.254303,48.262406],[38.254309,48.26240502040816],[38.254309,48.262406],[38.254352,48.262398]]]}},{"type":"Feature","properties":{"cadnum":"1412047400:00:001:0024"},"geometry":{"type":"Polygon","coordinates":[[[38.254586,48.261243],[38.254309,48.261312],[38.254309,48.26131294343892],[38.254038,48.261381],[38.254154,48.261606],[38.254309,48.261571766871164],[38.254309,48.261572],[38.254386151515945,48.261554727272554],[38.25448,48.261534],[38.25448,48.26153371641791],[38.254711,48.261482],[38.25462261087866,48.261313],[38.254623,48.261313],[38.254586,48.261243]]]}},{"type":"Feature","properties":{"cadnum":"1412047400:00:001:0042"},"geometry":{"type":"Polygon","coordinates":[[[38.253468,48.26212],[38.25424,48.261949],[38.254141,48.261755],[38.254082,48.261766],[38.25402,48.261803],[38.25402,48.261821],[38.253359,48.261937],[38.253468,48.26212]]]}},{"type":"Feature","properties":{"cadnum":"1412047400:00:001:0028"},"geometry":{"type":"Polygon","coordinates":[[[38.257833,48.263034],[38.258246,48.262723],[38.258223,48.262664],[38.25813,48.262508],[38.257594,48.262852],[38.257833,48.263034]]]}},{"type":"Feature","properties":{"cadnum":"1412047400:00:001:0019"},"geometry":{"type":"Polygon","coordinates":[[[38.257847,48.264308],[38.257999,48.264204],[38.257699,48.264009],[38.25755,48.264114],[38.257847,48.264308]]]}},{"type":"Feature","properties":{"cadnum":"1412047400:00:001:0119"},"geometry":{"type":"Polygon","coordinates":[[[38.256728,48.262131],[38.257353,48.261775],[38.25716,48.261617],[38.256697,48.261848],[38.256504,48.261946],[38.256728,48.262131]]]}},{"type":"Feature","properties":{"cadnum":"1412047400:00:001:0050"},"geometry":{"type":"Polygon","coordinates":[[[38.256332,48.262661],[38.256522,48.262562],[38.256387,48.262448],[38.256208,48.262293],[38.256001,48.262398],[38.256332,48.262661]]]}},{"type":"Feature","properties":{"cadnum":"1412047400:00:001:0027"},"geometry":{"type":"Polygon","coordinates":[[[38.256818,48.262837],[38.256994,48.262745],[38.256745,48.26252],[38.256558,48.262613],[38.256818,48.262837]]]}},{"type":"Feature","properties":{"cadnum":"1412047400:00:001:0017"},"geometry":{"type":"Polygon","coordinates":[[[38.255479,48.264042],[38.255529,48.263971],[38.255497,48.263958],[38.255579,48.263842],[38.25538,48.263773],[38.255286,48.263898],[38.255309,48.263905],[38.255269,48.263953],[38.255449,48.264027],[38.255466,48.264036],[38.255479,48.264042]]]}},{"type":"Feature","properties":{"cadnum":"1412047400:00:001:0054"},"geometry":{"type":"Polygon","coordinates":[[[38.258596,48.263683],[38.258691,48.263618],[38.258781,48.263549],[38.258556,48.263384],[38.258368,48.263519],[38.258596,48.263683]]]}},{"type":"Feature","properties":{"cadnum":"1412047400:00:001:0020"},"geometry":{"type":"Polygon","coordinates":[[[38.257487,48.264075],[38.25764,48.263971],[38.257554,48.263913],[38.257401,48.264018],[38.257487,48.264075]]]}},{"type":"Feature","properties":{"cadnum":"1412047400:00:001:0072"},"geometry":{"type":"Polygon","coordinates":[[[38.25539,48.261856],[38.255669,48.261698],[38.255642,48.261659],[38.255556,48.261518],[38.25525,48.261615],[38.25539,48.261856]]]}},{"type":"Feature","properties":{"cadnum":"1412047400:00:001:0079"},"geometry":{"type":"Polygon","coordinates":[[[38.25482,48.261698],[38.255111,48.261632],[38.255053,48.261524],[38.255013,48.261447],[38.255007,48.26144],[38.254711,48.261482],[38.25482,48.261698]]]}},{"type":"Feature","properties":{"cadnum":"1412047400:00:001:0082"},"geometry":{"type":"Polygon","coordinates":[[[38.256342,48.261808],[38.257043,48.26154],[38.256868,48.261351],[38.256158,48.26162],[38.256229,48.261695],[38.256256,48.261722],[38.256342,48.261808]]]}},{"type":"Feature","properties":{"cadnum":"1412047400:00:001:0097"},"geometry":{"type":"Polygon","coordinates":[[[38.256994,48.262745],[38.257173,48.262657],[38.256971,48.262466],[38.25694,48.262437],[38.256872,48.262464],[38.256804,48.262493],[38.256745,48.26252],[38.256778,48.26255],[38.256877,48.262637],[38.25694,48.262697],[38.256994,48.262745]]]}},{"type":"Feature","properties":{"cadnum":"1412047400:00:001:0025"},"geometry":{"type":"Polygon","coordinates":[[[38.258156,48.263289],[38.258353,48.263103],[38.258363,48.262801],[38.258246,48.262723],[38.257833,48.263034],[38.258156,48.263289]]]}},{"type":"Feature","properties":{"cadnum":"1412047400:00:001:0105"},"geometry":{"type":"Polygon","coordinates":[[[38.256359,48.262428],[38.256508,48.26234],[38.256589,48.262293],[38.256678,48.262242],[38.256522,48.26212],[38.256208,48.262293],[38.256359,48.262428]]]}},{"type":"Feature","properties":{"cadnum":"1412047400:00:001:0062"},"geometry":{"type":"Polygon","coordinates":[[[38.25525,48.261615],[38.255556,48.261518],[38.255412,48.261318],[38.255133,48.261402],[38.25525,48.261615]]]}},{"type":"Feature","properties":{"cadnum":"1412047400:00:001:0099"},"geometry":{"type":"Polygon","coordinates":[[[38.256814,48.263465],[38.256898,48.263408],[38.256935,48.263388],[38.256898,48.263361],[38.256715,48.263226],[38.256562,48.263115],[38.256535,48.263131],[38.256374,48.263211],[38.256441,48.263271],[38.256445,48.263271],[38.256512,48.263328],[38.256715,48.26342],[38.256768,48.263439],[38.256814,48.263465]]]}},{"type":"Feature","properties":{"cadnum":"1412047400:00:001:0067"},"geometry":{"type":"Polygon","coordinates":[[[38.256284,48.263115],[38.256382,48.263064],[38.256292,48.262993],[38.256288,48.262987],[38.256194,48.263034],[38.256284,48.263115]]]}},{"type":"Feature","properties":{"cadnum":"1412047400:00:001:0026"},"geometry":{"type":"Polygon","coordinates":[[[38.255053,48.264691],[38.255323,48.264521],[38.254891,48.264246],[38.254661,48.264383],[38.255053,48.264691]]]}},{"type":"Feature","properties":{"cadnum":"1412047400:00:001:0048"},"geometry":{"type":"Polygon","coordinates":[[[38.258107,48.264246],[38.258229,48.264173],[38.25813,48.264114],[38.25782,48.263916],[38.257653,48.264033],[38.257959,48.26423],[38.258026,48.264186],[38.258107,48.264246]]]}},{"type":"Feature","properties":{"cadnum":"1412047400:00:001:0049"},"geometry":{"type":"Polygon","coordinates":[[[38.255835,48.262906],[38.255852,48.262882],[38.255812,48.26287],[38.255799,48.262897],[38.255835,48.262906]]]}},{"type":"Feature","properties":{"cadnum":"1412047400:00:001:0121"},"geometry":{"type":"Polygon","coordinates":[[[38.256103,48.261313],[38.25610360416666,48.261313],[38.256001,48.261363],[38.256015,48.261381],[38.256076,48.261471],[38.256145,48.26144],[38.256269,48.261384],[38.256387,48.261327],[38.256415202898545,48.261313],[38.256416,48.261313],[38.256526,48.261258],[38.256531,48.261249],[38.256621,48.261199],[38.257231,48.260888],[38.257105,48.260783],[38.256508,48.261097],[38.256328,48.261196],[38.256248,48.261238],[38.256198,48.261267],[38.256103,48.261313]]]}},{"type":"Feature","properties":{"cadnum":"1412047400:00:001:0113"},"geometry":{"type":"Polygon","coordinates":[[[38.255081,48.261313],[38.25508180107527,48.261313],[38.255133,48.261402],[38.255399,48.261321],[38.25537735365874,48.261283804878396],[38.255264,48.261085],[38.255026,48.261216],[38.255081,48.261313]]]}},{"type":"Feature","properties":{"cadnum":"1412047400:00:001:0053"},"geometry":{"type":"Polygon","coordinates":[[[38.25781,48.266132],[38.258134,48.26597],[38.257712,48.26562],[38.257388,48.265782],[38.25781,48.266132]]]}},{"type":"Feature","properties":{"cadnum":"1412047400:00:001:0065"},"geometry":{"type":"Polygon","coordinates":[[[38.270473,48.25741],[38.27068,48.257353],[38.270405,48.256812],[38.270167,48.25685],[38.270473,48.25741]]]}},{"type":"Feature","properties":{"cadnum":"1412047400:00:001:0055"},"geometry":{"type":"Polygon","coordinates":[[[38.268024,48.256342],[38.268473,48.256289],[38.268343,48.255897],[38.267894,48.255956],[38.268024,48.256342]]]}},{"type":"Feature","properties":{"cadnum":"1412047400:00:001:0023"},"geometry":{"type":"Polygon","coordinates":[[[38.269242,48.25479],[38.269646,48.254781],[38.269619,48.254243],[38.269223,48.254429],[38.269242,48.25479]]]}},{"type":"Feature","properties":{"cadnum":"1412047400:00:001:0057"},"geometry":{"type":"Polygon","coordinates":[[[38.270148,48.255322],[38.270095,48.254915],[38.269664,48.25491],[38.269686,48.25532],[38.270148,48.255322]]]}},{"type":"Feature","properties":{"cadnum":"1412047400:00:001:0063"},"geometry":{"type":"Polygon","coordinates":[[[38.268532,48.257656],[38.26853295846645,48.257656],[38.268806,48.257903],[38.268905,48.257867],[38.268878,48.257834],[38.268919,48.257816],[38.26866578260907,48.2575725217395],[38.268604,48.257512],[38.26855046153845,48.257541],[38.268549,48.257541],[38.26846,48.25759],[38.268532,48.257656]]]}},{"type":"Feature","properties":{"cadnum":"1412047400:00:001:0064"},"geometry":{"type":"Polygon","coordinates":[[[38.268146,48.25814],[38.268123,48.258115],[38.268204,48.258089],[38.268119,48.257981],[38.268078,48.257981],[38.267625,48.257599],[38.267494,48.25767],[38.268038,48.258175],[38.268146,48.25814]]]}},{"type":"Feature","properties":{"cadnum":"1412047400:00:001:0044"},"geometry":{"type":"Polygon","coordinates":[[[38.269817,48.255798],[38.270148,48.255771],[38.270118,48.255591],[38.269768,48.255589],[38.269817,48.255798]]]}},{"type":"Feature","properties":{"cadnum":"1412047400:00:001:0089"},"geometry":{"type":"Polygon","coordinates":[[[38.268447,48.257572],[38.268582,48.25749],[38.268663,48.25744],[38.268469,48.257218],[38.268402,48.25714],[38.268227,48.257231],[38.268244,48.257245],[38.268177,48.257278],[38.268164,48.257264],[38.268047,48.257326],[38.26829645993032,48.257541],[38.268296,48.257541],[38.26838,48.257613],[38.268447,48.257572]]]}},{"type":"Feature","properties":{"cadnum":"1412047400:00:001:0107"},"geometry":{"type":"Polygon","coordinates":[[[38.270387,48.256755],[38.270594,48.256713],[38.2705,48.256154],[38.270181,48.256196],[38.270387,48.256755]]]}},{"type":"Feature","properties":{"cadnum":"1412047400:00:001:0039"},"geometry":{"type":"Polygon","coordinates":[[[38.26763,48.256381],[38.268024,48.256342],[38.267877,48.255899],[38.267477,48.255939],[38.26763,48.256381]]]}},{"type":"Feature","properties":{"cadnum":"1412047400:00:001:0043"},"geometry":{"type":"Polygon","coordinates":[[[38.269762,48.256148],[38.270091,48.256118],[38.270077,48.256067],[38.270148,48.256061],[38.27019,48.256056],[38.270175,48.255974],[38.270167,48.255864],[38.270148,48.255771],[38.269817,48.255798],[38.269768,48.255589],[38.269768,48.255568],[38.269749,48.255568],[38.269628,48.255564],[38.269762,48.256148]]]}},{"type":"Feature","properties":{"cadnum":"1412047400:00:001:0051"},"geometry":{"type":"Polygon","coordinates":[[[38.268563,48.254808],[38.268909,48.254799],[38.268896,48.254589],[38.268546,48.254602],[38.268563,48.254808]]]}},{"type":"Feature","properties":{"cadnum":"1412047400:00:001:0071"},"geometry":{"type":"Polygon","coordinates":[[[38.270175,48.255571],[38.270148,48.255322],[38.269686,48.25532],[38.269699,48.255535],[38.270118,48.255564],[38.270175,48.255571]]]}},{"type":"Feature","properties":{"cadnum":"1412047400:00:001:0037"},"geometry":{"type":"Polygon","coordinates":[[[38.269646,48.254781],[38.269925,48.254778],[38.269925,48.254718],[38.269831,48.254614],[38.269808,48.254195],[38.269619,48.25427],[38.269646,48.254781]]]}},{"type":"Feature","properties":{"cadnum":"1412047400:00:001:0058"},"geometry":{"type":"Polygon","coordinates":[[[38.270791,48.253855],[38.27079201398602,48.253884],[38.270792,48.253884],[38.270791,48.253884],[38.27079532835819,48.25397879104433],[38.270796,48.253998],[38.270796205479456,48.253998],[38.270831,48.25476],[38.27096,48.254759],[38.27096,48.254758139423075],[38.271039,48.254757],[38.27099167741933,48.25399195161249],[38.270984,48.253848],[38.270791,48.253855]]]}},{"type":"Feature","properties":{"cadnum":"1412047400:00:001:0078"},"geometry":{"type":"Polygon","coordinates":[[[38.265932,48.256309],[38.267099,48.256244],[38.267064,48.256139],[38.266884,48.256148],[38.265873,48.256211],[38.265932,48.256309]]]}},{"type":"Feature","properties":{"cadnum":"1412047400:00:001:0090"},"geometry":{"type":"Polygon","coordinates":[[[38.271246,48.25601],[38.271187,48.255699],[38.271164,48.255573],[38.271066,48.25558],[38.27081490322581,48.25559806451613],[38.270787,48.2556],[38.270788,48.255603920354],[38.270788,48.255606],[38.2709,48.256043],[38.27096,48.256038],[38.27096,48.25603727745665],[38.271246,48.25601]]]}},{"type":"Feature","properties":{"cadnum":"1412047400:00:001:0040"},"geometry":{"type":"Polygon","coordinates":[[[38.267477,48.255939],[38.267877,48.255899],[38.267764,48.255571],[38.26789,48.255544],[38.26771,48.255047],[38.267198,48.255122],[38.267477,48.255939]]]}},{"type":"Feature","properties":{"cadnum":"1412047400:00:000:0005"},"geometry":{"type":"Polygon","coordinates":[[[38.277785,48.261671],[38.277821,48.261456],[38.277502,48.261426],[38.277456,48.261656],[38.277519,48.261665],[38.277785,48.261671]]]}},{"type":"Feature","properties":{"cadnum":"1412047400:00:001:0060"},"geometry":{"type":"Polygon","coordinates":[[[38.269133,48.259354],[38.269341,48.259255],[38.269336,48.259237],[38.269749,48.259066],[38.269548,48.258881],[38.26881,48.259228],[38.268936,48.259288],[38.268968,48.259261],[38.269133,48.259354]]]}},{"type":"Feature","properties":{"cadnum":"1412047400:00:001:0073"},"geometry":{"type":"Polygon","coordinates":[[[38.267144,48.258507],[38.267517,48.258325],[38.267135,48.258023],[38.266762,48.258202],[38.267144,48.258507]]]}},{"type":"Feature","properties":{"cadnum":"1412047400:00:001:0110"},"geometry":{"type":"Polygon","coordinates":[[[38.269349,48.260224],[38.269534,48.260002],[38.269561,48.259966],[38.269624,48.259871],[38.269709,48.259742],[38.269431,48.259647],[38.269049,48.260095],[38.269349,48.260224]]]}},{"type":"Feature","properties":{"cadnum":"1412047400:00:001:0046"},"geometry":{"type":"Polygon","coordinates":[[[38.272009,48.262149],[38.272035,48.262143],[38.272592,48.261964],[38.272345,48.261611],[38.272166,48.261608],[38.272175,48.261719],[38.272112,48.261848],[38.272013,48.261874],[38.272053,48.261946],[38.271982,48.261967],[38.272009,48.262149]]]}},{"type":"Feature","properties":{"cadnum":"1412047400:00:001:0075"},"geometry":{"type":"Polygon","coordinates":[[[38.271991,48.262198],[38.272013,48.262189],[38.272009,48.262149],[38.271982,48.261967],[38.272053,48.261946],[38.272013,48.261874],[38.272112,48.261848],[38.272175,48.261719],[38.272166,48.261608],[38.271892,48.261557],[38.271582,48.261606],[38.271991,48.262198]]]}},{"type":"Feature","properties":{"cadnum":"1412047400:00:001:0022"},"geometry":{"type":"Polygon","coordinates":[[[38.261305,48.265845],[38.261435,48.265777],[38.261413,48.265755],[38.261485,48.265713],[38.261413,48.26566],[38.261395,48.26563],[38.261328,48.265585],[38.261252,48.265573],[38.260873,48.265567],[38.260743,48.265561],[38.260906,48.265648],[38.260869,48.265675],[38.2609,48.265695],[38.260942,48.265684],[38.261036,48.265803],[38.261085,48.265809],[38.261225,48.265795],[38.261238,48.265788],[38.261305,48.265845]]]}},{"type":"Feature","properties":{"cadnum":"1412047400:00:001:0021"},"geometry":{"type":"Polygon","coordinates":[[[38.261305,48.265845],[38.261435,48.265777],[38.261413,48.265755],[38.261485,48.265713],[38.261413,48.26566],[38.261395,48.26563],[38.261328,48.265585],[38.261252,48.265573],[38.260873,48.265567],[38.260743,48.265561],[38.260906,48.265648],[38.260869,48.265675],[38.2609,48.265695],[38.260942,48.265684],[38.261036,48.265803],[38.261085,48.265809],[38.261225,48.265795],[38.261238,48.265788],[38.261305,48.265845]]]}},{"type":"Feature","properties":{"cadnum":"1412047400:00:000:0108"},"geometry":{"type":"Polygon","coordinates":[[[38.251554,48.266159],[38.251581,48.266147],[38.251711,48.266069],[38.25168,48.266043],[38.251239,48.265675],[38.251118,48.26574],[38.251199,48.265806],[38.251145,48.265836],[38.251154,48.265842],[38.251419,48.266052],[38.251468,48.266094],[38.251535,48.266141],[38.251554,48.266159]]]}},{"type":"Feature","properties":{"cadnum":"1412047400:00:001:0074"},"geometry":{"type":"Polygon","coordinates":[[[38.25207,48.267018],[38.252376,48.266847],[38.252147,48.26667],[38.251873,48.266832],[38.251854,48.266868],[38.25207,48.267018]]]}},{"type":"Feature","properties":{"cadnum":"1412047400:00:001:0081"},"geometry":{"type":"Polygon","coordinates":[[[38.250908,48.266012],[38.250998,48.265959],[38.251069,48.265917],[38.250849,48.265755],[38.250799,48.26572],[38.250776,48.265702],[38.250732,48.265669],[38.250705,48.265687],[38.25057,48.265768],[38.250831,48.265956],[38.250908,48.266012]]]}},{"type":"Feature","properties":{"cadnum":"1412047400:00:001:0076"},"geometry":{"type":"Polygon","coordinates":[[[38.2523,48.267271],[38.252537,48.267125],[38.252323,48.266958],[38.252061,48.267113],[38.2523,48.267271]]]}},{"type":"Feature","properties":{"cadnum":"1412047400:00:001:0102"},"geometry":{"type":"Polygon","coordinates":[[[38.252026,48.265881],[38.252044,48.265869],[38.25203,48.26586],[38.252133,48.265797],[38.252084,48.265749],[38.252034,48.265708],[38.251787,48.265489],[38.251639,48.265585],[38.25172,48.265651],[38.251778,48.265699],[38.251998,48.265881],[38.252011,48.265872],[38.252026,48.265881]]]}},{"type":"Feature","properties":{"cadnum":"1412047400:00:001:0120"},"geometry":{"type":"Polygon","coordinates":[[[38.252577,48.266739],[38.252766,48.266631],[38.252793,48.266613],[38.25256,48.266434],[38.25256,48.266437],[38.25247,48.266488],[38.252344,48.26656],[38.252577,48.266739]]]}},{"type":"Feature","properties":{"cadnum":"1412047400:00:001:0077"},"geometry":{"type":"Polygon","coordinates":[[[38.250588,48.266081],[38.250831,48.265956],[38.25057,48.265768],[38.250355,48.265905],[38.250588,48.266081]]]}},{"type":"Feature","properties":{"cadnum":"1412047400:00:001:0100"},"geometry":{"type":"Polygon","coordinates":[[[38.252659,48.267472],[38.253032,48.267268],[38.253005,48.267247],[38.252785,48.26708],[38.25243,48.267275],[38.252659,48.267472]]]}},{"type":"Feature","properties":{"cadnum":"1412047400:00:001:0045"},"geometry":{"type":"Polygon","coordinates":[[[38.255803,48.261022],[38.256243,48.260771],[38.256055,48.260481],[38.255606,48.260696],[38.255803,48.261022]]]}},{"type":"Feature","properties":{"cadnum":"1412047400:00:001:0052"},"geometry":{"type":"Polygon","coordinates":[[[38.255565,48.260613],[38.256118,48.260407],[38.255982,48.260155],[38.25538,48.26034],[38.255565,48.260613]]]}},{"type":"Feature","properties":{"cadnum":"1412047400:00:001:0068"},"geometry":{"type":"Polygon","coordinates":[[[38.271246,48.25601],[38.271815,48.255956],[38.271775,48.255651],[38.271187,48.255699],[38.271246,48.25601]]]}}]}