{"type":"FeatureCollection","features":[{"type":"Feature","properties":{"cadnum":"1412070000:00:001:0041"},"geometry":{"type":"Polygon","coordinates":[[[38.266996,48.231781],[38.266766,48.231444],[38.265909,48.231706],[38.26606553731344,48.231934],[38.266065,48.231934],[38.266139,48.232041],[38.266996,48.231781]]]}},{"type":"Feature","properties":{"cadnum":"1412070000:00:001:0030"},"geometry":{"type":"Polygon","coordinates":[[[38.265267,48.227461],[38.26528,48.227072],[38.264993,48.227066],[38.264952,48.227455],[38.264965,48.227455],[38.265244,48.227461],[38.265267,48.227461]]]}}]}