{"type":"FeatureCollection","features":[{"type":"Feature","properties":{"cadnum":"1412900003:00:001:0037"},"geometry":{"type":"Polygon","coordinates":[[[37.61781,48.677343],[37.618305,48.677141],[37.618129,48.67696],[37.617635,48.677174],[37.61781,48.677343]]]}},{"type":"Feature","properties":{"cadnum":"1412900003:00:001:0038"},"geometry":{"type":"Polygon","coordinates":[[[37.618305,48.677141],[37.618534,48.677049],[37.618301,48.676886],[37.618264,48.676904],[37.618129,48.67696],[37.618305,48.677141]]]}},{"type":"Feature","properties":{"cadnum":"1412900003:00:001:0035"},"geometry":{"type":"Polygon","coordinates":[[[37.612007,48.679185],[37.611832,48.679031],[37.61178,48.6790561838565],[37.61178,48.679056],[37.61137,48.679255],[37.611549,48.67941],[37.611609,48.67938038961039],[37.611609,48.679381],[37.612007,48.679185]]]}},{"type":"Feature","properties":{"cadnum":"1412900003:00:001:0034"},"geometry":{"type":"Polygon","coordinates":[[[37.616548,48.678404],[37.616926,48.678224],[37.616746,48.67807],[37.616391,48.678229],[37.616548,48.678404]]]}},{"type":"Feature","properties":{"cadnum":"1412900003:00:001:0027"},"geometry":{"type":"Polygon","coordinates":[[[37.615012,48.678389],[37.615416,48.678247],[37.615192,48.678019],[37.61481,48.678143],[37.615012,48.678389]]]}},{"type":"Feature","properties":{"cadnum":"1412900003:00:001:0041"},"geometry":{"type":"Polygon","coordinates":[[[37.619701,48.673463],[37.619949,48.673342],[37.619584,48.673051],[37.619347,48.673164],[37.619701,48.673463]]]}},{"type":"Feature","properties":{"cadnum":"1412900003:00:001:0013"},"geometry":{"type":"Polygon","coordinates":[[[37.652382,48.666267],[37.652678,48.666071],[37.652365,48.665864],[37.652072,48.666056],[37.652382,48.666267]]]}},{"type":"Feature","properties":{"cadnum":"1412900003:00:001:0014"},"geometry":{"type":"Polygon","coordinates":[[[37.652072,48.666056],[37.652365,48.665864],[37.652045,48.665653],[37.651789,48.665861],[37.652072,48.666056]]]}},{"type":"Feature","properties":{"cadnum":"1412900003:00:001:0031"},"geometry":{"type":"Polygon","coordinates":[[[37.610538,48.676385],[37.610462,48.676338],[37.610345,48.676257],[37.61013071428572,48.676397],[37.610129,48.676397],[37.610045,48.676453],[37.610125,48.67651],[37.6101250610687,48.67651],[37.610229,48.676584],[37.610381999999625,48.67648500000024],[37.610538,48.676385]]]}},{"type":"Feature","properties":{"cadnum":"1412900003:00:001:0040"},"geometry":{"type":"Polygon","coordinates":[[[37.609173,48.675367],[37.60938,48.675246],[37.609079,48.675059],[37.608873,48.675184],[37.609016,48.675272],[37.609173,48.675367]]]}},{"type":"Feature","properties":{"cadnum":"1412900003:00:001:0039"},"geometry":{"type":"Polygon","coordinates":[[[37.60938,48.675246],[37.609708,48.675053],[37.609416,48.674854],[37.609079,48.675059],[37.60938,48.675246]]]}}]}