{"type":"FeatureCollection","features":[{"type":"Feature","properties":{"cadnum":"1412946201:01:000:0012"},"geometry":{"type":"Polygon","coordinates":[[[37.343169,48.70552],[37.343169308571426,48.70552],[37.342443,48.707506],[37.342443,48.70750726718547],[37.341844,48.709145],[37.34184426624406,48.709145],[37.341655,48.709662],[37.341938,48.709893],[37.341938,48.710569],[37.34117339909091,48.712656],[37.341173,48.712656],[37.340829,48.713598],[37.34042,48.714493],[37.340047,48.715048],[37.340105,48.715092],[37.342615,48.715208],[37.342615,48.71520789335665],[37.344731,48.715305],[37.3456529207248,48.712769],[37.345654,48.712769],[37.347014,48.709031],[37.347013494392826,48.709031],[37.347937,48.706493798415494],[37.347937,48.706496],[37.3482906880734,48.70552],[37.348291,48.70552],[37.349138,48.703192],[37.348873,48.70318],[37.348108,48.703148125000006],[37.348108,48.703148],[37.344098,48.702981],[37.343169,48.70552]]]}},{"type":"Feature","properties":{"cadnum":"1412946201:01:000:0007"},"geometry":{"type":"Polygon","coordinates":[[[37.385986,48.730367],[37.385882,48.730889],[37.38588254037267,48.730889],[37.385713,48.731742],[37.385577,48.731742],[37.385497,48.732293],[37.385699,48.733637],[37.38564,48.733836],[37.38525,48.734339],[37.38535638655463,48.734399],[37.385355,48.734399],[37.385461,48.734458],[37.385847,48.734408],[37.385736,48.734138],[37.385789,48.733975],[37.386153,48.734025],[37.386216,48.734339],[37.38622293641618,48.734399],[37.386222,48.734399],[37.386233853658524,48.73449343414626],[37.386236,48.734512],[37.38623618410042,48.734512],[37.386252,48.734638],[37.385929,48.734816],[37.386288,48.735213],[37.386355,48.73529],[37.386489,48.735539],[37.38656,48.735521],[37.38656,48.73552095168068],[37.386965,48.735418],[37.386786,48.73486],[37.386688,48.734541],[37.386668,48.734399],[37.386667387931034,48.734399],[37.386652,48.73428],[37.386625,48.734046],[37.386410953488124,48.733700441860066],[37.386328,48.733566],[37.386336,48.73354],[37.386292,48.733344],[37.386296,48.733072],[37.386269,48.73258],[37.386342,48.732352],[37.3864,48.732168],[37.386468,48.731534],[37.386534,48.730776],[37.38653293406593,48.730776],[37.386571,48.730343],[37.38642710344739,48.73034932512319],[37.385986,48.730367]]]}},{"type":"Feature","properties":{"cadnum":"1412946201:00:001:0002"},"geometry":{"type":"Polygon","coordinates":[[[37.38098266389997,48.70668475726144],[37.381067,48.706679],[37.381067,48.70667868220339],[37.381132,48.706674],[37.381235,48.70642],[37.381293,48.706259],[37.38099171936756,48.706215743083],[37.380853,48.706195],[37.380444,48.706722],[37.380107,48.707706],[37.379241,48.707573],[37.379145,48.707875],[37.380489,48.708036],[37.380896,48.70810078200692],[37.380896,48.708101],[37.38203,48.708281],[37.38207,48.708258],[37.382155,48.707905],[37.381918,48.707825],[37.382025,48.707487],[37.381311,48.70738],[37.381052196850625,48.70748601574793],[37.380597,48.707671],[37.380224,48.707667],[37.380525,48.706716],[37.380896,48.70669067343174],[37.380896,48.706691],[37.38098266389997,48.70668475726144]]]}},{"type":"Feature","properties":{"cadnum":"1412946201:00:001:0003"},"geometry":{"type":"Polygon","coordinates":[[[37.379034,48.704956],[37.379191,48.704451],[37.378413,48.704389],[37.378048,48.70552],[37.37804820461095,48.70552],[37.377973,48.705753],[37.380896,48.70620174757595],[37.380896,48.706202],[37.382088,48.706384],[37.382506,48.705628],[37.382032,48.705406],[37.382030206106876,48.705406],[37.381715,48.705258],[37.381067,48.70518520879121],[37.381067,48.705185],[37.379034,48.704956]]]}},{"type":"Feature","properties":{"cadnum":"1412946201:01:000:0010"},"geometry":{"type":"Polygon","coordinates":[[[37.315149,48.704737],[37.314971,48.70476],[37.311637,48.705235],[37.311552,48.705249],[37.311492,48.70552],[37.311492754747256,48.70552],[37.31069,48.709145],[37.31069074799358,48.709145],[37.309888,48.712769],[37.30988928125,48.712769],[37.309851,48.712944],[37.313358,48.713095],[37.31438040527432,48.71628],[37.31438,48.71628],[37.314912,48.717934],[37.315149,48.717924],[37.315149,48.717923167162404],[37.316659,48.717854],[37.31992,48.717877],[37.320642,48.718208],[37.320642,48.718206892211235],[37.32436992641608,48.719905],[37.324369,48.719905],[37.32452647028765,48.71997630730007],[37.324618,48.720018],[37.32461854166667,48.720018],[37.324793,48.720097],[37.324798406250004,48.71996724999984],[37.324807,48.719786],[37.323374,48.717803],[37.323024,48.717756],[37.322516,48.717501],[37.32136,48.71628],[37.32135913597733,48.71628],[37.321133,48.716041],[37.320471,48.715632],[37.320471,48.715632387959865],[37.319745,48.715184],[37.318591,48.713862],[37.318528,48.713741],[37.318856,48.712878],[37.319017,48.712813],[37.319029,48.712656],[37.31902880405142,48.712656],[37.31922,48.710202],[37.320005,48.71022],[37.320642,48.711182],[37.320642,48.71117987320372],[37.32162084417041,48.712656],[37.32162,48.712656],[37.321654,48.712706],[37.321674,48.712769],[37.321675477272734,48.712769],[37.321744,48.71297],[37.321748,48.713497],[37.321703,48.71417],[37.321986,48.714765],[37.323217,48.715388],[37.323698,48.71594],[37.324156,48.716278],[37.324368,48.716394],[37.32436945783133,48.716394],[37.32477,48.716612],[37.325378,48.717116],[37.326024,48.717516],[37.329842,48.719768],[37.330533,48.719881],[37.331457,48.71994385714286],[37.331457,48.719944],[37.331562,48.719951],[37.331629,48.71991],[37.331629,48.71990889864865],[37.331858,48.719765],[37.33224,48.718808],[37.332231,48.718393],[37.33177853984162,48.7163101060683],[37.331755,48.716197],[37.33148283814963,48.71554399421807],[37.331091,48.714603],[37.329877,48.714229],[37.32998930769231,48.712769],[37.32999,48.712769],[37.330264,48.709236],[37.32992971362714,48.70907360970039],[37.329617,48.708921],[37.32994,48.705643],[37.329754,48.705406],[37.32975269260701,48.705406],[37.327426,48.702436],[37.326751,48.702543],[37.325964,48.702733],[37.325964,48.702734541976426],[37.320621,48.704025],[37.315149,48.70473772727273],[37.315149,48.704737]]]}},{"type":"Feature","properties":{"cadnum":"1412946201:01:000:0011"},"geometry":{"type":"Polygon","coordinates":[[[37.333193,48.702611],[37.33230328875902,48.705406],[37.332302,48.705406],[37.332164,48.705844],[37.332267,48.706281],[37.33256,48.706619],[37.332546,48.707063],[37.332609,48.708222],[37.333092,48.709145],[37.33309259090909,48.709145],[37.333148,48.709251],[37.333112,48.710057],[37.333189,48.710495],[37.333615,48.711592],[37.333745,48.712617],[37.333760907894735,48.712656],[37.33376,48.712656],[37.334028,48.713305],[37.333988,48.714262],[37.334311,48.716254],[37.334314528571426,48.71628],[37.334314,48.71628],[37.334323694323174,48.71634753711812],[37.33433,48.716394],[37.33433036363636,48.716394],[37.334374,48.716698],[37.335416,48.716663],[37.33604179373367,48.716394],[37.336042,48.716394],[37.336737,48.716096],[37.33695,48.71597373246753],[37.33695,48.715974],[37.338169,48.715273],[37.339018,48.714888],[37.339252,48.714609],[37.339781,48.713699],[37.340389,48.712656],[37.340388944609295,48.712656],[37.340913,48.711758],[37.341601,48.709618],[37.341816,48.709031],[37.34181575696864,48.709031],[37.342615,48.706849],[37.342615,48.70684676824035],[37.343100301412875,48.70552],[37.343101,48.70552],[37.344031,48.702979],[37.342615,48.70291925692695],[37.342615,48.702919],[37.341003,48.702851],[37.337122,48.702732262274864],[37.337122,48.702732],[37.333193,48.702611]]]}},{"type":"Feature","properties":{"cadnum":"1412946201:01:000:0005"},"geometry":{"type":"Polygon","coordinates":[[[37.339126,48.715136],[37.338825,48.715151],[37.338552,48.715196],[37.338407,48.715257],[37.338098,48.716394],[37.33809818918919,48.716394],[37.337469,48.718722],[37.338169,48.718704],[37.338787477722775,48.716394],[37.338788,48.716394],[37.339126,48.715136]]]}},{"type":"Feature","properties":{"cadnum":"1412946201:01:000:0006"},"geometry":{"type":"Polygon","coordinates":[[[37.33695,48.715985],[37.33695,48.7159852985782],[37.336489,48.71623],[37.33647680487805,48.71628],[37.336476,48.71628],[37.335879,48.718758],[37.33671,48.71874],[37.337122,48.717239],[37.337122,48.71723539260971],[37.337351856782334,48.716394],[37.337353,48.716394],[37.337554,48.715664],[37.33695,48.715985]]]}},{"type":"Feature","properties":{"cadnum":"1412946201:01:000:0003"},"geometry":{"type":"Polygon","coordinates":[[[37.338407,48.715257],[37.337554,48.715667],[37.33738536176066,48.71628],[37.337385,48.71628],[37.33695,48.717866],[37.33695,48.717866213592224],[37.33671,48.71874],[37.33695,48.71873475728155],[37.33695,48.718735],[37.33702576642463,48.71873310218975],[37.337122,48.718731],[37.337122,48.71873069171484],[37.337469,48.718722],[37.338129,48.71628],[37.338128981530346,48.71628],[37.338407,48.715257]]]}},{"type":"Feature","properties":{"cadnum":"1412946201:00:001:0006"},"geometry":{"type":"Polygon","coordinates":[[[37.384042,48.704286],[37.383952,48.704286],[37.38388,48.704288],[37.383813,48.704288],[37.383579,48.704873],[37.383324,48.70552],[37.38332493277311,48.70552],[37.383323,48.705525],[37.38313,48.70605],[37.383027,48.706215],[37.382671,48.706639],[37.38247,48.706905],[37.382434,48.707015],[37.382357,48.707241],[37.382317,48.707537],[37.382331,48.70834],[37.382327,48.708394],[37.3822744114514,48.709031],[37.382273,48.709031],[37.382237,48.709488],[37.382237,48.709574],[37.382241,48.709621],[37.382245,48.709899],[37.382313,48.710303],[37.382551,48.710842],[37.382986,48.711615],[37.383023,48.711852],[37.382996,48.712315],[37.382965955947135,48.712656],[37.382965,48.712656],[37.382946,48.712875],[37.382937,48.712958],[37.382933,48.713041],[37.382964,48.713036],[37.382977,48.713032],[37.383017,48.713021],[37.38309,48.713005],[37.383103,48.712999],[37.38318,48.712979],[37.38321427027025,48.71267151951968],[37.38322,48.712626],[37.383256,48.712202],[37.383279,48.711865],[37.383265,48.711746],[37.383202,48.711743],[37.383206,48.711681],[37.383243,48.711633],[37.38321,48.711553],[37.382933,48.711082],[37.382897,48.71109],[37.382555,48.710436],[37.38251,48.710267],[37.38247,48.710128],[37.382443,48.709802],[37.382438,48.709739],[37.382424,48.709568],[37.382454720670395,48.709145],[37.382455,48.709145],[37.382506,48.708456],[37.382533,48.708133],[37.38251,48.708133],[37.382514,48.708062],[37.382514,48.708026],[37.38252,48.707836],[37.38252,48.707821],[37.382514,48.707766],[37.382541,48.707252],[37.382667,48.706953],[37.383063,48.706497],[37.383247,48.706283],[37.383355,48.706109],[37.38344,48.705898],[37.383618,48.705406],[37.38361752857143,48.705406],[37.383678,48.70524],[37.384042,48.704286]]]}},{"type":"Feature","properties":{"cadnum":"1412946201:01:000:0009"},"geometry":{"type":"Polygon","coordinates":[[[37.38282,48.708136],[37.38282,48.707771],[37.38274,48.707771],[37.38252,48.707766],[37.38252,48.707836],[37.382514,48.708026],[37.382514,48.708133],[37.38282,48.708136]]]}},{"type":"Feature","properties":{"cadnum":"1412946201:00:001:0001"},"geometry":{"type":"Polygon","coordinates":[[[37.386332,48.715457],[37.386432,48.715362],[37.386453,48.71529],[37.386418,48.715163],[37.38617,48.715086],[37.386332,48.715457]]]}},{"type":"Feature","properties":{"cadnum":"1412946201:01:000:0001"},"geometry":{"type":"Polygon","coordinates":[[[37.336489,48.716227],[37.33638839520959,48.71628],[37.336387,48.71628],[37.336068,48.716449],[37.335169,48.71687],[37.334841,48.718758],[37.335802,48.718761],[37.335875,48.718758],[37.336476,48.71628],[37.336475670658686,48.71628],[37.336489,48.716227]]]}},{"type":"Feature","properties":{"cadnum":"1412946201:00:001:0004"},"geometry":{"type":"Polygon","coordinates":[[[37.380367,48.710857],[37.380422,48.710629],[37.380354,48.710611],[37.380449,48.710374],[37.37977,48.710235],[37.37982,48.710062],[37.379631,48.710042],[37.379442,48.710776],[37.379497,48.710821],[37.380367,48.710857]]]}},{"type":"Feature","properties":{"cadnum":"1412946201:00:001:0018"},"geometry":{"type":"Polygon","coordinates":[[[37.383575,48.70489],[37.383813,48.704288],[37.383009,48.704319],[37.382851,48.70489],[37.383575,48.70489]]]}},{"type":"Feature","properties":{"cadnum":"1412946201:00:001:0005"},"geometry":{"type":"Polygon","coordinates":[[[37.387851,48.710071],[37.387887,48.709745],[37.387365,48.70968],[37.38733,48.710051],[37.387851,48.710071]]]}}]}