{"type":"FeatureCollection","features":[{"type":"Feature","properties":{"cadnum":"1412045600:00:001:0029"},"geometry":{"type":"Polygon","coordinates":[[[38.260542,48.262726],[38.260739,48.262625],[38.260196,48.262092],[38.259957,48.262185],[38.260542,48.262726]]]}},{"type":"Feature","properties":{"cadnum":"1412045600:00:001:0038"},"geometry":{"type":"Polygon","coordinates":[[[38.264624,48.264173],[38.264785,48.264129],[38.264418,48.263546],[38.264431,48.263543],[38.264269,48.263301],[38.264229,48.263226],[38.264089,48.263268],[38.264135,48.263351],[38.264103,48.263364],[38.264261,48.263627],[38.264624,48.264173]]]}},{"type":"Feature","properties":{"cadnum":"1412045600:00:001:0011"},"geometry":{"type":"Polygon","coordinates":[[[38.325867,48.256644],[38.325718,48.256444],[38.325332,48.256573],[38.325476,48.25677],[38.32572,48.256691370843996],[38.32572,48.256692],[38.325867,48.256644]]]}},{"type":"Feature","properties":{"cadnum":"1412045600:00:001:0129"},"geometry":{"type":"Polygon","coordinates":[[[38.32695,48.257003],[38.327147,48.256916],[38.327116,48.256874],[38.327007,48.256737],[38.326946,48.256659],[38.326707,48.256743],[38.32695,48.257003]]]}},{"type":"Feature","properties":{"cadnum":"1412045600:00:001:0101"},"geometry":{"type":"Polygon","coordinates":[[[38.3265,48.25654],[38.326927,48.256408],[38.326783,48.256198],[38.326724,48.256121],[38.326441,48.256229],[38.326441,48.256231],[38.32624,48.256298],[38.326374,48.256513],[38.32646,48.256486],[38.3265,48.25654]]]}},{"type":"Feature","properties":{"cadnum":"1412045600:00:001:0162"},"geometry":{"type":"Polygon","coordinates":[[[38.327309,48.255926],[38.327925,48.255744],[38.328324,48.255628],[38.328428,48.255783],[38.328881,48.255651],[38.328804,48.255531],[38.328867,48.255433],[38.329231,48.25485],[38.32894,48.254354],[38.327601,48.254662],[38.327538,48.254841],[38.32752,48.254847],[38.326738,48.255083],[38.326927,48.255362],[38.327133,48.255657],[38.327309,48.255926]]]}},{"type":"Feature","properties":{"cadnum":"1412045600:00:001:0044"},"geometry":{"type":"Polygon","coordinates":[[[38.329954,48.256357],[38.330673,48.256172],[38.330493,48.255852],[38.32977,48.256037],[38.329954,48.256357]]]}},{"type":"Feature","properties":{"cadnum":"1412045600:00:001:0012"},"geometry":{"type":"Polygon","coordinates":[[[38.326833,48.257461],[38.32707,48.257362],[38.327125,48.257419],[38.327449,48.257282],[38.327147,48.256988],[38.327066,48.257024],[38.32703,48.256982],[38.32698,48.257003],[38.326959,48.257012],[38.326999,48.257051],[38.326586,48.257224],[38.326833,48.257461]]]}},{"type":"Feature","properties":{"cadnum":"1412045600:00:001:0068"},"geometry":{"type":"Polygon","coordinates":[[[38.325881,48.257189],[38.325867,48.257165],[38.325854,48.257153],[38.325808,48.25709],[38.325755,48.257107],[38.325732,48.257114],[38.325682,48.257129],[38.32572,48.25718001369862],[38.32572,48.257181],[38.325755,48.257227],[38.325881,48.257189]]]}},{"type":"Feature","properties":{"cadnum":"1412045600:00:001:0045"},"geometry":{"type":"Polygon","coordinates":[[[38.329783,48.242749],[38.329541,48.242791],[38.32958626068376,48.24291],[38.329586,48.24291],[38.32961110353884,48.24297531716953],[38.32963,48.243025],[38.32963019828642,48.243025],[38.3299,48.243727],[38.330053,48.2437],[38.329833,48.243068],[38.329808,48.24291],[38.3298075,48.24291],[38.329783,48.242749]]]}},{"type":"Feature","properties":{"cadnum":"1412045600:00:001:0050"},"geometry":{"type":"Polygon","coordinates":[[[38.329496,48.24434],[38.329972,48.244238],[38.329864,48.243846],[38.329478,48.243919],[38.329487,48.244134],[38.329474,48.244134],[38.32947,48.244145],[38.329483,48.244145],[38.329496,48.24434]]]}},{"type":"Feature","properties":{"cadnum":"1412045600:00:001:0132"},"geometry":{"type":"Polygon","coordinates":[[[38.320398,48.25378093333333],[38.32047397051597,48.253884],[38.320473,48.253884],[38.320562,48.254004],[38.320854,48.25389],[38.320472,48.25345],[38.320227,48.25349],[38.320227,48.25349013473054],[38.320064,48.253516],[38.320145,48.253629],[38.320227,48.25360142477876],[38.320227,48.253602],[38.320258,48.253591],[38.320398,48.253782],[38.320398,48.25378093333333]]]}},{"type":"Feature","properties":{"cadnum":"1412045600:00:001:0187"},"geometry":{"type":"Polygon","coordinates":[[[38.322598,48.253866],[38.323136,48.253687],[38.322992,48.253468],[38.322602,48.253549],[38.322296,48.253606],[38.322598,48.253866]]]}},{"type":"Feature","properties":{"cadnum":"1412045600:00:001:0158"},"geometry":{"type":"Polygon","coordinates":[[[38.3242,48.251827],[38.324466,48.251776],[38.324434,48.251694],[38.324304,48.251384],[38.324124,48.251419],[38.32408,48.251428],[38.324074,48.251428],[38.3242,48.251827]]]}},{"type":"Feature","properties":{"cadnum":"1412045600:00:001:0092"},"geometry":{"type":"Polygon","coordinates":[[[38.323136,48.253687],[38.322562,48.253878],[38.322569099999996,48.253884],[38.322568,48.253884],[38.322768,48.254052],[38.323239,48.253896],[38.323136,48.253687]]]}},{"type":"Feature","properties":{"cadnum":"1412045600:00:001:0160"},"geometry":{"type":"Polygon","coordinates":[[[38.322705,48.252589],[38.322812,48.252545],[38.322835,48.252568],[38.323136,48.252463],[38.322858,48.252111],[38.322633,48.252179],[38.322575,48.252194],[38.322521,48.252212],[38.322462,48.25223],[38.322535,48.252341],[38.322705,48.252589]]]}},{"type":"Feature","properties":{"cadnum":"1412045600:00:001:0036"},"geometry":{"type":"Polygon","coordinates":[[[38.323208,48.253504],[38.323527,48.253399],[38.323343,48.253154],[38.323028,48.253283],[38.323208,48.253504]]]}},{"type":"Feature","properties":{"cadnum":"1412045600:00:001:0136"},"geometry":{"type":"Polygon","coordinates":[[[38.325891,48.252618486404835],[38.326051,48.252909],[38.326262,48.252849],[38.325917,48.252233],[38.325891,48.25224025888325],[38.325891,48.25224],[38.32571,48.25229],[38.325891,48.25262],[38.325891,48.252618486404835]]]}},{"type":"Feature","properties":{"cadnum":"1412045600:00:001:0127"},"geometry":{"type":"Polygon","coordinates":[[[38.320854,48.25389],[38.321128,48.253782],[38.320688,48.253286],[38.320418,48.253387],[38.320472,48.25345],[38.320854,48.25389]]]}},{"type":"Feature","properties":{"cadnum":"1412045600:00:001:0022"},"geometry":{"type":"Polygon","coordinates":[[[38.322,48.253833],[38.32184541860466,48.253884],[38.321844,48.253884],[38.321609,48.253962],[38.321651,48.253998],[38.321651882352946,48.253998],[38.32169,48.25403],[38.322103,48.253899],[38.322,48.253833]]]}},{"type":"Feature","properties":{"cadnum":"1412045600:00:001:0109"},"geometry":{"type":"Polygon","coordinates":[[[38.317283,48.248823],[38.317715,48.248728],[38.317508,48.248348],[38.317082,48.248455],[38.317283,48.248823]]]}},{"type":"Feature","properties":{"cadnum":"1412045600:00:001:0186"},"geometry":{"type":"Polygon","coordinates":[[[38.314992,48.248922],[38.315392,48.248883],[38.315371,48.248617],[38.315132,48.248614],[38.314905,48.24868415326633],[38.314905,48.248684],[38.314701,48.248746],[38.314674,48.248943],[38.314734,48.24894481818182],[38.314734,48.248946],[38.314872,48.248949],[38.314905,48.248942],[38.314905,48.248941575],[38.314992,48.248922]]]}},{"type":"Feature","properties":{"cadnum":"1412045600:00:001:0169"},"geometry":{"type":"Polygon","coordinates":[[[38.318636,48.248495],[38.318766,48.248462],[38.318797,48.248453],[38.318883,48.248429],[38.318933,48.248417],[38.319044,48.248387],[38.318824,48.248037],[38.318797,48.247998],[38.318407,48.2481],[38.318636,48.248495]]]}},{"type":"Feature","properties":{"cadnum":"1412045600:00:001:0145"},"geometry":{"type":"Polygon","coordinates":[[[38.323864,48.261207],[38.32368,48.260924],[38.323451,48.260999],[38.32358746209386,48.261199],[38.323586,48.261199],[38.32364,48.261276],[38.323864,48.261207]]]}},{"type":"Feature","properties":{"cadnum":"1412045600:00:001:0166"},"geometry":{"type":"Polygon","coordinates":[[[38.322912,48.261178],[38.323101,48.261115],[38.323055,48.261058],[38.323032,48.261034],[38.322934,48.260906],[38.322885,48.26084],[38.322858,48.26081],[38.322736,48.260852],[38.322741,48.260857],[38.322688,48.260875],[38.322912,48.261178]]]}},{"type":"Feature","properties":{"cadnum":"1412045600:00:001:0095"},"geometry":{"type":"Polygon","coordinates":[[[38.325018,48.261052],[38.324812,48.261112],[38.32487129850746,48.261199],[38.324871,48.261199],[38.325175,48.261644],[38.325248,48.26162],[38.325351,48.261806],[38.325503,48.261743],[38.325234,48.261354],[38.32520463870968,48.261313],[38.325205,48.261313],[38.325018,48.261052]]]}},{"type":"Feature","properties":{"cadnum":"1412045600:00:001:0192"},"geometry":{"type":"Polygon","coordinates":[[[38.322749,48.261234],[38.322912,48.261178],[38.322728,48.26093],[38.322705,48.260897],[38.322688,48.260875],[38.322503,48.260941],[38.322529,48.260977],[38.322579,48.261037],[38.322692,48.261163],[38.322714,48.26119],[38.322749,48.261234]]]}},{"type":"Feature","properties":{"cadnum":"1412045600:00:001:0196"},"geometry":{"type":"Polygon","coordinates":[[[38.324457,48.260173],[38.324654,48.260116],[38.324461,48.259817],[38.324254,48.259877],[38.324286,48.259919],[38.324304,48.259946],[38.324389,48.260071],[38.32443,48.260134],[38.324457,48.260173]]]}},{"type":"Feature","properties":{"cadnum":"1412045600:00:001:0051"},"geometry":{"type":"Polygon","coordinates":[[[38.322355,48.260358],[38.322839,48.260206],[38.322849,48.260188],[38.322831,48.260146],[38.322688,48.259975],[38.322439,48.260057],[38.322435,48.260048],[38.322372,48.260068],[38.322189,48.260128],[38.322355,48.260358]]]}},{"type":"Feature","properties":{"cadnum":"1412045600:00:001:0138"},"geometry":{"type":"Polygon","coordinates":[[[38.323095,48.259769],[38.323441,48.259656],[38.323275,48.259414],[38.322929,48.259521],[38.323074,48.259742],[38.323095,48.259769]]]}},{"type":"Feature","properties":{"cadnum":"1412045600:00:001:0115"},"geometry":{"type":"Polygon","coordinates":[[[38.320864,48.257577],[38.320877,48.257562],[38.320877,48.257548],[38.320868,48.25753],[38.320738,48.257415],[38.320445,48.257305],[38.3203884814827,48.25736748148013],[38.320141,48.25764],[38.320176,48.257656],[38.32017766666666,48.257656],[38.320227,48.257677527272726],[38.320227,48.257678],[38.320306,48.257712],[38.320365,48.257712],[38.320398,48.257709],[38.320398,48.257708847133756],[38.320522,48.257697],[38.320742,48.257667],[38.32075996666667,48.257656],[38.32076,48.257656],[38.320791,48.257637],[38.320864,48.257577]]]}},{"type":"Feature","properties":{"cadnum":"1412045600:00:001:0041"},"geometry":{"type":"Polygon","coordinates":[[[38.322781,48.258331],[38.323248,48.258193],[38.323001,48.25787],[38.322543,48.25802],[38.322781,48.258331]]]}},{"type":"Feature","properties":{"cadnum":"1412045600:00:001:0105"},"geometry":{"type":"Polygon","coordinates":[[[38.325193,48.25935],[38.325206,48.259336],[38.325279,48.25924],[38.325238,48.259213],[38.325355,48.259115],[38.324996,48.258926],[38.324843,48.258938],[38.324978,48.259177],[38.325153,48.259326],[38.325193,48.25935]]]}},{"type":"Feature","properties":{"cadnum":"1412045600:00:001:0195"},"geometry":{"type":"Polygon","coordinates":[[[38.325198,48.259423],[38.325346,48.259381],[38.325386,48.259372],[38.325571,48.25924],[38.325346,48.25912],[38.325238,48.259213],[38.325279,48.25924],[38.325206,48.259336],[38.325171,48.259381],[38.325202,48.25939],[38.325198,48.259423]]]}},{"type":"Feature","properties":{"cadnum":"1412045600:00:001:0124"},"geometry":{"type":"Polygon","coordinates":[[[38.324344,48.261076],[38.324542,48.261016],[38.324349,48.260729],[38.324151,48.260792],[38.324344,48.261076]]]}},{"type":"Feature","properties":{"cadnum":"1412045600:00:001:0139"},"geometry":{"type":"Polygon","coordinates":[[[38.32037325000072,48.260677624999836],[38.320398,48.260672],[38.320398,48.26067197692308],[38.320617,48.260622],[38.320382,48.260307],[38.319906,48.26046],[38.320068,48.260747],[38.320227,48.26071086363636],[38.320227,48.260711],[38.32037325000072,48.260677624999836]]]}},{"type":"Feature","properties":{"cadnum":"1412045600:00:001:0064"},"geometry":{"type":"Polygon","coordinates":[[[38.307631,48.262442],[38.308233,48.262257],[38.308044,48.262018],[38.307524,48.26224],[38.307505,48.262215],[38.307474,48.262224],[38.307631,48.262442]]]}},{"type":"Feature","properties":{"cadnum":"1412045600:00:001:0123"},"geometry":{"type":"Polygon","coordinates":[[[38.308243,48.26284],[38.30861,48.26273],[38.30834,48.262329],[38.307977,48.262446],[38.308243,48.26284]]]}},{"type":"Feature","properties":{"cadnum":"1412045600:00:001:0048"},"geometry":{"type":"Polygon","coordinates":[[[38.30787,48.262947],[38.307608,48.262562],[38.307128,48.262712],[38.307209,48.262927],[38.30787,48.262947]]]}},{"type":"Feature","properties":{"cadnum":"1412045600:00:001:0071"},"geometry":{"type":"Polygon","coordinates":[[[38.308857,48.263169],[38.30923,48.263062],[38.308969,48.262648],[38.308597,48.262759],[38.308857,48.263169]]]}},{"type":"Feature","properties":{"cadnum":"1412045600:00:001:0066"},"geometry":{"type":"Polygon","coordinates":[[[38.309412,48.261592],[38.309252,48.261372],[38.30924,48.261376],[38.30924,48.261376017857145],[38.309028,48.261447],[38.309105,48.261537],[38.308969,48.261587],[38.309226,48.261914],[38.30924,48.261909875],[38.30924,48.26191],[38.309338,48.261881],[38.309361,48.261914],[38.309608,48.261839],[38.309581,48.261803],[38.309572,48.261803],[38.309518,48.261731],[38.309513,48.261731],[38.309412,48.261592076628354],[38.309412,48.261592]]]}},{"type":"Feature","properties":{"cadnum":"1412045600:00:001:0058"},"geometry":{"type":"Polygon","coordinates":[[[38.309412,48.26397955068494],[38.309734,48.264096],[38.309769,48.264099],[38.309877,48.264063],[38.309608,48.263639],[38.309412,48.263700782608694],[38.309412,48.2637],[38.309235,48.263755],[38.30905,48.263833],[38.30924,48.26391102507837],[38.30924,48.263912],[38.309369,48.263964],[38.309412,48.26398],[38.309412,48.26397955068494]]]}},{"type":"Feature","properties":{"cadnum":"1412045600:00:001:0120"},"geometry":{"type":"Polygon","coordinates":[[[38.308489,48.263253],[38.308866,48.263148],[38.30861,48.26273],[38.308243,48.26284],[38.308489,48.263253]]]}},{"type":"Feature","properties":{"cadnum":"1412045600:00:001:0130"},"geometry":{"type":"Polygon","coordinates":[[[38.307887,48.262972],[38.308243,48.26284],[38.307977,48.262446],[38.307608,48.262562],[38.30787,48.262947],[38.307878,48.262963],[38.307887,48.262972]]]}},{"type":"Feature","properties":{"cadnum":"1412045600:00:001:0065"},"geometry":{"type":"Polygon","coordinates":[[[38.253992,48.264629],[38.254172,48.264521],[38.253759,48.26418],[38.253579,48.264284],[38.253992,48.264629]]]}},{"type":"Feature","properties":{"cadnum":"1412045600:00:001:0118"},"geometry":{"type":"Polygon","coordinates":[[[38.321141,48.256956],[38.321393,48.25689],[38.32107,48.256342],[38.320832,48.256426],[38.321141,48.256956]]]}},{"type":"Feature","properties":{"cadnum":"1412045600:00:001:0157"},"geometry":{"type":"Polygon","coordinates":[[[38.323132,48.256384],[38.323294,48.256331],[38.323325,48.256322],[38.323378,48.256303],[38.323199,48.256061],[38.322942,48.255714],[38.322696,48.255792],[38.322777,48.255906],[38.323132,48.256384]]]}},{"type":"Feature","properties":{"cadnum":"1412045600:00:001:0191"},"geometry":{"type":"Polygon","coordinates":[[[38.323567,48.256797],[38.323581,48.25679],[38.323797,48.256725],[38.323563,48.256393],[38.323384,48.25645],[38.323343,48.256462],[38.323329,48.256465],[38.323567,48.256797]]]}},{"type":"Feature","properties":{"cadnum":"1412045600:00:001:0117"},"geometry":{"type":"Polygon","coordinates":[[[38.323378,48.256303],[38.323644,48.256214],[38.323464,48.255972],[38.323199,48.256061],[38.323378,48.256303]]]}},{"type":"Feature","properties":{"cadnum":"1412045600:00:001:0193"},"geometry":{"type":"Polygon","coordinates":[[[38.321438,48.257398],[38.321749,48.257293],[38.32147,48.25694],[38.321434,48.256952],[38.321371,48.256973],[38.321277,48.257003],[38.321191,48.257033],[38.321155,48.257045],[38.321438,48.257398]]]}},{"type":"Feature","properties":{"cadnum":"1412045600:00:001:0078"},"geometry":{"type":"Polygon","coordinates":[[[38.326451,48.262373],[38.327214,48.262039],[38.32698,48.261812],[38.326757,48.261928],[38.326752,48.261923],[38.326707,48.261877],[38.326697,48.261872],[38.326523,48.261955],[38.326567,48.261997],[38.326231,48.262162],[38.32624,48.262171],[38.326451,48.262373]]]}},{"type":"Feature","properties":{"cadnum":"1412045600:00:001:0197"},"geometry":{"type":"Polygon","coordinates":[[[38.326573,48.263277],[38.326814,48.263193],[38.326567,48.262882],[38.326523,48.262828],[38.326474,48.262846],[38.326284,48.262909],[38.326573,48.263277]]]}},{"type":"Feature","properties":{"cadnum":"1412045600:00:001:0049"},"geometry":{"type":"Polygon","coordinates":[[[38.255835,48.262906],[38.255852,48.262882],[38.255812,48.26287],[38.255799,48.262897],[38.255835,48.262906]]]}},{"type":"Feature","properties":{"cadnum":"1412045600:00:001:0128"},"geometry":{"type":"Polygon","coordinates":[[[38.337028,48.255846],[38.337037,48.255655],[38.336706,48.255702],[38.336706,48.25570223094688],[38.336445,48.255739],[38.336085,48.255789],[38.336148,48.255986],[38.336706,48.25589733150685],[38.336706,48.255898],[38.337028,48.255846]]]}},{"type":"Feature","properties":{"cadnum":"1412045600:00:001:0189"},"geometry":{"type":"Polygon","coordinates":[[[38.332883,48.255801],[38.333382,48.255792],[38.333386,48.255675],[38.333382,48.255553],[38.332879,48.255559],[38.332883,48.255801]]]}},{"type":"Feature","properties":{"cadnum":"1412045600:00:001:0104"},"geometry":{"type":"Polygon","coordinates":[[[38.265873,48.256211],[38.266884,48.256148],[38.267064,48.256139],[38.267009,48.255986],[38.265793,48.25607],[38.265873,48.256211]]]}},{"type":"Feature","properties":{"cadnum":"1412045600:00:001:0074"},"geometry":{"type":"Polygon","coordinates":[[[38.317768,48.254766],[38.318002,48.25468],[38.318191,48.254631],[38.318208,48.254653],[38.318411,48.254589],[38.31824,48.254338],[38.317688,48.2545],[38.317616,48.254578],[38.317768,48.254766]]]}},{"type":"Feature","properties":{"cadnum":"1412045600:00:001:0188"},"geometry":{"type":"Polygon","coordinates":[[[38.31873,48.255538],[38.318973,48.255448],[38.318667,48.255074],[38.318424,48.255164],[38.318631,48.255418],[38.318694,48.255496],[38.31873,48.255538]]]}},{"type":"Feature","properties":{"cadnum":"1412045600:00:001:0075"},"geometry":{"type":"Polygon","coordinates":[[[38.318411,48.254589],[38.318533,48.254551],[38.318367,48.254303],[38.31824,48.254338],[38.318411,48.254589]]]}},{"type":"Feature","properties":{"cadnum":"1412045600:00:001:0125"},"geometry":{"type":"Polygon","coordinates":[[[38.319879,48.253758],[38.31952,48.253884],[38.319826,48.254272],[38.320068,48.254186],[38.320072,48.25418],[38.320199,48.254135],[38.32005756019581,48.25396910565023],[38.319879,48.253758]]]}},{"type":"Feature","properties":{"cadnum":"1412045600:00:001:0133"},"geometry":{"type":"Polygon","coordinates":[[[38.316331,48.257311],[38.316633,48.257242],[38.316524,48.25703],[38.316246,48.256812],[38.316156,48.256832],[38.316331,48.257311]]]}},{"type":"Feature","properties":{"cadnum":"1412045600:00:001:0116"},"geometry":{"type":"Polygon","coordinates":[[[38.319099,48.257443],[38.319529,48.257012],[38.31957,48.256965],[38.319273,48.25685],[38.31926,48.256865],[38.319206,48.256958],[38.319057,48.25712],[38.319067,48.257144],[38.318851,48.257332],[38.319099,48.257443]]]}},{"type":"Feature","properties":{"cadnum":"1412045600:00:001:0147"},"geometry":{"type":"Polygon","coordinates":[[[38.31647,48.255609],[38.317063,48.25532],[38.316862,48.255131],[38.316246,48.255421],[38.316227,48.255409],[38.316201,48.255427],[38.31647,48.255609]]]}},{"type":"Feature","properties":{"cadnum":"1412045600:00:001:0100"},"geometry":{"type":"Polygon","coordinates":[[[38.338291,48.256073],[38.338749,48.255974],[38.338686,48.255553],[38.338309,48.255637],[38.338305,48.255688],[38.338295,48.256014],[38.338291,48.256073]]]}},{"type":"Feature","properties":{"cadnum":"1412045600:00:001:0059"},"geometry":{"type":"Polygon","coordinates":[[[38.320891,48.247825],[38.321214,48.247702],[38.320886,48.247253],[38.320575,48.247352],[38.320891,48.247825]]]}},{"type":"Feature","properties":{"cadnum":"1412045600:00:001:0163"},"geometry":{"type":"Polygon","coordinates":[[[38.315873,48.262969],[38.315887,48.262963],[38.31612,48.262894],[38.316013,48.262739],[38.31599,48.262706],[38.315765,48.262373],[38.315375,48.262502],[38.315334,48.262541],[38.315267,48.262562],[38.315244,48.262541],[38.315137,48.262577],[38.314902999999944,48.26265364516131],[38.314688,48.262723],[38.314734,48.26279358986176],[38.314734,48.262794],[38.31478265333297,48.26286825142801],[38.314905,48.263056],[38.314905,48.26305496864112],[38.315021,48.263232],[38.315873,48.262969]]]}},{"type":"Feature","properties":{"cadnum":"1412045600:00:001:0093"},"geometry":{"type":"Polygon","coordinates":[[[38.313529,48.263357],[38.313587,48.263342],[38.313547,48.263273],[38.313484,48.263291],[38.313529,48.263357]]]}},{"type":"Feature","properties":{"cadnum":"1412045600:00:001:0110"},"geometry":{"type":"Polygon","coordinates":[[[38.312176,48.261178],[38.311786,48.261294],[38.311799,48.261313],[38.311799822622106,48.261313],[38.312069,48.261683],[38.312442,48.261575],[38.312265707446805,48.261313],[38.312266,48.261313],[38.312176,48.261178]]]}},{"type":"Feature","properties":{"cadnum":"1412045600:00:001:0052"},"geometry":{"type":"Polygon","coordinates":[[[38.310237,48.262763],[38.310541,48.262676],[38.310484,48.262544],[38.310524,48.262535],[38.310514,48.262523],[38.310331,48.2622],[38.310151,48.262242],[38.309981,48.262296],[38.310155,48.262571],[38.310155,48.262628],[38.310237,48.262763]]]}},{"type":"Feature","properties":{"cadnum":"1412045600:00:001:0114"},"geometry":{"type":"Polygon","coordinates":[[[38.310075,48.262807],[38.310237,48.262763],[38.310155,48.262628],[38.310155,48.262571],[38.309981,48.262296],[38.309769,48.262359],[38.310075,48.262807]]]}},{"type":"Feature","properties":{"cadnum":"1412045600:00:001:0070"},"geometry":{"type":"Polygon","coordinates":[[[38.310308,48.263393],[38.31069,48.263277],[38.310591,48.263131],[38.310214,48.263247],[38.310308,48.263393]]]}},{"type":"Feature","properties":{"cadnum":"1412045600:00:001:0079"},"geometry":{"type":"Polygon","coordinates":[[[38.310618,48.263806],[38.310767,48.263758],[38.310776,48.263773],[38.31083,48.263755],[38.31082,48.26374],[38.310879,48.263722],[38.310977,48.26368],[38.310717,48.263295],[38.310327,48.263414],[38.310564,48.26374],[38.310618,48.263806]]]}},{"type":"Feature","properties":{"cadnum":"1412045600:00:001:0069"},"geometry":{"type":"Polygon","coordinates":[[[38.310214,48.263247],[38.310591,48.263131],[38.310416,48.262864],[38.310201,48.262924],[38.310044,48.262974],[38.310214,48.263247]]]}},{"type":"Feature","properties":{"cadnum":"1412045600:00:001:0096"},"geometry":{"type":"Polygon","coordinates":[[[38.310541,48.262676],[38.31082,48.262619],[38.310713,48.262413],[38.310591,48.262152],[38.310555,48.262158],[38.310398,48.262189],[38.310331,48.2622],[38.310514,48.262523],[38.310524,48.262535],[38.310484,48.262544],[38.310541,48.262676]]]}},{"type":"Feature","properties":{"cadnum":"1412045600:00:001:0043"},"geometry":{"type":"Polygon","coordinates":[[[38.311943,48.26482],[38.312046,48.264694],[38.311822,48.264613],[38.311719,48.264738],[38.311943,48.26482]]]}},{"type":"Feature","properties":{"cadnum":"1412045600:00:001:0168"},"geometry":{"type":"Polygon","coordinates":[[[38.310977,48.26368],[38.311369,48.263558],[38.31109,48.263172],[38.310717,48.263295],[38.310977,48.26368]]]}},{"type":"Feature","properties":{"cadnum":"1412045600:00:001:0152"},"geometry":{"type":"Polygon","coordinates":[[[38.312711,48.262083],[38.313164,48.261955],[38.312954,48.261617],[38.312495,48.261746],[38.312711,48.262083]]]}},{"type":"Feature","properties":{"cadnum":"1412045600:00:001:0185"},"geometry":{"type":"Polygon","coordinates":[[[38.31315432520325,48.261199],[38.313154,48.261199],[38.31319638297876,48.26126589361708],[38.313226,48.261313],[38.31322622900763,48.261313],[38.313237,48.26133],[38.31329456140351,48.261313],[38.313295,48.261313],[38.313623,48.261216],[38.313371,48.260822],[38.312985,48.260935],[38.312994,48.260944],[38.31315432520325,48.261199]]]}},{"type":"Feature","properties":{"cadnum":"1412045600:00:001:0080"},"geometry":{"type":"Polygon","coordinates":[[[38.310327,48.263414],[38.310717,48.263295],[38.310703,48.263273],[38.31069,48.263277],[38.310308,48.263393],[38.310327,48.263414]]]}},{"type":"Feature","properties":{"cadnum":"1412045600:00:001:0094"},"geometry":{"type":"Polygon","coordinates":[[[38.313923,48.264395],[38.31391,48.264374],[38.313219,48.263301],[38.311619,48.263747],[38.311943,48.264263],[38.311072,48.264574],[38.311233,48.264694],[38.311994,48.26497],[38.311995002012075,48.26497],[38.313048,48.265352],[38.314333,48.265023],[38.31422300000048,48.264855000000736],[38.313923,48.264395]],[[38.311719,48.264738],[38.311822,48.264613],[38.312046,48.264694],[38.311943,48.26482],[38.311719,48.264738]]]}},{"type":"Feature","properties":{"cadnum":"1412045600:00:001:0134"},"geometry":{"type":"Polygon","coordinates":[[[38.327659,48.252476],[38.327852,48.252421],[38.327546,48.251865],[38.327416,48.251635],[38.32721,48.251689],[38.327449,48.252104],[38.327453,48.252104],[38.327475,48.252144],[38.32747,48.252144],[38.327659,48.252476]]]}},{"type":"Feature","properties":{"cadnum":"1412045600:00:001:0135"},"geometry":{"type":"Polygon","coordinates":[[[38.32721,48.251689],[38.327416,48.251635],[38.327353,48.251527],[38.327156,48.25159],[38.32721,48.251689]]]}},{"type":"Feature","properties":{"cadnum":"1412045600:00:001:0137"},"geometry":{"type":"Polygon","coordinates":[[[38.331854,48.252858],[38.331674,48.251827],[38.331385,48.25183703036876],[38.331385,48.251836],[38.330956,48.251851],[38.330745,48.25186],[38.330754,48.252006],[38.330749,48.252006],[38.330758,48.25209],[38.330762,48.25209],[38.330817,48.252909],[38.331213,48.25287853846154],[38.331213,48.252879],[38.331324,48.25287],[38.331328,48.252897],[38.331385,48.252894],[38.331385,48.25289277376426],[38.331854,48.252858]]]}},{"type":"Feature","properties":{"cadnum":"1412045600:00:001:0063"},"geometry":{"type":"Polygon","coordinates":[[[38.326999,48.259066],[38.327699,48.258789],[38.327399,48.258472],[38.326716,48.258765],[38.326891,48.258953],[38.326913,48.258974],[38.326999,48.259066]]]}},{"type":"Feature","properties":{"cadnum":"1412045600:00:001:0082"},"geometry":{"type":"Polygon","coordinates":[[[38.326671,48.258615],[38.327021,48.258481],[38.326774,48.25816],[38.326752,48.258166],[38.326697,48.258182],[38.326663,48.25819],[38.326428,48.258262],[38.326491,48.258355],[38.32651,48.258379],[38.326671,48.258615]]]}},{"type":"Feature","properties":{"cadnum":"1412045600:00:001:0154"},"geometry":{"type":"Polygon","coordinates":[[[38.327359,48.259446],[38.328346,48.259033],[38.327691,48.258397],[38.327672,48.258388],[38.327655,48.258385],[38.327636,48.258382],[38.327609,48.258382],[38.327592,48.258385],[38.326716,48.258765],[38.326891,48.258953],[38.326913,48.258974],[38.327359,48.259446]]]}},{"type":"Feature","properties":{"cadnum":"1412045600:00:001:0149"},"geometry":{"type":"Polygon","coordinates":[[[38.32363,48.262143],[38.323693,48.262131],[38.323671,48.262081],[38.323608,48.262092],[38.32363,48.262143]]]}},{"type":"Feature","properties":{"cadnum":"1412045600:00:001:0046"},"geometry":{"type":"Polygon","coordinates":[[[38.320693,48.262745],[38.320881,48.262694],[38.320814,48.262577],[38.320841,48.262562],[38.320701,48.26229],[38.320361,48.262382],[38.320535,48.262664],[38.320661,48.262694],[38.320693,48.262745]]]}},{"type":"Feature","properties":{"cadnum":"1412045600:00:001:0153"},"geometry":{"type":"Polygon","coordinates":[[[38.325238,48.261925],[38.325678,48.26179],[38.325737,48.261728],[38.325759,48.261707],[38.3258,48.261659],[38.325669,48.261477],[38.325059,48.261683],[38.325135,48.26179],[38.325185,48.26185],[38.325238,48.261925]]]}},{"type":"Feature","properties":{"cadnum":"1412045600:00:001:0062"},"geometry":{"type":"Polygon","coordinates":[[[38.322139,48.262529],[38.322332,48.262475],[38.322135,48.262212],[38.321955,48.262263],[38.322139,48.262529]]]}},{"type":"Feature","properties":{"cadnum":"1412045600:00:001:0073"},"geometry":{"type":"Polygon","coordinates":[[[38.321403,48.262406],[38.321583,48.262359],[38.321411,48.262096],[38.321227,48.262149],[38.321403,48.262406]]]}},{"type":"Feature","properties":{"cadnum":"1412045600:00:001:0090"},"geometry":{"type":"Polygon","coordinates":[[[38.321906,48.261447],[38.32208,48.261396],[38.322076,48.261387],[38.322206,48.261349],[38.322189,48.261324],[38.322059,48.261363],[38.322053,48.261354],[38.321879,48.261408],[38.321906,48.261447]]]}},{"type":"Feature","properties":{"cadnum":"1412045600:00:001:0085"},"geometry":{"type":"Polygon","coordinates":[[[38.317441,48.262448],[38.317539,48.262419],[38.317508,48.262373],[38.317409,48.2624],[38.317441,48.262448]]]}},{"type":"Feature","properties":{"cadnum":"1412045600:00:001:0055"},"geometry":{"type":"Polygon","coordinates":[[[38.315401,48.263696],[38.315491,48.263672],[38.315397,48.263513],[38.315307,48.263539],[38.315401,48.263696]]]}},{"type":"Feature","properties":{"cadnum":"1412045600:00:001:0091"},"geometry":{"type":"Polygon","coordinates":[[[38.318195,48.262562],[38.319189,48.262263],[38.318967,48.261934],[38.317975,48.262233],[38.318195,48.262562]]]}},{"type":"Feature","properties":{"cadnum":"1412045600:00:001:0148"},"geometry":{"type":"Polygon","coordinates":[[[38.316583,48.263351],[38.316659,48.263328],[38.316628,48.26328],[38.316552,48.263304],[38.316583,48.263351]]]}},{"type":"Feature","properties":{"cadnum":"1412045600:00:001:0194"},"geometry":{"type":"Polygon","coordinates":[[[38.316973,48.263791],[38.317042,48.263767],[38.317,48.26371],[38.316929,48.263734],[38.316973,48.263791]]]}},{"type":"Feature","properties":{"cadnum":"1412045600:00:001:0056"},"geometry":{"type":"Polygon","coordinates":[[[38.319026,48.261606],[38.31948,48.261471],[38.319395,48.261345],[38.318946,48.26148],[38.319026,48.261606]]]}},{"type":"Feature","properties":{"cadnum":"1412045600:00:001:0190"},"geometry":{"type":"Polygon","coordinates":[[[38.319159,48.261199],[38.319309,48.261148],[38.319004,48.260741],[38.318937,48.260762],[38.31891,48.260771],[38.31865,48.260855],[38.318864,48.261145],[38.318891,48.261181],[38.31890523255814,48.261199],[38.318904,48.261199],[38.318959,48.261267],[38.319159,48.261199]]]}},{"type":"Feature","properties":{"cadnum":"1412045600:00:001:0146"},"geometry":{"type":"Polygon","coordinates":[[[38.319443,48.259257],[38.320068,48.259051],[38.319906,48.258821],[38.319273,48.259019],[38.319443,48.259257]]]}},{"type":"Feature","properties":{"cadnum":"1412045600:00:001:0108"},"geometry":{"type":"Polygon","coordinates":[[[38.317491,48.259],[38.317868,48.258887],[38.317642,48.258561],[38.317261,48.258678],[38.317491,48.259]]]}},{"type":"Feature","properties":{"cadnum":"1412045600:00:001:0081"},"geometry":{"type":"Polygon","coordinates":[[[38.317585,48.258229],[38.317642,48.258211],[38.317638,48.258206],[38.317822,48.258149],[38.317535,48.257712],[38.317359,48.257765],[38.317575,48.258215],[38.317585,48.258229]]]}},{"type":"Feature","properties":{"cadnum":"1412045600:00:001:0113"},"geometry":{"type":"Polygon","coordinates":[[[38.317109,48.258809],[38.317229,48.258774],[38.317589,48.258669],[38.317422,48.258403],[38.316946,48.258543],[38.317109,48.258809]]]}},{"type":"Feature","properties":{"cadnum":"1412045600:00:001:0067"},"geometry":{"type":"Polygon","coordinates":[[[38.319103,48.258734],[38.31934,48.258672],[38.318923,48.257969],[38.318717,48.258023],[38.319103,48.258734]]]}},{"type":"Feature","properties":{"cadnum":"1412045600:00:001:0119"},"geometry":{"type":"Polygon","coordinates":[[[38.319233,48.260388],[38.319709,48.260236],[38.319543,48.259973],[38.319063,48.260125],[38.319233,48.260388]]]}},{"type":"Feature","properties":{"cadnum":"1412045600:00:001:0112"},"geometry":{"type":"Polygon","coordinates":[[[38.314734,48.25956589090909],[38.314734,48.259566],[38.314862,48.259524],[38.314692,48.259246],[38.31462,48.259144],[38.314378,48.259216],[38.314468,48.259345],[38.314544,48.259452],[38.314642,48.259596],[38.314734,48.25956589090909]]]}},{"type":"Feature","properties":{"cadnum":"1412045600:00:001:0142"},"geometry":{"type":"Polygon","coordinates":[[[38.314905,48.26063866666668],[38.314935,48.260682],[38.315088,48.260627],[38.314905,48.26036598421053],[38.314905,48.260365],[38.314898,48.260356],[38.314746,48.260409],[38.314905,48.26064],[38.314905,48.26063866666668]]]}},{"type":"Feature","properties":{"cadnum":"1412045600:00:001:0106"},"geometry":{"type":"Polygon","coordinates":[[[38.317283,48.258313],[38.317585,48.258229],[38.317575,48.258215],[38.317359,48.257765],[38.317355,48.257754],[38.31709,48.257796],[38.317288,48.258241],[38.317243,48.258253],[38.317283,48.258313]]]}},{"type":"Feature","properties":{"cadnum":"1412045600:00:001:0184"},"geometry":{"type":"Polygon","coordinates":[[[38.315658,48.259243],[38.31595,48.259165],[38.315757,48.2588],[38.315464,48.258887],[38.315658,48.259243]]]}},{"type":"Feature","properties":{"cadnum":"1412045600:00:001:0126"},"geometry":{"type":"Polygon","coordinates":[[[38.317202,48.259294],[38.317526,48.259195],[38.317477,48.259124],[38.317229,48.258774],[38.317109,48.258809],[38.316973,48.258842],[38.317042,48.25895],[38.316992,48.258968],[38.317139,48.259183],[38.317139,48.259204],[38.317202,48.259294]]]}},{"type":"Feature","properties":{"cadnum":"1412045600:00:001:0027"},"geometry":{"type":"Polygon","coordinates":[[[38.328491,48.267178],[38.328747,48.267083],[38.328647,48.266978],[38.328778,48.266934],[38.328567,48.266659],[38.328135,48.26681],[38.328491,48.267178]]]}},{"type":"Feature","properties":{"cadnum":"1412045600:00:001:0042"},"geometry":{"type":"Polygon","coordinates":[[[38.313044,48.258325],[38.313354,48.258274],[38.313197,48.257843],[38.31312,48.257856],[38.313201,48.258082],[38.313115,48.258095],[38.31313,48.258133],[38.312981,48.25816],[38.313044,48.258325]]]}},{"type":"Feature","properties":{"cadnum":"1412045600:00:001:0121"},"geometry":{"type":"Polygon","coordinates":[[[38.314005,48.261088],[38.314409,48.260977],[38.314162,48.260585],[38.313767,48.260711],[38.314005,48.261088]]]}},{"type":"Feature","properties":{"cadnum":"1412045600:00:001:0111"},"geometry":{"type":"Polygon","coordinates":[[[38.310681,48.261058],[38.3117,48.260855],[38.311619,48.260693],[38.310604,48.260893],[38.310681,48.261058]]]}},{"type":"Feature","properties":{"cadnum":"1412045600:00:001:0084"},"geometry":{"type":"Polygon","coordinates":[[[38.31374,48.258585],[38.313929,48.258507],[38.314032,48.258465],[38.313722,48.258044],[38.313439,48.258149],[38.31374,48.258585]]]}},{"type":"Feature","properties":{"cadnum":"1412045600:00:001:0047"},"geometry":{"type":"Polygon","coordinates":[[[38.314333,48.259102],[38.314593,48.259028],[38.314508,48.258908],[38.314386,48.258767],[38.314126,48.25843],[38.314032,48.258465],[38.313929,48.258507],[38.314216,48.258947],[38.314229,48.25894],[38.314333,48.259102]]]}},{"type":"Feature","properties":{"cadnum":"1412045600:00:001:0122"},"geometry":{"type":"Polygon","coordinates":[[[38.310604,48.260893],[38.311575,48.260702],[38.311485,48.260544],[38.310564,48.26069],[38.310604,48.260893]]]}}]}