{"type":"FeatureCollection","features":[{"type":"Feature","properties":{"cadnum":"1412945900:00:001:0101"},"geometry":{"type":"Polygon","coordinates":[[[37.463465,48.646266],[37.463026,48.646208],[37.462963,48.646424],[37.463293,48.64646541434263],[37.463293,48.646466],[37.463795,48.646528],[37.463844,48.646317],[37.463465,48.6462667876588],[37.463465,48.646266]]]}},{"type":"Feature","properties":{"cadnum":"1412945900:00:001:0076"},"geometry":{"type":"Polygon","coordinates":[[[37.461867,48.646908],[37.461931,48.646697],[37.461135,48.646599],[37.461076,48.646833],[37.461867,48.646908]]]}},{"type":"Feature","properties":{"cadnum":"1412945900:00:001:0090"},"geometry":{"type":"Polygon","coordinates":[[[37.46295,48.646424],[37.462887,48.646637],[37.463293,48.64668055017301],[37.463293,48.646682],[37.463749,48.64673],[37.463795,48.646528],[37.463293,48.646466],[37.463293,48.64646662524272],[37.46295,48.646424]]]}},{"type":"Feature","properties":{"cadnum":"1412945900:00:001:0092"},"geometry":{"type":"Polygon","coordinates":[[[37.462919,48.646006],[37.462877,48.646186],[37.463293,48.64624259863945],[37.463293,48.646243],[37.463844,48.646317],[37.463893,48.64613],[37.463293,48.646053],[37.463293,48.64605394871795],[37.462919,48.646006]]]}},{"type":"Feature","properties":{"cadnum":"1412945900:00:001:0059"},"geometry":{"type":"Polygon","coordinates":[[[37.463465,48.64612739053254],[37.463969,48.646193],[37.464028,48.645993],[37.46334557824258,48.64589922503742],[37.463166,48.645874],[37.463103,48.64608],[37.463465,48.646128],[37.463465,48.64612739053254]]]}},{"type":"Feature","properties":{"cadnum":"1412945900:00:001:0086"},"geometry":{"type":"Polygon","coordinates":[[[37.463465,48.64720071903323],[37.463636,48.647225],[37.463642,48.647225],[37.463682,48.647065],[37.463293,48.64702],[37.463293,48.647020074316934],[37.46255,48.646934],[37.462496,48.647092],[37.46303,48.647151],[37.463293,48.64717682181818],[37.463293,48.647177],[37.463305,48.647178],[37.463465,48.647201],[37.463465,48.64720071903323]]]}},{"type":"Feature","properties":{"cadnum":"1412945900:00:001:0098"},"geometry":{"type":"Polygon","coordinates":[[[37.46017,48.647427],[37.459864,48.647385],[37.459826,48.647485],[37.45982614953271,48.647485],[37.459783,48.647599],[37.460111,48.647656],[37.460569,48.647724],[37.460623,48.647498],[37.46043,48.647457],[37.46017,48.647427]]]}},{"type":"Feature","properties":{"cadnum":"1412945900:00:001:0095"},"geometry":{"type":"Polygon","coordinates":[[[37.4618,48.647136],[37.461867,48.646908],[37.461076,48.646833],[37.461015,48.647059],[37.4618,48.647136]]]}},{"type":"Feature","properties":{"cadnum":"1412945900:00:001:0027"},"geometry":{"type":"Polygon","coordinates":[[[37.458925,48.644925],[37.45924,48.644649],[37.45893,48.644376],[37.458625,48.644575],[37.458584,48.64462],[37.458925,48.644925]]]}},{"type":"Feature","properties":{"cadnum":"1412945900:00:001:0100"},"geometry":{"type":"Polygon","coordinates":[[[37.452478,48.64079966323908],[37.452696,48.640877],[37.452938,48.640586],[37.452493,48.640394],[37.452478,48.64041206451613],[37.452478,48.640412],[37.452229,48.640711],[37.452307,48.640738879518075],[37.452307,48.640739],[37.45235205791637,48.64075498455645],[37.452478,48.6408],[37.452478,48.64079966323908]]]}},{"type":"Feature","properties":{"cadnum":"1412945900:00:001:0026"},"geometry":{"type":"Polygon","coordinates":[[[37.447032,48.64015],[37.446989,48.640225],[37.44698964248705,48.640225],[37.446985,48.64023322018349],[37.446985,48.640233],[37.4467,48.640738],[37.446964,48.640817],[37.446985,48.640778],[37.446985,48.640777266666674],[37.447279,48.640221],[37.447032,48.64015]]]}},{"type":"Feature","properties":{"cadnum":"1412945900:00:001:0075"},"geometry":{"type":"Polygon","coordinates":[[[37.450145,48.641969],[37.450296,48.641747],[37.449992,48.641655],[37.449849,48.641862],[37.450145,48.641969]]]}},{"type":"Feature","properties":{"cadnum":"1412945900:00:001:0074"},"geometry":{"type":"Polygon","coordinates":[[[37.450296,48.641747],[37.450638,48.641257],[37.450329,48.641162],[37.449992,48.641655],[37.450296,48.641747]]]}},{"type":"Feature","properties":{"cadnum":"1412945900:00:001:0034"},"geometry":{"type":"Polygon","coordinates":[[[37.449789,48.641637],[37.450176,48.641034],[37.449916,48.640964],[37.449533,48.641565],[37.449789,48.641637]]]}},{"type":"Feature","properties":{"cadnum":"1412945900:00:001:0085"},"geometry":{"type":"Polygon","coordinates":[[[37.443142,48.639838],[37.442491,48.640046],[37.442181,48.640225],[37.44218213777778,48.640225],[37.441601,48.640562],[37.441492,48.64057712811388],[37.441492,48.640577],[37.440757,48.640678],[37.441492,48.641006],[37.441492,48.64100556823766],[37.445797,48.642922],[37.446474,48.642438],[37.446814,48.64231490802348],[37.446814,48.642315],[37.446830007247726,48.642309112835946],[37.446985,48.642253],[37.446985,48.64225210942249],[37.447143,48.642194],[37.446814,48.642086],[37.446814,48.64208670939639],[37.443771,48.641085],[37.444493,48.640186],[37.444206,48.640112],[37.44420571839082,48.640112],[37.443142,48.639838]]]}},{"type":"Feature","properties":{"cadnum":"1412945900:00:001:0079"},"geometry":{"type":"Polygon","coordinates":[[[37.451002,48.642937],[37.45111,48.642708],[37.451034,48.642693],[37.451214,48.642355],[37.450199,48.642168],[37.449969,48.642489],[37.450333,48.642753],[37.451002,48.642937]]]}},{"type":"Feature","properties":{"cadnum":"1412945900:00:001:0089"},"geometry":{"type":"Polygon","coordinates":[[[37.449344,48.641613],[37.449799,48.640993],[37.449566,48.640925],[37.449089,48.641539],[37.449344,48.641613]]]}},{"type":"Feature","properties":{"cadnum":"1412945900:00:001:0033"},"geometry":{"type":"Polygon","coordinates":[[[37.450925,48.640803],[37.451191,48.640405],[37.450814,48.640284],[37.450545,48.640678],[37.450925,48.640803]]]}},{"type":"Feature","properties":{"cadnum":"1412945900:00:001:0057"},"geometry":{"type":"Polygon","coordinates":[[[37.448051,48.639321],[37.448388,48.638859],[37.448074,48.63877],[37.447709,48.639221],[37.448051,48.639321]]]}},{"type":"Feature","properties":{"cadnum":"1412945900:00:001:0077"},"geometry":{"type":"Polygon","coordinates":[[[37.446964,48.638636],[37.446985,48.638603],[37.446985,48.63860233333334],[37.447153,48.638333],[37.446883,48.638247],[37.446529,48.638826],[37.446784,48.638909],[37.446814,48.63886349999999],[37.446814,48.638865],[37.446964,48.638636]]]}},{"type":"Feature","properties":{"cadnum":"1412945900:00:001:0097"},"geometry":{"type":"Polygon","coordinates":[[[37.447185,48.639034],[37.447688,48.638405],[37.447499,48.638322],[37.446973,48.638969],[37.447185,48.639034]]]}},{"type":"Feature","properties":{"cadnum":"1412945900:00:001:0084"},"geometry":{"type":"Polygon","coordinates":[[[37.448986,48.639646],[37.449376,48.639185],[37.449053,48.639079],[37.44868,48.639541],[37.448986,48.639646]]]}},{"type":"Feature","properties":{"cadnum":"1412945900:00:001:0078"},"geometry":{"type":"Polygon","coordinates":[[[37.446985,48.63827948888889],[37.447153,48.638333],[37.447266,48.638153],[37.446996,48.638069],[37.446883,48.638247],[37.446985,48.63828],[37.446985,48.63827948888889]]]}},{"type":"Feature","properties":{"cadnum":"1412945900:00:004:0101"},"geometry":{"type":"Polygon","coordinates":[[[37.51361,48.664464],[37.513812,48.664342],[37.513808,48.664334],[37.513876,48.664315],[37.513866,48.664301],[37.513939,48.66428],[37.51392,48.664253],[37.513965,48.664241],[37.513933,48.664191],[37.513902,48.6642],[37.513835,48.664081],[37.51343,48.664155],[37.513493,48.664262],[37.513566,48.664389],[37.51361,48.664464]]]}},{"type":"Feature","properties":{"cadnum":"1412945900:00:001:0065"},"geometry":{"type":"Polygon","coordinates":[[[37.446506,48.637981],[37.446537,48.637921],[37.446308,48.637867],[37.446273,48.637927],[37.446506,48.637981]]]}},{"type":"Feature","properties":{"cadnum":"1412945900:00:001:0096"},"geometry":{"type":"Polygon","coordinates":[[[37.445401,48.638482],[37.445814,48.637888],[37.445895,48.637779],[37.445725,48.63774],[37.445666,48.637725],[37.44519,48.638414],[37.445401,48.638482]]]}},{"type":"Feature","properties":{"cadnum":"1412945900:00:001:0073"},"geometry":{"type":"Polygon","coordinates":[[[37.443313,48.638936],[37.443596,48.638538],[37.443887,48.638122],[37.443501,48.638028],[37.442985,48.638826],[37.443313,48.638936]]]}},{"type":"Feature","properties":{"cadnum":"1412945900:00:001:0064"},"geometry":{"type":"Polygon","coordinates":[[[37.446088,48.638681],[37.446506,48.637981],[37.446273,48.637927],[37.44586,48.638628],[37.445864,48.63863],[37.445931,48.638645],[37.446088,48.638681]]]}},{"type":"Feature","properties":{"cadnum":"1412945900:00:001:0035"},"geometry":{"type":"Polygon","coordinates":[[[37.443954,48.638648],[37.444252,48.638232],[37.443887,48.638122],[37.443596,48.638538],[37.443954,48.638648]]]}},{"type":"Feature","properties":{"cadnum":"1412945900:00:001:0083"},"geometry":{"type":"Polygon","coordinates":[[[37.466812,48.643744],[37.466822,48.643712],[37.466835,48.643673],[37.466822,48.643673],[37.466839,48.643622],[37.466561,48.643595],[37.466488,48.643855],[37.46648803289474,48.643855],[37.466391,48.644198],[37.466687,48.644231],[37.466791,48.643892],[37.466772,48.64389],[37.466808,48.643744],[37.466812,48.643744]]]}},{"type":"Feature","properties":{"cadnum":"1412945900:00:001:0029"},"geometry":{"type":"Polygon","coordinates":[[[37.464755,48.645834],[37.465061,48.64554],[37.464607,48.645361],[37.464334,48.645691],[37.464755,48.645834]]]}},{"type":"Feature","properties":{"cadnum":"1412945900:00:001:0062"},"geometry":{"type":"Polygon","coordinates":[[[37.464261,48.643397],[37.463915,48.643362],[37.463804,48.643855],[37.46380479856115,48.643855],[37.463799,48.643881],[37.464158,48.643901],[37.46418028965507,48.643790248276396],[37.464261,48.643397]]]}},{"type":"Feature","properties":{"cadnum":"1412945900:00:001:0091"},"geometry":{"type":"Polygon","coordinates":[[[37.458382,48.641109],[37.458162,48.640936],[37.457813254004726,48.64134062242545],[37.457726,48.641441],[37.457964,48.641589],[37.457972,48.64158],[37.457972,48.64157981339713],[37.458382,48.641109]]]}},{"type":"Feature","properties":{"cadnum":"1412945900:00:001:0051"},"geometry":{"type":"Polygon","coordinates":[[[37.458269,48.64307],[37.458179,48.64302],[37.458095,48.642949],[37.458013,48.642836],[37.4578,48.643046],[37.4578,48.643046548494986],[37.457673,48.643171],[37.4578,48.643277734042556],[37.4578,48.643278],[37.457955,48.643408],[37.457972,48.643392],[37.457972,48.643389700636945],[37.458269,48.64307]]]}},{"type":"Feature","properties":{"cadnum":"1412945900:00:001:0087"},"geometry":{"type":"Polygon","coordinates":[[[37.461082,48.642747],[37.461239,48.642557],[37.461288,48.642506],[37.461342,48.64245],[37.460942,48.642251],[37.46087,48.642322],[37.460825,48.642358],[37.460766,48.6424],[37.460642,48.642495],[37.460615,48.642515],[37.460673,48.642548],[37.460843,48.642631],[37.461082,48.642747]]]}},{"type":"Feature","properties":{"cadnum":"1412945900:00:001:0032"},"geometry":{"type":"Polygon","coordinates":[[[37.459523,48.642459],[37.45985,48.641969],[37.459617,48.641803],[37.45924,48.642337],[37.459523,48.642459]]]}},{"type":"Feature","properties":{"cadnum":"1412945900:00:001:0094"},"geometry":{"type":"Polygon","coordinates":[[[37.460129,48.643127],[37.46042,48.642634],[37.460187,48.642491],[37.459806,48.643052],[37.460129,48.643127]]]}},{"type":"Feature","properties":{"cadnum":"1412945900:00:001:0053"},"geometry":{"type":"Polygon","coordinates":[[[37.458296,48.642955],[37.458342,48.642922],[37.458386,48.642871],[37.458112,48.642729],[37.458202,48.642874],[37.458296,48.642955]]]}},{"type":"Feature","properties":{"cadnum":"1412945900:00:001:0103"},"geometry":{"type":"Polygon","coordinates":[[[37.462429,48.643696],[37.462577,48.643192],[37.46225,48.643151],[37.462168,48.643362],[37.462146,48.643408],[37.462133,48.643456],[37.462128,48.643471],[37.462061,48.643652],[37.462429,48.643696]]]}},{"type":"Feature","properties":{"cadnum":"1412945900:00:001:0093"},"geometry":{"type":"Polygon","coordinates":[[[37.460619,48.64343],[37.460919,48.642895],[37.460856,48.642871],[37.460655,48.642783],[37.460556,48.642942],[37.460457,48.643129],[37.460353,48.64334],[37.46034,48.643364],[37.460619,48.64343]]]}},{"type":"Feature","properties":{"cadnum":"1412945900:00:001:0068"},"geometry":{"type":"Polygon","coordinates":[[[37.460353,48.64334],[37.460457,48.643129],[37.460556,48.642942],[37.460655,48.642783],[37.46042,48.642634],[37.460084,48.643204],[37.460353,48.64334]]]}},{"type":"Feature","properties":{"cadnum":"1412945900:00:001:0070"},"geometry":{"type":"Polygon","coordinates":[[[37.463465,48.647790894389445],[37.463596,48.647803],[37.463651,48.647593],[37.463293,48.64756],[37.463293,48.64756039668175],[37.462802,48.647513],[37.462757,48.647724],[37.463293,48.64777472316384],[37.463293,48.647775],[37.463417503146886,48.6477865052413],[37.463465,48.647791],[37.463465,48.647790894389445]]]}},{"type":"Feature","properties":{"cadnum":"1412945900:00:001:0081"},"geometry":{"type":"Polygon","coordinates":[[[37.456567,48.639983],[37.456275,48.639898],[37.45615065749235,48.640112],[37.45615,48.640112],[37.456096662404086,48.64020492838877],[37.456085,48.640225],[37.45608514201184,48.640225],[37.455956,48.64045],[37.456231,48.64053],[37.456488,48.640112],[37.45648704132231,48.640112],[37.456567,48.639983]]]}},{"type":"Feature","properties":{"cadnum":"1412945900:00:001:0071"},"geometry":{"type":"Polygon","coordinates":[[[37.45695,48.640106],[37.45685,48.640067],[37.456567,48.639983],[37.45649023966942,48.640112],[37.45649,48.640112],[37.456325,48.64039],[37.456698,48.640509],[37.45692148289017,48.64015124714759],[37.45695,48.640106]]]}},{"type":"Feature","properties":{"cadnum":"1412945900:00:001:0088"},"geometry":{"type":"Polygon","coordinates":[[[37.454604,48.641503],[37.454833,48.641082],[37.454361,48.641058],[37.454168,48.641369],[37.454604,48.641503]]]}},{"type":"Feature","properties":{"cadnum":"1412945900:00:001:0082"},"geometry":{"type":"Polygon","coordinates":[[[37.456154,48.640658],[37.456231,48.64053],[37.455956,48.64045],[37.455879,48.640583],[37.456154,48.640658]]]}},{"type":"Feature","properties":{"cadnum":"1412945900:00:001:0072"},"geometry":{"type":"Polygon","coordinates":[[[37.456563,48.640723],[37.456698,48.640509],[37.456325,48.64039],[37.456199,48.640595],[37.456563,48.640723]]]}},{"type":"Feature","properties":{"cadnum":"1412945900:00:001:0080"},"geometry":{"type":"Polygon","coordinates":[[[37.454757,48.641913],[37.45486,48.641785],[37.454604,48.641696],[37.454573,48.641743],[37.45451,48.64183],[37.454757,48.641913]]]}},{"type":"Feature","properties":{"cadnum":"1412945900:00:001:0099"},"geometry":{"type":"Polygon","coordinates":[[[37.455831,48.642557],[37.456136,48.642225],[37.455799,48.642002],[37.455489,48.642447],[37.455831,48.642557]]]}},{"type":"Feature","properties":{"cadnum":"1412945900:00:001:0102"},"geometry":{"type":"Polygon","coordinates":[[[37.456976,48.643085],[37.457034,48.643058],[37.45699,48.64302],[37.456936,48.643047],[37.456976,48.643085]]]}}]}