{"type":"FeatureCollection","features":[{"type":"Feature","properties":{"cadnum":"1413591500:01:000:0006"},"geometry":{"type":"Polygon","coordinates":[[[38.144617,48.168139703448276],[38.144735,48.168169],[38.144871,48.167924],[38.144617,48.16786735680751],[38.144617,48.167867],[38.14394,48.167714],[38.143823,48.167939],[38.144445,48.168096458438285],[38.144445,48.168097],[38.14455614082007,48.16812459358292],[38.144617,48.16814],[38.144617,48.168139703448276]]]}},{"type":"Feature","properties":{"cadnum":"1413591500:01:000:0015"},"geometry":{"type":"Polygon","coordinates":[[[38.144617,48.16607311811023],[38.144699,48.166087],[38.144798,48.16586],[38.144617,48.165823082152976],[38.144617,48.165823],[38.14455450204342,48.165810334694406],[38.144445,48.165788],[38.144445,48.165788143939395],[38.144089,48.165716],[38.143989,48.165965],[38.144617,48.166074],[38.144617,48.16607311811023]]]}},{"type":"Feature","properties":{"cadnum":"1413591500:01:000:0025"},"geometry":{"type":"Polygon","coordinates":[[[38.1454,48.16606],[38.145158,48.166031],[38.145143,48.166028],[38.145142,48.166028],[38.144982,48.165998],[38.14496896551724,48.166028],[38.144968,48.166028],[38.14492044274811,48.16613967938928],[38.144919,48.166143],[38.14491902870814,48.166143],[38.144879,48.166237],[38.145158,48.166288],[38.145791,48.166222],[38.146154,48.166165],[38.146159,48.166051],[38.1454,48.16606]]]}},{"type":"Feature","properties":{"cadnum":"1413591500:01:000:0008"},"geometry":{"type":"Polygon","coordinates":[[[38.176428,48.198899],[38.176765,48.198438],[38.176258,48.198243],[38.175912,48.198701],[38.176428,48.198899]]]}},{"type":"Feature","properties":{"cadnum":"1413591500:01:000:0007"},"geometry":{"type":"Polygon","coordinates":[[[38.175444,48.198584],[38.17552,48.198453],[38.175566,48.198464],[38.175583,48.198429],[38.17578,48.198051],[38.175296,48.197923],[38.174981,48.198462],[38.175444,48.198584]]]}},{"type":"Feature","properties":{"cadnum":"1413591500:01:000:0017"},"geometry":{"type":"Polygon","coordinates":[[[38.178583,48.198955],[38.178539,48.198943],[38.178556,48.198914],[38.178373,48.198872],[38.178272259259266,48.198992],[38.178272,48.198992],[38.178237,48.199034],[38.178233,48.199034],[38.178177,48.199106],[38.178177874999996,48.199106],[38.177596,48.199866],[38.17783,48.199953],[38.178413,48.199198],[38.178426,48.199201],[38.178453,48.199156],[38.178449,48.199153],[38.178558,48.198992],[38.17855776158941,48.198992],[38.178583,48.198955]]]}},{"type":"Feature","properties":{"cadnum":"1413591500:01:000:0024"},"geometry":{"type":"Polygon","coordinates":[[[38.150264,48.158815],[38.15026494444445,48.158815],[38.150125,48.158925],[38.150318,48.15905],[38.150844,48.159371],[38.151123,48.159578],[38.151333,48.159436],[38.150867,48.15914],[38.150924,48.159104],[38.150633,48.158918],[38.150354,48.158745],[38.150264,48.158815]]]}},{"type":"Feature","properties":{"cadnum":"1413591500:01:000:0028"},"geometry":{"type":"Polygon","coordinates":[[[38.154639,48.158688],[38.15462255905511,48.1587],[38.154622,48.1587],[38.154311,48.158927],[38.154513,48.159071],[38.154981,48.159418],[38.155214,48.159236],[38.154771792910445,48.158815],[38.154772,48.158815],[38.154639,48.158688]]]}},{"type":"Feature","properties":{"cadnum":"1413591500:01:000:0004"},"geometry":{"type":"Polygon","coordinates":[[[38.141129,48.161066],[38.141213,48.160869],[38.140882,48.160802],[38.140796,48.160997],[38.141129,48.161066]]]}},{"type":"Feature","properties":{"cadnum":"1413591500:01:000:0003"},"geometry":{"type":"Polygon","coordinates":[[[38.140796,48.160997],[38.140882,48.160802],[38.139391,48.160524],[38.139349,48.160608],[38.139336,48.160605],[38.139292,48.160695],[38.140796,48.160997]]]}},{"type":"Feature","properties":{"cadnum":"1413591500:01:000:0010"},"geometry":{"type":"Polygon","coordinates":[[[38.143653,48.16367],[38.143729,48.16355],[38.143374,48.163445],[38.14319,48.163409],[38.142858,48.163325],[38.142179,48.163155],[38.142135,48.163229],[38.143653,48.16367]]]}},{"type":"Feature","properties":{"cadnum":"1413591500:01:000:0020"},"geometry":{"type":"Polygon","coordinates":[[[38.14336,48.164206],[38.143446,48.164092],[38.141919,48.163559],[38.141834,48.163679],[38.14336,48.164206]]]}},{"type":"Feature","properties":{"cadnum":"1413591500:01:000:0019"},"geometry":{"type":"Polygon","coordinates":[[[38.144617,48.16468989312977],[38.144838,48.164754],[38.145314,48.164889],[38.145395,48.164674],[38.144982,48.164559],[38.144569,48.164428],[38.144445,48.164611],[38.144445,48.16461134285715],[38.144429,48.164635],[38.144445,48.16463968085106],[38.144445,48.16464],[38.14457385245907,48.164677377049195],[38.144617,48.16469],[38.144617,48.16468989312977]]]}},{"type":"Feature","properties":{"cadnum":"1413591500:01:000:0001"},"geometry":{"type":"Polygon","coordinates":[[[38.143594,48.164482],[38.143626,48.164416],[38.14358,48.164407],[38.14355,48.164401],[38.143517,48.164467],[38.14354,48.16447],[38.143594,48.164482]]]}},{"type":"Feature","properties":{"cadnum":"1413591500:01:000:0016"},"geometry":{"type":"Polygon","coordinates":[[[38.142462,48.165907],[38.142575,48.165695],[38.142498,48.165671],[38.142202,48.165596],[38.141618,48.165494],[38.141523,48.165731],[38.142462,48.165907]]]}},{"type":"Feature","properties":{"cadnum":"1413591500:02:000:0005"},"geometry":{"type":"Polygon","coordinates":[[[38.139124,48.1633215928297],[38.139794,48.163464],[38.139871,48.163293],[38.139116,48.163127],[38.138609,48.163023],[38.138276,48.162936],[38.1382,48.163107],[38.138952,48.16328366912669],[38.138952,48.163285],[38.139013,48.163298],[38.139124,48.163322],[38.139124,48.1633215928297]]]}},{"type":"Feature","properties":{"cadnum":"1413591500:01:000:0029"},"geometry":{"type":"Polygon","coordinates":[[[38.152362,48.160087],[38.152505,48.159997],[38.152456,48.159889],[38.151805,48.159374],[38.151639,48.159481],[38.151729,48.159545],[38.152362,48.160087]]]}},{"type":"Feature","properties":{"cadnum":"1413591500:04:000:0001"},"geometry":{"type":"Polygon","coordinates":[[[38.112908,48.150561],[38.113015,48.150558],[38.113164,48.150552],[38.113159,48.149845],[38.112854,48.149848],[38.112908,48.150561]]]}},{"type":"Feature","properties":{"cadnum":"1413591500:05:000:0003"},"geometry":{"type":"Polygon","coordinates":[[[38.104266,48.147669],[38.104472,48.147271],[38.104203,48.147211],[38.103897616895736,48.147766159135806],[38.103835,48.147879],[38.103849,48.147882],[38.103893,48.147894],[38.103933,48.147903],[38.104113,48.147936],[38.10418507860231,48.1478094497822],[38.104266,48.147669]]]}},{"type":"Feature","properties":{"cadnum":"1413591500:03:000:0002"},"geometry":{"type":"Polygon","coordinates":[[[38.142821,48.150334],[38.143234,48.149539],[38.142862,48.149473],[38.142494,48.150279],[38.142821,48.150334]]]}},{"type":"Feature","properties":{"cadnum":"1413591500:01:000:0021"},"geometry":{"type":"Polygon","coordinates":[[[38.144215,48.167121],[38.144335,48.166866],[38.143959,48.166782],[38.143423,48.166666],[38.14332,48.166884],[38.143886,48.167022],[38.144111,48.167085],[38.144215,48.167121]]]}},{"type":"Feature","properties":{"cadnum":"1413591500:01:000:0027"},"geometry":{"type":"Polygon","coordinates":[[[38.140055,48.169566],[38.140212,48.169535],[38.140118,48.169356],[38.140284,48.169302],[38.140334,48.169287],[38.140316,48.169254],[38.14037,48.169236],[38.140338,48.169185],[38.140356,48.169179],[38.140217,48.168942],[38.140114,48.168966],[38.139957,48.168706],[38.139615,48.168789],[38.139772,48.169059],[38.140055,48.169566]]]}},{"type":"Feature","properties":{"cadnum":"1413591500:01:000:0026"},"geometry":{"type":"Polygon","coordinates":[[[38.141735,48.168634],[38.141852,48.168367],[38.142072,48.168014],[38.141892,48.167969],[38.141681,48.16832],[38.141523,48.168622],[38.141735,48.168634]]]}},{"type":"Feature","properties":{"cadnum":"1413591500:04:000:0003"},"geometry":{"type":"Polygon","coordinates":[[[38.118284,48.150858],[38.118549,48.150852],[38.118527,48.150379],[38.118405,48.150381],[38.118266,48.150384],[38.118284,48.150858]]]}},{"type":"Feature","properties":{"cadnum":"1413591500:03:000:0005"},"geometry":{"type":"Polygon","coordinates":[[[38.145917,48.150522],[38.146154,48.150283],[38.14554,48.150028],[38.145382,48.150261],[38.145301,48.150412],[38.145917,48.150522]]]}},{"type":"Feature","properties":{"cadnum":"1413591500:03:000:0006"},"geometry":{"type":"Polygon","coordinates":[[[38.147008,48.149689],[38.147169,48.149452],[38.147058,48.149408],[38.14645,48.149222],[38.146343,48.14918],[38.146182,48.149129],[38.146002,48.14939],[38.146236,48.149459],[38.147008,48.149689]]]}},{"type":"Feature","properties":{"cadnum":"1413591500:02:000:0002"},"geometry":{"type":"Polygon","coordinates":[[[38.128722,48.169571],[38.128777,48.169557],[38.128852,48.169502],[38.128611,48.169275],[38.128579,48.169284],[38.128705,48.169533],[38.128722,48.169571]]]}},{"type":"Feature","properties":{"cadnum":"1413591500:02:000:0006"},"geometry":{"type":"Polygon","coordinates":[[[38.132846,48.168757],[38.13308,48.168676],[38.132634,48.16811],[38.132433,48.16787],[38.132294,48.16769],[38.131993,48.167763],[38.132074,48.167891],[38.132181,48.167954],[38.132325,48.168074],[38.132846,48.168757]]]}},{"type":"Feature","properties":{"cadnum":"1413591500:01:000:0022"},"geometry":{"type":"Polygon","coordinates":[[[38.142934,48.172714],[38.14319,48.172588],[38.141716,48.172228],[38.141605,48.172384],[38.141752,48.172421],[38.141924,48.172471],[38.142934,48.172714]]]}},{"type":"Feature","properties":{"cadnum":"1413591500:01:000:0023"},"geometry":{"type":"Polygon","coordinates":[[[38.147125,48.163547],[38.147169,48.16349],[38.147125,48.163473],[38.147079,48.163529],[38.147125,48.163547]]]}},{"type":"Feature","properties":{"cadnum":"1413591500:01:000:0018"},"geometry":{"type":"Polygon","coordinates":[[[38.147049,48.164168],[38.147169,48.163919],[38.146617,48.163744],[38.146263,48.163619],[38.14615,48.163751],[38.146146,48.163748],[38.146123,48.163778],[38.146137,48.163784],[38.146069,48.16388],[38.146312,48.163948],[38.147049,48.164168]]]}},{"type":"Feature","properties":{"cadnum":"1413591500:05:000:0004"},"geometry":{"type":"Polygon","coordinates":[[[38.102096,48.146332],[38.102164,48.146057],[38.102172,48.145778],[38.102119,48.145601],[38.102002,48.145563],[38.101998,48.145434],[38.101805,48.14543],[38.101782,48.145979],[38.101805,48.145994],[38.101796,48.146123],[38.101696,48.146111],[38.101675,48.146246],[38.102096,48.146332]]]}}]}