{"type":"FeatureCollection","features":[{"type":"Feature","properties":{"cadnum":"1413846500:01:001:0094"},"geometry":{"type":"Polygon","coordinates":[[[37.321174,48.085339],[37.32116934306569,48.085361],[37.321168,48.085361],[37.32115423822712,48.08543235734082],[37.321145,48.085476],[37.32114582142857,48.085476],[37.321141,48.085501],[37.322189,48.085567],[37.322229,48.08539],[37.321636,48.085361],[37.32162909803925,48.085361],[37.321174,48.085339]]]}},{"type":"Feature","properties":{"cadnum":"1413846500:01:001:0103"},"geometry":{"type":"Polygon","coordinates":[[[37.320642,48.08527781355932],[37.321002,48.085309],[37.321043,48.085093],[37.320868,48.085069],[37.320872,48.085042],[37.320512,48.085012],[37.320455,48.085261],[37.320471,48.08526245454546],[37.320471,48.085263],[37.32059843999917,48.08527403999993],[37.320642,48.085278],[37.320642,48.08527781355932]]]}},{"type":"Feature","properties":{"cadnum":"1413846500:01:001:0202"},"geometry":{"type":"Polygon","coordinates":[[[37.3213,48.084427],[37.321497,48.084445],[37.321493,48.084388],[37.321506,48.084325],[37.321061,48.084286],[37.321052,48.084346],[37.321007,48.084388],[37.320962,48.084382],[37.320598,48.084349],[37.320567,48.084508],[37.320471,48.084498],[37.320471,48.08449829213483],[37.320122,48.084463],[37.320055,48.084766],[37.320105,48.084784],[37.320471,48.084849430167594],[37.320471,48.08485],[37.32063209225185,48.08487822878245],[37.320642,48.08488],[37.320642,48.084879964953274],[37.320899,48.084925],[37.320958,48.084934],[37.3213,48.084427]]]}},{"type":"Feature","properties":{"cadnum":"1413846500:01:001:0222"},"geometry":{"type":"Polygon","coordinates":[[[37.32044387421384,48.085361],[37.320443,48.085361],[37.320432,48.08542],[37.320471,48.08542334285714],[37.320471,48.085424],[37.320931,48.085462],[37.320971,48.085468],[37.320975,48.085445],[37.320998,48.085309],[37.320523433389226,48.08526667622257],[37.320464,48.085261],[37.32044387421384,48.085361]]]}},{"type":"Feature","properties":{"cadnum":"1413846500:01:001:0012"},"geometry":{"type":"Polygon","coordinates":[[[37.308134,48.081351],[37.307614,48.08119],[37.30726838898452,48.081692],[37.307268,48.081692],[37.307214,48.081771],[37.307324,48.081806],[37.307324833333325,48.081806],[37.307518,48.081867],[37.307591,48.081766],[37.308291,48.081982],[37.307945,48.082485],[37.307559,48.082365],[37.307451,48.082522],[37.306849,48.082336],[37.305839,48.083803],[37.306041,48.083869],[37.305947,48.083995],[37.306096,48.084043],[37.30511887808316,48.085361],[37.305118,48.085361],[37.305044,48.085462],[37.304761,48.085369],[37.304289,48.086008],[37.304847,48.086192],[37.304488,48.08669],[37.304163,48.08715851635514],[37.304163,48.087158],[37.30406,48.087307],[37.304163,48.087342],[37.304163,48.087341110389616],[37.305138,48.087664],[37.30588,48.087896],[37.306482,48.086971],[37.306683,48.086864],[37.307707146373914,48.085476],[37.307708,48.085476],[37.309082,48.083617],[37.308889,48.083614],[37.308902,48.083533],[37.308929,48.083413],[37.309055,48.082861],[37.309063,48.082831],[37.309055,48.082812],[37.3091,48.082656],[37.309109,48.082612],[37.309122,48.082543],[37.309484,48.08257718401937],[37.309484,48.082578],[37.309535,48.082582],[37.309656,48.082594],[37.309656,48.08259275555556],[37.309895,48.082614],[37.310052,48.08263],[37.310631,48.081692],[37.31063074941452,48.081692],[37.31109,48.080952],[37.309484,48.080417],[37.309484,48.080417510869566],[37.30892,48.080229],[37.308134,48.081351]]]}},{"type":"Feature","properties":{"cadnum":"1413846500:01:001:0173"},"geometry":{"type":"Polygon","coordinates":[[[37.315149,48.081441],[37.315149,48.08144094117648],[37.315181,48.081328],[37.314978,48.081307],[37.314978,48.081307125435536],[37.314862,48.081295],[37.314772,48.081595],[37.314978,48.081615981481484],[37.314978,48.081616],[37.315096,48.081628],[37.315149,48.081441]]]}},{"type":"Feature","properties":{"cadnum":"1413846500:01:001:0106"},"geometry":{"type":"Polygon","coordinates":[[[37.314436,48.081558],[37.314503,48.081244],[37.314193,48.08121],[37.314122,48.081526],[37.314436,48.081558]]]}},{"type":"Feature","properties":{"cadnum":"1413846500:01:001:0220"},"geometry":{"type":"Polygon","coordinates":[[[37.314067,48.08166],[37.313852,48.08164],[37.313826,48.08164],[37.31381378313253,48.081692],[37.313812,48.081692],[37.31374,48.082009],[37.313987,48.082036],[37.314038096774226,48.08179187096757],[37.314067,48.08166]]]}},{"type":"Feature","properties":{"cadnum":"1413846500:01:001:0211"},"geometry":{"type":"Polygon","coordinates":[[[37.313321,48.081586],[37.313075,48.081558],[37.313025,48.081806],[37.31302582101167,48.081806],[37.312998,48.081949],[37.31325,48.081967],[37.313279858181815,48.081806],[37.31328,48.081806],[37.313321,48.081586]]]}},{"type":"Feature","properties":{"cadnum":"1413846500:01:001:0057"},"geometry":{"type":"Polygon","coordinates":[[[37.315061,48.081744],[37.314809,48.08172],[37.314791,48.081806],[37.3147921689008,48.081806],[37.314736,48.082093],[37.314979,48.082116],[37.314988,48.082116],[37.315048833333336,48.081806],[37.315049,48.081806],[37.315061,48.081744]]]}},{"type":"Feature","properties":{"cadnum":"1413846500:01:001:0174"},"geometry":{"type":"Polygon","coordinates":[[[37.314122,48.081526],[37.314193,48.08121],[37.313879,48.081177],[37.313793,48.081489],[37.314122,48.081526]]]}},{"type":"Feature","properties":{"cadnum":"1413846500:01:001:0213"},"geometry":{"type":"Polygon","coordinates":[[[37.312531,48.081384],[37.31259,48.08109],[37.312271,48.081061],[37.312218,48.081319],[37.312212,48.081355],[37.312248,48.081357],[37.312531,48.081384]]]}},{"type":"Feature","properties":{"cadnum":"1413846500:01:001:0217"},"geometry":{"type":"Polygon","coordinates":[[[37.312334,48.081484],[37.312078,48.081462],[37.312016,48.081806],[37.31201747513812,48.081806],[37.312006,48.081873],[37.312122,48.081882],[37.312248,48.081891],[37.31226593969849,48.081806],[37.312266,48.081806],[37.312334,48.081484]]]}},{"type":"Feature","properties":{"cadnum":"1413846500:01:001:0218"},"geometry":{"type":"Polygon","coordinates":[[[37.31179,48.081637],[37.311822,48.081433],[37.311552,48.081406],[37.31152,48.081399],[37.311493,48.081397],[37.311463,48.081609],[37.3114490964467,48.081692],[37.311449,48.081692],[37.311442057692304,48.081734019230815],[37.31143,48.081806],[37.311430165217395,48.081806],[37.31143,48.081807],[37.31144,48.081807],[37.311732,48.08184],[37.311755,48.081844],[37.31177701492533,48.08171014925395],[37.31179,48.081637]]]}},{"type":"Feature","properties":{"cadnum":"1413846500:01:001:0196"},"geometry":{"type":"Polygon","coordinates":[[[37.312203,48.081351],[37.312248,48.081157],[37.312271,48.081057],[37.311948,48.081028],[37.311929,48.08112],[37.31188,48.081322],[37.312042,48.081337],[37.312073,48.081339],[37.312145,48.081346],[37.312199,48.081351],[37.312203,48.081351]]]}},{"type":"Feature","properties":{"cadnum":"1413846500:01:001:0226"},"geometry":{"type":"Polygon","coordinates":[[[37.31188,48.081322],[37.311925,48.081117],[37.311948,48.081028],[37.311624,48.080994],[37.311602,48.081088],[37.311579,48.081195],[37.311556,48.081288],[37.311615,48.081295],[37.31188,48.081322]]]}},{"type":"Feature","properties":{"cadnum":"1413846500:01:001:0074"},"geometry":{"type":"Polygon","coordinates":[[[37.311548,48.081268],[37.311615,48.080973],[37.311287,48.08095],[37.31122,48.081244],[37.311548,48.081268]]]}},{"type":"Feature","properties":{"cadnum":"1413846500:01:001:0208"},"geometry":{"type":"Polygon","coordinates":[[[37.31121,48.081226],[37.31126,48.081015],[37.311279,48.080934],[37.310937,48.080886],[37.310897,48.081066],[37.31087,48.081168],[37.31087,48.081177],[37.310906,48.081184],[37.311139,48.081217],[37.311193,48.081226],[37.31121,48.081226]]]}},{"type":"Feature","properties":{"cadnum":"1413846500:01:001:0216"},"geometry":{"type":"Polygon","coordinates":[[[37.312576,48.081495],[37.312334,48.081484],[37.31229007453416,48.081692],[37.31229,48.081692],[37.312248,48.081891],[37.312442,48.0819],[37.312501,48.081907],[37.31254,48.081692],[37.31253926045016,48.081692],[37.312576,48.081495]]]}},{"type":"Feature","properties":{"cadnum":"1413846500:01:002:0013"},"geometry":{"type":"Polygon","coordinates":[[[37.308049,48.077763],[37.308049,48.077505],[37.307276,48.077436],[37.307285,48.077649],[37.307465,48.077676],[37.308049,48.077763]]]}},{"type":"Feature","properties":{"cadnum":"1413846500:01:002:0014"},"geometry":{"type":"Polygon","coordinates":[[[37.307285,48.077649],[37.307276,48.077436],[37.307254,48.077432],[37.307262,48.077645],[37.307285,48.077649]]]}},{"type":"Feature","properties":{"cadnum":"1413846500:01:002:0051"},"geometry":{"type":"Polygon","coordinates":[[[37.30932,48.077876],[37.309365,48.077756],[37.3083,48.077699],[37.30831,48.077823],[37.30932,48.077876]]]}},{"type":"Feature","properties":{"cadnum":"1413846500:01:002:0075"},"geometry":{"type":"Polygon","coordinates":[[[37.30795,48.075902],[37.307801,48.075728],[37.306746,48.075665],[37.306885,48.075842],[37.30795,48.075902]]]}},{"type":"Feature","properties":{"cadnum":"1413846500:01:002:0065"},"geometry":{"type":"Polygon","coordinates":[[[37.307138,48.075118],[37.306813,48.074863],[37.306032,48.074867],[37.306144,48.07504],[37.307138,48.075118]]]}},{"type":"Feature","properties":{"cadnum":"1413846500:01:002:0066"},"geometry":{"type":"Polygon","coordinates":[[[37.306144,48.07504],[37.306032,48.074867],[37.305709,48.074867],[37.305826,48.075016],[37.306144,48.07504]]]}},{"type":"Feature","properties":{"cadnum":"1413846500:01:002:0024"},"geometry":{"type":"Polygon","coordinates":[[[37.308044,48.077117],[37.308049,48.076943],[37.306993,48.076871],[37.306979,48.077036],[37.308044,48.077117]]]}},{"type":"Feature","properties":{"cadnum":"1413846500:01:002:0088"},"geometry":{"type":"Polygon","coordinates":[[[37.304163,48.08500090604027],[37.304289,48.085036],[37.304608,48.085127],[37.304667,48.085027],[37.304681,48.085003],[37.304685,48.085],[37.304371,48.084907],[37.30413806405639,48.084840797152864],[37.303526,48.084664],[37.303423,48.084793],[37.303991,48.08495265405405],[37.303991,48.084953],[37.304126262412375,48.08499067375915],[37.304163,48.085001],[37.304163,48.08500090604027]]]}},{"type":"Feature","properties":{"cadnum":"1413846500:01:002:0070"},"geometry":{"type":"Polygon","coordinates":[[[37.303616,48.084532],[37.303526,48.084662],[37.303991,48.08479777708006],[37.303991,48.084798],[37.304685,48.085],[37.304707,48.084964],[37.304729,48.084929],[37.304765,48.084865],[37.303991,48.084641],[37.303991,48.08464100365631],[37.303616,48.084532]]]}},{"type":"Feature","properties":{"cadnum":"1413846500:01:002:0069"},"geometry":{"type":"Polygon","coordinates":[[[37.303786,48.084157],[37.303706,48.084286],[37.303991,48.084364577680525],[37.303991,48.084365],[37.304887,48.08461],[37.304922,48.084619],[37.304937,48.084598],[37.304977,48.084535],[37.304998,48.084499],[37.305004,48.084493],[37.303991,48.084214],[37.303991,48.084214095490715],[37.303786,48.084157]]]}},{"type":"Feature","properties":{"cadnum":"1413846500:01:002:0090"},"geometry":{"type":"Polygon","coordinates":[[[37.304163,48.08243576704545],[37.304268,48.082465],[37.304357,48.082489],[37.304388,48.082432],[37.304455,48.082312],[37.304163,48.08223522413793],[37.304163,48.082234],[37.30357,48.082078],[37.303467,48.082252],[37.303991,48.08239246387833],[37.303991,48.082393],[37.303993,48.082393],[37.304092,48.082416],[37.304163,48.082436],[37.304163,48.08243576704545]]]}},{"type":"Feature","properties":{"cadnum":"1413846500:01:002:0053"},"geometry":{"type":"Polygon","coordinates":[[[37.30508,48.084373],[37.305157,48.084244],[37.304438,48.084049],[37.304361,48.084178],[37.30508,48.084373]]]}},{"type":"Feature","properties":{"cadnum":"1413846500:01:002:0032"},"geometry":{"type":"Polygon","coordinates":[[[37.305771,48.083199],[37.305826,48.083112],[37.304824,48.082831],[37.304784,48.082912],[37.305771,48.083199]]]}},{"type":"Feature","properties":{"cadnum":"1413846500:01:002:0086"},"geometry":{"type":"Polygon","coordinates":[[[37.304591,48.083239],[37.304635,48.083164],[37.304734,48.08299],[37.304415,48.082903],[37.304268,48.083152],[37.304591,48.083239]]]}},{"type":"Feature","properties":{"cadnum":"1413846500:01:001:0093"},"geometry":{"type":"Polygon","coordinates":[[[37.309428,48.085405],[37.309455,48.085247],[37.308381,48.085165],[37.308359,48.085321],[37.309428,48.085405]]]}},{"type":"Feature","properties":{"cadnum":"1413846500:01:002:0033"},"geometry":{"type":"Polygon","coordinates":[[[37.304864,48.082756],[37.304918,48.082663],[37.305021,48.082494],[37.305027,48.082485],[37.304707,48.082407],[37.304698,48.082405],[37.304541,48.082687],[37.304864,48.082756]]]}},{"type":"Feature","properties":{"cadnum":"1413846500:01:002:0068"},"geometry":{"type":"Polygon","coordinates":[[[37.303956,48.083764],[37.303926,48.083755],[37.303899,48.083794],[37.303863,48.083848],[37.303845,48.083875],[37.303845,48.083878],[37.303991,48.08392023899371],[37.303991,48.083921],[37.304438,48.084049],[37.304514,48.083926],[37.3041059628488,48.08380819195061],[37.303956,48.083764]]]}},{"type":"Feature","properties":{"cadnum":"1413846500:01:001:0047"},"geometry":{"type":"Polygon","coordinates":[[[37.309656,48.083668260869565],[37.309746,48.08368],[37.309828,48.083692],[37.309881,48.083695],[37.309881,48.083665],[37.309885,48.083599],[37.309908,48.083461],[37.309912,48.083437],[37.309922,48.083386],[37.310002,48.082812],[37.310021,48.082725],[37.310052,48.08263],[37.309895,48.082614],[37.309535,48.082582],[37.309122,48.082543],[37.309109,48.082612],[37.3091,48.082656],[37.309055,48.082812],[37.309063,48.082831],[37.309055,48.082861],[37.308929,48.083413],[37.308902,48.083533],[37.308889,48.083614],[37.309082,48.083617],[37.309352,48.083637],[37.309409,48.083641],[37.309484,48.083648670454544],[37.309484,48.083649],[37.309585,48.083659],[37.309656,48.083669],[37.309656,48.083668260869565]]]}},{"type":"Feature","properties":{"cadnum":"1413846500:01:001:0184"},"geometry":{"type":"Polygon","coordinates":[[[37.30914,48.084307],[37.309392,48.083809],[37.309059,48.083782],[37.308776,48.084265],[37.30914,48.084307]]]}},{"type":"Feature","properties":{"cadnum":"1413846500:01:002:0087"},"geometry":{"type":"Polygon","coordinates":[[[37.303423,48.084791],[37.303356,48.084929],[37.303991,48.08510604460967],[37.303991,48.085107],[37.304536,48.085258],[37.304608,48.085127],[37.303991,48.084952],[37.303991,48.08495218918919],[37.303423,48.084791]]]}},{"type":"Feature","properties":{"cadnum":"1413846500:01:001:0085"},"geometry":{"type":"Polygon","coordinates":[[[37.309612,48.084385],[37.309126,48.084334],[37.308906,48.08431],[37.30887,48.084568],[37.309484,48.08462539943343],[37.309484,48.084626],[37.309576,48.084634],[37.309612,48.084385]]]}},{"type":"Feature","properties":{"cadnum":"1413846500:01:002:0010"},"geometry":{"type":"Polygon","coordinates":[[[37.305281,48.083983],[37.305381,48.083833],[37.304371,48.083539],[37.304272,48.083692],[37.305281,48.083983]]]}},{"type":"Feature","properties":{"cadnum":"1413846500:01:002:0085"},"geometry":{"type":"Polygon","coordinates":[[[37.294205,48.091091],[37.294314,48.091036],[37.294327,48.090515],[37.293492,48.090433],[37.293295,48.090407],[37.293163,48.090911],[37.294205,48.091091]]]}},{"type":"Feature","properties":{"cadnum":"1413846500:01:002:0057"},"geometry":{"type":"Polygon","coordinates":[[[37.296932,48.090335],[37.297008,48.089879],[37.296761,48.089855],[37.296645,48.089846],[37.296555,48.090299],[37.296932,48.090335]]]}},{"type":"Feature","properties":{"cadnum":"1413846500:01:002:0015"},"geometry":{"type":"Polygon","coordinates":[[[37.297561,48.090431],[37.29771,48.089966],[37.297673,48.089962],[37.297421,48.089933],[37.297323,48.089921],[37.297201,48.090386],[37.297561,48.090431]]]}},{"type":"Feature","properties":{"cadnum":"1413846500:01:002:0050"},"geometry":{"type":"Polygon","coordinates":[[[37.293177,48.08978],[37.293169,48.08978],[37.293033,48.09038],[37.293262,48.090404],[37.293492,48.090433],[37.294354,48.090518],[37.294377,48.090175],[37.2943,48.090149],[37.294309,48.090091],[37.294381,48.090071],[37.29439,48.089677],[37.29333,48.08966],[37.293308,48.089789],[37.293177,48.08978051798561],[37.293177,48.08978]]]}},{"type":"Feature","properties":{"cadnum":"1413846500:01:002:0011"},"geometry":{"type":"Polygon","coordinates":[[[37.294987,48.090668],[37.29501,48.090266],[37.294551,48.090227],[37.294561,48.090287],[37.294614,48.090284],[37.294641,48.09035],[37.294538,48.090362],[37.294538,48.090635],[37.294987,48.090668]]]}},{"type":"Feature","properties":{"cadnum":"1413846500:01:002:0098"},"geometry":{"type":"Polygon","coordinates":[[[37.295544,48.089728],[37.295562,48.089513],[37.295459,48.089506],[37.29544,48.089726],[37.295544,48.089728]]]}},{"type":"Feature","properties":{"cadnum":"1413846500:01:002:0096"},"geometry":{"type":"Polygon","coordinates":[[[37.29544,48.089726],[37.295459,48.089506],[37.294813,48.089492],[37.294781,48.089488],[37.294624,48.089488],[37.294614,48.089702],[37.295001,48.089713],[37.29531,48.089723],[37.29544,48.089726]]]}},{"type":"Feature","properties":{"cadnum":"1413846500:01:002:0091"},"geometry":{"type":"Polygon","coordinates":[[[37.296331,48.089123],[37.296402,48.089126],[37.296421,48.088888],[37.296178,48.088879],[37.296159,48.089117],[37.296263,48.089119],[37.296259,48.089137],[37.296331,48.089141],[37.296331,48.089123]]]}},{"type":"Feature","properties":{"cadnum":"1413846500:01:002:0084"},"geometry":{"type":"Polygon","coordinates":[[[37.295495,48.090769],[37.295576,48.09029],[37.295261,48.090271],[37.29518,48.090746],[37.295495,48.090769]]]}},{"type":"Feature","properties":{"cadnum":"1413846500:01:002:0081"},"geometry":{"type":"Polygon","coordinates":[[[37.298329,48.091481],[37.298387,48.091229],[37.298436,48.091031],[37.298239,48.091009],[37.298109,48.090998],[37.298064,48.091193],[37.297997,48.091451],[37.298064,48.091456],[37.298096,48.09146],[37.298329,48.091481]]]}},{"type":"Feature","properties":{"cadnum":"1413846500:01:002:0049"},"geometry":{"type":"Polygon","coordinates":[[[37.297318,48.091382],[37.297413,48.090947],[37.297004,48.090905],[37.296914,48.09134],[37.297318,48.091382]]]}},{"type":"Feature","properties":{"cadnum":"1413846500:01:002:0083"},"geometry":{"type":"Polygon","coordinates":[[[37.297427,48.089918],[37.297463,48.089584],[37.297484,48.089372],[37.297251,48.089357],[37.297247,48.089384],[37.297242,48.089446],[37.297233,48.089488],[37.297224,48.089575],[37.29718,48.0899],[37.29736,48.089912],[37.297427,48.089918]]]}},{"type":"Feature","properties":{"cadnum":"1413846500:01:002:0056"},"geometry":{"type":"Polygon","coordinates":[[[37.297547,48.090944],[37.297643,48.090491],[37.297327,48.090458],[37.297238,48.090914],[37.297417,48.090932],[37.297547,48.090944]]]}},{"type":"Feature","properties":{"cadnum":"1413846500:01:002:0097"},"geometry":{"type":"Polygon","coordinates":[[[37.294614,48.089702],[37.294624,48.089488],[37.29466,48.089488],[37.294673,48.089312],[37.294511,48.089321],[37.294507,48.089702],[37.294614,48.089702]]]}},{"type":"Feature","properties":{"cadnum":"1413846500:01:002:0038"},"geometry":{"type":"Polygon","coordinates":[[[37.295805,48.090791],[37.295903,48.09032],[37.295576,48.09029],[37.295495,48.090769],[37.295639,48.090778],[37.295805,48.090791]]]}},{"type":"Feature","properties":{"cadnum":"1413846500:01:002:0058"},"geometry":{"type":"Polygon","coordinates":[[[37.295261,48.090191],[37.295383,48.08975],[37.295077,48.089717],[37.29497,48.090158],[37.295261,48.090191]]]}},{"type":"Feature","properties":{"cadnum":"1413846500:01:002:0009"},"geometry":{"type":"Polygon","coordinates":[[[37.297673,48.089962],[37.297754,48.089426],[37.297503,48.089393],[37.297421,48.089933],[37.297673,48.089962]]]}},{"type":"Feature","properties":{"cadnum":"1413846500:01:002:0094"},"geometry":{"type":"Polygon","coordinates":[[[37.297224,48.090914],[37.297314,48.090455],[37.296991,48.090425],[37.296914,48.090887],[37.297008,48.090896],[37.297224,48.090914]]]}},{"type":"Feature","properties":{"cadnum":"1413846500:01:002:0089"},"geometry":{"type":"Polygon","coordinates":[[[37.297677,48.085447],[37.297683,48.08542],[37.297754,48.085018],[37.297484,48.084997],[37.29742065686274,48.085361],[37.29742,48.085361],[37.297413,48.085405],[37.297401,48.085476],[37.2974013127572,48.085476],[37.297373,48.085648],[37.297368,48.085669],[37.297394,48.085669],[37.297593,48.085685],[37.297633,48.085685],[37.297637,48.085654],[37.297656,48.085565],[37.29767183898305,48.085476],[37.297672,48.085476],[37.297677,48.085447]]]}},{"type":"Feature","properties":{"cadnum":"1413846500:01:002:0073"},"geometry":{"type":"Polygon","coordinates":[[[37.29851244067797,48.085361],[37.298512,48.085361],[37.29850600000004,48.085395545454354],[37.298491,48.085476],[37.29849202631579,48.085476],[37.298446,48.085741],[37.29845,48.085741],[37.298482,48.085745],[37.29867,48.08576],[37.29867,48.08575947465438],[37.298715,48.085763],[37.298760890862944,48.085476],[37.298761,48.085476],[37.298778,48.085369],[37.298823,48.085087],[37.298563,48.085063],[37.298513,48.085358],[37.29851244067797,48.085361]]]}},{"type":"Feature","properties":{"cadnum":"1413846500:01:001:0049"},"geometry":{"type":"Polygon","coordinates":[[[37.319287,48.081649],[37.319359,48.081346],[37.319089,48.081309],[37.319022,48.081613],[37.319017,48.081624],[37.319084,48.081633],[37.319089,48.081622],[37.319287,48.081649]]]}},{"type":"Feature","properties":{"cadnum":"1413846500:01:001:0138"},"geometry":{"type":"Polygon","coordinates":[[[37.317275,48.081553],[37.317005,48.08152],[37.316969,48.081678],[37.316965828125,48.081692],[37.316965,48.081692],[37.31694769387752,48.081772040816446],[37.31694,48.081806],[37.31694035135135,48.081806],[37.316933,48.08184],[37.316933,48.081847],[37.317193,48.08188],[37.31724,48.081692],[37.31723983794467,48.081692],[37.317275,48.081553]]]}},{"type":"Feature","properties":{"cadnum":"1413846500:01:001:0105"},"geometry":{"type":"Polygon","coordinates":[[[37.316111,48.081733],[37.316165,48.081429],[37.31582,48.081397],[37.315743,48.081693],[37.316111,48.081733]]]}},{"type":"Feature","properties":{"cadnum":"1413846500:01:001:0221"},"geometry":{"type":"Polygon","coordinates":[[[37.316969,48.081678],[37.316992,48.08152],[37.316447,48.081475],[37.316434,48.081631],[37.316969,48.081678]]]}},{"type":"Feature","properties":{"cadnum":"1413846500:01:001:0168"},"geometry":{"type":"Polygon","coordinates":[[[37.318065,48.081642],[37.317795,48.081613],[37.31776839378238,48.081692],[37.317768,48.081692],[37.317688,48.081931],[37.31798,48.081969],[37.31802177978339,48.081806],[37.318022,48.081806],[37.318065,48.081642]]]}},{"type":"Feature","properties":{"cadnum":"1413846500:01:001:0065"},"geometry":{"type":"Polygon","coordinates":[[[37.316969,48.081678],[37.316434,48.081631],[37.31642383333333,48.081692],[37.316423,48.081692],[37.316407,48.081793],[37.316933,48.08184],[37.31694769387752,48.081772040816446],[37.316969,48.081678]]]}},{"type":"Feature","properties":{"cadnum":"1413846500:01:001:0204"},"geometry":{"type":"Polygon","coordinates":[[[37.320073,48.081738],[37.320132,48.081429],[37.319871,48.081402],[37.319808,48.081711],[37.320073,48.081738]]]}},{"type":"Feature","properties":{"cadnum":"1413846500:01:001:0042"},"geometry":{"type":"Polygon","coordinates":[[[37.319017,48.08172],[37.319001,48.081806],[37.31900121518987,48.081806],[37.318959,48.082036],[37.31922,48.082075],[37.319273,48.08176],[37.319017,48.08172]]]}},{"type":"Feature","properties":{"cadnum":"1413846500:01:001:0123"},"geometry":{"type":"Polygon","coordinates":[[[37.315743,48.081693],[37.31582,48.081397],[37.315505,48.081369],[37.315424,48.08166],[37.315743,48.081693]]]}},{"type":"Feature","properties":{"cadnum":"1413846500:01:001:0109"},"geometry":{"type":"Polygon","coordinates":[[[37.315424,48.08166],[37.315505,48.081369],[37.315177,48.081337],[37.315096,48.081628],[37.315424,48.08166]]]}},{"type":"Feature","properties":{"cadnum":"1413846500:01:001:0040"},"geometry":{"type":"Polygon","coordinates":[[[37.31887,48.080844],[37.3189,48.080688],[37.318367,48.080643],[37.318334,48.080802],[37.31887,48.080844]]]}},{"type":"Feature","properties":{"cadnum":"1413846500:01:001:0161"},"geometry":{"type":"Polygon","coordinates":[[[37.318235,48.080781],[37.318254,48.080619],[37.317683,48.080583],[37.317661,48.080733],[37.318235,48.080781]]]}},{"type":"Feature","properties":{"cadnum":"1413846500:01:001:0088"},"geometry":{"type":"Polygon","coordinates":[[[37.318227,48.081099],[37.318263,48.080946],[37.317692,48.080877],[37.317652,48.081042],[37.318227,48.081099]]]}},{"type":"Feature","properties":{"cadnum":"1413846500:01:001:0090"},"geometry":{"type":"Polygon","coordinates":[[[37.317378,48.081141],[37.317422,48.080832],[37.317149,48.080802],[37.317131,48.080955],[37.317113,48.081115],[37.317378,48.081141]]]}},{"type":"Feature","properties":{"cadnum":"1413846500:01:001:0207"},"geometry":{"type":"Polygon","coordinates":[[[37.317005,48.081273],[37.317032,48.081111],[37.316933,48.081102],[37.316466,48.081061],[37.316447,48.081199],[37.316443,48.081222],[37.316489,48.081222],[37.316744,48.081237],[37.316763,48.08124],[37.317005,48.081273]]]}},{"type":"Feature","properties":{"cadnum":"1413846500:01:001:0206"},"geometry":{"type":"Polygon","coordinates":[[[37.318887,48.08067],[37.318918,48.080512],[37.318698,48.080494],[37.31869,48.080494],[37.318617,48.080487],[37.318554,48.080481],[37.318518,48.080478],[37.318411,48.080469],[37.31838,48.080469],[37.31838,48.080481],[37.318352,48.080625],[37.318671,48.080652],[37.318887,48.08067]]]}},{"type":"Feature","properties":{"cadnum":"1413846500:01:001:0044"},"geometry":{"type":"Polygon","coordinates":[[[37.317931,48.080016],[37.317994,48.079719],[37.318002,48.079677],[37.317549,48.079623],[37.317476,48.079965],[37.317931,48.080016]]]}},{"type":"Feature","properties":{"cadnum":"1413846500:01:001:0179"},"geometry":{"type":"Polygon","coordinates":[[[37.320298,48.080676],[37.320369,48.080358],[37.320105,48.080331],[37.320028,48.08065],[37.320298,48.080676]]]}},{"type":"Feature","properties":{"cadnum":"1413846500:01:001:0224"},"geometry":{"type":"Polygon","coordinates":[[[37.317449,48.080391],[37.317495,48.080079],[37.317203,48.080061],[37.317185,48.08022],[37.317162,48.080376],[37.317449,48.080391]]]}},{"type":"Feature","properties":{"cadnum":"1413846500:01:001:0120"},"geometry":{"type":"Polygon","coordinates":[[[37.318338,48.080322],[37.318367,48.080178],[37.318101,48.080154],[37.318061,48.080148],[37.317778,48.080124],[37.317751,48.080271],[37.318338,48.080322]]]}},{"type":"Feature","properties":{"cadnum":"1413846500:01:001:0209"},"geometry":{"type":"Polygon","coordinates":[[[37.317661,48.080736],[37.317683,48.080583],[37.317715,48.080415],[37.317449,48.080391],[37.317396,48.08071],[37.317661,48.080736]]]}},{"type":"Feature","properties":{"cadnum":"1413846500:01:001:0054"},"geometry":{"type":"Polygon","coordinates":[[[37.318973,48.080109],[37.319053,48.079728],[37.318631,48.07968],[37.31855,48.080061],[37.318973,48.080109]]]}},{"type":"Feature","properties":{"cadnum":"1413846500:01:001:0227"},"geometry":{"type":"Polygon","coordinates":[[[37.317185,48.08022],[37.317203,48.080067],[37.316606,48.080001],[37.316587,48.080163],[37.317185,48.08022]]]}},{"type":"Feature","properties":{"cadnum":"1413846500:01:001:0199"},"geometry":{"type":"Polygon","coordinates":[[[37.317036,48.079932],[37.317072,48.079716],[37.317095,48.079563],[37.316682,48.079521],[37.316659,48.07968],[37.31665,48.079725],[37.31665,48.079746],[37.316627,48.079887],[37.317036,48.079932]]]}},{"type":"Feature","properties":{"cadnum":"1413846500:01:001:0178"},"geometry":{"type":"Polygon","coordinates":[[[37.320262,48.08025],[37.320319,48.079908],[37.319912,48.079875],[37.319849,48.080214],[37.320262,48.08025]]]}},{"type":"Feature","properties":{"cadnum":"1413846500:01:001:0062"},"geometry":{"type":"Polygon","coordinates":[[[37.319134,48.080865],[37.319187,48.08055],[37.318933,48.080532],[37.3189,48.080688],[37.31887,48.080844],[37.319134,48.080865]]]}},{"type":"Feature","properties":{"cadnum":"1413846500:01:001:0203"},"geometry":{"type":"Polygon","coordinates":[[[37.318815,48.081297],[37.318837,48.081132],[37.31864,48.081111],[37.318317,48.081079],[37.318312,48.081088],[37.318308,48.08112],[37.318285,48.081222],[37.318285,48.08124],[37.318317,48.081244],[37.318608,48.081277],[37.318815,48.081297]]]}},{"type":"Feature","properties":{"cadnum":"1413846500:01:001:0235"},"geometry":{"type":"Polygon","coordinates":[[[37.319417,48.080919],[37.319489,48.080601],[37.319224,48.080574],[37.319166,48.08085],[37.319161,48.08089],[37.319157,48.080895],[37.319417,48.080919]]]}},{"type":"Feature","properties":{"cadnum":"1413846500:01:001:0146"},"geometry":{"type":"Polygon","coordinates":[[[37.320468,48.081135],[37.320396,48.081453],[37.320471,48.08146062195122],[37.320471,48.081461],[37.320661,48.08148],[37.320734,48.081159],[37.320631864077946,48.08115006796119],[37.320468,48.081135]]]}},{"type":"Feature","properties":{"cadnum":"1413846500:01:001:0148"},"geometry":{"type":"Polygon","coordinates":[[[37.318837,48.081132],[37.318883,48.080968],[37.318352,48.080919],[37.318317,48.081079],[37.318837,48.081132]]]}},{"type":"Feature","properties":{"cadnum":"1413846500:01:001:0143"},"geometry":{"type":"Polygon","coordinates":[[[37.319682,48.080941],[37.319753,48.080623],[37.319489,48.080601],[37.319417,48.080919],[37.319682,48.080941]]]}},{"type":"Feature","properties":{"cadnum":"1413846500:01:001:0155"},"geometry":{"type":"Polygon","coordinates":[[[37.310514,48.084697],[37.310555,48.084496],[37.310281,48.084466],[37.309998,48.084433],[37.309765,48.084409],[37.309733,48.08461],[37.310514,48.084697]]]}},{"type":"Feature","properties":{"cadnum":"1413846500:01:001:0056"},"geometry":{"type":"Polygon","coordinates":[[[37.310434,48.085207],[37.310425,48.085054],[37.309639,48.084961],[37.309639,48.085141],[37.310434,48.085207]]]}},{"type":"Feature","properties":{"cadnum":"1413846500:01:001:0153"},"geometry":{"type":"Polygon","coordinates":[[[37.310407,48.085399],[37.31043,48.085258],[37.310434,48.085207],[37.309652,48.085141],[37.309616,48.085325],[37.310407,48.085399]]]}},{"type":"Feature","properties":{"cadnum":"1413846500:01:001:0079"},"geometry":{"type":"Polygon","coordinates":[[[37.315025,48.083008],[37.315029,48.082954],[37.314962,48.082954],[37.314958,48.083008],[37.315025,48.083008]]]}},{"type":"Feature","properties":{"cadnum":"1413846500:01:001:0225"},"geometry":{"type":"Polygon","coordinates":[[[37.312927,48.082345],[37.312998,48.081949],[37.312747,48.081927],[37.312666,48.082318],[37.312784,48.082329],[37.312784,48.082338],[37.31281,48.082342],[37.31281,48.082333],[37.312927,48.082345]]]}},{"type":"Feature","properties":{"cadnum":"1413846500:01:001:0176"},"geometry":{"type":"Polygon","coordinates":[[[37.314557,48.084103],[37.314602,48.083854],[37.314256,48.083827],[37.314256,48.083835],[37.314225,48.084001],[37.314212,48.084079],[37.314557,48.084103]]]}},{"type":"Feature","properties":{"cadnum":"1413846500:01:001:0175"},"geometry":{"type":"Polygon","coordinates":[[[37.312873,48.085282],[37.312258,48.085228],[37.31223354022989,48.085361],[37.312232,48.085361],[37.312226,48.085402],[37.312837,48.08545],[37.312873,48.085282]]]}},{"type":"Feature","properties":{"cadnum":"1413846500:01:001:0237"},"geometry":{"type":"Polygon","coordinates":[[[37.313667,48.08497],[37.313713,48.084844],[37.313722,48.084817],[37.313528,48.084772],[37.313398,48.084763],[37.313124,48.084745],[37.313097,48.084763],[37.313088,48.084814],[37.313067,48.084916],[37.313363,48.084943],[37.313667,48.08497]]]}},{"type":"Feature","properties":{"cadnum":"1413846500:01:001:0198"},"geometry":{"type":"Polygon","coordinates":[[[37.312666,48.082318],[37.312742,48.081927],[37.312501,48.081907],[37.312442,48.0819],[37.312365,48.082291],[37.312666,48.082318]]]}},{"type":"Feature","properties":{"cadnum":"1413846500:01:001:0111"},"geometry":{"type":"Polygon","coordinates":[[[37.312658,48.084376],[37.312707,48.084118],[37.312707,48.084112],[37.312342,48.084079],[37.312338,48.084082],[37.312293,48.084337],[37.312342,48.08434],[37.312658,48.084376]]]}},{"type":"Feature","properties":{"cadnum":"1413846500:01:001:0144"},"geometry":{"type":"Polygon","coordinates":[[[37.312949,48.084817],[37.312985,48.084658],[37.312931,48.084652],[37.312931,48.084646],[37.312356,48.084589],[37.312338,48.084655],[37.312312,48.08476],[37.312949,48.084817]]]}},{"type":"Feature","properties":{"cadnum":"1413846500:01:001:0231"},"geometry":{"type":"Polygon","coordinates":[[[37.31299,48.084658],[37.31303,48.084427],[37.312761,48.084397],[37.312675,48.084388],[37.312356,48.084352],[37.312312,48.084583],[37.312715,48.084622],[37.312784,48.084628],[37.312828,48.084634],[37.312931,48.084643],[37.312931,48.084652],[37.31299,48.084658]]]}},{"type":"Feature","properties":{"cadnum":"1413846500:01:001:0171"},"geometry":{"type":"Polygon","coordinates":[[[37.314557,48.084103],[37.314602,48.083854],[37.314256,48.083827],[37.314256,48.083835],[37.314225,48.084001],[37.314212,48.084079],[37.314557,48.084103]]]}},{"type":"Feature","properties":{"cadnum":"1413846500:01:001:0212"},"geometry":{"type":"Polygon","coordinates":[[[37.315149,48.08511892932862],[37.315627,48.085162],[37.315667,48.084985],[37.315591,48.084976],[37.315487,48.084961],[37.315208,48.084929],[37.315155,48.08492],[37.315114,48.084916],[37.315061,48.085111],[37.315149,48.085119],[37.315149,48.08511892932862]]]}},{"type":"Feature","properties":{"cadnum":"1413846500:01:001:0067"},"geometry":{"type":"Polygon","coordinates":[[[37.314912,48.082501],[37.314979,48.082116],[37.314736,48.082093],[37.314665,48.08248],[37.314912,48.082501]]]}},{"type":"Feature","properties":{"cadnum":"1413846500:01:001:0055"},"geometry":{"type":"Polygon","coordinates":[[[37.312289,48.083917],[37.312388,48.083572],[37.311826,48.083521],[37.309926,48.08335],[37.309922,48.083386],[37.309912,48.083437],[37.309908,48.083461],[37.309885,48.083599],[37.309881,48.083665],[37.309881,48.083695],[37.309981,48.083704],[37.311139,48.083803],[37.311216,48.083815],[37.312289,48.083917]]]}},{"type":"Feature","properties":{"cadnum":"1413846500:01:001:0233"},"geometry":{"type":"Polygon","coordinates":[[[37.31122,48.085445],[37.311237,48.085342],[37.311243,48.085307],[37.311161,48.085303],[37.310434,48.085252],[37.31041476470588,48.085361],[37.310414,48.085361],[37.310407,48.085405],[37.31118,48.085462],[37.31122,48.085465],[37.31122,48.085445]]]}},{"type":"Feature","properties":{"cadnum":"1413846500:01:001:0069"},"geometry":{"type":"Polygon","coordinates":[[[37.312271,48.084793],[37.312275,48.084745],[37.312289,48.084637],[37.311975,48.08461],[37.3117,48.084586],[37.311463,48.084574],[37.311449,48.084736],[37.312271,48.084793]]]}},{"type":"Feature","properties":{"cadnum":"1413846500:01:001:0048"},"geometry":{"type":"Polygon","coordinates":[[[37.311036,48.084562],[37.311113,48.083995],[37.310843,48.083977],[37.310761,48.084535],[37.310775,48.084544],[37.311036,48.084562]]]}},{"type":"Feature","properties":{"cadnum":"1413846500:01:001:0136"},"geometry":{"type":"Polygon","coordinates":[[[37.3117,48.084586],[37.311782,48.084031],[37.311539,48.08401],[37.311463,48.084574],[37.3117,48.084586]]]}},{"type":"Feature","properties":{"cadnum":"1413846500:01:001:0180"},"geometry":{"type":"Polygon","coordinates":[[[37.311975,48.08461],[37.312069,48.084055],[37.311782,48.084031],[37.3117,48.084586],[37.311975,48.08461]]]}},{"type":"Feature","properties":{"cadnum":"1413846500:01:001:0219"},"geometry":{"type":"Polygon","coordinates":[[[37.312046,48.082254],[37.312078,48.082114],[37.312122,48.081882],[37.31201,48.081871],[37.311755,48.081844],[37.311732,48.08184],[37.3117,48.081976],[37.311646,48.082218],[37.312046,48.082254]]]}},{"type":"Feature","properties":{"cadnum":"1413846500:01:001:0107"},"geometry":{"type":"Polygon","coordinates":[[[37.31135,48.08218],[37.31135,48.082174],[37.311417,48.081802],[37.311409,48.081802],[37.31109,48.081762],[37.311031,48.082144],[37.31108,48.082147],[37.311076,48.082156],[37.31135,48.08218]]]}},{"type":"Feature","properties":{"cadnum":"1413846500:01:001:0200"},"geometry":{"type":"Polygon","coordinates":[[[37.312365,48.082291],[37.312442,48.0819],[37.312248,48.081891],[37.312122,48.081882],[37.312069,48.082165],[37.312059,48.082194],[37.312051,48.082254],[37.312092,48.08226],[37.312141,48.082264],[37.312365,48.082291]]]}},{"type":"Feature","properties":{"cadnum":"1413846500:01:001:0234"},"geometry":{"type":"Polygon","coordinates":[[[37.31096,48.085447],[37.310407,48.085405],[37.310396,48.085476],[37.31039667272727,48.085476],[37.310375,48.085625],[37.310914,48.085666],[37.31118,48.085687],[37.311206,48.085537],[37.311206,48.085519],[37.31122,48.085465],[37.31096,48.085447]]]}},{"type":"Feature","properties":{"cadnum":"1413846500:01:001:0185"},"geometry":{"type":"Polygon","coordinates":[[[37.32098,48.081513],[37.321245,48.081273],[37.32121,48.08121],[37.320734,48.081159],[37.320661,48.08148],[37.32098,48.081513]]]}},{"type":"Feature","properties":{"cadnum":"1413846500:01:002:0017"},"geometry":{"type":"Polygon","coordinates":[[[37.306077,48.079206],[37.30622,48.078927],[37.305614,48.078804],[37.30548,48.079068],[37.306077,48.079206]]]}},{"type":"Feature","properties":{"cadnum":"1413846500:01:002:0059"},"geometry":{"type":"Polygon","coordinates":[[[37.306625,48.079179],[37.306742,48.078615],[37.306549,48.078573],[37.306499,48.078591],[37.306329,48.079122],[37.306365,48.079122],[37.306352,48.079155],[37.306625,48.079179]]]}},{"type":"Feature","properties":{"cadnum":"1413846500:01:002:0022"},"geometry":{"type":"Polygon","coordinates":[[[37.308021,48.079191],[37.308021,48.079017],[37.307034,48.078729],[37.307029,48.078918],[37.307268,48.078984],[37.308021,48.079191]]]}},{"type":"Feature","properties":{"cadnum":"1413846500:01:002:0039"},"geometry":{"type":"Polygon","coordinates":[[[37.308017,48.079368],[37.308021,48.079191],[37.307268,48.078984],[37.307325,48.079179],[37.307524,48.079233],[37.308017,48.079368]]]}},{"type":"Feature","properties":{"cadnum":"1413846500:01:002:0064"},"geometry":{"type":"Polygon","coordinates":[[[37.306262,48.080979],[37.306283,48.080946],[37.30636,48.08083],[37.305709,48.080637],[37.305619,48.08079],[37.306262,48.080979]]]}},{"type":"Feature","properties":{"cadnum":"1413846500:01:002:0042"},"geometry":{"type":"Polygon","coordinates":[[[37.307927,48.079761],[37.308008,48.079629],[37.307111,48.079383],[37.307025,48.079527],[37.307927,48.079761]]]}},{"type":"Feature","properties":{"cadnum":"1413846500:01:002:0074"},"geometry":{"type":"Polygon","coordinates":[[[37.306396,48.080667],[37.306517,48.080412],[37.305906,48.08025],[37.305786,48.080505],[37.306396,48.080667]]]}},{"type":"Feature","properties":{"cadnum":"1413846500:01:002:0037"},"geometry":{"type":"Polygon","coordinates":[[[37.307415,48.079407],[37.307524,48.079233],[37.307325,48.079179],[37.307268,48.078984],[37.306985,48.078906],[37.307034,48.079305],[37.307415,48.079407]]]}},{"type":"Feature","properties":{"cadnum":"1413846500:01:001:0159"},"geometry":{"type":"Polygon","coordinates":[[[37.320642,48.08624369303798],[37.320787,48.086257],[37.320824,48.086104],[37.320471,48.086066],[37.320471,48.08606633002481],[37.320239,48.086041],[37.320225,48.086059],[37.320172,48.086054],[37.320132,48.086194],[37.320471,48.08622723529412],[37.320471,48.086228],[37.320593019801954,48.0862391980198],[37.320642,48.086244],[37.320642,48.08624369303798]]]}},{"type":"Feature","properties":{"cadnum":"1413846500:01:001:0194"},"geometry":{"type":"Polygon","coordinates":[[[37.320642,48.0857529516129],[37.320657,48.085754],[37.320904,48.085772],[37.320935,48.085639],[37.32094,48.085618],[37.320891,48.085616],[37.320671,48.0856],[37.320471,48.085588],[37.320471,48.08558855511811],[37.320388,48.085583],[37.320351,48.085732],[37.320471,48.085740659793814],[37.320471,48.085741],[37.320620707318824,48.08575146341476],[37.320642,48.085753],[37.320642,48.0857529516129]]]}},{"type":"Feature","properties":{"cadnum":"1413846500:01:001:0128"},"geometry":{"type":"Polygon","coordinates":[[[37.321654,48.087184],[37.32169,48.087013],[37.320832,48.086902],[37.320787,48.087088],[37.321654,48.087184]]]}},{"type":"Feature","properties":{"cadnum":"1413846500:01:001:0043"},"geometry":{"type":"Polygon","coordinates":[[[37.31992,48.0868],[37.319871,48.086989],[37.320594,48.087058],[37.320644,48.086882],[37.32058337606833,48.08687534188034],[37.31992,48.0868]]]}},{"type":"Feature","properties":{"cadnum":"1413846500:01:001:0082"},"geometry":{"type":"Polygon","coordinates":[[[37.320642,48.08639987857143],[37.320751,48.08641],[37.320787,48.086257],[37.320593019801954,48.0862391980198],[37.320132,48.086194],[37.320118,48.086254],[37.320212,48.086272],[37.320212,48.086359],[37.320471,48.086383695348836],[37.320471,48.086384],[37.32059326666814,48.08639535333347],[37.320642,48.0864],[37.320642,48.08639987857143]]]}},{"type":"Feature","properties":{"cadnum":"1413846500:01:001:0190"},"geometry":{"type":"Polygon","coordinates":[[[37.320642,48.085599396226414],[37.320948,48.085618],[37.320967,48.085489],[37.320971,48.085468],[37.320931,48.085462],[37.320642,48.085438126086956],[37.320642,48.085438],[37.320437,48.08542],[37.320374,48.085583],[37.320642,48.0856],[37.320642,48.085599396226414]]]}},{"type":"Feature","properties":{"cadnum":"1413846500:01:001:0201"},"geometry":{"type":"Polygon","coordinates":[[[37.322085,48.086524],[37.322112,48.086368],[37.321461,48.086308],[37.320984,48.086266],[37.320958,48.086395],[37.320954,48.086419],[37.32143,48.086464],[37.322085,48.086524]]]}},{"type":"Feature","properties":{"cadnum":"1413846500:01:001:0009"},"geometry":{"type":"Polygon","coordinates":[[[37.320642,48.08606932773109],[37.320828,48.086086],[37.320868,48.085927],[37.320471,48.085892],[37.320471,48.08589264705883],[37.320319,48.085879],[37.320235,48.086032],[37.320642,48.08607],[37.320642,48.08606932773109]]]}},{"type":"Feature","properties":{"cadnum":"1413846500:01:001:0083"},"geometry":{"type":"Polygon","coordinates":[[[37.321717,48.086848],[37.321762,48.08668],[37.320904,48.08659],[37.320868,48.086746],[37.321717,48.086848]]]}},{"type":"Feature","properties":{"cadnum":"1413846500:01:001:0132"},"geometry":{"type":"Polygon","coordinates":[[[37.320212,48.086359],[37.320082,48.086348],[37.320032,48.086501],[37.320471,48.08654561967213],[37.320471,48.086546],[37.320711,48.08657],[37.320751,48.08641],[37.32059326666814,48.08639535333347],[37.320212,48.086359]]]}},{"type":"Feature","properties":{"cadnum":"1413846500:01:001:0127"},"geometry":{"type":"Polygon","coordinates":[[[37.32169,48.087013],[37.321721,48.086848],[37.320868,48.086746],[37.320832,48.086902],[37.32169,48.087013]]]}},{"type":"Feature","properties":{"cadnum":"1413846500:01:001:0081"},"geometry":{"type":"Polygon","coordinates":[[[37.320642,48.086718602941176],[37.320675,48.086722],[37.320711,48.08657],[37.320642,48.0865631],[37.320642,48.086563],[37.320032,48.086501],[37.320001,48.086653],[37.320642,48.086719],[37.320642,48.086718602941176]]]}},{"type":"Feature","properties":{"cadnum":"1413846500:01:002:0095"},"geometry":{"type":"Polygon","coordinates":[[[37.299106,48.085129],[37.298832,48.085114],[37.29878696685083,48.085361],[37.298786,48.085361],[37.298715,48.085765],[37.298958,48.085781],[37.298989,48.085783],[37.299064,48.085361],[37.299063878962535,48.085361],[37.299106,48.085129]]]}},{"type":"Feature","properties":{"cadnum":"1413846500:01:002:0100"},"geometry":{"type":"Polygon","coordinates":[[[37.303126,48.084784],[37.303153,48.084733],[37.303171,48.084706],[37.30318,48.084685],[37.303234,48.084586],[37.30296,48.08452],[37.302277,48.084352],[37.302155,48.08455],[37.302853,48.084718],[37.302906,48.084731],[37.302987,48.084751],[37.303031,48.08476],[37.303126,48.084784]]]}},{"type":"Feature","properties":{"cadnum":"1413846500:01:002:0082"},"geometry":{"type":"Polygon","coordinates":[[[37.304163,48.08547],[37.304042,48.085436],[37.303991,48.085421],[37.303991,48.08542145],[37.303702,48.085339],[37.30368754744526,48.085361],[37.303687,48.085361],[37.30358,48.085525],[37.303903,48.085603],[37.303991,48.085625],[37.303991,48.085626],[37.30408809090909,48.085649272727274],[37.304163,48.085668],[37.304163,48.085667228464416],[37.304258,48.08569],[37.304365,48.085528],[37.304163,48.08547046439629],[37.304163,48.08547]]]}},{"type":"Feature","properties":{"cadnum":"1413846500:01:001:0197"},"geometry":{"type":"Polygon","coordinates":[[[37.316233,48.087671],[37.31626,48.087527],[37.316313,48.087253],[37.316111,48.087238],[37.31608,48.087238],[37.316075,48.087262],[37.31603,48.087509],[37.316004,48.087656],[37.316233,48.087671]]]}},{"type":"Feature","properties":{"cadnum":"1413846500:01:001:0104"},"geometry":{"type":"Polygon","coordinates":[[[37.3163,48.087118],[37.31639,48.086708],[37.316143,48.086686],[37.316048,48.087091],[37.3163,48.087118]]]}},{"type":"Feature","properties":{"cadnum":"1413846500:01:001:0052"},"geometry":{"type":"Polygon","coordinates":[[[37.316201,48.085369],[37.316084,48.085361],[37.31608290476187,48.085361],[37.315891,48.085348],[37.315888156250004,48.085361],[37.315887,48.085361],[37.31587256097556,48.08543229268312],[37.315863,48.085476],[37.31586370886076,48.085476],[37.315855,48.085519],[37.315981,48.085534],[37.316124,48.085547],[37.31617,48.085549],[37.316187,48.08545],[37.316201,48.085369]]]}},{"type":"Feature","properties":{"cadnum":"1413846500:01:001:0228"},"geometry":{"type":"Polygon","coordinates":[[[37.318254,48.087865],[37.318338,48.087451],[37.318114,48.087427],[37.318029,48.087854],[37.318254,48.087865]]]}},{"type":"Feature","properties":{"cadnum":"1413846500:01:001:0154"},"geometry":{"type":"Polygon","coordinates":[[[37.318483,48.087889],[37.318568,48.087475],[37.318338,48.087451],[37.318258,48.087865],[37.318483,48.087889]]]}},{"type":"Feature","properties":{"cadnum":"1413846500:01:001:0230"},"geometry":{"type":"Polygon","coordinates":[[[37.317229,48.087211],[37.317235,48.087193],[37.317315,48.086788],[37.31709,48.086768],[37.317009,48.087164],[37.317,48.087191],[37.317036,48.087193],[37.317229,48.087211]]]}},{"type":"Feature","properties":{"cadnum":"1413846500:01:001:0095"},"geometry":{"type":"Polygon","coordinates":[[[37.317558,48.087811],[37.317638,48.087382],[37.317414,48.087358],[37.317338,48.087791],[37.317558,48.087811]]]}},{"type":"Feature","properties":{"cadnum":"1413846500:01:001:0142"},"geometry":{"type":"Polygon","coordinates":[[[37.318829,48.087382],[37.318896,48.087118],[37.318946,48.086924],[37.318694,48.086899],[37.318654,48.087091],[37.318595,48.087358],[37.318829,48.087382]]]}},{"type":"Feature","properties":{"cadnum":"1413846500:00:001:0013"},"geometry":{"type":"Polygon","coordinates":[[[37.315352,48.086203],[37.315352,48.086168],[37.315365,48.085999],[37.314978,48.085972],[37.314978,48.085972495429615],[37.314602,48.085945],[37.314598,48.086023],[37.314593,48.086083],[37.314516,48.086161],[37.314512,48.086185],[37.314503,48.086185],[37.314495,48.086339],[37.314705,48.086359],[37.314858,48.086372],[37.314966,48.086312],[37.314978,48.08631245901639],[37.314978,48.086313],[37.315348,48.086326],[37.315352,48.086203]]]}},{"type":"Feature","properties":{"cadnum":"1413846500:01:001:0100"},"geometry":{"type":"Polygon","coordinates":[[[37.319071,48.087413],[37.319107,48.087284],[37.31912,48.08722],[37.319193,48.086948],[37.318946,48.086924],[37.318829,48.087382],[37.319071,48.087413]]]}},{"type":"Feature","properties":{"cadnum":"1413846500:01:001:0193"},"geometry":{"type":"Polygon","coordinates":[[[37.319745,48.088007],[37.319781,48.087884],[37.31965,48.087871],[37.319732,48.087571],[37.319372,48.087535],[37.319367,48.087553],[37.31926,48.087967],[37.319745,48.088007]]]}},{"type":"Feature","properties":{"cadnum":"1413846500:01:001:0077"},"geometry":{"type":"Polygon","coordinates":[[[37.320329,48.087938],[37.320499,48.087304],[37.319822,48.087235],[37.319753,48.087487],[37.31974,48.087524],[37.31965,48.087871],[37.320329,48.087938]]]}},{"type":"Feature","properties":{"cadnum":"1413846500:01:001:0133"},"geometry":{"type":"Polygon","coordinates":[[[37.31865,48.086437],[37.318658,48.086365],[37.318577,48.086359],[37.318568,48.086432],[37.31865,48.086437]]]}},{"type":"Feature","properties":{"cadnum":"1413846500:01:001:0060"},"geometry":{"type":"Polygon","coordinates":[[[37.317904,48.087271],[37.317998,48.086819],[37.317768,48.086819],[37.317683,48.087257],[37.317904,48.087271]]]}},{"type":"Feature","properties":{"cadnum":"1413846500:01:001:0232"},"geometry":{"type":"Polygon","coordinates":[[[37.317333,48.087791],[37.317414,48.087358],[37.317216,48.08734],[37.317189,48.087337],[37.317185,48.087367],[37.317113,48.087767],[37.317333,48.087791]]]}},{"type":"Feature","properties":{"cadnum":"1413846500:01:001:0152"},"geometry":{"type":"Polygon","coordinates":[[[37.318711,48.087916],[37.318797,48.0875],[37.318568,48.087475],[37.318483,48.087893],[37.318711,48.087916]]]}},{"type":"Feature","properties":{"cadnum":"1413846500:01:001:0186"},"geometry":{"type":"Polygon","coordinates":[[[37.317455,48.087235],[37.317539,48.086813],[37.317319,48.086788],[37.317235,48.087193],[37.317229,48.087211],[37.317266,48.087215],[37.317455,48.087235]]]}},{"type":"Feature","properties":{"cadnum":"1413846500:01:002:0054"},"geometry":{"type":"Polygon","coordinates":[[[37.303991,48.08617482442748],[37.303991,48.086175],[37.304083,48.086014],[37.303597,48.085867],[37.303535,48.085975],[37.30331,48.085921],[37.30326,48.086059],[37.303656,48.086164],[37.303952,48.086243],[37.303991,48.08617482442748]]]}},{"type":"Feature","properties":{"cadnum":"1413846500:01:001:0164"},"geometry":{"type":"Polygon","coordinates":[[[37.309656,48.087474248226954],[37.310048,48.087509],[37.310057,48.087509],[37.310088,48.087313],[37.309484,48.087262],[37.309484,48.087262257142854],[37.309306,48.087247],[37.30927,48.08744],[37.309656,48.087475],[37.309656,48.087474248226954]]]}},{"type":"Feature","properties":{"cadnum":"1413846500:01:001:0210"},"geometry":{"type":"Polygon","coordinates":[[[37.307168,48.088082],[37.307272,48.087487],[37.307075,48.087475],[37.306889,48.088063],[37.307168,48.088082]]]}},{"type":"Feature","properties":{"cadnum":"1413846500:01:001:0163"},"geometry":{"type":"Polygon","coordinates":[[[37.309459,48.086297],[37.309566763916585,48.08630684644923],[37.310254,48.086372],[37.310295,48.08615],[37.309495,48.086072],[37.309484,48.086139],[37.309484,48.086140750000006],[37.309459,48.086297]]]}},{"type":"Feature","properties":{"cadnum":"1413846500:01:001:0205"},"geometry":{"type":"Polygon","coordinates":[[[37.309298,48.086432],[37.309311,48.086335],[37.309316,48.086299],[37.309235,48.08629],[37.30923,48.086305],[37.30878,48.086266],[37.308704,48.086257],[37.308404,48.086221],[37.308377,48.08633],[37.308669,48.086362],[37.309298,48.086432]]]}},{"type":"Feature","properties":{"cadnum":"1413846500:01:001:0145"},"geometry":{"type":"Polygon","coordinates":[[[37.30923,48.086305],[37.309235,48.08629],[37.309316,48.086299],[37.309338,48.086159],[37.309369,48.08597],[37.308835,48.085934],[37.30878,48.086266],[37.30923,48.086305]]]}},{"type":"Feature","properties":{"cadnum":"1413846500:01:001:0167"},"geometry":{"type":"Polygon","coordinates":[[[37.309656,48.0860876975],[37.310295,48.08615],[37.310321,48.086005],[37.309513,48.085934],[37.309495,48.086072],[37.309656,48.086088],[37.309656,48.0860876975]]]}},{"type":"Feature","properties":{"cadnum":"1413846500:01:001:0188"},"geometry":{"type":"Polygon","coordinates":[[[37.307654,48.087509],[37.307694,48.087304],[37.307344,48.087253],[37.307317,48.087335],[37.306998,48.087286],[37.306903,48.087458],[37.307079,48.087475],[37.307268,48.087487],[37.307532,48.0875],[37.307654,48.087509]]]}},{"type":"Feature","properties":{"cadnum":"1413846500:01:001:0151"},"geometry":{"type":"Polygon","coordinates":[[[37.308049,48.088138],[37.308134,48.087584],[37.307851,48.087556],[37.307757,48.088123],[37.308049,48.088138]]]}},{"type":"Feature","properties":{"cadnum":"1413846500:01:001:0071"},"geometry":{"type":"Polygon","coordinates":[[[37.309369,48.08597],[37.309396,48.085795],[37.308556,48.085717],[37.308507,48.085912],[37.309369,48.08597]]]}},{"type":"Feature","properties":{"cadnum":"1413846500:01:001:0165"},"geometry":{"type":"Polygon","coordinates":[[[37.309656,48.08763029608939],[37.310021,48.087667],[37.310048,48.087509],[37.309484,48.087459],[37.309484,48.08745940414508],[37.30927,48.08744],[37.309243,48.087589],[37.309656,48.087631],[37.309656,48.08763029608939]]]}},{"type":"Feature","properties":{"cadnum":"1413846500:01:001:0117"},"geometry":{"type":"Polygon","coordinates":[[[37.309656,48.08815732954545],[37.309836,48.088165],[37.309881,48.087916],[37.309656,48.08790013098237],[37.309656,48.0879],[37.309195,48.087865],[37.30914,48.088136],[37.309311,48.088142],[37.309656,48.088158],[37.309656,48.08815732954545]]]}},{"type":"Feature","properties":{"cadnum":"1413846500:01:002:0021"},"geometry":{"type":"Polygon","coordinates":[[[37.304163,48.0864918031401],[37.304834,48.086632],[37.304895,48.08653],[37.304069,48.086357],[37.304006,48.086459],[37.304163,48.086492],[37.304163,48.0864918031401]]]}},{"type":"Feature","properties":{"cadnum":"1413846500:01:001:0166"},"geometry":{"type":"Polygon","coordinates":[[[37.309092,48.087653],[37.309126,48.08746],[37.308214,48.087382],[37.308184,48.087584],[37.309092,48.087653]]]}},{"type":"Feature","properties":{"cadnum":"1413846500:01:001:0147"},"geometry":{"type":"Polygon","coordinates":[[[37.309153,48.087304],[37.309189,48.087097],[37.308318,48.087035],[37.308283,48.087238],[37.309153,48.087304]]]}},{"type":"Feature","properties":{"cadnum":"1413846500:01:001:0169"},"geometry":{"type":"Polygon","coordinates":[[[37.309375,48.086839],[37.309342,48.087058],[37.309484,48.08707066242038],[37.309484,48.087071],[37.310134,48.087128],[37.310138,48.087095],[37.310164,48.086899],[37.30962562162293,48.08685862162172],[37.309375,48.086839]]]}},{"type":"Feature","properties":{"cadnum":"1413846500:01:002:0063"},"geometry":{"type":"Polygon","coordinates":[[[37.299519,48.090589],[37.299627,48.090041],[37.299322,48.090008],[37.299182,48.090551],[37.299519,48.090589]]]}},{"type":"Feature","properties":{"cadnum":"1413846500:01:002:0077"},"geometry":{"type":"Polygon","coordinates":[[[37.299371,48.091121],[37.299425,48.090923],[37.299488,48.090691],[37.299497,48.090665],[37.299465,48.090662],[37.299165,48.090631],[37.299151,48.090683],[37.299102,48.090875],[37.299048,48.091085],[37.299371,48.091121]]]}},{"type":"Feature","properties":{"cadnum":"1413846500:01:002:0060"},"geometry":{"type":"Polygon","coordinates":[[[37.299704,48.091616],[37.299767,48.091585],[37.299771,48.091562],[37.299771,48.091225],[37.299358,48.091184],[37.299268,48.091577],[37.299668,48.091616],[37.299704,48.091616]]]}},{"type":"Feature","properties":{"cadnum":"1413846500:01:002:0052"},"geometry":{"type":"Polygon","coordinates":[[[37.302637,48.08867],[37.299901,48.088534],[37.29988554500818,48.089031],[37.299885,48.089031],[37.299874,48.089408],[37.302125,48.089504],[37.30238056925405,48.08908571537313],[37.302637,48.08867]]]}},{"type":"Feature","properties":{"cadnum":"1413846500:01:002:0029"},"geometry":{"type":"Polygon","coordinates":[[[37.30079,48.090251],[37.300799,48.090071],[37.299834,48.090032],[37.299843,48.090215],[37.30079,48.090251]]]}},{"type":"Feature","properties":{"cadnum":"1413846500:01:002:0016"},"geometry":{"type":"Polygon","coordinates":[[[37.300543,48.0899],[37.300557,48.089519],[37.300175,48.089504],[37.300098,48.089501],[37.300063,48.089888],[37.30014,48.089891],[37.300543,48.0899]]]}},{"type":"Feature","properties":{"cadnum":"1413846500:01:002:0025"},"geometry":{"type":"Polygon","coordinates":[[[37.299735,48.091163],[37.299753,48.090691],[37.299497,48.090665],[37.299371,48.091121],[37.299735,48.091163]]]}},{"type":"Feature","properties":{"cadnum":"1413846500:01:002:0030"},"geometry":{"type":"Polygon","coordinates":[[[37.301145,48.090038],[37.301155,48.089972],[37.301203,48.089519],[37.300863,48.089501],[37.300809,48.089879],[37.300804,48.090017],[37.301145,48.090038]]]}},{"type":"Feature","properties":{"cadnum":"1413846500:01:002:0055"},"geometry":{"type":"Polygon","coordinates":[[[37.301369,48.090227],[37.301432,48.089843],[37.301473,48.089557],[37.301482,48.089537],[37.301203,48.089519],[37.301155,48.089972],[37.301145,48.090038],[37.301119,48.090209],[37.301369,48.090227]]]}},{"type":"Feature","properties":{"cadnum":"1413846500:01:002:0044"},"geometry":{"type":"Polygon","coordinates":[[[37.300809,48.089879],[37.300863,48.089501],[37.300602,48.089488],[37.30057,48.089866],[37.300809,48.089879]]]}},{"type":"Feature","properties":{"cadnum":"1413846500:01:002:0012"},"geometry":{"type":"Polygon","coordinates":[[[37.298073,48.087542],[37.298176,48.086879],[37.297943,48.08686],[37.29784,48.087527],[37.298073,48.087542]]]}},{"type":"Feature","properties":{"cadnum":"1413846500:01:002:0071"},"geometry":{"type":"Polygon","coordinates":[[[37.29867,48.08758352727273],[37.298756,48.087589],[37.298828,48.0871],[37.298832,48.087073],[37.298836,48.087028],[37.298845,48.086959],[37.298855,48.086926],[37.298662,48.086911],[37.298626,48.086911],[37.298622,48.08695],[37.298536,48.087575],[37.29867,48.087584],[37.29867,48.08758352727273]]]}},{"type":"Feature","properties":{"cadnum":"1413846500:01:002:0099"},"geometry":{"type":"Polygon","coordinates":[[[37.297291,48.086221],[37.297345,48.085807],[37.297117,48.085792],[37.297081,48.085792],[37.297077,48.085823],[37.297027,48.08621],[37.297035,48.08621],[37.297291,48.086221]]]}},{"type":"Feature","properties":{"cadnum":"1413846500:01:002:0062"},"geometry":{"type":"Polygon","coordinates":[[[37.298622,48.086908],[37.298379,48.086893],[37.298325,48.086882],[37.298235,48.087487],[37.298498,48.087506481481476],[37.298498,48.087507],[37.298532,48.087509],[37.298622,48.086908]]]}},{"type":"Feature","properties":{"cadnum":"1413846500:01:002:0078"},"geometry":{"type":"Polygon","coordinates":[[[37.2951,48.088507],[37.295104,48.088316],[37.294911,48.088316],[37.294907,48.088507],[37.2951,48.088507]]]}},{"type":"Feature","properties":{"cadnum":"1413846500:01:002:0020"},"geometry":{"type":"Polygon","coordinates":[[[37.29731,48.087502],[37.297368,48.086842],[37.29709,48.086833],[37.29704,48.087496],[37.29731,48.087502]]]}},{"type":"Feature","properties":{"cadnum":"1413846500:01:002:0079"},"geometry":{"type":"Polygon","coordinates":[[[37.298643,48.086176],[37.29867,48.085984],[37.298675,48.085936],[37.298685,48.085894],[37.29867,48.08589303743316],[37.29867,48.085893],[37.298473,48.085879],[37.298423,48.085876],[37.298419,48.08591],[37.298379,48.086155],[37.298356,48.086312],[37.298498,48.08632499346405],[37.298498,48.086325],[37.298509,48.086326],[37.298616,48.086339],[37.298643,48.086176]]]}},{"type":"Feature","properties":{"cadnum":"1413846500:01:002:0061"},"geometry":{"type":"Polygon","coordinates":[[[37.295859,48.086611],[37.295958,48.086179],[37.295639,48.086155],[37.295557,48.08659],[37.295859,48.086611]]]}},{"type":"Feature","properties":{"cadnum":"1413846500:01:002:0072"},"geometry":{"type":"Polygon","coordinates":[[[37.298509,48.086332],[37.298498,48.086388],[37.298498,48.08638832],[37.298459,48.086588],[37.29845,48.086644],[37.298446,48.086662],[37.298436,48.086726],[37.298428,48.086761],[37.298498,48.08676794214876],[37.298498,48.086769],[37.298679,48.086786],[37.298725,48.086359],[37.298616,48.086348],[37.298509,48.086332]]]}},{"type":"Feature","properties":{"cadnum":"1413846500:01:002:0043"},"geometry":{"type":"Polygon","coordinates":[[[37.297035,48.087502],[37.29704,48.087496],[37.29709,48.086833],[37.296815,48.086828],[37.296784,48.087496],[37.297035,48.087502]]]}},{"type":"Feature","properties":{"cadnum":"1413846500:01:002:0004"},"geometry":{"type":"Polygon","coordinates":[[[37.295958,48.086179],[37.296006,48.085738],[37.295719,48.08572],[37.295639,48.086155],[37.295958,48.086179]]]}},{"type":"Feature","properties":{"cadnum":"1413846500:01:001:0072"},"geometry":{"type":"Polygon","coordinates":[[[37.315967,48.083407],[37.315981,48.083328],[37.315833,48.083319],[37.315824,48.083388],[37.315841,48.083398],[37.315954,48.083407],[37.315967,48.083407]]]}},{"type":"Feature","properties":{"cadnum":"1413846500:01:001:0053"},"geometry":{"type":"Polygon","coordinates":[[[37.318474,48.082534],[37.318591,48.082084],[37.318401,48.082062],[37.318294,48.082513],[37.318474,48.082534]]]}},{"type":"Feature","properties":{"cadnum":"1413846500:01:001:0149"},"geometry":{"type":"Polygon","coordinates":[[[37.316816,48.082075],[37.316857,48.081864],[37.316386,48.081838],[37.316376,48.082036],[37.316816,48.082075]]]}},{"type":"Feature","properties":{"cadnum":"1413846500:01:001:0157"},"geometry":{"type":"Polygon","coordinates":[[[37.317854,48.08284],[37.317921,48.082567],[37.317292,48.082494],[37.317225,48.082783],[37.317854,48.08284]]]}},{"type":"Feature","properties":{"cadnum":"1413846500:01:001:0215"},"geometry":{"type":"Polygon","coordinates":[[[37.319992,48.083332],[37.320005,48.083278],[37.320009,48.083259],[37.320019,48.083221],[37.319547,48.083176],[37.318933,48.083116],[37.318918,48.083188],[37.31891,48.08323],[37.31952,48.083287],[37.319992,48.083332]]]}},{"type":"Feature","properties":{"cadnum":"1413846500:01:001:0187"},"geometry":{"type":"Polygon","coordinates":[[[37.316004,48.083281],[37.316048,48.083061],[37.316021,48.083061],[37.315923,48.083052],[37.315675,48.083029],[37.315631,48.083248],[37.316004,48.083281]]]}},{"type":"Feature","properties":{"cadnum":"1413846500:01:001:0139"},"geometry":{"type":"Polygon","coordinates":[[[37.319466,48.082116],[37.319533,48.081798],[37.319273,48.08176],[37.31922,48.082075],[37.319466,48.082116]]]}},{"type":"Feature","properties":{"cadnum":"1413846500:01:001:0172"},"geometry":{"type":"Polygon","coordinates":[[[37.318684,48.084187],[37.318703,48.084118],[37.318711,48.084058],[37.317759,48.08395],[37.317732,48.084079],[37.318684,48.084187]]]}},{"type":"Feature","properties":{"cadnum":"1413846500:01:001:0089"},"geometry":{"type":"Polygon","coordinates":[[[37.315671,48.084985],[37.315698,48.084871],[37.315621,48.084862],[37.31564,48.084791],[37.315159,48.084754],[37.315114,48.084916],[37.315671,48.084985]]]}},{"type":"Feature","properties":{"cadnum":"1413846500:01:001:0001"},"geometry":{"type":"Polygon","coordinates":[[[37.315963,48.083917],[37.315967,48.083887],[37.315931,48.083884],[37.315927,48.083911],[37.315963,48.083917]]]}},{"type":"Feature","properties":{"cadnum":"1413846500:01:001:0183"},"geometry":{"type":"Polygon","coordinates":[[[37.319871,48.084001],[37.319875,48.083947],[37.319879,48.083926],[37.319885,48.08389],[37.318784,48.083785],[37.318774,48.083812],[37.318761,48.083896],[37.319871,48.084001]]]}},{"type":"Feature","properties":{"cadnum":"1413846500:01:001:0070"},"geometry":{"type":"Polygon","coordinates":[[[37.316677,48.08392],[37.316717,48.08362],[37.316283,48.083593],[37.316241,48.083887],[37.316677,48.08392]]]}},{"type":"Feature","properties":{"cadnum":"1413846500:01:001:0177"},"geometry":{"type":"Polygon","coordinates":[[[37.317302,48.082389],[37.317432,48.08194],[37.317199,48.0819],[37.317063,48.082356],[37.317302,48.082389]]]}},{"type":"Feature","properties":{"cadnum":"1413846500:01:001:0046"},"geometry":{"type":"Polygon","coordinates":[[[37.319843,48.084112],[37.319871,48.084001],[37.318761,48.083896],[37.318753,48.083932],[37.31873,48.08401],[37.319843,48.084112]]]}},{"type":"Feature","properties":{"cadnum":"1413846500:01:001:0063"},"geometry":{"type":"Polygon","coordinates":[[[37.317082,48.083143],[37.317099,48.083035],[37.31643,48.082978],[37.316413,48.083089],[37.317082,48.083143]]]}},{"type":"Feature","properties":{"cadnum":"1413846500:01:001:0102"},"geometry":{"type":"Polygon","coordinates":[[[37.318774,48.083812],[37.318784,48.083785],[37.318806,48.083683],[37.317836,48.083581],[37.317809,48.083704],[37.318774,48.083812]]]}},{"type":"Feature","properties":{"cadnum":"1413846500:01:001:0158"},"geometry":{"type":"Polygon","coordinates":[[[37.319933,48.083674],[37.31996,48.083563],[37.318874,48.083457],[37.318843,48.083563],[37.319933,48.083674]]]}},{"type":"Feature","properties":{"cadnum":"1413846500:01:001:0061"},"geometry":{"type":"Polygon","coordinates":[[[37.31581,48.084139],[37.315828,48.084073],[37.31582,48.08407],[37.315806,48.08407],[37.315747,48.084064],[37.315711,48.084061],[37.315725,48.08401],[37.315667,48.084004],[37.315654,48.084004],[37.31564,48.084001],[37.315627,48.084082],[37.315617,48.084121],[37.31581,48.084139]]]}},{"type":"Feature","properties":{"cadnum":"1413846500:01:001:0010"},"geometry":{"type":"Polygon","coordinates":[[[37.31582,48.08407],[37.315833,48.084007],[37.315837,48.08401],[37.315841,48.083995],[37.315833,48.083995],[37.315837,48.083986],[37.315824,48.083983],[37.315675,48.083971],[37.315662,48.083968],[37.315654,48.084004],[37.315667,48.084004],[37.315725,48.08401],[37.315711,48.084061],[37.315806,48.08407],[37.31582,48.08407]]]}},{"type":"Feature","properties":{"cadnum":"1413846500:01:001:0181"},"geometry":{"type":"Polygon","coordinates":[[[37.316772,48.082347],[37.316799,48.082093],[37.316372,48.082054],[37.316372,48.082309],[37.316772,48.082347]]]}},{"type":"Feature","properties":{"cadnum":"1413846500:01:001:0078"},"geometry":{"type":"Polygon","coordinates":[[[37.319816,48.084229],[37.319843,48.084112],[37.31873,48.08401],[37.318711,48.084058],[37.318703,48.084118],[37.319816,48.084229]]]}},{"type":"Feature","properties":{"cadnum":"1413846500:01:001:0099"},"geometry":{"type":"Polygon","coordinates":[[[37.319309,48.082623],[37.319422,48.082176],[37.319264,48.082156],[37.319153,48.082609],[37.319309,48.082623]]]}},{"type":"Feature","properties":{"cadnum":"1413846500:01:001:0162"},"geometry":{"type":"Polygon","coordinates":[[[37.317778,48.082453],[37.317912,48.082002],[37.317746,48.081982],[37.317625,48.082432],[37.317778,48.082453]]]}},{"type":"Feature","properties":{"cadnum":"1413846500:01:001:0087"},"geometry":{"type":"Polygon","coordinates":[[[37.320019,48.082171],[37.320082,48.081856],[37.319822,48.081826],[37.319745,48.082138],[37.320019,48.082171]]]}},{"type":"Feature","properties":{"cadnum":"1413846500:01:001:0091"},"geometry":{"type":"Polygon","coordinates":[[[37.318663,48.082554],[37.31878,48.082105],[37.318591,48.082084],[37.318474,48.082534],[37.318663,48.082554]]]}},{"type":"Feature","properties":{"cadnum":"1413846500:01:001:0059"},"geometry":{"type":"Polygon","coordinates":[[[37.319975,48.083446],[37.319992,48.083335],[37.318914,48.08323],[37.318896,48.083314],[37.318891,48.083341],[37.319975,48.083446]]]}},{"type":"Feature","properties":{"cadnum":"1413846500:01:001:0191"},"geometry":{"type":"Polygon","coordinates":[[[37.31586,48.083986],[37.315895,48.083809],[37.315694,48.083794],[37.315662,48.083968],[37.315675,48.083971],[37.315824,48.083983],[37.315837,48.083986],[37.31586,48.083986]]]}},{"type":"Feature","properties":{"cadnum":"1413846500:01:001:0189"},"geometry":{"type":"Polygon","coordinates":[[[37.316358,48.084682],[37.316363,48.08446],[37.316044,48.084457],[37.31604,48.084682],[37.316358,48.084682]]]}},{"type":"Feature","properties":{"cadnum":"1413846500:01:001:0041"},"geometry":{"type":"Polygon","coordinates":[[[37.319885,48.08389],[37.319906,48.083779],[37.318806,48.083683],[37.318784,48.083785],[37.319885,48.08389]]]}},{"type":"Feature","properties":{"cadnum":"1413846500:01:001:0076"},"geometry":{"type":"Polygon","coordinates":[[[37.316641,48.084241],[37.316677,48.08392],[37.316241,48.083887],[37.316201,48.084202],[37.316641,48.084241]]]}},{"type":"Feature","properties":{"cadnum":"1413846500:01:001:0223"},"geometry":{"type":"Polygon","coordinates":[[[37.319759,48.082656],[37.319871,48.082207],[37.319786,48.082198],[37.319713,48.082191],[37.3197,48.082189],[37.319696,48.082189],[37.319619,48.082543],[37.319606,48.082612],[37.319596,48.082639],[37.319759,48.082656]]]}},{"type":"Feature","properties":{"cadnum":"1413846500:01:001:0236"},"geometry":{"type":"Polygon","coordinates":[[[37.319525,48.082945],[37.319579,48.082723],[37.31904,48.082669],[37.319008,48.082794],[37.318986,48.0829],[37.319525,48.082945]]]}},{"type":"Feature","properties":{"cadnum":"1413846500:01:001:0007"},"geometry":{"type":"Polygon","coordinates":[[[37.315963,48.08356],[37.31599,48.083428],[37.31595,48.083425],[37.315784,48.083407],[37.31577,48.083404],[37.315757,48.083404],[37.315743,48.083488],[37.315757,48.083491],[37.315855,48.0835],[37.315841,48.083545],[37.315927,48.083557],[37.315963,48.08356]]]}},{"type":"Feature","properties":{"cadnum":"1413846500:01:001:0092"},"geometry":{"type":"Polygon","coordinates":[[[37.319153,48.082609],[37.319264,48.082156],[37.319103,48.08214],[37.31899,48.082591],[37.319153,48.082609]]]}},{"type":"Feature","properties":{"cadnum":"1413846500:01:001:0008"},"geometry":{"type":"Polygon","coordinates":[[[37.315954,48.083623],[37.315963,48.08356],[37.315927,48.083557],[37.315841,48.083545],[37.315855,48.0835],[37.315757,48.083491],[37.315743,48.083488],[37.315698,48.083485],[37.31568,48.083602],[37.315954,48.083623]]]}},{"type":"Feature","properties":{"cadnum":"1413846500:01:002:0028"},"geometry":{"type":"Polygon","coordinates":[[[37.298989,48.087607],[37.299084,48.086942],[37.298855,48.086926],[37.298756,48.087589],[37.298989,48.087607]]]}},{"type":"Feature","properties":{"cadnum":"1413846500:01:002:0008"},"geometry":{"type":"Polygon","coordinates":[[[37.298882,48.086377],[37.298953,48.085939],[37.298679,48.085915],[37.298616,48.086348],[37.298729,48.086362],[37.298882,48.086377]]]}},{"type":"Feature","properties":{"cadnum":"1413846500:01:002:0019"},"geometry":{"type":"Polygon","coordinates":[[[37.299474,48.086846],[37.299547,48.086419],[37.299421,48.08641],[37.299268,48.086401],[37.299205,48.086828],[37.299474,48.086846]]]}},{"type":"Feature","properties":{"cadnum":"1413846500:01:002:0048"},"geometry":{"type":"Polygon","coordinates":[[[37.301891,48.086624],[37.301941,48.086419],[37.301406,48.086374],[37.301365,48.08653],[37.301352,48.08653],[37.301343,48.086563],[37.301536,48.086584],[37.301618,48.086593],[37.301891,48.086624]]]}},{"type":"Feature","properties":{"cadnum":"1413846500:01:002:0067"},"geometry":{"type":"Polygon","coordinates":[[[37.3015,48.088432],[37.301509,48.088276],[37.30119,48.088267],[37.301209,48.087965],[37.301046,48.087953],[37.301029,48.088271],[37.300975,48.088271],[37.300952,48.088283],[37.300952,48.088345],[37.300916,48.088367],[37.300912,48.088418],[37.3015,48.088432]]]}},{"type":"Feature","properties":{"cadnum":"1413846500:01:002:0092"},"geometry":{"type":"Polygon","coordinates":[[[37.302088,48.087362],[37.302129,48.087104],[37.301819,48.087086],[37.301778,48.087082],[37.301652,48.087077],[37.301618,48.087335],[37.301675,48.087337],[37.302088,48.087362]]]}},{"type":"Feature","properties":{"cadnum":"1413846500:01:002:0018"},"geometry":{"type":"Polygon","coordinates":[[[37.299205,48.086828],[37.299268,48.086401],[37.299132,48.086392],[37.298989,48.086383],[37.298949,48.086813],[37.299205,48.086828]]]}},{"type":"Feature","properties":{"cadnum":"1413846500:01:002:0076"},"geometry":{"type":"Polygon","coordinates":[[[37.302497,48.086321],[37.301976,48.086257],[37.301976,48.086263],[37.301941,48.086419],[37.302461,48.086479],[37.302493,48.086348],[37.302497,48.086321]]]}},{"type":"Feature","properties":{"cadnum":"1413846500:01:002:0093"},"geometry":{"type":"Polygon","coordinates":[[[37.301635,48.087773],[37.301652,48.087569],[37.301658,48.087511],[37.301662,48.087478],[37.301675,48.087337],[37.301618,48.087335],[37.301253,48.08732],[37.301245,48.087455],[37.301245,48.087491],[37.301239,48.087544],[37.301226,48.087749],[37.301415,48.08776],[37.301446,48.08776],[37.301635,48.087773]]]}},{"type":"Feature","properties":{"cadnum":"1413846500:01:002:0080"},"geometry":{"type":"Polygon","coordinates":[[[37.30288,48.087058],[37.30296,48.086768],[37.302843,48.08675],[37.302488,48.086704],[37.302444,48.086971],[37.302434,48.087022],[37.302763,48.087049],[37.30288,48.087058]]]}},{"type":"Feature","properties":{"cadnum":"1413846500:01:001:0073"},"geometry":{"type":"Polygon","coordinates":[[[37.310933,48.087322],[37.310954,48.087151],[37.310147,48.087064],[37.310142,48.087097],[37.310124,48.087247],[37.310933,48.087322]]]}},{"type":"Feature","properties":{"cadnum":"1413846500:01:001:0098"},"geometry":{"type":"Polygon","coordinates":[[[37.310084,48.08822],[37.310115,48.087965],[37.310016,48.087956],[37.309985,48.088216],[37.310084,48.08822]]]}},{"type":"Feature","properties":{"cadnum":"1413846500:01:001:0195"},"geometry":{"type":"Polygon","coordinates":[[[37.31083,48.088016],[37.310847,48.087896],[37.310847,48.087871],[37.31086,48.087787],[37.310461,48.087767],[37.310038,48.087745],[37.310012,48.087956],[37.31043,48.087985],[37.31083,48.088016]]]}},{"type":"Feature","properties":{"cadnum":"1413846500:01:001:0097"},"geometry":{"type":"Polygon","coordinates":[[[37.310807,48.088256],[37.310834,48.088016],[37.310115,48.087965],[37.310084,48.08822],[37.310807,48.088256]]]}},{"type":"Feature","properties":{"cadnum":"1413846500:01:001:0084"},"geometry":{"type":"Polygon","coordinates":[[[37.314495,48.086339],[37.314503,48.086185],[37.314512,48.086185],[37.314516,48.086161],[37.314593,48.086083],[37.314598,48.086023],[37.314602,48.085945],[37.314216,48.085888],[37.31413,48.086297],[37.314495,48.086339]]]}},{"type":"Feature","properties":{"cadnum":"1413846500:01:001:0182"},"geometry":{"type":"Polygon","coordinates":[[[37.314553,48.087082],[37.314602,48.086848],[37.314247,48.086815],[37.314023,48.086791],[37.313996,48.086899],[37.313991,48.086924],[37.313987,48.08695],[37.313969,48.087017],[37.314283,48.087053],[37.314553,48.087082]]]}},{"type":"Feature","properties":{"cadnum":"1413846500:01:001:0229"},"geometry":{"type":"Polygon","coordinates":[[[37.314602,48.086848],[37.314638,48.086719],[37.314392,48.086695],[37.31405,48.086659],[37.314023,48.086764],[37.314019,48.086791],[37.314023,48.086791],[37.314054,48.086795],[37.314369,48.086824],[37.314602,48.086848]]]}},{"type":"Feature","properties":{"cadnum":"1413846500:01:001:0075"},"geometry":{"type":"Polygon","coordinates":[[[37.313883,48.08681],[37.313937,48.086615],[37.313354,48.086555],[37.313317,48.086746],[37.313681,48.086779],[37.313883,48.08681]]]}},{"type":"Feature","properties":{"cadnum":"1413846500:01:001:0045"},"geometry":{"type":"Polygon","coordinates":[[[37.312734,48.085927],[37.312788,48.085681],[37.312172,48.085594],[37.312105,48.085819],[37.3121,48.085906],[37.312734,48.085927]]]}},{"type":"Feature","properties":{"cadnum":"1413846500:01:001:0160"},"geometry":{"type":"Polygon","coordinates":[[[37.313987,48.086254],[37.314099,48.085912],[37.313604,48.085837],[37.313484,48.086192],[37.313987,48.086254]]]}},{"type":"Feature","properties":{"cadnum":"1413846500:01:001:0192"},"geometry":{"type":"Polygon","coordinates":[[[37.312625,48.086699],[37.312625,48.08668],[37.312658,48.086512],[37.312055,48.086455],[37.312038,48.086551],[37.312029,48.086641],[37.312235,48.086662],[37.312388,48.086671],[37.312424,48.086675],[37.312446,48.086677],[37.312527,48.086686],[37.312585,48.086692],[37.312625,48.086699]]]}},{"type":"Feature","properties":{"cadnum":"1413846500:01:001:0150"},"geometry":{"type":"Polygon","coordinates":[[[37.311134,48.086047],[37.31117,48.085828],[37.310371,48.085768],[37.310367,48.085801],[37.310344,48.08599],[37.311134,48.086047]]]}},{"type":"Feature","properties":{"cadnum":"1413846500:01:001:0026"},"geometry":{"type":"Polygon","coordinates":[[[37.311054,48.086432],[37.311099,48.086221],[37.310295,48.08615],[37.310254,48.086372],[37.311054,48.086432]]]}},{"type":"Feature","properties":{"cadnum":"1413846500:01:001:0170"},"geometry":{"type":"Polygon","coordinates":[[[37.312029,48.086653],[37.312038,48.086551],[37.311197,48.086494],[37.311184,48.08659],[37.312029,48.086653]]]}},{"type":"Feature","properties":{"cadnum":"1413846500:01:001:0137"},"geometry":{"type":"Polygon","coordinates":[[[37.312038,48.086551],[37.312055,48.086455],[37.311373,48.086383],[37.311369,48.086432],[37.311206,48.086419],[37.311197,48.086494],[37.312038,48.086551]]]}},{"type":"Feature","properties":{"cadnum":"1413846500:01:001:0156"},"geometry":{"type":"Polygon","coordinates":[[[37.312055,48.086455],[37.312078,48.086284],[37.311265,48.086194],[37.311206,48.086419],[37.311369,48.086432],[37.311373,48.086383],[37.312055,48.086455]]]}},{"type":"Feature","properties":{"cadnum":"1413846500:01:001:0086"},"geometry":{"type":"Polygon","coordinates":[[[37.312006,48.086839],[37.312033,48.086653],[37.311184,48.08659],[37.311161,48.086764],[37.312006,48.086839]]]}},{"type":"Feature","properties":{"cadnum":"1413846500:01:001:0214"},"geometry":{"type":"Polygon","coordinates":[[[37.312069,48.086021],[37.312109,48.085795],[37.311692,48.08575],[37.311327,48.085712],[37.311292,48.085939],[37.311646,48.085978],[37.311992,48.086014],[37.312069,48.086021]]]}},{"type":"Feature","properties":{"cadnum":"1413846500:01:001:0068"},"geometry":{"type":"Polygon","coordinates":[[[37.311975,48.086272],[37.312015,48.086017],[37.311314,48.085945],[37.311265,48.086194],[37.311975,48.086272]]]}},{"type":"Feature","properties":{"cadnum":"1413846500:01:001:0064"},"geometry":{"type":"Polygon","coordinates":[[[37.31157,48.088334],[37.311606,48.088078],[37.310928,48.088031],[37.31091,48.088294],[37.31157,48.088334]]]}}]}