{"type":"FeatureCollection","features":[{"type":"Feature","properties":{"cadnum":"1414446200:01:000:0075"},"geometry":{"type":"Polygon","coordinates":[[[38.804229,48.020253],[38.804475,48.020608],[38.804961,48.020861],[38.806053,48.021413],[38.807121,48.02196],[38.807481,48.022108],[38.808276,48.02245],[38.809118,48.022822007889545],[38.809118,48.022823],[38.80924767247735,48.02287929908269],[38.80929,48.022898],[38.80929,48.02289767615658],[38.809389786885255,48.022941],[38.809388,48.022941],[38.809399,48.022945],[38.809636,48.023056],[38.809637582317066,48.023056],[38.810104,48.023273],[38.810154,48.023318],[38.810306,48.02339],[38.810387,48.023397],[38.811599,48.023954],[38.812695,48.024462],[38.813823,48.024964],[38.814358,48.025199],[38.814182,48.02537],[38.8142,48.025686],[38.814465,48.025998],[38.814465,48.026139],[38.814519,48.026139],[38.814519,48.025991],[38.814255,48.025679],[38.814236,48.025381],[38.814434,48.02519],[38.81385,48.024934],[38.812727,48.024433],[38.811632,48.023925],[38.810418,48.023366],[38.810324,48.023354],[38.810198,48.023297],[38.81014,48.023246],[38.809638352943665,48.02301276470704],[38.809431,48.022916],[38.80929,48.02285428434505],[38.80929,48.022854],[38.808307,48.02242],[38.807512,48.022077],[38.807148,48.02193],[38.806083,48.021384],[38.804997,48.020834],[38.804521,48.02059],[38.804265,48.020227],[38.803797,48.020022250000004],[38.803797,48.020022],[38.803016,48.01968],[38.803016,48.019725],[38.803625,48.01999090140845],[38.803625,48.019991],[38.80365965573758,48.02000603278683],[38.803797,48.020066],[38.803797,48.020065609271526],[38.804229,48.020253]]]}},{"type":"Feature","properties":{"cadnum":"1414446200:01:000:0063"},"geometry":{"type":"Polygon","coordinates":[[[38.811901,48.04078],[38.812058,48.040535],[38.812134,48.040412],[38.811869,48.040321],[38.811792,48.040444],[38.81164,48.040691],[38.811901,48.04078]]]}},{"type":"Feature","properties":{"cadnum":"1414446200:01:000:0045"},"geometry":{"type":"Polygon","coordinates":[[[38.809955,48.041394],[38.809614,48.041357],[38.809616,48.041422],[38.80961603125,48.041422],[38.809619,48.041517],[38.80996,48.041546],[38.81037,48.041583],[38.810355,48.041432],[38.81024973684208,48.041422],[38.810252,48.041422],[38.809955,48.041394]]]}},{"type":"Feature","properties":{"cadnum":"1414446200:01:000:0047"},"geometry":{"type":"Polygon","coordinates":[[[38.814783,48.038532],[38.814532,48.038432],[38.814434,48.038529],[38.814295,48.038681],[38.814611,48.03880888865096],[38.814611,48.03881],[38.814762,48.03887],[38.814995,48.038616],[38.814783,48.03853208333333],[38.814783,48.038532]]]}},{"type":"Feature","properties":{"cadnum":"1414446200:01:000:0006"},"geometry":{"type":"Polygon","coordinates":[[[38.811501,48.037655],[38.811429,48.037744],[38.811424,48.03775],[38.8114242,48.03775],[38.811349,48.037844],[38.811609,48.037928],[38.811869,48.038009],[38.812018,48.037817],[38.811752,48.037735],[38.811501,48.037655]]]}},{"type":"Feature","properties":{"cadnum":"1414446200:01:000:0005"},"geometry":{"type":"Polygon","coordinates":[[[38.814783,48.03762884415584],[38.81480196000001,48.037635],[38.814801,48.037635],[38.814842,48.037648],[38.815062,48.037717],[38.815171,48.037555],[38.814959,48.037486],[38.814783,48.03742911111111],[38.814783,48.037429],[38.814662,48.03739],[38.814632,48.037441],[38.814611,48.037469],[38.814611,48.03746977777778],[38.814551,48.037552],[38.814611,48.0375719137931],[38.814611,48.037573],[38.81476141860414,48.03762183720914],[38.814783,48.037629],[38.814783,48.03762884415584]]]}},{"type":"Feature","properties":{"cadnum":"1414446200:01:000:0057"},"geometry":{"type":"Polygon","coordinates":[[[38.812354,48.026481],[38.812354,48.026187],[38.812121,48.026187],[38.812121,48.026307],[38.812134,48.026307],[38.812142,48.026481],[38.812354,48.026481]]]}},{"type":"Feature","properties":{"cadnum":"1414446200:01:000:0032"},"geometry":{"type":"Polygon","coordinates":[[[38.810028,48.024352],[38.810037,48.024346],[38.810032,48.024342],[38.810387,48.024093],[38.810091,48.02391],[38.809714,48.024153],[38.810028,48.024352]]]}},{"type":"Feature","properties":{"cadnum":"1414446200:01:000:0107"},"geometry":{"type":"Polygon","coordinates":[[[38.811146,48.026259],[38.811316,48.026256],[38.811312,48.026238],[38.811142,48.026241],[38.811146,48.026259]]]}},{"type":"Feature","properties":{"cadnum":"1414446200:01:000:0113"},"geometry":{"type":"Polygon","coordinates":[[[38.812907,48.026677],[38.812902,48.026521],[38.812431,48.026526],[38.812431,48.026615],[38.812431,48.026688],[38.812907,48.026677]]]}},{"type":"Feature","properties":{"cadnum":"1414446200:01:000:0034"},"geometry":{"type":"Polygon","coordinates":[[[38.802963,48.018659],[38.803625,48.01887172901678],[38.803625,48.018872],[38.805213,48.019382],[38.8052131636236,48.019382],[38.809118,48.02063577384442],[38.809118,48.020637],[38.811379,48.021362],[38.812125,48.02166],[38.812991,48.022068],[38.813993,48.022801],[38.814247,48.023056],[38.81424753441295,48.023056],[38.814379,48.023188],[38.814611,48.023472831683165],[38.814611,48.023474],[38.817265,48.02673],[38.817267112781956,48.02673],[38.817282,48.026748],[38.817471,48.027022],[38.81915,48.029082],[38.819513,48.029542],[38.819379,48.02959],[38.819002,48.029725],[38.819521,48.030403],[38.81952105177111,48.030403],[38.820276,48.031389],[38.820276,48.031388332506204],[38.821314,48.032744],[38.82211,48.033156],[38.823771,48.033588],[38.825598,48.03356148198198],[38.825598,48.033562],[38.826081,48.033555],[38.827064,48.03351],[38.827064,48.033573],[38.829031,48.03357],[38.831263,48.033582],[38.831263,48.03358180350365],[38.834516,48.033597],[38.834749,48.033675],[38.834843,48.033528],[38.834503,48.033414],[38.831906,48.033338],[38.831091,48.033335],[38.831091,48.033335193245776],[38.828065,48.033321],[38.82767,48.033378],[38.825878,48.033351],[38.825598,48.033361],[38.825598,48.03336167361111],[38.824473,48.033399],[38.82344,48.033144],[38.823601,48.032813],[38.822743,48.032296],[38.822266,48.031869],[38.821022,48.030288],[38.821021597970336,48.030288],[38.820105,48.029122],[38.820105,48.02912254724409],[38.819006,48.027725],[38.818058,48.027379],[38.817691,48.026983],[38.817471,48.026679],[38.8147442616487,48.02333826881715],[38.814559,48.02311],[38.8144,48.022941],[38.8143999201102,48.022941],[38.814169,48.022693],[38.813123,48.021954],[38.811469,48.021233],[38.809118,48.020474],[38.809118,48.02047445512657],[38.805379,48.019267],[38.80537868575624,48.019267],[38.803797,48.01875651279621],[38.803797,48.018756],[38.802957,48.018485],[38.802963,48.018659]]]}},{"type":"Feature","properties":{"cadnum":"1414446200:01:000:0106"},"geometry":{"type":"Polygon","coordinates":[[[38.810005,48.026583],[38.810001,48.026457],[38.809974,48.026457],[38.809978,48.026583],[38.810005,48.026583]]]}},{"type":"Feature","properties":{"cadnum":"1414446200:01:000:0061"},"geometry":{"type":"Polygon","coordinates":[[[38.810252,48.024982],[38.81037,48.024901],[38.810563,48.024769],[38.810603,48.024739],[38.810441,48.024628],[38.810081,48.024868],[38.810252,48.024982]]]}},{"type":"Feature","properties":{"cadnum":"1414446200:01:000:0048"},"geometry":{"type":"Polygon","coordinates":[[[38.809704,48.025207],[38.809767,48.025163],[38.809897,48.025069],[38.809997,48.025],[38.809834,48.024898],[38.809682,48.025003],[38.809588,48.025067],[38.809538,48.025099],[38.809704,48.025207]]]}},{"type":"Feature","properties":{"cadnum":"1414446200:01:000:0109"},"geometry":{"type":"Polygon","coordinates":[[[38.810087,48.026145],[38.810087,48.026018],[38.812148,48.026],[38.812142,48.025922],[38.812026,48.025616],[38.812175,48.02552],[38.812152,48.025508],[38.811995,48.025613],[38.812116,48.025925],[38.812116,48.025982],[38.810081,48.026],[38.810081,48.025967],[38.810054,48.025967],[38.810058,48.026145],[38.810087,48.026145]]]}},{"type":"Feature","properties":{"cadnum":"1414446200:01:000:0110"},"geometry":{"type":"Polygon","coordinates":[[[38.812008,48.025279],[38.812026,48.025268],[38.811905,48.025181],[38.811888,48.025192],[38.812008,48.025279]]]}},{"type":"Feature","properties":{"cadnum":"1414446200:01:000:0112"},"geometry":{"type":"Polygon","coordinates":[[[38.8101,48.025454],[38.810387,48.025252],[38.810301,48.025196],[38.810171,48.025112],[38.810024,48.025216],[38.809879,48.025312],[38.81001,48.025397],[38.8101,48.025454]]]}},{"type":"Feature","properties":{"cadnum":"1414446200:01:000:0040"},"geometry":{"type":"Polygon","coordinates":[[[38.814611,48.026409],[38.814551,48.026409],[38.814551,48.02655],[38.814611,48.02655],[38.814783,48.02655],[38.814959,48.02655],[38.814955,48.026409],[38.814783,48.026409],[38.814611,48.026409]]]}},{"type":"Feature","properties":{"cadnum":"1414446200:01:000:0108"},"geometry":{"type":"Polygon","coordinates":[[[38.810198,48.02619],[38.81076,48.026187],[38.81076,48.026169],[38.810198,48.026172],[38.810198,48.02619]]]}},{"type":"Feature","properties":{"cadnum":"1414446200:01:000:0076"},"geometry":{"type":"Polygon","coordinates":[[[38.814538,48.026391],[38.814559,48.026105],[38.814599,48.026105],[38.814599,48.025991],[38.814519,48.025991],[38.814519,48.026139],[38.814515,48.02634],[38.814501,48.02661],[38.814501,48.026615],[38.814501,48.02673],[38.814501,48.0284],[38.814492,48.028914],[38.814546,48.028935],[38.814538,48.029019],[38.814209,48.029013],[38.81305,48.029017],[38.813091,48.029999],[38.813088138613864,48.030288],[38.813088,48.030288],[38.813081,48.031032],[38.811416,48.031059],[38.811416,48.03096],[38.811838,48.030954],[38.811833,48.03087],[38.812004,48.030867],[38.811999,48.030716],[38.811986,48.030407],[38.811983000000005,48.03028800000021],[38.811982,48.030173],[38.811949,48.029452],[38.811928,48.029017],[38.811909,48.028445],[38.811869,48.027986],[38.811869,48.027659],[38.811888,48.026682],[38.811914,48.02634],[38.811941,48.026096],[38.811892,48.026096],[38.811865,48.026349],[38.81185401474926,48.026615],[38.811854,48.026615],[38.811851,48.026688],[38.811849,48.02673],[38.811849281818176,48.02673],[38.811842,48.026908],[38.811825,48.027641],[38.811825,48.028017],[38.811838,48.028226],[38.811851,48.028425],[38.811873,48.029344],[38.811896,48.02968],[38.811918,48.03017],[38.811927,48.030403],[38.8119271733871,48.030403],[38.811932,48.030536],[38.811949,48.030831],[38.811783,48.030834],[38.811783,48.030918],[38.811349,48.030921],[38.811349,48.03096],[38.810563,48.030966],[38.810087,48.030974],[38.810081,48.031125],[38.810058,48.03117],[38.810058,48.031272],[38.810081,48.031332],[38.810087,48.031579],[38.810194,48.031579],[38.810184,48.031924],[38.810113,48.032684],[38.8101,48.03326],[38.810238,48.033498],[38.810827,48.033702],[38.810628013333336,48.033962],[38.810627,48.033962],[38.81037,48.0343],[38.81062,48.034384],[38.810607,48.034402],[38.811829,48.034796],[38.811851,48.034763],[38.810683,48.03439],[38.810697,48.034375],[38.810445,48.034291],[38.81060501215806,48.034077],[38.810606,48.034077],[38.810899,48.033687],[38.810288,48.033471],[38.810148,48.033251],[38.810175,48.032686],[38.810257,48.031924],[38.810247,48.031539],[38.810135,48.031542],[38.810135,48.031326],[38.810113,48.031266],[38.810113,48.031173],[38.810135,48.031128],[38.81014,48.031008],[38.810557,48.031002],[38.811362,48.030996],[38.811362,48.031095],[38.81314,48.031065],[38.813143,48.030288],[38.81314256930693,48.030288],[38.813144,48.029999],[38.813104,48.029053],[38.814209,48.02905],[38.814586,48.029055],[38.814599,48.028935],[38.814546,48.028912],[38.814546,48.028482],[38.814542,48.028329],[38.814555,48.027748],[38.814551,48.027374],[38.81453808114856,48.02661973782776],[38.814538,48.02661],[38.814538,48.026391]]]}},{"type":"Feature","properties":{"cadnum":"1414446200:01:000:0081"},"geometry":{"type":"Polygon","coordinates":[[[38.8055,48.03402],[38.805456,48.034077],[38.80545635428571,48.034077],[38.805366,48.034195],[38.805069,48.034582],[38.805263,48.034714],[38.805607,48.034282],[38.805752,48.034104],[38.8055,48.034017],[38.8055,48.03402]]]}},{"type":"Feature","properties":{"cadnum":"1414446200:01:000:0058"},"geometry":{"type":"Polygon","coordinates":[[[38.805001,48.033843],[38.80475,48.033753],[38.804647,48.033886],[38.8045894973545,48.033962],[38.804588,48.033962],[38.804504,48.034075],[38.804501,48.034077],[38.804502444444445,48.034077],[38.804364,48.034255],[38.80462,48.034345],[38.804758,48.034162],[38.804903,48.033979],[38.805001,48.033843]]]}},{"type":"Feature","properties":{"cadnum":"1414446200:01:000:0024"},"geometry":{"type":"Polygon","coordinates":[[[38.807844,48.033864],[38.808024,48.033564],[38.807808,48.033498],[38.807705,48.033654],[38.807504,48.033957],[38.80751959210527,48.033962],[38.807517,48.033962],[38.807741,48.034033],[38.807844,48.033864]]]}},{"type":"Feature","properties":{"cadnum":"1414446200:01:000:0037"},"geometry":{"type":"Polygon","coordinates":[[[38.809118,48.035679486238536],[38.809118,48.03568],[38.809215,48.035546],[38.80929,48.035571],[38.80929,48.03557010714285],[38.809299,48.035573],[38.809488,48.0353],[38.809345,48.035255],[38.809164188586294,48.03519765012429],[38.808788,48.035077],[38.808496,48.035522],[38.809079,48.035687],[38.809106,48.035696],[38.809118,48.035679486238536]]]}},{"type":"Feature","properties":{"cadnum":"1414446200:01:000:0007"},"geometry":{"type":"Polygon","coordinates":[[[38.830465,48.022297],[38.82952,48.022291],[38.829476,48.0225],[38.829197,48.023056],[38.82919801339286,48.023056],[38.829144,48.023165],[38.829777,48.023219],[38.829876,48.024102],[38.829844,48.024531],[38.829665,48.024877],[38.829769,48.025252],[38.829732,48.025559],[38.829597,48.025808],[38.829319,48.025916],[38.829436,48.026069],[38.829274,48.026406],[38.829037907407404,48.026615],[38.829036,48.026615],[38.828035,48.027503],[38.827096,48.028218],[38.825932,48.028921],[38.826103,48.029146],[38.827463,48.028737],[38.829207,48.028139],[38.829602,48.028275],[38.829566,48.0285],[38.829706,48.02847],[38.82983,48.028182],[38.830046,48.027821],[38.830343,48.027698],[38.830509,48.027881],[38.831263,48.027746],[38.831263,48.027745087557605],[38.831308,48.027737],[38.83187,48.027737],[38.832719,48.027572],[38.833289,48.027214],[38.833033,48.026615],[38.83303208597285,48.026615],[38.832799,48.026067],[38.832149,48.025475],[38.831803,48.025312],[38.831308,48.025319],[38.831263,48.02527420737327],[38.831263,48.025274],[38.830918,48.024931],[38.830662,48.024424],[38.830348,48.022941],[38.83034789098532,48.022941],[38.830272,48.022579],[38.830465,48.022297]]]}},{"type":"Feature","properties":{"cadnum":"1414446200:01:000:0117"},"geometry":{"type":"Polygon","coordinates":[[[38.804795,48.023315],[38.804854,48.02324],[38.80368153994508,48.02344510895997],[38.80293,48.023576],[38.801691,48.024216],[38.801632,48.024168],[38.801422,48.024204],[38.801565,48.024573],[38.801862,48.02452],[38.801764,48.024273],[38.801804,48.024237],[38.80298,48.023633],[38.803569,48.023528],[38.803625,48.02351842105263],[38.803625,48.023519],[38.804795,48.023315]]]}},{"type":"Feature","properties":{"cadnum":"1414446200:01:000:0114"},"geometry":{"type":"Polygon","coordinates":[[[38.807032,48.025553],[38.807095,48.02555],[38.807144,48.02552],[38.807207,48.02546],[38.807225,48.025367],[38.806946,48.025381],[38.806951,48.025442],[38.807032,48.025553]]]}},{"type":"Feature","properties":{"cadnum":"1414446200:01:000:0033"},"geometry":{"type":"Polygon","coordinates":[[[38.808783,48.025748],[38.808878,48.025686],[38.809148,48.025505],[38.809049,48.025439],[38.808936,48.025361],[38.80885,48.025301],[38.8085,48.025553],[38.808563,48.025592],[38.808783,48.025748]]]}},{"type":"Feature","properties":{"cadnum":"1414446200:01:000:0062"},"geometry":{"type":"Polygon","coordinates":[[[38.807624,48.023823],[38.807817,48.023702],[38.807844,48.023687],[38.807966,48.023613],[38.807687,48.023429],[38.807347,48.023636],[38.807445,48.023702],[38.807624,48.023823]]]}},{"type":"Feature","properties":{"cadnum":"1414446200:01:000:0020"},"geometry":{"type":"Polygon","coordinates":[[[38.80545,48.022564],[38.806039,48.021783],[38.80598,48.021765],[38.805401,48.022546],[38.805088872549014,48.022941],[38.805088,48.022941],[38.804795,48.023315],[38.803797,48.02348901025641],[38.803797,48.023489],[38.803569,48.023528],[38.803625,48.02367315789472],[38.803625,48.023675],[38.803838,48.024225],[38.80533,48.023963],[38.80506,48.023267],[38.804875,48.0233],[38.805155,48.022941],[38.80515498983739,48.022941],[38.80545,48.022564]]]}},{"type":"Feature","properties":{"cadnum":"1414446200:01:000:0038"},"geometry":{"type":"Polygon","coordinates":[[[38.807871,48.023988],[38.808204,48.023765],[38.808087,48.023691],[38.807966,48.023613],[38.807817,48.023702],[38.807624,48.023823],[38.807871,48.023988]]]}},{"type":"Feature","properties":{"cadnum":"1414446200:01:000:0042"},"geometry":{"type":"Polygon","coordinates":[[[38.807988,48.023564],[38.808293,48.023357],[38.808146,48.023252],[38.80802,48.023162],[38.807705,48.023384],[38.80793,48.023528],[38.807988,48.023564]]]}},{"type":"Feature","properties":{"cadnum":"1414446200:01:000:0008"},"geometry":{"type":"Polygon","coordinates":[[[38.825096,48.030747],[38.82383,48.032648],[38.824423,48.03287],[38.824473,48.033399],[38.825769,48.033356],[38.825769,48.03335489285715],[38.825878,48.033351],[38.825878,48.03306],[38.825887,48.032387],[38.82591,48.031432],[38.826103,48.031422],[38.826174,48.031224],[38.825598,48.030969],[38.825598,48.030969282317976],[38.825096,48.030747]],[[38.824876,48.032804],[38.824876,48.032696],[38.825303,48.032699],[38.825295,48.032095],[38.825598,48.032089886075944],[38.825598,48.032091],[38.825807,48.032087],[38.825802,48.032798],[38.825598,48.032799],[38.825598,48.032799957446805],[38.824876,48.032804]],[[38.825061,48.033282],[38.825065,48.033138],[38.825598,48.033129262295084],[38.825598,48.03313],[38.825614,48.033129],[38.825614,48.033285],[38.825061,48.033282]]]}},{"type":"Feature","properties":{"cadnum":"1414446200:01:000:0083"},"geometry":{"type":"Polygon","coordinates":[[[38.809118,48.03083333160622],[38.809118,48.030834],[38.809268,48.030831],[38.809268,48.030813],[38.809075,48.030816],[38.809075,48.030834],[38.809118,48.03083333160622]]]}},{"type":"Feature","properties":{"cadnum":"1414446200:01:000:0082"},"geometry":{"type":"Polygon","coordinates":[[[38.808289,48.030702],[38.808293,48.030831],[38.808779,48.030831],[38.808779,48.030813],[38.808316,48.030813],[38.808316,48.030702],[38.808289,48.030702]]]}},{"type":"Feature","properties":{"cadnum":"1414446200:01:000:0036"},"geometry":{"type":"Polygon","coordinates":[[[38.807504,48.033245],[38.807647,48.033089],[38.808002,48.032711],[38.80775,48.032608],[38.807395,48.033008],[38.807257,48.033164],[38.807504,48.033245]]]}},{"type":"Feature","properties":{"cadnum":"1414446200:01:000:0009"},"geometry":{"type":"Polygon","coordinates":[[[38.82904,48.033864],[38.829031,48.03357],[38.827064,48.033573],[38.827064,48.03351],[38.826081,48.033555],[38.826377,48.033962],[38.826376,48.033962],[38.826417,48.034017],[38.826621,48.034077],[38.82662335514021,48.034077],[38.827153,48.034231],[38.827819,48.034324],[38.82847470994474,48.034077],[38.828476,48.034077],[38.82904,48.033864]]]}},{"type":"Feature","properties":{"cadnum":"1414446200:01:000:0041"},"geometry":{"type":"Polygon","coordinates":[[[38.8146637750472,48.03239157088846],[38.814783,48.032407],[38.814783,48.032406415287625],[38.81588,48.032543],[38.816083,48.032165],[38.81467662025805,48.031879329114915],[38.812682,48.031473],[38.812318,48.031635],[38.812295,48.031621],[38.812219,48.031669],[38.812242,48.031684],[38.811496,48.032651],[38.810306,48.032612],[38.810293,48.033468],[38.8142,48.033609],[38.814205,48.033552],[38.814322,48.033555],[38.814412,48.033558],[38.814496,48.033561],[38.814515,48.033393],[38.814611,48.033393],[38.814703,48.033393],[38.814721,48.033276],[38.81424,48.03324],[38.814528,48.032374],[38.814611,48.03238474117647],[38.814611,48.032385],[38.8146637750472,48.03239157088846]]]}},{"type":"Feature","properties":{"cadnum":"1414446200:01:000:0084"},"geometry":{"type":"Polygon","coordinates":[[[38.809762,48.030809],[38.809758,48.030642],[38.809731,48.030644],[38.809735,48.030809],[38.809762,48.030809]]]}},{"type":"Feature","properties":{"cadnum":"1414446200:01:000:0085"},"geometry":{"type":"Polygon","coordinates":[[[38.809118,48.02793417721519],[38.809118,48.027935],[38.809745,48.027926],[38.809758,48.02834],[38.809762,48.028605],[38.809767,48.028746],[38.809686,48.028746],[38.809686,48.028764],[38.809767,48.028764],[38.809767,48.028857],[38.809741,48.028857],[38.809758,48.029253],[38.809695,48.029253],[38.809708,48.029554],[38.809695,48.029554],[38.809704,48.029767],[38.809731,48.029767],[38.809727,48.029731],[38.809781,48.029731],[38.809798,48.03005],[38.809731,48.030047],[38.809731,48.030065],[38.810037,48.030068],[38.810044223880595,48.030288],[38.810044,48.030288],[38.810046926829315,48.0303703170745],[38.810048,48.030403],[38.810048088888884,48.030403],[38.810068,48.030963],[38.810104,48.030963],[38.810104,48.030974],[38.810131,48.030974],[38.810131,48.030945],[38.810091,48.030945],[38.810075266666665,48.03037073333315],[38.810072,48.030227],[38.810108,48.030227],[38.810108,48.03023],[38.810198,48.03023],[38.81020202777778,48.030288],[38.810202,48.030288],[38.810203,48.030302],[38.81023,48.030302],[38.810221,48.030061],[38.810194,48.030061],[38.810198,48.030182],[38.810108,48.030182],[38.810108,48.030209],[38.810068,48.030209],[38.810064,48.030068],[38.810104,48.030068],[38.810104,48.03005],[38.809825,48.030047],[38.809808,48.029714],[38.809727,48.029714],[38.809722,48.029554],[38.809735,48.029554],[38.809727,48.029271],[38.809785,48.029271],[38.809767,48.028875],[38.809794,48.028875],[38.809771,48.027908],[38.809142,48.027914],[38.809133,48.027806],[38.80868,48.027809],[38.80868,48.027827],[38.809112,48.027827],[38.809116,48.027914],[38.809026,48.027917],[38.80903,48.028035],[38.809058,48.028035],[38.809053,48.027935],[38.809118,48.02793417721519]]]}},{"type":"Feature","properties":{"cadnum":"1414446200:01:000:0069"},"geometry":{"type":"Polygon","coordinates":[[[38.814205,48.033552],[38.814322,48.033555],[38.814412,48.033558],[38.814496,48.033561],[38.814515,48.033393],[38.814611,48.033393],[38.814703,48.033393],[38.814721,48.033276],[38.814762,48.033089],[38.814618,48.033062],[38.814783,48.032585],[38.814783,48.03258467857143],[38.814842,48.032414],[38.815184,48.032456],[38.815377,48.03202],[38.814611,48.031865],[38.814611,48.031865043312706],[38.812682,48.031473],[38.812318,48.031635],[38.812295,48.031621],[38.812219,48.031669],[38.812242,48.031684],[38.811496,48.032651],[38.810306,48.032612],[38.810293,48.033468],[38.8142,48.033609],[38.814205,48.033552]]]}},{"type":"Feature","properties":{"cadnum":"1414446200:01:000:0043"},"geometry":{"type":"Polygon","coordinates":[[[38.811312,48.033897],[38.811178,48.034077],[38.81117869090909,48.034077],[38.81106,48.034237],[38.810926,48.034417],[38.811133,48.034486],[38.811267,48.034303],[38.811515,48.033964],[38.811312,48.033897]]]}},{"type":"Feature","properties":{"cadnum":"1414446200:01:000:0086"},"geometry":{"type":"Polygon","coordinates":[[[38.810337,48.03062],[38.810333,48.030506],[38.810306,48.030506],[38.810311,48.03062],[38.810337,48.03062]]]}},{"type":"Feature","properties":{"cadnum":"1414446200:01:000:0023"},"geometry":{"type":"Polygon","coordinates":[[[38.812269,48.030993],[38.812404,48.03099],[38.812404,48.030987],[38.812467,48.030987],[38.812467,48.030887],[38.812458,48.030809],[38.812498,48.030785],[38.81248,48.030656],[38.81226,48.03066],[38.812269,48.030993]]]}},{"type":"Feature","properties":{"cadnum":"1414446200:01:000:0003"},"geometry":{"type":"Polygon","coordinates":[[[38.811752,48.0309],[38.811748,48.030774],[38.811748,48.030669],[38.811743,48.030377],[38.811708,48.030377],[38.810867,48.030371],[38.810867,48.030383],[38.810872,48.030491],[38.810872,48.030509],[38.810813,48.030509],[38.810813,48.030542],[38.810836,48.030542],[38.810836,48.03056],[38.810944,48.03056],[38.810949,48.030569],[38.810953,48.03068],[38.811007,48.030714],[38.811011,48.030767],[38.811011,48.030792],[38.811016,48.0309],[38.811752,48.0309]]]}},{"type":"Feature","properties":{"cadnum":"1414446200:01:000:0122"},"geometry":{"type":"Polygon","coordinates":[[[38.815387,48.026409],[38.815387,48.026262],[38.814978,48.026262],[38.814978,48.02628],[38.814982,48.026409],[38.815387,48.026409]]]}},{"type":"Feature","properties":{"cadnum":"1414446200:01:000:0121"},"geometry":{"type":"Polygon","coordinates":[[[38.815377,48.027929],[38.815377,48.027785],[38.815341,48.027785],[38.815152,48.027788],[38.814955,48.027788],[38.814955,48.027929],[38.815377,48.027929]]]}},{"type":"Feature","properties":{"cadnum":"1414446200:01:000:0025"},"geometry":{"type":"Polygon","coordinates":[[[38.815718,48.028905],[38.815979,48.028903],[38.815979,48.028671],[38.815777,48.028674],[38.815777,48.028785],[38.815727,48.028785],[38.815718,48.028905]]]}},{"type":"Feature","properties":{"cadnum":"1414446200:01:000:0079"},"geometry":{"type":"Polygon","coordinates":[[[38.814982,48.027238],[38.81466117622921,48.027240594262295],[38.814578,48.027241],[38.814573,48.027379],[38.814611,48.027379],[38.814783,48.027379],[38.814978,48.027379],[38.814982,48.027238]]]}},{"type":"Feature","properties":{"cadnum":"1414446200:01:000:0027"},"geometry":{"type":"Polygon","coordinates":[[[38.815381,48.027365],[38.815381,48.02722],[38.814982,48.027238],[38.814978,48.027361],[38.815381,48.027365]]]}},{"type":"Feature","properties":{"cadnum":"1414446200:01:000:0039"},"geometry":{"type":"Polygon","coordinates":[[[38.814783,48.02847],[38.814955,48.028467],[38.814951,48.02832],[38.814744043478655,48.02832973913042],[38.814559,48.028338],[38.814559,48.028473],[38.814611,48.02847230357143],[38.814611,48.028473],[38.814783,48.02847]]]}},{"type":"Feature","properties":{"cadnum":"1414446200:01:000:0068"},"geometry":{"type":"Polygon","coordinates":[[[38.81477513792875,48.02891303448277],[38.814783,48.028913],[38.814783,48.02891298823529],[38.814951,48.028912],[38.814951,48.028779],[38.81477513792989,48.02878106896553],[38.814555,48.028783],[38.814555,48.028914],[38.814611,48.02891375438597],[38.814611,48.028914],[38.81477513792875,48.02891303448277]]]}},{"type":"Feature","properties":{"cadnum":"1414446200:01:000:0077"},"geometry":{"type":"Polygon","coordinates":[[[38.815544,48.028512],[38.815987,48.028509],[38.815993,48.028376],[38.815548,48.028371],[38.815544,48.028512]]]}},{"type":"Feature","properties":{"cadnum":"1414446200:01:000:0080"},"geometry":{"type":"Polygon","coordinates":[[[38.814968,48.026851],[38.815372,48.026848],[38.815372,48.026706],[38.814968,48.026713],[38.814968,48.026851]]]}},{"type":"Feature","properties":{"cadnum":"1414446200:01:000:0119"},"geometry":{"type":"Polygon","coordinates":[[[38.809555,48.035192],[38.809655,48.035066],[38.809672,48.035041],[38.809691,48.035017],[38.809893,48.034756],[38.809672,48.034681],[38.809475,48.034939],[38.809336,48.035123],[38.809555,48.035192]]]}},{"type":"Feature","properties":{"cadnum":"1414446200:01:000:0123"},"geometry":{"type":"Polygon","coordinates":[[[38.809672,48.034681],[38.809834,48.034432],[38.80996,48.03424],[38.809974,48.034216],[38.809947,48.034207],[38.809808,48.034162],[38.809758,48.034146],[38.809727,48.034191],[38.809682,48.034258],[38.809659,48.034294],[38.809614,48.034366],[38.809458,48.034609],[38.809672,48.034681]]]}},{"type":"Feature","properties":{"cadnum":"1414446200:01:000:0044"},"geometry":{"type":"Polygon","coordinates":[[[38.809893,48.034756],[38.810032,48.034573],[38.8101,48.034486],[38.810234,48.034306],[38.809974,48.034216],[38.809857,48.034402],[38.809798,48.034492],[38.809672,48.034681],[38.809893,48.034756]]]}},{"type":"Feature","properties":{"cadnum":"1414446200:01:000:0022"},"geometry":{"type":"Polygon","coordinates":[[[38.813683,48.036549],[38.813926,48.036219],[38.813481,48.036078],[38.813423,48.036156],[38.813239,48.036405],[38.81359,48.036517],[38.813683,48.036549]]]}},{"type":"Feature","properties":{"cadnum":"1414446200:01:000:0078"},"geometry":{"type":"Polygon","coordinates":[[[38.81424,48.037684],[38.814412,48.037438],[38.81393,48.037267],[38.813756,48.037516],[38.813972,48.037592],[38.81424,48.037684]]]}},{"type":"Feature","properties":{"cadnum":"1414446200:01:000:0070"},"geometry":{"type":"Polygon","coordinates":[[[38.812435,48.034876],[38.81257,48.034696],[38.81284,48.034345],[38.812628,48.034279],[38.812354,48.03463],[38.812215,48.03481],[38.812435,48.034876]]]}},{"type":"Feature","properties":{"cadnum":"1414446200:01:000:0093"},"geometry":{"type":"Polygon","coordinates":[[[38.808963,48.02926],[38.809201,48.029253],[38.809196,48.029235],[38.808963,48.029242],[38.808963,48.02926]]]}},{"type":"Feature","properties":{"cadnum":"1414446200:01:000:0073"},"geometry":{"type":"Polygon","coordinates":[[[38.809727,48.0278],[38.809745,48.027788],[38.809741,48.027619],[38.809741,48.027583],[38.809727,48.027394],[38.809731,48.027352],[38.809718,48.027094],[38.809686,48.027085],[38.809118,48.027107],[38.809118,48.02710730666667],[38.80899,48.027112],[38.80899,48.027091],[38.808699,48.027097],[38.808366,48.027103],[38.80793,48.027112],[38.807957,48.027815],[38.80929,48.027804],[38.80929,48.027803587848936],[38.809727,48.0278]]]}},{"type":"Feature","properties":{"cadnum":"1414446200:01:000:0094"},"geometry":{"type":"Polygon","coordinates":[[[38.808253,48.029269],[38.808469,48.029266],[38.808469,48.029248],[38.808249,48.029251],[38.808253,48.029269]]]}},{"type":"Feature","properties":{"cadnum":"1414446200:01:000:0120"},"geometry":{"type":"Polygon","coordinates":[[[38.80788,48.028269],[38.808433,48.028251],[38.808442,48.028082],[38.808312,48.028086],[38.80824,48.028086],[38.808119,48.028088],[38.80798,48.028091],[38.80788,48.028095],[38.80788,48.028269]]]}},{"type":"Feature","properties":{"cadnum":"1414446200:01:000:0028"},"geometry":{"type":"Polygon","coordinates":[[[38.808712,48.041298],[38.80872,48.041084],[38.807966,48.040916],[38.807966,48.041111],[38.808267,48.041187],[38.808712,48.041298]]]}},{"type":"Feature","properties":{"cadnum":"1414446200:01:000:0046"},"geometry":{"type":"Polygon","coordinates":[[[38.808707,48.038561],[38.808882,48.03834],[38.808609,48.03824],[38.808492,48.038202],[38.80824,48.038114],[38.808173,48.038213],[38.808163,48.038225],[38.808137,48.038267],[38.8081,48.038321],[38.808707,48.038561]]]}},{"type":"Feature","properties":{"cadnum":"1414446200:01:000:0092"},"geometry":{"type":"Polygon","coordinates":[[[38.811083,48.029554],[38.811272,48.029551],[38.811272,48.029533],[38.811083,48.029536],[38.811083,48.029554]]]}},{"type":"Feature","properties":{"cadnum":"1414446200:01:000:0089"},"geometry":{"type":"Polygon","coordinates":[[[38.809358,48.030047],[38.809521,48.030044],[38.809521,48.030026],[38.809354,48.030028],[38.809358,48.030047]]]}},{"type":"Feature","properties":{"cadnum":"1414446200:01:000:0096"},"geometry":{"type":"Polygon","coordinates":[[[38.81164,48.028948],[38.811636,48.028875],[38.811496,48.028875],[38.811492,48.028572],[38.811465,48.028572],[38.811469,48.028893],[38.811609,48.028893],[38.811613,48.028948],[38.81164,48.028948]]]}},{"type":"Feature","properties":{"cadnum":"1414446200:01:000:0088"},"geometry":{"type":"Polygon","coordinates":[[[38.809745,48.030314],[38.809745,48.030097],[38.809718,48.030097],[38.809718,48.030314],[38.809745,48.030314]]]}},{"type":"Feature","properties":{"cadnum":"1414446200:01:000:0101"},"geometry":{"type":"Polygon","coordinates":[[[38.81037,48.028035],[38.81037,48.028017],[38.810238,48.028017],[38.810238,48.028035],[38.81037,48.028035]]]}},{"type":"Feature","properties":{"cadnum":"1414446200:01:000:0067"},"geometry":{"type":"Polygon","coordinates":[[[38.811905,48.026869],[38.812349,48.026866],[38.812349,48.026713],[38.811905,48.026706],[38.811905,48.026869]]]}},{"type":"Feature","properties":{"cadnum":"1414446200:01:000:0060"},"geometry":{"type":"Polygon","coordinates":[[[38.811928,48.027971],[38.812377,48.027962],[38.812364,48.027806],[38.811918,48.027818],[38.811928,48.027971]]]}},{"type":"Feature","properties":{"cadnum":"1414446200:01:000:0105"},"geometry":{"type":"Polygon","coordinates":[[[38.810018,48.027007],[38.810014,48.026899],[38.809987,48.026899],[38.809991,48.027007],[38.810018,48.027007]]]}},{"type":"Feature","properties":{"cadnum":"1414446200:01:000:0087"},"geometry":{"type":"Polygon","coordinates":[[[38.810463,48.030311],[38.810463,48.030293],[38.810333,48.030293],[38.810333,48.030311],[38.810463,48.030311]]]}},{"type":"Feature","properties":{"cadnum":"1414446200:01:000:0098"},"geometry":{"type":"Polygon","coordinates":[[[38.811033,48.028581],[38.811209,48.028578],[38.811209,48.02856],[38.811033,48.028563],[38.811033,48.028581]]]}},{"type":"Feature","properties":{"cadnum":"1414446200:01:000:0102"},"geometry":{"type":"Polygon","coordinates":[[[38.811505,48.02798],[38.811501,48.027881],[38.811473,48.027881],[38.811479,48.02798],[38.811505,48.02798]]]}},{"type":"Feature","properties":{"cadnum":"1414446200:01:000:0103"},"geometry":{"type":"Polygon","coordinates":[[[38.810041,48.027731],[38.810037,48.027641],[38.81001,48.027641],[38.810014,48.027731],[38.810041,48.027731]]]}},{"type":"Feature","properties":{"cadnum":"1414446200:01:000:0035"},"geometry":{"type":"Polygon","coordinates":[[[38.812861,48.028701],[38.812871,48.028548],[38.812417,48.028536],[38.812408,48.028689],[38.812488,48.028692],[38.812488,48.028662],[38.812565,48.028665],[38.812565,48.028695],[38.812861,48.028701]]]}},{"type":"Feature","properties":{"cadnum":"1414446200:01:000:0090"},"geometry":{"type":"Polygon","coordinates":[[[38.810324,48.029854],[38.810311,48.02974],[38.810288,48.02974],[38.810297,48.029854],[38.810324,48.029854]]]}},{"type":"Feature","properties":{"cadnum":"1414446200:01:000:0111"},"geometry":{"type":"Polygon","coordinates":[[[38.810467,48.027154],[38.81062,48.027151],[38.81062,48.027133],[38.810467,48.027136],[38.810467,48.027154]]]}},{"type":"Feature","properties":{"cadnum":"1414446200:01:000:0064"},"geometry":{"type":"Polygon","coordinates":[[[38.812004,48.030302],[38.812494,48.030296],[38.813005,48.03029],[38.813005,48.030173],[38.812488,48.030179],[38.811999,48.030185],[38.812004,48.030302]]]}},{"type":"Feature","properties":{"cadnum":"1414446200:01:000:0074"},"geometry":{"type":"Polygon","coordinates":[[[38.811918,48.027818],[38.812364,48.027806],[38.812364,48.027652],[38.812358,48.027652],[38.811909,48.027679],[38.811918,48.027818]]]}},{"type":"Feature","properties":{"cadnum":"1414446200:01:000:0104"},"geometry":{"type":"Polygon","coordinates":[[[38.810032,48.027487],[38.810024,48.027157],[38.809997,48.027157],[38.81001,48.027487],[38.810032,48.027487]]]}},{"type":"Feature","properties":{"cadnum":"1414446200:01:000:0091"},"geometry":{"type":"Polygon","coordinates":[[[38.810777,48.02956],[38.810777,48.029542],[38.810589,48.029542],[38.810589,48.02956],[38.810777,48.02956]]]}},{"type":"Feature","properties":{"cadnum":"1414446200:01:000:0118"},"geometry":{"type":"Polygon","coordinates":[[[38.812408,48.027755],[38.812507,48.027752],[38.812687,48.027748],[38.81279,48.027743],[38.812875,48.027743],[38.812875,48.027592],[38.812494,48.027601],[38.812484,48.027601],[38.812404,48.027605],[38.812404,48.027688],[38.812408,48.027725],[38.812408,48.027755]]]}},{"type":"Feature","properties":{"cadnum":"1414446200:01:000:0100"},"geometry":{"type":"Polygon","coordinates":[[[38.810054,48.02826],[38.81005,48.028049],[38.810024,48.028049],[38.810028,48.02826],[38.810054,48.02826]]]}},{"type":"Feature","properties":{"cadnum":"1414446200:01:000:0095"},"geometry":{"type":"Polygon","coordinates":[[[38.811645,48.029398],[38.81164,48.029173],[38.811869,48.029173],[38.811869,48.029155],[38.81164,48.029155],[38.811636,48.029004],[38.811609,48.029004],[38.811613,48.029155],[38.811146,48.029157],[38.811146,48.029175],[38.811613,48.029175],[38.811618,48.029398],[38.811645,48.029398]]]}},{"type":"Feature","properties":{"cadnum":"1414446200:01:000:0097"},"geometry":{"type":"Polygon","coordinates":[[[38.810733,48.028584],[38.810733,48.028566],[38.810548,48.028566],[38.810548,48.028584],[38.810733,48.028584]]]}},{"type":"Feature","properties":{"cadnum":"1414446200:01:000:0071"},"geometry":{"type":"Polygon","coordinates":[[[38.810481,48.029314],[38.810571,48.029311],[38.811043,48.029302],[38.811079,48.029302],[38.811204,48.029299],[38.811177,48.029293],[38.811159,48.029281],[38.81115,48.02926],[38.811142,48.029008],[38.811748,48.029001],[38.811748,48.028944],[38.811137,48.028957],[38.811133,48.028743],[38.81115,48.02871],[38.811186,48.028686],[38.811236,48.028674],[38.810976,48.02868],[38.810526,48.028686],[38.81045,48.028686],[38.810238,48.028692],[38.810211,48.028698],[38.810203,48.02871],[38.810198,48.028722],[38.810207,48.028914],[38.810217,48.029088],[38.81023,48.029284],[38.810234,48.029299],[38.810257,48.029311],[38.810284,48.029314],[38.810481,48.029314]]]}},{"type":"Feature","properties":{"cadnum":"1414446200:01:000:0031"},"geometry":{"type":"Polygon","coordinates":[[[38.809762,48.028605],[38.809758,48.02834],[38.809686,48.02834],[38.809529,48.028338],[38.809399,48.028338],[38.809399,48.028358],[38.809511,48.028362],[38.809511,48.028422],[38.809498,48.028422],[38.809395,48.028418],[38.809385,48.028593],[38.809385,48.028602],[38.809762,48.028605]]]}},{"type":"Feature","properties":{"cadnum":"1414446200:01:000:0072"},"geometry":{"type":"Polygon","coordinates":[[[38.812551,48.029467],[38.812682,48.029458],[38.812848,48.029455],[38.81293,48.029455],[38.812907,48.029022],[38.812435,48.029028],[38.812364,48.029028],[38.812134,48.029032],[38.812075,48.029032],[38.811945,48.029035],[38.811955,48.029251],[38.811959,48.02929],[38.811968,48.029437],[38.812031,48.029437],[38.812031,48.029449],[38.812282,48.029449],[38.812278,48.029437],[38.812529,48.029431],[38.812551,48.029431],[38.812551,48.029467]]]}},{"type":"Feature","properties":{"cadnum":"1414446200:01:000:0099"},"geometry":{"type":"Polygon","coordinates":[[[38.811721,48.028395],[38.811716,48.028296],[38.811689,48.028296],[38.811695,48.028395],[38.811721,48.028395]]]}},{"type":"Feature","properties":{"cadnum":"1414446200:01:000:0116"},"geometry":{"type":"Polygon","coordinates":[[[38.830909,48.03275],[38.831039,48.032483],[38.830976,48.03247],[38.830882,48.03245],[38.830828,48.032437],[38.830536,48.032374],[38.830316,48.03233],[38.830272,48.032318],[38.830253,48.032314],[38.829926,48.032534],[38.830909,48.03275]]]}},{"type":"Feature","properties":{"cadnum":"1414446200:01:000:0115"},"geometry":{"type":"Polygon","coordinates":[[[38.831263,48.033335633128836],[38.831906,48.033338],[38.833178,48.033374],[38.833249,48.033378],[38.834503,48.033414],[38.83452,48.033387],[38.832885,48.032886],[38.831263,48.03253248717949],[38.831263,48.032532],[38.831039,48.032483],[38.830909,48.03275],[38.829926,48.032534],[38.829732,48.032657],[38.829872,48.03333],[38.831263,48.033336],[38.831263,48.033335633128836]]]}}]}