{"type":"FeatureCollection","features":[{"type":"Feature","properties":{"cadnum":"1414445900:01:000:0027"},"geometry":{"type":"Polygon","coordinates":[[[38.837031,47.99399],[38.83739,47.993957],[38.837745,47.993921],[38.838037,47.99389],[38.837939,47.993723],[38.837686,47.993746],[38.837318,47.993783],[38.836937,47.993819],[38.837031,47.99399]]]}},{"type":"Feature","properties":{"cadnum":"1414445900:01:000:0012"},"geometry":{"type":"Polygon","coordinates":[[[38.83696,47.9943],[38.83678,47.993897],[38.836756,47.99390042857142],[38.836756,47.9939],[38.836411,47.993948],[38.836584,47.99433135227273],[38.836584,47.994333],[38.836587,47.994338],[38.836756,47.994321],[38.836756,47.994320782841825],[38.83696,47.9943]]]}},{"type":"Feature","properties":{"cadnum":"1414445900:01:000:0024"},"geometry":{"type":"Polygon","coordinates":[[[38.839614,47.995006],[38.84004,47.994969],[38.840229,47.994951],[38.840189,47.994786],[38.840166,47.99478],[38.840009,47.994783],[38.83996,47.994783],[38.839581,47.994822],[38.839614,47.995006]]]}},{"type":"Feature","properties":{"cadnum":"1414445900:01:000:0011"},"geometry":{"type":"Polygon","coordinates":[[[38.841788,48.004385],[38.841212,48.004359],[38.839771,48.004557],[38.83975208,48.004568],[38.839752,48.004568],[38.83974576086942,48.00457167391313],[38.839556,48.004682],[38.839558402366855,48.004682],[38.839178,48.004906],[38.838841,48.004801],[38.838895,48.005005],[38.838499,48.005131],[38.838235,48.005158],[38.838285,48.005443],[38.838167,48.005606],[38.83814,48.005804],[38.838216,48.006249],[38.838163,48.006321],[38.838415,48.006345],[38.838895,48.006339],[38.839514,48.006514],[38.840139,48.006528],[38.840817,48.00651],[38.841293,48.006408],[38.84221,48.005615],[38.842128,48.004638],[38.841788,48.004385]]]}},{"type":"Feature","properties":{"cadnum":"1414445900:01:000:0028"},"geometry":{"type":"Polygon","coordinates":[[[38.847747,48.007271],[38.847847,48.007087],[38.847723234042455,48.00707270212765],[38.847546,48.007051],[38.84746,48.007234],[38.847388,48.0074],[38.84729,48.007619],[38.84755,48.007646],[38.847663,48.007439],[38.847742,48.007282],[38.847742,48.007281000000006],[38.847747,48.007271]]]}},{"type":"Feature","properties":{"cadnum":"1414445900:01:000:0030"},"geometry":{"type":"Polygon","coordinates":[[[38.847074,48.00636],[38.847187,48.005984],[38.847218,48.005879],[38.847281,48.005669],[38.847132,48.005648],[38.847042,48.005636],[38.846958,48.005955],[38.846854,48.006324],[38.847074,48.00636]]]}},{"type":"Feature","properties":{"cadnum":"1414445900:02:000:0017"},"geometry":{"type":"Polygon","coordinates":[[[38.814739,48.015365],[38.814492,48.015356],[38.814469,48.01553],[38.814452,48.015633],[38.814441,48.015707],[38.81444213333334,48.015707],[38.814412,48.015933],[38.814611,48.01593844140625],[38.814611,48.015939],[38.814668,48.01594],[38.8146956440678,48.015707],[38.814696,48.015707],[38.814703,48.015645],[38.814717,48.015543],[38.814739,48.015365]]]}},{"type":"Feature","properties":{"cadnum":"1414445900:02:000:0027"},"geometry":{"type":"Polygon","coordinates":[[[38.814783,48.01721850785341],[38.814802,48.01722],[38.814825,48.01697],[38.814856,48.016639],[38.814626399999874,48.01662306857142],[38.814573,48.016619],[38.814546,48.016958],[38.814523,48.017198],[38.814569,48.017202],[38.814609,48.017204],[38.814611,48.01720417241379],[38.814611,48.017205],[38.814718858823724,48.01721347058825],[38.814783,48.017219],[38.814783,48.01721850785341]]]}},{"type":"Feature","properties":{"cadnum":"1414445900:01:000:0115"},"geometry":{"type":"Polygon","coordinates":[[[38.830406,48.005119],[38.830406,48.005047],[38.830339,48.005047],[38.830339,48.005119],[38.830406,48.005119]]]}},{"type":"Feature","properties":{"cadnum":"1414445900:01:000:0029"},"geometry":{"type":"Polygon","coordinates":[[[38.828119,47.998843],[38.828169,47.998705],[38.828465,47.998705],[38.828574,47.998676],[38.828627,47.998179],[38.827769,47.998159],[38.827769,47.998192],[38.827895,47.998192],[38.827891,47.998375],[38.827985,47.998709],[38.828106,47.998709],[38.828065,47.998838],[38.828119,47.998843]]]}},{"type":"Feature","properties":{"cadnum":"1414445900:02:000:0024"},"geometry":{"type":"Polygon","coordinates":[[[38.817587,48.016454],[38.817601,48.016312],[38.817628,48.015993],[38.817339,48.015978],[38.817295,48.016294],[38.817278,48.016435],[38.817587,48.016454]]]}},{"type":"Feature","properties":{"cadnum":"1414445900:02:000:0013"},"geometry":{"type":"Polygon","coordinates":[[[38.817182,48.01682],[38.817209,48.016514],[38.817102,48.016505],[38.816815,48.01648],[38.816801,48.016679],[38.816792,48.016777],[38.817182,48.01682]]]}},{"type":"Feature","properties":{"cadnum":"1414445900:02:000:0018"},"geometry":{"type":"Polygon","coordinates":[[[38.81813,48.01691],[38.818153,48.016793],[38.818188,48.016615],[38.817919,48.016597],[38.817685,48.016583],[38.817654,48.016886],[38.81813,48.01691]]]}},{"type":"Feature","properties":{"cadnum":"1414445900:02:000:0004"},"geometry":{"type":"Polygon","coordinates":[[[38.815813,48.015585],[38.81584,48.015414],[38.815611,48.015401],[38.815593,48.015573],[38.81559058955224,48.015592],[38.81559,48.015592],[38.81558222440945,48.01565793700789],[38.815576,48.015707],[38.815576438679244,48.015707],[38.815565,48.015804],[38.815538,48.01606],[38.815731,48.016071],[38.815773,48.015813],[38.815812,48.015592],[38.81581168032787,48.015592],[38.815813,48.015585]]]}},{"type":"Feature","properties":{"cadnum":"1414445900:01:000:0008"},"geometry":{"type":"Polygon","coordinates":[[[38.857724,48.003971],[38.857715,48.003779],[38.857711,48.003728],[38.857705,48.003601],[38.857216,48.00361],[38.857221,48.003971],[38.857724,48.003971]]]}},{"type":"Feature","properties":{"cadnum":"1414445900:01:000:0035"},"geometry":{"type":"Polygon","coordinates":[[[38.857499,48.004566],[38.858168,48.004563],[38.858221,48.004563],[38.858217,48.004383],[38.857485,48.004385],[38.857216,48.004385],[38.857216,48.004566],[38.857499,48.004566]]]}},{"type":"Feature","properties":{"cadnum":"1414445900:01:000:0034"},"geometry":{"type":"Polygon","coordinates":[[[38.858168,48.004563],[38.857499,48.004566],[38.857216,48.004566],[38.857216,48.004568],[38.857216,48.004682],[38.857216,48.004743],[38.857504,48.00475],[38.858173,48.004764],[38.85817090816327,48.004682],[38.858171,48.004682],[38.858168,48.004563]]]}},{"type":"Feature","properties":{"cadnum":"1414445900:01:000:0009"},"geometry":{"type":"Polygon","coordinates":[[[38.858487,48.003977],[38.858464,48.00359],[38.857705,48.003601],[38.857711,48.003728],[38.857715,48.003779],[38.857724,48.003971],[38.858487,48.003977]]]}},{"type":"Feature","properties":{"cadnum":"1414445900:01:000:0031"},"geometry":{"type":"Polygon","coordinates":[[[38.838319,47.998408],[38.838535,47.998402],[38.838801,47.998396],[38.838985,47.998393],[38.838981,47.99821],[38.838801,47.998213],[38.838531,47.998219],[38.838311,47.998222],[38.838319,47.998408]]]}},{"type":"Feature","properties":{"cadnum":"1414445900:01:000:0033"},"geometry":{"type":"Polygon","coordinates":[[[38.837866,47.999778],[38.838109,47.999772],[38.838302,47.999767],[38.838315,47.999532],[38.83788,47.999532],[38.83788,47.999589],[38.837876,47.999616],[38.837876,47.999656],[38.837866,47.999778]]]}},{"type":"Feature","properties":{"cadnum":"1414445900:03:000:0003"},"geometry":{"type":"Polygon","coordinates":[[[38.816293,47.996452],[38.816518,47.996323],[38.816257,47.996139],[38.816069,47.996004],[38.815759,47.995784],[38.815718,47.995808],[38.815611,47.995868],[38.815704,47.995949],[38.81589,47.996103],[38.81606,47.99625],[38.816293,47.996452]]]}},{"type":"Feature","properties":{"cadnum":"1414445900:03:000:0004"},"geometry":{"type":"Polygon","coordinates":[[[38.816437,47.995898],[38.816769,47.995691],[38.816396,47.995394],[38.816186,47.995519],[38.816163,47.995535],[38.81605,47.995604],[38.816437,47.995898]]]}},{"type":"Feature","properties":{"cadnum":"1414445900:01:000:0006"},"geometry":{"type":"Polygon","coordinates":[[[38.855837,48.008542],[38.856326,48.008521],[38.856443,48.008515],[38.85656,48.008517],[38.856992,48.008526],[38.856996,48.008365],[38.856565,48.008367],[38.856322,48.00837],[38.855833,48.008374],[38.855837,48.008542]]]}},{"type":"Feature","properties":{"cadnum":"1414445900:02:000:0009"},"geometry":{"type":"Polygon","coordinates":[[[38.835612,48.011405],[38.835639,48.011102],[38.835661,48.010867],[38.835329,48.010849],[38.835306,48.011087],[38.835275,48.011394],[38.835612,48.011405]]]}},{"type":"Feature","properties":{"cadnum":"1414445900:03:000:0002"},"geometry":{"type":"Polygon","coordinates":[[[38.827243,47.996508],[38.827423,47.99647],[38.827352,47.996193],[38.827289,47.995947],[38.827073,47.996009],[38.827149,47.996232],[38.827243,47.996508]]]}},{"type":"Feature","properties":{"cadnum":"1414445900:01:000:0032"},"geometry":{"type":"Polygon","coordinates":[[[38.85091,48.006748],[38.850923,48.006411],[38.850933,48.006183],[38.850843,48.006167],[38.850604,48.006123],[38.850604,48.006694],[38.85091,48.006748]]]}},{"type":"Feature","properties":{"cadnum":"1414445900:02:000:0003"},"geometry":{"type":"Polygon","coordinates":[[[38.824813,48.014485],[38.825299,48.014458],[38.825289,48.014239],[38.824993,48.014251],[38.824792,48.014257],[38.8248,48.014347],[38.824813,48.014485]]]}},{"type":"Feature","properties":{"cadnum":"1414445900:02:000:0023"},"geometry":{"type":"Polygon","coordinates":[[[38.82088,48.015636],[38.820873,48.015707],[38.82087397575758,48.015707],[38.820866,48.015801],[38.820852,48.016042],[38.821297,48.016053],[38.821314,48.015819],[38.821324,48.015651],[38.82088,48.015636]]]}},{"type":"Feature","properties":{"cadnum":"1414445900:02:000:0010"},"geometry":{"type":"Polygon","coordinates":[[[38.822266,48.014506],[38.822568,48.014503],[38.822582,48.014356],[38.822591,48.014254],[38.822272,48.014257],[38.82202,48.014257],[38.822006,48.014506],[38.822266,48.014506]]]}},{"type":"Feature","properties":{"cadnum":"1414445900:02:000:0019"},"geometry":{"type":"Polygon","coordinates":[[[38.814465,48.013421],[38.814425,48.013527],[38.814402,48.013761],[38.814611,48.013765937007875],[38.814611,48.013767],[38.814928,48.013773],[38.814968,48.013428],[38.81476688304021,48.01342574658869],[38.814465,48.013421]]]}},{"type":"Feature","properties":{"cadnum":"1414445900:02:000:0008"},"geometry":{"type":"Polygon","coordinates":[[[38.832266,48.014044],[38.83226,48.013629],[38.83226,48.013517],[38.831906,48.013517],[38.83191,48.013632],[38.831928,48.01404],[38.832266,48.014044]]]}},{"type":"Feature","properties":{"cadnum":"1414445900:02:000:0016"},"geometry":{"type":"Polygon","coordinates":[[[38.831933,48.014764],[38.831924,48.014494],[38.831914,48.014302],[38.831645,48.014293],[38.831645,48.014755],[38.831933,48.014764]]]}},{"type":"Feature","properties":{"cadnum":"1414445900:02:000:0022"},"geometry":{"type":"Polygon","coordinates":[[[38.825335,48.018004],[38.825335,48.017421],[38.825039,48.017372],[38.825029,48.01777],[38.82502,48.017971],[38.825335,48.018004]]]}},{"type":"Feature","properties":{"cadnum":"1414445900:01:000:0026"},"geometry":{"type":"Polygon","coordinates":[[[38.857787,48.007006],[38.857787,48.006628],[38.857301,48.006637],[38.857301,48.00679],[38.857305,48.007006],[38.857787,48.007006]]]}},{"type":"Feature","properties":{"cadnum":"1414445900:01:000:0013"},"geometry":{"type":"Polygon","coordinates":[[[38.857009,48.00679],[38.857009,48.006606],[38.855999,48.006588],[38.855999,48.006763],[38.857009,48.00679]]]}},{"type":"Feature","properties":{"cadnum":"1414445900:01:000:0010"},"geometry":{"type":"Polygon","coordinates":[[[38.857715,48.006156],[38.857719,48.005819],[38.857428,48.005801],[38.857189,48.005808],[38.857189,48.006147],[38.857432,48.006149],[38.857715,48.006156]]]}},{"type":"Feature","properties":{"cadnum":"1414445900:01:000:0023"},"geometry":{"type":"Polygon","coordinates":[[[38.855846,48.006919],[38.855846,48.007078],[38.857009,48.007078],[38.857009,48.006925],[38.856569,48.006922],[38.856453,48.006922],[38.855846,48.006919]]]}},{"type":"Feature","properties":{"cadnum":"1414445900:01:000:0025"},"geometry":{"type":"Polygon","coordinates":[[[38.855177,48.008061],[38.855177,48.007325],[38.854934,48.007325],[38.854934,48.007544],[38.85493,48.00773],[38.85493,48.008058],[38.855177,48.008061]]]}},{"type":"Feature","properties":{"cadnum":"1414445900:01:000:0036"},"geometry":{"type":"Polygon","coordinates":[[[38.857014,48.005347],[38.857028,48.005035],[38.856812,48.005029],[38.856736,48.005029],[38.856672,48.005026],[38.856449,48.005023],[38.856449,48.005338],[38.856609,48.005341],[38.856677,48.005341],[38.856732,48.005345],[38.857014,48.005347]]]}},{"type":"Feature","properties":{"cadnum":"1414445900:02:000:0014"},"geometry":{"type":"Polygon","coordinates":[[[38.819616,48.015405],[38.819616,48.014792],[38.819329,48.014789],[38.819325,48.015077],[38.81932,48.015212],[38.819316,48.015401],[38.819616,48.015405]]]}},{"type":"Feature","properties":{"cadnum":"1414445900:02:000:0020"},"geometry":{"type":"Polygon","coordinates":[[[38.818907,48.01414],[38.818894,48.013638],[38.818886,48.01347],[38.818611,48.01347],[38.81862,48.013644],[38.818647,48.01414],[38.818907,48.01414]]]}},{"type":"Feature","properties":{"cadnum":"1414445900:02:000:0015"},"geometry":{"type":"Polygon","coordinates":[[[38.816962,48.015321],[38.816976,48.015059],[38.816989,48.014815],[38.816626,48.014824],[38.816612,48.015047],[38.816608,48.015143],[38.816594,48.015309],[38.816859,48.015318],[38.816962,48.015321]]]}},{"type":"Feature","properties":{"cadnum":"1414445900:02:000:0026"},"geometry":{"type":"Polygon","coordinates":[[[38.826431,48.014695],[38.826696,48.014686],[38.8267,48.014492],[38.826704,48.014227],[38.826435,48.01423],[38.826435,48.014414],[38.826431,48.014492],[38.826431,48.014695]]]}},{"type":"Feature","properties":{"cadnum":"1414445900:02:000:0007"},"geometry":{"type":"Polygon","coordinates":[[[38.830396,48.014773],[38.830756,48.014762],[38.830769,48.014407],[38.830774,48.014272],[38.830396,48.014283],[38.830396,48.014773]]]}},{"type":"Feature","properties":{"cadnum":"1414445900:02:000:0021"},"geometry":{"type":"Polygon","coordinates":[[[38.8301,48.012599],[38.830105,48.012388],[38.830105,48.01222],[38.830109,48.012049],[38.82983,48.012049],[38.82983,48.012391],[38.829826,48.012592],[38.8301,48.012599]]]}},{"type":"Feature","properties":{"cadnum":"1414445900:02:000:0025"},"geometry":{"type":"Polygon","coordinates":[[[38.826174,48.014702],[38.826431,48.014695],[38.826431,48.014492],[38.826435,48.014414],[38.826435,48.01423],[38.826166,48.01423],[38.82617,48.014414],[38.82617,48.014497],[38.826174,48.014702]]]}}]}