{"type":"FeatureCollection","features":[{"type":"Feature","properties":{"cadnum":"1415070600:01:004:0017"},"geometry":{"type":"Polygon","coordinates":[[[38.242422,48.019283],[38.242081,48.019382],[38.24231,48.019605],[38.242642,48.019482],[38.242675,48.019409],[38.24290327272728,48.019382],[38.242905,48.019382],[38.243047,48.019365],[38.243106,48.019382],[38.24310846153846,48.019382],[38.243141,48.019391],[38.243322,48.0198673427762],[38.243322,48.019869],[38.24351,48.020362],[38.24452,48.020106],[38.24585236710369,48.019382],[38.245853,48.019382],[38.247493,48.01849],[38.24647,48.018058],[38.246038,48.017875],[38.245122,48.018403],[38.244556,48.01865],[38.244489,48.018623],[38.244237,48.018706],[38.243778,48.018817],[38.243322,48.018974],[38.243322,48.01897404477612],[38.242422,48.019283]]]}},{"type":"Feature","properties":{"cadnum":"1415070600:01:005:0041"},"geometry":{"type":"Polygon","coordinates":[[[38.259701,48.009954],[38.259802,48.009983967032966],[38.259802,48.009984],[38.260986,48.010336],[38.261336,48.009762],[38.260623,48.00957],[38.260452,48.009837],[38.259877,48.009672],[38.259701,48.009954]]]}},{"type":"Feature","properties":{"cadnum":"1415070600:01:005:0016"},"geometry":{"type":"Polygon","coordinates":[[[38.248648,48.013548],[38.248728,48.013334],[38.248711,48.013328],[38.248791,48.013085],[38.246896,48.012637],[38.246627,48.013211],[38.247619,48.013392],[38.248082,48.013461],[38.248279,48.01349],[38.248527,48.013527],[38.24863,48.013545],[38.248648,48.013548]]]}}]}