{"type":"FeatureCollection","features":[{"type":"Feature","properties":{"cadnum":"1420386603:00:000:0018"},"geometry":{"type":"Polygon","coordinates":[[[36.740466,48.690844],[36.740332,48.690612],[36.73925,48.690891],[36.73925876984127,48.690904],[36.739258,48.690904],[36.739304537572195,48.690971843930555],[36.739335,48.691017],[36.73933551239669,48.691017],[36.739424,48.691146],[36.740261,48.690904],[36.74025894797686,48.690904],[36.740466,48.690844]]]}},{"type":"Feature","properties":{"cadnum":"1420386603:00:000:0017"},"geometry":{"type":"Polygon","coordinates":[[[36.740466,48.690844],[36.741701,48.690485],[36.741562,48.690296],[36.740332,48.690612],[36.740466,48.690844]]]}},{"type":"Feature","properties":{"cadnum":"1420386603:00:000:0014"},"geometry":{"type":"Polygon","coordinates":[[[36.755607,48.693451],[36.755809,48.693332],[36.755028,48.692412],[36.754817,48.692519],[36.755307,48.693128],[36.755607,48.693451]]]}},{"type":"Feature","properties":{"cadnum":"1420386603:00:000:0008"},"geometry":{"type":"Polygon","coordinates":[[[36.744563,48.694577],[36.74434,48.694643],[36.74434283206108,48.694643],[36.74386,48.69478773913044],[36.74386,48.694787],[36.743512,48.694891],[36.743689,48.695039706319704],[36.743689,48.69504],[36.743781,48.695117],[36.74386,48.695094],[36.74386,48.695093250000006],[36.744729,48.694832],[36.74460596470588,48.694643],[36.744606,48.694643],[36.744563,48.694577]]]}},{"type":"Feature","properties":{"cadnum":"1420386603:00:000:0007"},"geometry":{"type":"Polygon","coordinates":[[[36.744697,48.691155],[36.744603,48.691016],[36.74379047885321,48.69121601888187],[36.742802,48.691458],[36.742901,48.691603],[36.743689,48.691406616266946],[36.743689,48.691407],[36.744697,48.691155]]]}},{"type":"Feature","properties":{"cadnum":"1420386603:00:000:0012"},"geometry":{"type":"Polygon","coordinates":[[[36.742483,48.693264],[36.742892,48.693145],[36.743462,48.692991],[36.743282,48.692726],[36.742693,48.69289],[36.742299,48.693003],[36.742483,48.693264]]]}},{"type":"Feature","properties":{"cadnum":"1420386603:00:000:0013"},"geometry":{"type":"Polygon","coordinates":[[[36.741181,48.69364],[36.742483,48.693264],[36.742299,48.693003],[36.74101,48.693374],[36.741181,48.69364]]]}},{"type":"Feature","properties":{"cadnum":"1420386603:00:000:0016"},"geometry":{"type":"Polygon","coordinates":[[[36.751938,48.69402],[36.751385,48.694153],[36.751580424489795,48.69453],[36.75158,48.69453],[36.7517,48.694761],[36.75232,48.694598],[36.751938,48.69402]]]}},{"type":"Feature","properties":{"cadnum":"1420386603:00:000:0015"},"geometry":{"type":"Polygon","coordinates":[[[36.751915,48.695172],[36.752594,48.69501],[36.75232,48.694598],[36.7517,48.694761],[36.751915,48.695172]]]}},{"type":"Feature","properties":{"cadnum":"1420386603:00:000:0009"},"geometry":{"type":"Polygon","coordinates":[[[36.743781,48.695117],[36.743512,48.694891],[36.742689,48.695134],[36.742856,48.695392],[36.743689,48.69514435135135],[36.743689,48.695145],[36.743781,48.695117]]]}},{"type":"Feature","properties":{"cadnum":"1420386603:00:000:0010"},"geometry":{"type":"Polygon","coordinates":[[[36.753681,48.694586],[36.753978,48.694476],[36.754197,48.694381],[36.75386,48.693928],[36.753666,48.693993],[36.753353,48.694121],[36.753681,48.694586]]]}},{"type":"Feature","properties":{"cadnum":"1420386603:00:000:0011"},"geometry":{"type":"Polygon","coordinates":[[[36.754197,48.694381],[36.754282,48.694343],[36.754054,48.693937],[36.754467,48.693806],[36.754071,48.693234],[36.753066,48.69361],[36.753362,48.694073],[36.753353,48.694121],[36.753666,48.693993],[36.75386,48.693928],[36.754197,48.694381]]]}},{"type":"Feature","properties":{"cadnum":"1420386603:00:000:0005"},"geometry":{"type":"Polygon","coordinates":[[[36.745183,48.694888],[36.745353,48.694832],[36.745272,48.694722],[36.745102,48.694776],[36.745183,48.694888]]]}}]}