{"type":"FeatureCollection","features":[{"type":"Feature","properties":{"cadnum":"1420381003:00:000:0076"},"geometry":{"type":"Polygon","coordinates":[[[36.993338,48.687218],[36.992929,48.687183],[36.992902788461535,48.687277],[36.992902,48.687277],[36.992682,48.688084],[36.993162,48.688104],[36.993322851658135,48.68729287608979],[36.993338,48.687218]]]}},{"type":"Feature","properties":{"cadnum":"1420381003:00:000:0037"},"geometry":{"type":"Polygon","coordinates":[[[36.991734,48.687192],[36.991833,48.686722],[36.991793,48.686302],[36.991501,48.686302],[36.991401,48.687161],[36.991734,48.687192]]]}},{"type":"Feature","properties":{"cadnum":"1420381003:00:000:0038"},"geometry":{"type":"Polygon","coordinates":[[[36.991734,48.687192],[36.991401,48.687161],[36.991388,48.687262],[36.99138613953488,48.687277],[36.991385,48.687277],[36.991311,48.687909],[36.991568,48.687956],[36.991705325842716,48.68732168539317],[36.991734,48.687192]]]}},{"type":"Feature","properties":{"cadnum":"1420381003:00:000:0075"},"geometry":{"type":"Polygon","coordinates":[[[36.993338,48.687218],[36.993409,48.68685],[36.993504,48.686435],[36.993139,48.686405],[36.992929,48.687183],[36.993338,48.687218]]]}},{"type":"Feature","properties":{"cadnum":"1420381003:00:000:0026"},"geometry":{"type":"Polygon","coordinates":[[[36.971639,48.686551],[36.971629,48.686435],[36.97158,48.6857],[36.971499,48.685691],[36.971109,48.685702],[36.970857,48.685786],[36.97013,48.685783],[36.969838,48.685738],[36.969564,48.68567],[36.969299,48.685664],[36.969128,48.685741],[36.969012,48.68588],[36.968953,48.686361],[36.968935,48.686631],[36.968926,48.686773],[36.971639,48.686551]],[[36.971077,48.686581],[36.97109,48.686563],[36.971117,48.686572],[36.971104,48.68659],[36.971077,48.686581]],[[36.970241,48.68664],[36.970251,48.686625],[36.970278,48.686634],[36.970264,48.686649],[36.970241,48.68664]],[[36.969375,48.686702],[36.969388,48.686687],[36.969411,48.686696],[36.969398,48.686711],[36.969375,48.686702]]]}},{"type":"Feature","properties":{"cadnum":"1420381003:00:000:0040"},"geometry":{"type":"Polygon","coordinates":[[[36.98735,48.683656],[36.98739,48.683238],[36.98704,48.683229],[36.986996,48.683645],[36.98735,48.683656]]]}},{"type":"Feature","properties":{"cadnum":"1420381003:00:000:0039"},"geometry":{"type":"Polygon","coordinates":[[[36.986996,48.683645],[36.98704,48.683229],[36.98669,48.683223],[36.98665,48.683636],[36.986996,48.683645]]]}},{"type":"Feature","properties":{"cadnum":"1420381003:00:000:0056"},"geometry":{"type":"Polygon","coordinates":[[[36.986277,48.683674],[36.986335,48.683256],[36.986038,48.683241],[36.98599,48.683656],[36.986277,48.683674]]]}},{"type":"Feature","properties":{"cadnum":"1420381003:00:000:0074"},"geometry":{"type":"Polygon","coordinates":[[[36.987535,48.683188],[36.987539,48.683128],[36.987552,48.683001],[36.986793,48.682963],[36.98678,48.683096],[36.986776,48.683161],[36.987535,48.683188]],[[36.986824,48.683013],[36.986824,48.682995],[36.986852,48.682992],[36.986852,48.68301],[36.986824,48.683013]]]}},{"type":"Feature","properties":{"cadnum":"1420381003:00:000:0055"},"geometry":{"type":"Polygon","coordinates":[[[36.983973,48.68285],[36.983973,48.682889],[36.982975,48.682847],[36.98209,48.682803],[36.981399,48.682776],[36.981413,48.682862],[36.981449,48.682989],[36.983793,48.683054],[36.985388,48.683112706115516],[36.985388,48.683113],[36.986488,48.683152],[36.986488,48.683082],[36.986493,48.682948],[36.985388,48.682905],[36.985388,48.682905315258516],[36.983973,48.68285]],[[36.985378,48.682927],[36.985388,48.68292588888889],[36.985388,48.682926],[36.985405,48.682924],[36.985409,48.682942],[36.985382,48.682945],[36.985378,48.682927]],[[36.98465,48.682904],[36.984673,48.682897],[36.984696,48.682957],[36.984673,48.682963],[36.98465,48.682904]],[[36.986137,48.682963],[36.986142,48.682981],[36.986111,48.682981],[36.986111,48.682963],[36.986137,48.682963]]]}},{"type":"Feature","properties":{"cadnum":"1420381003:00:000:0027"},"geometry":{"type":"Polygon","coordinates":[[[36.970323,48.687254],[36.97031,48.686735],[36.97031,48.686702],[36.969734,48.686752],[36.96973,48.686776],[36.969615,48.687391],[36.969615105960266,48.687391],[36.969608,48.687428],[36.969801,48.687506],[36.970125,48.687565],[36.970147,48.687775],[36.970337,48.68777],[36.97032520045558,48.68735448747148],[36.970323,48.687254]]]}},{"type":"Feature","properties":{"cadnum":"1420381003:00:000:0018"},"geometry":{"type":"Polygon","coordinates":[[[36.970903,48.687238],[36.970323,48.687254],[36.97032350364964,48.687277],[36.970323,48.687277],[36.970325379310346,48.68736265517236],[36.970326,48.687391],[36.970326166666666,48.687391],[36.970337,48.687781],[36.970907,48.68777],[36.970907,48.687733],[36.970903,48.687277],[36.970903,48.687238]]]}},{"type":"Feature","properties":{"cadnum":"1420381003:00:000:0019"},"geometry":{"type":"Polygon","coordinates":[[[36.970323,48.687254],[36.970903,48.687238],[36.970897,48.686672],[36.97031,48.686684],[36.970323,48.687254]]]}},{"type":"Feature","properties":{"cadnum":"1420381003:00:000:0016"},"geometry":{"type":"Polygon","coordinates":[[[36.985559,48.6872605472973],[36.985832,48.687271],[36.985904,48.686794],[36.9854267000003,48.68676255000002],[36.985321,48.686755],[36.985244,48.687247],[36.985388,48.687253399999996],[36.985388,48.687254],[36.9854854634152,48.68725773170734],[36.985559,48.687261],[36.985559,48.6872605472973]]]}},{"type":"Feature","properties":{"cadnum":"1420381003:00:000:0015"},"geometry":{"type":"Polygon","coordinates":[[[36.985559,48.68677126744186],[36.985904,48.686794],[36.985975,48.686275],[36.985409,48.686227],[36.985321,48.686755],[36.985388,48.68675978571429],[36.985388,48.68676],[36.9854267000003,48.68676255000002],[36.985559,48.686772],[36.985559,48.68677126744186]]]}},{"type":"Feature","properties":{"cadnum":"1420381003:00:000:0035"},"geometry":{"type":"Polygon","coordinates":[[[36.986703,48.684712],[36.986736,48.684303],[36.986294,48.68428],[36.986264,48.684695],[36.986703,48.684712]]]}},{"type":"Feature","properties":{"cadnum":"1420381003:00:000:0017"},"geometry":{"type":"Polygon","coordinates":[[[36.980335,48.68696],[36.980357,48.686458],[36.980066,48.6864813051948],[36.980066,48.686481],[36.979778,48.686504],[36.97971,48.687025],[36.979895,48.687005772471906],[36.979895,48.687007],[36.980335,48.68696]]]}},{"type":"Feature","properties":{"cadnum":"1420381003:00:000:0012"},"geometry":{"type":"Polygon","coordinates":[[[36.984476,48.686761],[36.984583,48.686153],[36.98408,48.686111],[36.983986,48.686722],[36.984476,48.686761]]]}},{"type":"Feature","properties":{"cadnum":"1420381003:00:000:0011"},"geometry":{"type":"Polygon","coordinates":[[[36.984382,48.687322],[36.984476,48.686761],[36.983986,48.686722],[36.983901,48.687283],[36.984382,48.687322]]]}},{"type":"Feature","properties":{"cadnum":"1420381003:00:000:0006"},"geometry":{"type":"Polygon","coordinates":[[[36.975883,48.686954],[36.975803,48.686812],[36.975304,48.686856],[36.975356,48.687391],[36.97535779310345,48.687391],[36.975358,48.687393],[36.975946,48.687339],[36.975936,48.687277],[36.975935854545455,48.687277],[36.975883,48.686954]]]}},{"type":"Feature","properties":{"cadnum":"1420381003:00:000:0023"},"geometry":{"type":"Polygon","coordinates":[[[36.976072,48.688475],[36.976216,48.688164],[36.97569,48.688155],[36.97565,48.688466],[36.976072,48.688475]]]}},{"type":"Feature","properties":{"cadnum":"1420381003:00:000:0022"},"geometry":{"type":"Polygon","coordinates":[[[36.976216,48.688164],[36.976382,48.687817],[36.976243,48.687817],[36.976243,48.687761],[36.976044,48.687757],[36.976063,48.687487],[36.97578,48.687511],[36.97569,48.688155],[36.976216,48.688164]]]}},{"type":"Feature","properties":{"cadnum":"1420381003:00:000:0005"},"geometry":{"type":"Polygon","coordinates":[[[36.975304,48.686856],[36.975803,48.686812],[36.975645,48.686539],[36.97556,48.686287],[36.975245,48.686266],[36.975304,48.686856]]]}},{"type":"Feature","properties":{"cadnum":"1420381003:00:000:0024"},"geometry":{"type":"Polygon","coordinates":[[[36.976157,48.6873],[36.976629,48.687298],[36.977015,48.686423],[36.976162,48.686423],[36.976157,48.6873]]]}},{"type":"Feature","properties":{"cadnum":"1420381003:00:000:0970"},"geometry":{"type":"Polygon","coordinates":[[[36.968226,48.689284],[36.968302,48.688443],[36.966878,48.688401],[36.966788,48.689264],[36.968226,48.689284]]]}},{"type":"Feature","properties":{"cadnum":"1420381003:00:000:0025"},"geometry":{"type":"Polygon","coordinates":[[[36.968908,48.69075826666666],[36.968908,48.690759],[36.969028108108375,48.69070221621609],[36.96908,48.690678],[36.96908,48.69067768316832],[36.969312,48.690568],[36.969721,48.690218],[36.969891,48.689596],[36.96908,48.68945904577823],[36.96908,48.689459],[36.968633,48.689383],[36.967471,48.689344],[36.967404,48.689851],[36.96831,48.690559],[36.96875,48.690832],[36.968908,48.69075826666666]]]}},{"type":"Feature","properties":{"cadnum":"1420381003:00:000:0034"},"geometry":{"type":"Polygon","coordinates":[[[36.970013,48.687971],[36.969096,48.688034],[36.968908,48.688722],[36.968908,48.68872258490566],[36.968868,48.688869],[36.96845,48.688831],[36.968337,48.689329],[36.968647,48.689338],[36.96900629787308,48.68940272340439],[36.969568,48.689504],[36.970013,48.687971]]]}},{"type":"Feature","properties":{"cadnum":"1420381003:00:000:0033"},"geometry":{"type":"Polygon","coordinates":[[[36.970687,48.688618],[36.970893,48.687911],[36.970421,48.687944],[36.970237,48.688552],[36.970687,48.688618]]]}},{"type":"Feature","properties":{"cadnum":"1420381003:00:000:0036"},"geometry":{"type":"Polygon","coordinates":[[[36.969924,48.689587],[36.970228,48.689548],[36.970574,48.689243],[36.971104,48.68905],[36.971306,48.688466],[36.97075,48.688392],[36.970687,48.688618],[36.970237,48.688552],[36.969924,48.689587]]]}},{"type":"Feature","properties":{"cadnum":"1420381003:00:000:0004"},"geometry":{"type":"Polygon","coordinates":[[[36.972918,48.687515],[36.972928,48.687387],[36.972775,48.687384],[36.972771,48.687509],[36.972918,48.687515]]]}},{"type":"Feature","properties":{"cadnum":"1420381003:00:000:0031"},"geometry":{"type":"Polygon","coordinates":[[[36.974078,48.688425],[36.974222,48.687633],[36.973772,48.687665],[36.973732,48.68841],[36.974078,48.688425]]]}}]}