{"type":"FeatureCollection","features":[{"type":"Feature","properties":{"cadnum":"1420382201:00:000:0035"},"geometry":{"type":"Polygon","coordinates":[[[37.040203,48.7995],[37.039753,48.79948],[37.0397424375,48.799571],[37.039741,48.799571],[37.03974,48.799592],[37.039767,48.799592],[37.039843,48.799595],[37.039834,48.799684],[37.03983447872341,48.799684],[37.039834,48.799689],[37.03983,48.799734],[37.040176,48.799752],[37.040187032258075,48.79964690322568],[37.040203,48.7995]]]}},{"type":"Feature","properties":{"cadnum":"1420382201:00:000:0034"},"geometry":{"type":"Polygon","coordinates":[[[37.039654,48.799838],[37.039664,48.799717],[37.039398,48.799704],[37.03939,48.799825],[37.039654,48.799838]]]}},{"type":"Feature","properties":{"cadnum":"1420382201:00:000:0036"},"geometry":{"type":"Polygon","coordinates":[[[37.076903,48.76707],[37.076886,48.76699],[37.076871,48.766945],[37.076714,48.766963],[37.07672111111111,48.766995],[37.076721,48.766995],[37.076724,48.767008],[37.076747,48.767087],[37.076903,48.76707]]]}},{"type":"Feature","properties":{"cadnum":"1420382201:00:000:0041"},"geometry":{"type":"Polygon","coordinates":[[[37.077011,48.767058],[37.076993,48.76698],[37.076984,48.766949],[37.076877,48.76696],[37.076886,48.76699],[37.0768870625,48.766995],[37.076886,48.766995],[37.076903,48.76707],[37.077011,48.767058]]]}},{"type":"Feature","properties":{"cadnum":"1420382201:00:000:0047"},"geometry":{"type":"Polygon","coordinates":[[[37.076688,48.767093],[37.07667,48.767013],[37.076665,48.766995],[37.07666468181818,48.766995],[37.076657,48.766969],[37.076603,48.766975],[37.076606636363636,48.766995],[37.076606,48.766995],[37.076611,48.767019],[37.076634,48.767099],[37.076688,48.767093]]]}},{"type":"Feature","properties":{"cadnum":"1420382201:00:000:0060"},"geometry":{"type":"Polygon","coordinates":[[[37.077582,48.769545],[37.077949,48.76953],[37.077945,48.769492],[37.077913,48.769492],[37.077913,48.76945],[37.077936,48.769423],[37.077932,48.769376],[37.077919,48.769233],[37.077905,48.769233],[37.07755,48.769248],[37.077559,48.769352],[37.077569,48.769423],[37.077582,48.769545]]]}},{"type":"Feature","properties":{"cadnum":"1420382201:00:000:0046"},"geometry":{"type":"Polygon","coordinates":[[[37.076747,48.767087],[37.076724,48.767008],[37.076714,48.766963],[37.076657,48.766969],[37.07667,48.767013],[37.076688,48.767093],[37.076747,48.767087]]]}},{"type":"Feature","properties":{"cadnum":"1420382201:00:000:0042"},"geometry":{"type":"Polygon","coordinates":[[[37.077114,48.767049],[37.077097,48.766969],[37.077087,48.766936],[37.076984,48.766949],[37.076993,48.76698],[37.076996461538464,48.766995],[37.076996,48.766995],[37.077011,48.767058],[37.077114,48.767049]]]}},{"type":"Feature","properties":{"cadnum":"1420382201:00:000:0045"},"geometry":{"type":"Polygon","coordinates":[[[37.077573,48.766999],[37.077735,48.76698],[37.077712,48.766886],[37.077703,48.766857],[37.077542,48.766874],[37.07755,48.766901],[37.077573,48.766999]]]}},{"type":"Feature","properties":{"cadnum":"1420382201:00:000:0048"},"geometry":{"type":"Polygon","coordinates":[[[37.077707,48.766853],[37.077919,48.76685],[37.077919,48.76678],[37.077707,48.766782],[37.077707,48.766853]]]}},{"type":"Feature","properties":{"cadnum":"1420382201:00:000:0049"},"geometry":{"type":"Polygon","coordinates":[[[37.077443,48.767013],[37.077573,48.766999],[37.07755,48.766901],[37.077542,48.766874],[37.07741,48.766889],[37.077424,48.766936],[37.077443,48.767013]]]}},{"type":"Feature","properties":{"cadnum":"1420382201:00:000:0068"},"geometry":{"type":"Polygon","coordinates":[[[37.07888454929542,48.77329846478875],[37.078943,48.773296],[37.078943,48.77329559016393],[37.078955,48.773295],[37.0791,48.77329],[37.079095,48.773106],[37.079081,48.772564],[37.079081,48.772505],[37.078881058827065,48.77251211764693],[37.078592,48.772522],[37.078611,48.77331],[37.078772,48.77330321084337],[37.078772,48.773304],[37.07888454929542,48.77329846478875]]]}},{"type":"Feature","properties":{"cadnum":"1420382201:00:000:0069"},"geometry":{"type":"Polygon","coordinates":[[[37.079081,48.772564],[37.079494,48.772558],[37.0795,48.772191],[37.0795,48.771827],[37.079064,48.771853],[37.079081,48.772505],[37.079081,48.772564]]]}},{"type":"Feature","properties":{"cadnum":"1420382201:00:000:0067"},"geometry":{"type":"Polygon","coordinates":[[[37.078881058827065,48.77251211764693],[37.078943,48.77251],[37.078943,48.77250991262136],[37.079081,48.772505],[37.079064,48.771853],[37.07890105357129,48.77186471875001],[37.078619,48.771883],[37.078588,48.772307],[37.078592,48.772522],[37.078772,48.772515846153844],[37.078772,48.772516],[37.078881058827065,48.77251211764693]]]}},{"type":"Feature","properties":{"cadnum":"1420382201:00:000:0070"},"geometry":{"type":"Polygon","coordinates":[[[37.0791,48.77329],[37.079248,48.773283],[37.07949,48.772999],[37.079494,48.772579],[37.079494,48.772558],[37.079081,48.772564],[37.079095,48.773106],[37.0791,48.77329]]]}},{"type":"Feature","properties":{"cadnum":"1420382201:00:000:0062"},"geometry":{"type":"Polygon","coordinates":[[[37.073624,48.774091],[37.073615,48.77405],[37.073477,48.773304],[37.07345,48.773306170854276],[37.07345,48.773306],[37.073175,48.773328],[37.073278,48.77387203355706],[37.073278,48.773875],[37.073324,48.774115],[37.07345,48.774105],[37.07345,48.77410492],[37.073624,48.774091]]]}},{"type":"Feature","properties":{"cadnum":"1420382201:00:000:0031"},"geometry":{"type":"Polygon","coordinates":[[[37.070827,48.773262],[37.071261,48.773224],[37.071185,48.772816],[37.071074,48.772525],[37.070718,48.772558],[37.070732,48.772857],[37.070827,48.773262]]]}},{"type":"Feature","properties":{"cadnum":"1420382201:00:000:0064"},"geometry":{"type":"Polygon","coordinates":[[[37.072986,48.774192],[37.073332,48.774159],[37.073324,48.774115],[37.073175,48.773328],[37.073054,48.772674],[37.072718,48.772718],[37.072986,48.774192]]]}},{"type":"Feature","properties":{"cadnum":"1420382201:00:000:0028"},"geometry":{"type":"Polygon","coordinates":[[[37.072353,48.770261],[37.072007,48.770278],[37.072027,48.770729],[37.07202760992907,48.770729],[37.072043,48.771039],[37.072358,48.771037],[37.072366,48.77103],[37.072372,48.771022],[37.07236359677419,48.77071184457457],[37.072353,48.770261]]]}},{"type":"Feature","properties":{"cadnum":"1420382201:00:000:0032"},"geometry":{"type":"Polygon","coordinates":[[[37.071261,48.773224],[37.070827,48.773262],[37.071084,48.774349],[37.07108541911765,48.774349],[37.071091,48.774372],[37.071464,48.77434],[37.071261,48.773224]]]}},{"type":"Feature","properties":{"cadnum":"1420382201:00:000:0061"},"geometry":{"type":"Polygon","coordinates":[[[37.073477,48.773304],[37.073458,48.773206],[37.073288,48.772303],[37.072986,48.772327],[37.073175,48.773328],[37.073278,48.77331976],[37.073278,48.77332],[37.073477,48.773304]]]}},{"type":"Feature","properties":{"cadnum":"1420382201:00:000:0030"},"geometry":{"type":"Polygon","coordinates":[[[37.069856,48.770383],[37.069515,48.770385],[37.06952305813954,48.770616],[37.069523,48.770616],[37.06952339748957,48.77062572803422],[37.069527,48.770729],[37.0695276172043,48.770729],[37.069542,48.771081],[37.069923,48.77106],[37.069879,48.770616],[37.06987822254335,48.770616],[37.069856,48.770383]]]}},{"type":"Feature","properties":{"cadnum":"1420382201:00:000:0050"},"geometry":{"type":"Polygon","coordinates":[[[37.07345,48.77316350588235],[37.073458,48.773206],[37.073773,48.77318],[37.073638,48.772268],[37.073288,48.772303],[37.07345,48.773164],[37.07345,48.77316350588235]]]}},{"type":"Feature","properties":{"cadnum":"1420382201:00:000:0072"},"geometry":{"type":"Polygon","coordinates":[[[37.067003,48.773558],[37.066519,48.773553],[37.0665,48.773872],[37.066483211740035,48.774236],[37.066483,48.774236],[37.06647,48.774521],[37.066973,48.7745],[37.066981,48.774236],[37.06698071428571,48.774236],[37.067003,48.773558]]]}},{"type":"Feature","properties":{"cadnum":"1420382201:00:000:0071"},"geometry":{"type":"Polygon","coordinates":[[[37.067003,48.773558],[37.067026,48.772893],[37.066554,48.772934],[37.066519,48.773553],[37.067003,48.773558]]]}},{"type":"Feature","properties":{"cadnum":"1420382201:00:000:0073"},"geometry":{"type":"Polygon","coordinates":[[[37.066357,48.766288],[37.066181,48.7663],[37.065831,48.766164],[37.065229,48.766214],[37.064713,48.766264],[37.06495,48.767109],[37.06495125,48.767109],[37.065091,48.767603],[37.065481,48.767736],[37.066783,48.767691],[37.066779,48.767671],[37.066573,48.766995],[37.066571425091354,48.766995],[37.066357,48.766288]]]}},{"type":"Feature","properties":{"cadnum":"1420382201:00:000:0059"},"geometry":{"type":"Polygon","coordinates":[[[37.079751,48.766995],[37.079751,48.766267],[37.079391,48.766267],[37.079403,48.767109],[37.07940435862069,48.767109],[37.079405,48.76714],[37.079751,48.767135],[37.079751,48.767109],[37.079751,48.766995]]]}},{"type":"Feature","properties":{"cadnum":"1420382201:00:000:0055"},"geometry":{"type":"Polygon","coordinates":[[[37.081427,48.766194],[37.081758,48.76619],[37.081754,48.765927],[37.081418,48.765933],[37.081427,48.766194]]]}},{"type":"Feature","properties":{"cadnum":"1420382201:00:000:0054"},"geometry":{"type":"Polygon","coordinates":[[[37.081785,48.767105],[37.081758,48.76619],[37.081427,48.766194],[37.081452,48.767109],[37.08145393103448,48.767109],[37.081454,48.767111],[37.08156433333347,48.767109],[37.081595,48.767109],[37.081785,48.767105]]]}},{"type":"Feature","properties":{"cadnum":"1420382201:00:000:0056"},"geometry":{"type":"Polygon","coordinates":[[[37.082639,48.767093],[37.082743,48.765918],[37.082454,48.76592],[37.08253261394558,48.766995],[37.082532,48.766995],[37.08254,48.767096],[37.082639,48.767093]]]}},{"type":"Feature","properties":{"cadnum":"1420382201:00:000:0065"},"geometry":{"type":"Polygon","coordinates":[[[37.080758,48.766225],[37.080416,48.766225],[37.08042,48.766853],[37.0804244375,48.766995],[37.080424,48.766995],[37.08042669230767,48.767067153845495],[37.080428,48.767109],[37.08042825373135,48.767109],[37.080429,48.767129],[37.080762,48.767123],[37.08076,48.766995],[37.08075974208145,48.766995],[37.080758,48.766225]]]}},{"type":"Feature","properties":{"cadnum":"1420382201:00:000:0066"},"geometry":{"type":"Polygon","coordinates":[[[37.080758,48.766225],[37.080752,48.765971],[37.080416,48.765968],[37.080416,48.766225],[37.080758,48.766225]]]}},{"type":"Feature","properties":{"cadnum":"1420382201:00:000:0053"},"geometry":{"type":"Polygon","coordinates":[[[37.068078,48.76931],[37.068059,48.76854],[37.067785,48.768543],[37.067785,48.76854319444444],[37.067669,48.768544],[37.067673,48.769314],[37.067957,48.769312],[37.067957,48.76931123890785],[37.068078,48.76931]]]}},{"type":"Feature","properties":{"cadnum":"1420382201:00:000:0044"},"geometry":{"type":"Polygon","coordinates":[[[37.074603,48.773964],[37.074919,48.773955],[37.074815,48.773002],[37.074464,48.773029],[37.074603,48.773964]]]}},{"type":"Feature","properties":{"cadnum":"1420382201:00:000:0043"},"geometry":{"type":"Polygon","coordinates":[[[37.074464,48.773029],[37.074815,48.773002],[37.074725,48.772176],[37.074339,48.772206],[37.074464,48.773029]]]}},{"type":"Feature","properties":{"cadnum":"1420382201:00:000:0051"},"geometry":{"type":"Polygon","coordinates":[[[37.073615,48.77405],[37.073903,48.774023],[37.073773,48.77318],[37.073458,48.773206],[37.073615,48.77405]]]}},{"type":"Feature","properties":{"cadnum":"1420382201:00:000:0052"},"geometry":{"type":"Polygon","coordinates":[[[37.070225,48.76924],[37.070198,48.768411],[37.069873,48.768413],[37.069856,48.76924],[37.070225,48.76924]]]}},{"type":"Feature","properties":{"cadnum":"1420382201:00:000:0027"},"geometry":{"type":"Polygon","coordinates":[[[37.072007,48.770278],[37.072353,48.770261],[37.07234,48.769405],[37.071972,48.769423],[37.072007,48.770278]]]}},{"type":"Feature","properties":{"cadnum":"1420382201:00:000:0029"},"geometry":{"type":"Polygon","coordinates":[[[37.069515,48.770385],[37.069856,48.770383],[37.069766,48.769455],[37.069447,48.769459],[37.069447,48.769841],[37.069497,48.769841],[37.069515,48.770385]]]}},{"type":"Feature","properties":{"cadnum":"1420382201:00:000:0033"},"geometry":{"type":"Polygon","coordinates":[[[37.070265,48.769218],[37.070628,48.769216],[37.070539,48.768461],[37.070202,48.768393],[37.070265,48.769218]]]}},{"type":"Feature","properties":{"cadnum":"1420382201:00:000:0037"},"geometry":{"type":"Polygon","coordinates":[[[37.081305,48.768884],[37.081565,48.768873],[37.081467,48.767706],[37.081202,48.767715],[37.081305,48.768884]]]}}]}