{"type":"FeatureCollection","features":[{"type":"Feature","properties":{"cadnum":"1420384401:00:000:0041"},"geometry":{"type":"Polygon","coordinates":[[[36.825411,48.59917],[36.825218,48.59928],[36.825491,48.600282],[36.82549103333333,48.600282],[36.825509,48.600348],[36.825739,48.600316],[36.825696,48.600168],[36.825695501798556,48.600168],[36.825411,48.59917]]]}},{"type":"Feature","properties":{"cadnum":"1420384401:00:000:0040"},"geometry":{"type":"Polygon","coordinates":[[[36.823507,48.600282],[36.82350722627737,48.600282],[36.82339,48.600355],[36.823637,48.600696],[36.823852,48.600645],[36.82361,48.600218],[36.823507,48.600282]]]}},{"type":"Feature","properties":{"cadnum":"1420384401:00:000:0043"},"geometry":{"type":"Polygon","coordinates":[[[36.825218,48.59928],[36.824998,48.599398],[36.82520269457013,48.600168],[36.825202,48.600168],[36.82522335347771,48.6002457126566],[36.825233,48.600282],[36.82523332432432,48.600282],[36.825263,48.60039],[36.825509,48.600348],[36.82546,48.600168],[36.82545994011976,48.600168],[36.825218,48.59928]]]}},{"type":"Feature","properties":{"cadnum":"1420384401:00:000:0074"},"geometry":{"type":"Polygon","coordinates":[[[36.835257,48.596253],[36.835081,48.596276],[36.834956,48.596318],[36.83496,48.59638],[36.835034330855024,48.596535],[36.835034,48.596535],[36.835234,48.596951],[36.835427,48.597263],[36.835679,48.597191],[36.835647,48.597144],[36.835639,48.597147],[36.83557,48.597039],[36.83558,48.597037],[36.835454,48.596832],[36.835380848484995,48.59661900000044],[36.835257,48.596253]]]}},{"type":"Feature","properties":{"cadnum":"1420384401:00:000:0009"},"geometry":{"type":"Polygon","coordinates":[[[36.834664,48.596449],[36.834363,48.596433],[36.83442155555556,48.596535],[36.834421,48.596535],[36.83447970588302,48.5966362941188],[36.834487,48.596649],[36.83448706968641,48.596649],[36.83492,48.597396],[36.835167,48.597331],[36.83477716331658,48.596649],[36.834778,48.596649],[36.834664,48.596449]]]}},{"type":"Feature","properties":{"cadnum":"1420384401:00:000:0118"},"geometry":{"type":"Polygon","coordinates":[[[36.827643,48.595964],[36.827482,48.596523],[36.82918,48.596649],[36.829181920792074,48.596649],[36.830366,48.596737],[36.831579,48.596825779634045],[36.831579,48.596826],[36.831623,48.596829],[36.831731,48.596838],[36.831751,48.596807],[36.831751,48.596806535031845],[36.831888,48.596591],[36.832063,48.596309],[36.83187,48.596294],[36.831595,48.596273],[36.830522,48.59619],[36.827643,48.595964]],[[36.831748,48.596594],[36.831751,48.596594],[36.831775,48.596594],[36.831771,48.596612],[36.831751,48.596612],[36.831744,48.596612],[36.831748,48.596594]]]}},{"type":"Feature","properties":{"cadnum":"1420384401:00:000:0109"},"geometry":{"type":"Polygon","coordinates":[[[36.83501,48.596484],[36.834664,48.596449],[36.83471302,48.596535],[36.834712,48.596535],[36.835167,48.597331],[36.835427,48.597263],[36.835234,48.596951],[36.83508880769231,48.596649],[36.835089,48.596649],[36.83501,48.596484]]]}},{"type":"Feature","properties":{"cadnum":"1420384401:00:000:0044"},"geometry":{"type":"Polygon","coordinates":[[[36.836824,48.599238],[36.837111,48.599146],[36.836474,48.598267],[36.836295,48.598335],[36.836366,48.598516],[36.836316,48.598534],[36.836824,48.599238]]]}},{"type":"Feature","properties":{"cadnum":"1420384401:00:000:0033"},"geometry":{"type":"Polygon","coordinates":[[[36.834974,48.599837],[36.835297,48.599749],[36.834843,48.59892],[36.834524,48.598998],[36.834974,48.599837]]]}},{"type":"Feature","properties":{"cadnum":"1420384401:00:000:0082"},"geometry":{"type":"Polygon","coordinates":[[[36.835513,48.598269],[36.835813,48.59818],[36.835391,48.597473],[36.835081,48.59755],[36.835513,48.598269]]]}},{"type":"Feature","properties":{"cadnum":"1420384401:00:000:0019"},"geometry":{"type":"Polygon","coordinates":[[[36.836258,48.599668],[36.836433,48.599618],[36.836384,48.59954],[36.836209,48.599594],[36.836258,48.599668]]]}},{"type":"Feature","properties":{"cadnum":"1420384401:00:000:0021"},"geometry":{"type":"Polygon","coordinates":[[[36.835316,48.59886],[36.835356,48.598857],[36.835333,48.598795],[36.835436,48.59878],[36.835696,48.598745],[36.835603,48.598465],[36.835836,48.598433],[36.835786,48.598267],[36.835737,48.598201],[36.835261,48.598386],[36.835136,48.59856],[36.835004,48.598596],[36.835073,48.598831],[36.835094,48.598828],[36.835184,48.598816],[36.835283,48.598801],[36.835293,48.598801],[36.835316,48.59886]]]}},{"type":"Feature","properties":{"cadnum":"1420384401:00:000:0100"},"geometry":{"type":"Polygon","coordinates":[[[36.8372088987352,48.59766651898706],[36.837244,48.597657],[36.837244,48.59765690873787],[36.837587,48.597563],[36.837417,48.597292],[36.837314,48.597316],[36.837244,48.59719905389221],[36.837244,48.597199],[36.837147,48.597037],[36.837072,48.597055],[36.837072,48.59705513380282],[36.836721,48.59714],[36.837067,48.597705],[36.837072,48.59770364406779],[36.837072,48.597704],[36.8372088987352,48.59766651898706]]]}},{"type":"Feature","properties":{"cadnum":"1420384401:00:000:0059"},"geometry":{"type":"Polygon","coordinates":[[[36.833042,48.600271],[36.832934,48.599992],[36.832643,48.600066],[36.832733,48.600282],[36.83273355428572,48.600282],[36.832759,48.600343],[36.83299876388889,48.600282],[36.832999,48.600282],[36.833042,48.600271]]]}},{"type":"Feature","properties":{"cadnum":"1420384401:00:000:0034"},"geometry":{"type":"Polygon","coordinates":[[[36.834524,48.598998],[36.834843,48.59892],[36.834713,48.598679],[36.834398,48.598756],[36.834524,48.598998]]]}},{"type":"Feature","properties":{"cadnum":"1420384401:00:000:0104"},"geometry":{"type":"Polygon","coordinates":[[[36.833927,48.600102],[36.834197,48.600037],[36.83359,48.599033],[36.833335,48.599107],[36.833927,48.600102]]]}},{"type":"Feature","properties":{"cadnum":"1420384401:00:000:0012"},"geometry":{"type":"Polygon","coordinates":[[[36.836744,48.597806],[36.837067,48.597705],[36.836721,48.59714],[36.836362,48.59723],[36.836532,48.597515],[36.836744,48.597806]]]}},{"type":"Feature","properties":{"cadnum":"1420384401:00:000:0058"},"geometry":{"type":"Polygon","coordinates":[[[36.832643,48.600066],[36.832934,48.599992],[36.832606,48.599113],[36.832265,48.599134],[36.832643,48.600066]]]}},{"type":"Feature","properties":{"cadnum":"1420384401:00:000:0037"},"geometry":{"type":"Polygon","coordinates":[[[36.831735,48.598837],[36.831394,48.598833],[36.831394,48.59919],[36.831579,48.59919],[36.831735,48.59919],[36.831735,48.598837]]]}},{"type":"Feature","properties":{"cadnum":"1420384401:00:000:0075"},"geometry":{"type":"Polygon","coordinates":[[[36.837244,48.60000131578947],[36.8373,48.600075],[36.837669,48.599954],[36.837448,48.59971],[36.837134,48.599265],[36.837072,48.599285],[36.837072,48.59928537883009],[36.836775,48.599383],[36.837072,48.59977498933902],[36.837072,48.599775],[36.83707463888858,48.59977847222182],[36.837244,48.600002],[36.837244,48.60000131578947]]]}},{"type":"Feature","properties":{"cadnum":"1420384401:00:000:0057"},"geometry":{"type":"Polygon","coordinates":[[[36.83479,48.600081],[36.834412,48.600167],[36.83441255652174,48.600168],[36.834412,48.600168],[36.83443969358176,48.60021676190472],[36.834476,48.600282],[36.83447674456522,48.600282],[36.83483,48.600904],[36.835184,48.600821],[36.8348959280245,48.600282],[36.834896,48.600282],[36.83479,48.600081]]]}},{"type":"Feature","properties":{"cadnum":"1420384401:00:000:0105"},"geometry":{"type":"Polygon","coordinates":[[[36.833335,48.599107],[36.83359,48.599033],[36.833545,48.598961],[36.833486,48.598976],[36.833293,48.598673],[36.833105,48.598727],[36.833335,48.599107]]]}},{"type":"Feature","properties":{"cadnum":"1420384401:00:000:0004"},"geometry":{"type":"Polygon","coordinates":[[[36.835792,48.599493],[36.835966,48.599445],[36.835822,48.599208],[36.835647,48.599256],[36.835792,48.599493]]]}},{"type":"Feature","properties":{"cadnum":"1420384401:00:000:0107"},"geometry":{"type":"Polygon","coordinates":[[[36.831471,48.598249],[36.831402,48.597631],[36.831704,48.596888],[36.830001,48.596805],[36.829777,48.59769],[36.829956,48.59843],[36.831471,48.598249]]]}},{"type":"Feature","properties":{"cadnum":"1420384401:00:000:0035"},"geometry":{"type":"Polygon","coordinates":[[[36.831505,48.600046],[36.831029,48.600132],[36.831040279999996,48.600168],[36.83104,48.600168],[36.831060514450854,48.60023257803463],[36.831076,48.600282],[36.831076214285716,48.600282],[36.831209,48.6007],[36.831751,48.600602],[36.831751,48.600601548571426],[36.831754,48.600601],[36.831579,48.600212],[36.831579,48.60021232380952],[36.831505,48.600046]]]}},{"type":"Feature","properties":{"cadnum":"1420384401:00:000:0039"},"geometry":{"type":"Polygon","coordinates":[[[36.82909,48.598198],[36.82935,48.597928],[36.829381,48.597699],[36.828855,48.597642],[36.828802,48.597904],[36.828748,48.597898],[36.828699,48.598162],[36.82909,48.598198]]]}},{"type":"Feature","properties":{"cadnum":"1420384401:00:000:0086"},"geometry":{"type":"Polygon","coordinates":[[[36.827832,48.598127],[36.828151,48.598124],[36.828241,48.597666],[36.827922,48.597646],[36.827872,48.597924],[36.827832,48.598127]]]}},{"type":"Feature","properties":{"cadnum":"1420384401:00:000:0103"},"geometry":{"type":"Polygon","coordinates":[[[36.829601,48.597244],[36.829718,48.596707],[36.829125,48.596689],[36.829014,48.597164],[36.829601,48.597244]]]}},{"type":"Feature","properties":{"cadnum":"1420384401:00:000:0050"},"geometry":{"type":"Polygon","coordinates":[[[36.827593,48.600185],[36.827855,48.600156],[36.827773,48.599716],[36.827652,48.599027],[36.827379,48.59906],[36.82741,48.599202],[36.827517,48.59976],[36.827593,48.600185]]]}},{"type":"Feature","properties":{"cadnum":"1420384401:00:000:0099"},"geometry":{"type":"Polygon","coordinates":[[[36.830415,48.59886],[36.831251,48.598747],[36.831182,48.598519],[36.830347,48.598632],[36.830415,48.59886]]]}},{"type":"Feature","properties":{"cadnum":"1420384401:00:000:0106"},"geometry":{"type":"Polygon","coordinates":[[[36.828951,48.599092],[36.8294,48.599038],[36.829291,48.598679],[36.828847,48.598727],[36.828951,48.599092]]]}},{"type":"Feature","properties":{"cadnum":"1420384401:00:000:0036"},"geometry":{"type":"Polygon","coordinates":[[[36.831029,48.600132],[36.831505,48.600046],[36.831465,48.599951],[36.830999,48.600033],[36.831029,48.600132]]]}},{"type":"Feature","properties":{"cadnum":"1420384401:00:000:0083"},"geometry":{"type":"Polygon","coordinates":[[[36.830612,48.600075],[36.830742,48.599294],[36.830392,48.599288],[36.830307,48.600079],[36.830402,48.600079],[36.83036703571429,48.600168],[36.830366,48.600168],[36.830325,48.600275],[36.830372,48.600282],[36.83037203124998,48.600282],[36.83054,48.600307],[36.830583,48.600168],[36.83058279710145,48.600168],[36.830612,48.600075]]]}},{"type":"Feature","properties":{"cadnum":"1420384401:00:000:0045"},"geometry":{"type":"Polygon","coordinates":[[[36.827607,48.598085],[36.827823,48.59808],[36.827945,48.598067],[36.827949,48.597862],[36.827945,48.597563],[36.827607,48.597532],[36.827607,48.598085]]]}},{"type":"Feature","properties":{"cadnum":"1420384401:00:000:0078"},"geometry":{"type":"Polygon","coordinates":[[[36.827855,48.600156],[36.828155,48.600123],[36.828083,48.599745],[36.827993,48.599137],[36.827679,48.59917],[36.827773,48.599716],[36.827855,48.600156]]]}},{"type":"Feature","properties":{"cadnum":"1420384401:00:000:0068"},"geometry":{"type":"Polygon","coordinates":[[[36.82988,48.598831],[36.829979,48.598825],[36.829979,48.598828],[36.830024,48.598825],[36.830037,48.598825],[36.830015,48.5987],[36.829836,48.598715],[36.829844,48.598754],[36.829853,48.598804],[36.829871,48.598801],[36.82988,48.598831]]]}},{"type":"Feature","properties":{"cadnum":"1420384401:00:000:0079"},"geometry":{"type":"Polygon","coordinates":[[[36.827679,48.59917],[36.827993,48.599137],[36.827953,48.598842],[36.82763,48.598881],[36.827652,48.599027],[36.827679,48.59917]]]}},{"type":"Feature","properties":{"cadnum":"1420384401:00:000:0071"},"geometry":{"type":"Polygon","coordinates":[[[36.847398,48.596312],[36.846971,48.59633],[36.84699927586207,48.596535],[36.846999,48.596535],[36.8470126140352,48.5966317017552],[36.847015,48.596649],[36.84701504934688,48.596649],[36.847096,48.597224],[36.847545,48.59712],[36.847438,48.596535],[36.8474377032641,48.596535],[36.847398,48.596312]]]}},{"type":"Feature","properties":{"cadnum":"1420384401:00:000:0070"},"geometry":{"type":"Polygon","coordinates":[[[36.846971,48.59633],[36.847398,48.596312],[36.847348,48.596033],[36.847302,48.595599],[36.846868,48.595625],[36.846971,48.59633]]]}},{"type":"Feature","properties":{"cadnum":"1420384401:00:000:0113"},"geometry":{"type":"Polygon","coordinates":[[[36.845996,48.596576],[36.846427,48.596565],[36.846333,48.595837],[36.845879,48.595958],[36.845996,48.596576]],[[36.846086,48.596261],[36.846077,48.596184],[36.846306,48.596175],[36.846315,48.59625],[36.846086,48.596261]]]}},{"type":"Feature","properties":{"cadnum":"1420384401:00:000:0048"},"geometry":{"type":"Polygon","coordinates":[[[36.845187,48.596255],[36.844828,48.596427],[36.84484648648649,48.596535],[36.844845,48.596535],[36.8448652754238,48.59664476694954],[36.844866,48.596649],[36.844866057324836,48.596649],[36.844874,48.596692],[36.844891,48.597052],[36.844891,48.597063],[36.845336,48.597058],[36.845287,48.596614],[36.845187,48.596255]]]}},{"type":"Feature","properties":{"cadnum":"1420384401:00:000:0112"},"geometry":{"type":"Polygon","coordinates":[[[36.846086,48.596261],[36.846315,48.59625],[36.846306,48.596175],[36.846077,48.596184],[36.846086,48.596261]]]}},{"type":"Feature","properties":{"cadnum":"1420384401:00:000:0069"},"geometry":{"type":"Polygon","coordinates":[[[36.845997,48.596575],[36.846428,48.596563],[36.846334,48.595837],[36.845877,48.595959],[36.845997,48.596575]]]}},{"type":"Feature","properties":{"cadnum":"1420384401:00:000:0073"},"geometry":{"type":"Polygon","coordinates":[[[36.844109,48.598688],[36.844132,48.597705],[36.843786,48.597838],[36.843755,48.598677],[36.844109,48.598688]]]}},{"type":"Feature","properties":{"cadnum":"1420384401:00:000:0072"},"geometry":{"type":"Polygon","coordinates":[[[36.843786,48.597838],[36.844132,48.597705],[36.844141,48.597334],[36.844128,48.596793],[36.843813,48.596909],[36.843803,48.597334],[36.843786,48.597838]]]}},{"type":"Feature","properties":{"cadnum":"1420384401:00:000:0049"},"geometry":{"type":"Polygon","coordinates":[[[36.845004,48.598379],[36.845466,48.598367],[36.84534,48.597105],[36.845336,48.597058],[36.844891,48.597063],[36.845004,48.598379]]]}},{"type":"Feature","properties":{"cadnum":"1420384401:00:000:0061"},"geometry":{"type":"Polygon","coordinates":[[[36.84304,48.598575],[36.843404,48.598252],[36.843107,48.59791],[36.842681,48.598076],[36.84304,48.598575]]]}},{"type":"Feature","properties":{"cadnum":"1420384401:00:000:0060"},"geometry":{"type":"Polygon","coordinates":[[[36.842737,48.598055],[36.842737,48.59805417840376],[36.843107,48.59791],[36.84261,48.597334],[36.84225,48.597473],[36.842681,48.598076],[36.842737,48.598055]]]}},{"type":"Feature","properties":{"cadnum":"1420384401:00:000:0097"},"geometry":{"type":"Polygon","coordinates":[[[36.839312,48.602793],[36.839604,48.602659],[36.838863,48.601926],[36.838585,48.602059],[36.839312,48.602793]]]}},{"type":"Feature","properties":{"cadnum":"1420384401:00:000:0098"},"geometry":{"type":"Polygon","coordinates":[[[36.838585,48.602059],[36.838863,48.601926],[36.838369,48.601439],[36.838199,48.601671],[36.838585,48.602059]]]}},{"type":"Feature","properties":{"cadnum":"1420384401:00:000:0076"},"geometry":{"type":"Polygon","coordinates":[[[36.837669,48.599954],[36.8373,48.600075],[36.83737008695652,48.600168],[36.83737,48.600168],[36.83739391044777,48.60019961194031],[36.837456,48.600282],[36.837456226628895,48.600282],[36.837637,48.600521],[36.838055,48.600381],[36.83796529577465,48.600282],[36.837966,48.600282],[36.837669,48.599954]]]}},{"type":"Feature","properties":{"cadnum":"1420384401:00:000:0077"},"geometry":{"type":"Polygon","coordinates":[[[36.838468,48.600883],[36.83867,48.600824],[36.838306,48.600331],[36.838104,48.60039],[36.838468,48.600883]]]}},{"type":"Feature","properties":{"cadnum":"1420384401:00:000:0085"},"geometry":{"type":"Polygon","coordinates":[[[36.824473,48.602772],[36.824652,48.602722],[36.824687,48.602692],[36.824576,48.602327],[36.82436,48.602375],[36.824473,48.602772]]]}},{"type":"Feature","properties":{"cadnum":"1420384401:00:000:0084"},"geometry":{"type":"Polygon","coordinates":[[[36.82436,48.602375],[36.824576,48.602327],[36.82431,48.601471],[36.824154,48.600901],[36.823942,48.600943],[36.8241,48.601451],[36.82436,48.602375]]]}},{"type":"Feature","properties":{"cadnum":"1420384401:00:000:0046"},"geometry":{"type":"Polygon","coordinates":[[[36.823578,48.602561],[36.823771,48.602529],[36.823618,48.601448],[36.823555,48.600966],[36.823362,48.600996],[36.823435,48.601501],[36.823578,48.602561]]]}},{"type":"Feature","properties":{"cadnum":"1420384401:00:000:0114"},"geometry":{"type":"Polygon","coordinates":[[[36.82397,48.60249],[36.824176,48.602463],[36.823748,48.60099],[36.823565,48.601029],[36.823628,48.601279],[36.82397,48.60249]]]}},{"type":"Feature","properties":{"cadnum":"1420384401:00:000:0047"},"geometry":{"type":"Polygon","coordinates":[[[36.82361,48.602811],[36.823808,48.602796],[36.823771,48.602529],[36.823578,48.602561],[36.82361,48.602811]]]}},{"type":"Feature","properties":{"cadnum":"1420384401:00:000:0108"},"geometry":{"type":"Polygon","coordinates":[[[36.821589,48.602573],[36.821836,48.602532],[36.82167,48.601962],[36.82153,48.60148],[36.82127,48.601537],[36.821292,48.601772],[36.821589,48.602573]]]}},{"type":"Feature","properties":{"cadnum":"1420384401:00:000:0115"},"geometry":{"type":"Polygon","coordinates":[[[36.824108,48.602989],[36.824324,48.602972],[36.824176,48.602463],[36.82397,48.60249],[36.824108,48.602989]]]}},{"type":"Feature","properties":{"cadnum":"1420384401:00:000:0116"},"geometry":{"type":"Polygon","coordinates":[[[36.822339,48.603355],[36.822586,48.603307],[36.822366,48.602523],[36.822114,48.602565],[36.822339,48.603355]]]}},{"type":"Feature","properties":{"cadnum":"1420384401:00:000:0117"},"geometry":{"type":"Polygon","coordinates":[[[36.822114,48.602565],[36.822366,48.602523],[36.822182,48.601872],[36.822043,48.601376],[36.821777,48.601427],[36.821836,48.601614],[36.82184,48.601623],[36.82193,48.601922],[36.822114,48.602565]]]}},{"type":"Feature","properties":{"cadnum":"1420384401:00:000:0101"},"geometry":{"type":"Polygon","coordinates":[[[36.841361,48.595958],[36.841002,48.596039],[36.840987363934424,48.596535],[36.840987,48.596535],[36.840985524916945,48.59659732225907],[36.840984,48.596649],[36.84098430177515,48.596649],[36.840983,48.596704],[36.841325,48.596704],[36.841333,48.596535],[36.84133177424023,48.596535],[36.841361,48.595958]]]}},{"type":"Feature","properties":{"cadnum":"1420384401:00:000:0042"},"geometry":{"type":"Polygon","coordinates":[[[36.839708,48.598263],[36.84,48.598168],[36.839398,48.59742],[36.839048,48.597545],[36.839708,48.598263]]]}},{"type":"Feature","properties":{"cadnum":"1420384401:00:000:0096"},"geometry":{"type":"Polygon","coordinates":[[[36.841396,48.599166],[36.841828,48.599024],[36.841882,48.59845],[36.841495,48.598448],[36.841396,48.599166]]]}},{"type":"Feature","properties":{"cadnum":"1420384401:00:000:0102"},"geometry":{"type":"Polygon","coordinates":[[[36.840966,48.597657],[36.841302,48.597563],[36.841306,48.597158],[36.841325,48.596704],[36.840983,48.596704],[36.84097,48.597257],[36.840966,48.597657]]]}},{"type":"Feature","properties":{"cadnum":"1420384401:00:000:0095"},"geometry":{"type":"Polygon","coordinates":[[[36.841882,48.59845],[36.841967,48.597574],[36.841595,48.597693],[36.841545,48.598091],[36.841495,48.598448],[36.841882,48.59845]]]}},{"type":"Feature","properties":{"cadnum":"1420384401:00:000:0110"},"geometry":{"type":"Polygon","coordinates":[[[36.82727,48.60132],[36.827607,48.60129],[36.827459,48.600408],[36.827109,48.600447],[36.82727,48.60132]]]}},{"type":"Feature","properties":{"cadnum":"1420384401:00:000:0092"},"geometry":{"type":"Polygon","coordinates":[[[36.830406,48.601789],[36.830603,48.601786],[36.830526,48.601092],[36.830702,48.601079],[36.830643,48.600658],[36.830289,48.600654],[36.830312,48.601097],[36.830406,48.601789]]]}},{"type":"Feature","properties":{"cadnum":"1420384401:00:000:0090"},"geometry":{"type":"Polygon","coordinates":[[[36.828807,48.60148],[36.829054,48.601462],[36.828865,48.600275],[36.828609,48.60028],[36.828807,48.60148]]]}},{"type":"Feature","properties":{"cadnum":"1420384401:00:000:0093"},"geometry":{"type":"Polygon","coordinates":[[[36.830469,48.602256],[36.830653,48.60225],[36.830603,48.601786],[36.830406,48.601789],[36.830469,48.602256]]]}},{"type":"Feature","properties":{"cadnum":"1420384401:00:000:0087"},"geometry":{"type":"Polygon","coordinates":[[[36.829687,48.601914],[36.829853,48.601911],[36.829696,48.600691],[36.829741,48.600548],[36.829746,48.600328],[36.829498,48.600289],[36.829521,48.60077],[36.829687,48.601914]]]}},{"type":"Feature","properties":{"cadnum":"1420384401:00:000:0111"},"geometry":{"type":"Polygon","coordinates":[[[36.82754,48.602743],[36.827832,48.60271],[36.827607,48.60129],[36.82727,48.60132],[36.82754,48.602743]]]}},{"type":"Feature","properties":{"cadnum":"1420384401:00:000:0091"},"geometry":{"type":"Polygon","coordinates":[[[36.828964,48.602448],[36.829211,48.602437],[36.829054,48.601462],[36.828807,48.60148],[36.828964,48.602448]]]}},{"type":"Feature","properties":{"cadnum":"1420384401:00:000:0056"},"geometry":{"type":"Polygon","coordinates":[[[36.834991,48.601189],[36.835337,48.601109],[36.835184,48.600821],[36.83483,48.600904],[36.834991,48.601189]]]}}]}