{"type":"FeatureCollection","features":[{"type":"Feature","properties":{"cadnum":"1420384409:00:000:0071"},"geometry":{"type":"Polygon","coordinates":[[[36.792766,48.61481],[36.792766594594596,48.61481],[36.792672,48.61485],[36.793127,48.61532023923445],[36.793127,48.615321],[36.793462,48.615667],[36.793659,48.615869],[36.793921,48.615607],[36.793592,48.615279],[36.793299,48.614982849462365],[36.793299,48.614982],[36.793022,48.614702],[36.792766,48.61481]]]}},{"type":"Feature","properties":{"cadnum":"1420384409:00:000:0039"},"geometry":{"type":"Polygon","coordinates":[[[36.780616,48.61687],[36.780958,48.616804],[36.780612,48.616009],[36.780243,48.616086],[36.780616,48.61687]]]}},{"type":"Feature","properties":{"cadnum":"1420384409:00:000:0051"},"geometry":{"type":"Polygon","coordinates":[[[36.780881,48.617984],[36.781147,48.61787],[36.780782,48.617517],[36.780046,48.616807],[36.779713,48.616944],[36.780881,48.617984]]]}},{"type":"Feature","properties":{"cadnum":"1420384409:00:000:0038"},"geometry":{"type":"Polygon","coordinates":[[[36.780782,48.617517],[36.78112,48.617318],[36.780392,48.616608],[36.780006,48.616769],[36.780046,48.616807],[36.780782,48.617517]]]}},{"type":"Feature","properties":{"cadnum":"1420384409:00:000:0001"},"geometry":{"type":"Polygon","coordinates":[[[36.78191,48.615103],[36.782126,48.615052],[36.782103,48.615011],[36.782059,48.614925],[36.782054,48.614916],[36.781838,48.614966],[36.78191,48.615103]]]}},{"type":"Feature","properties":{"cadnum":"1420384409:00:000:0069"},"geometry":{"type":"Polygon","coordinates":[[[36.779103,48.618176],[36.77957,48.61807],[36.77922,48.617455],[36.778847,48.616707],[36.778335,48.616813],[36.778465,48.617042],[36.779103,48.618176]]]}},{"type":"Feature","properties":{"cadnum":"1420384409:00:000:0041"},"geometry":{"type":"Polygon","coordinates":[[[36.779813,48.615537],[36.780442,48.615403],[36.780252,48.615014],[36.779623,48.615151],[36.779813,48.615537]]]}},{"type":"Feature","properties":{"cadnum":"1420384409:00:000:0050"},"geometry":{"type":"Polygon","coordinates":[[[36.779713,48.616944],[36.780046,48.616807],[36.780006,48.616769],[36.779822,48.616593],[36.77939,48.616241],[36.779346,48.616199],[36.779004,48.616267],[36.77926,48.61654],[36.779713,48.616944]]]}},{"type":"Feature","properties":{"cadnum":"1420384409:00:000:0054"},"geometry":{"type":"Polygon","coordinates":[[[36.777342,48.616294],[36.778124,48.615964],[36.777948,48.615709],[36.777132,48.615913],[36.777342,48.616294]]]}},{"type":"Feature","properties":{"cadnum":"1420384409:00:000:0040"},"geometry":{"type":"Polygon","coordinates":[[[36.781245,48.6182],[36.781537,48.61814],[36.780958,48.616804],[36.780616,48.61687],[36.781245,48.6182]]]}},{"type":"Feature","properties":{"cadnum":"1420384409:00:000:0044"},"geometry":{"type":"Polygon","coordinates":[[[36.778116,48.617135],[36.778465,48.617043],[36.77804,48.616287],[36.777684,48.616376],[36.778116,48.617135]]]}},{"type":"Feature","properties":{"cadnum":"1420384409:00:000:0060"},"geometry":{"type":"Polygon","coordinates":[[[36.779251,48.614676],[36.77906370930235,48.614697],[36.77906,48.614697],[36.778484,48.614762],[36.778505,48.61481],[36.77850585987261,48.61481],[36.778627,48.615076],[36.778767,48.615373],[36.779457,48.615228],[36.77929956120527,48.61481],[36.7793,48.61481],[36.779251,48.614676]]]}},{"type":"Feature","properties":{"cadnum":"1420384409:00:000:0009"},"geometry":{"type":"Polygon","coordinates":[[[36.778465,48.614723],[36.778015,48.614749],[36.778046,48.61481],[36.7780464647202,48.61481],[36.778227,48.61516],[36.778627,48.615076],[36.778504926345605,48.61481],[36.778505,48.61481],[36.778465,48.614723]]]}},{"type":"Feature","properties":{"cadnum":"1420384409:00:000:0059"},"geometry":{"type":"Polygon","coordinates":[[[36.778964,48.615798],[36.77961,48.615631],[36.779457,48.615228],[36.778767,48.615373],[36.778964,48.615798]]]}},{"type":"Feature","properties":{"cadnum":"1420384409:00:000:0068"},"geometry":{"type":"Polygon","coordinates":[[[36.778335,48.616813],[36.778847,48.616707],[36.778667,48.616342],[36.77864,48.616347],[36.778545,48.616181],[36.778038,48.616287],[36.778335,48.616813]]]}},{"type":"Feature","properties":{"cadnum":"1420384409:00:000:0037"},"geometry":{"type":"Polygon","coordinates":[[[36.780006,48.616769],[36.780392,48.616608],[36.780212,48.616433],[36.779979,48.616124],[36.77939,48.616241],[36.779822,48.616593],[36.780006,48.616769]]]}},{"type":"Feature","properties":{"cadnum":"1420384409:00:000:0077"},"geometry":{"type":"Polygon","coordinates":[[[36.777985,48.616342],[36.778061,48.61632],[36.778038,48.616287],[36.777962,48.616305],[36.777985,48.616342]]]}},{"type":"Feature","properties":{"cadnum":"1420384409:00:000:0076"},"geometry":{"type":"Polygon","coordinates":[[[36.778115,48.617134],[36.778465,48.617042],[36.778061,48.61632],[36.777985,48.616342],[36.777962,48.616305],[36.777683,48.616377],[36.778115,48.617134]]]}},{"type":"Feature","properties":{"cadnum":"1420384409:00:000:0055"},"geometry":{"type":"Polygon","coordinates":[[[36.776819,48.61536169078948],[36.776834,48.615391],[36.777132,48.615913],[36.777948,48.615709],[36.777392,48.614892],[36.776682,48.615094],[36.776819,48.615363],[36.776819,48.61536169078948]]]}},{"type":"Feature","properties":{"cadnum":"1420384409:00:000:0053"},"geometry":{"type":"Polygon","coordinates":[[[36.776457,48.617702],[36.776004,48.61782],[36.776071,48.617945],[36.776268,48.617885],[36.776626,48.618442],[36.77662732524272,48.618442],[36.776819,48.61874],[36.776819,48.61873918020305],[36.777042,48.619085],[36.777256,48.618975],[36.77685,48.618328],[36.77684945517241,48.618328],[36.776723000000025,48.618126505494544],[36.776637,48.617989],[36.776457,48.617702]]]}},{"type":"Feature","properties":{"cadnum":"1420384409:00:000:0062"},"geometry":{"type":"Polygon","coordinates":[[[36.782312,48.6163481445783],[36.78239,48.616496],[36.782755,48.616406],[36.78222,48.615587],[36.781946,48.615655],[36.782312,48.616349],[36.782312,48.6163481445783]]]}},{"type":"Feature","properties":{"cadnum":"1420384409:00:000:0008"},"geometry":{"type":"Polygon","coordinates":[[[36.778595,48.615875],[36.778964,48.615798],[36.778627,48.615076],[36.778227,48.61516],[36.778595,48.615875]]]}},{"type":"Feature","properties":{"cadnum":"1420384409:00:000:0045"},"geometry":{"type":"Polygon","coordinates":[[[36.779197,48.618343],[36.779189,48.618328],[36.779188560338206,48.618328],[36.778465,48.617042],[36.778115,48.617134],[36.7787935976834,48.618328],[36.778793,48.618328],[36.778851,48.618429],[36.779197,48.618343]]]}},{"type":"Feature","properties":{"cadnum":"1420384409:00:000:0064"},"geometry":{"type":"Polygon","coordinates":[[[36.78633,48.618286],[36.786092,48.617906],[36.785382,48.61812],[36.785573,48.618442],[36.78557371428571,48.618442],[36.785585,48.618461],[36.785665571428574,48.618442],[36.785666,48.618442],[36.78633,48.618286]]]}},{"type":"Feature","properties":{"cadnum":"1420384409:00:000:0030"},"geometry":{"type":"Polygon","coordinates":[[[36.785436,48.61836],[36.785481,48.618442],[36.785482773269685,48.618442],[36.785675,48.618779],[36.786267,48.618814],[36.786294,48.618387],[36.785436,48.61836]]]}},{"type":"Feature","properties":{"cadnum":"1420384409:00:000:0014"},"geometry":{"type":"Polygon","coordinates":[[[36.793127,48.61373484269663],[36.793127,48.613735],[36.793175548387744,48.613717387096536],[36.793299,48.613673],[36.793299,48.6136726],[36.793342,48.613657],[36.79322905440883,48.61351883864895],[36.792721,48.612893],[36.792411,48.613003],[36.793032,48.613769],[36.793127,48.61373484269663]]]}},{"type":"Feature","properties":{"cadnum":"1420384409:00:000:0056"},"geometry":{"type":"Polygon","coordinates":[[[36.782642,48.614251],[36.783505,48.614082],[36.783352,48.613764],[36.782467,48.613936],[36.782642,48.614251]]]}},{"type":"Feature","properties":{"cadnum":"1420384409:00:000:0079"},"geometry":{"type":"Polygon","coordinates":[[[36.782594,48.61355],[36.782984,48.61346],[36.783114,48.613431],[36.784273,48.613202],[36.784103,48.612905],[36.78241,48.613178],[36.782594,48.61355]]]}},{"type":"Feature","properties":{"cadnum":"1420384409:00:000:0067"},"geometry":{"type":"Polygon","coordinates":[[[36.783096,48.613814],[36.783352,48.613764],[36.784421,48.613553],[36.784214,48.613184],[36.783055,48.613413],[36.782925,48.613443],[36.783096,48.613814]]]}},{"type":"Feature","properties":{"cadnum":"1420384409:00:000:0066"},"geometry":{"type":"Polygon","coordinates":[[[36.782467,48.613936],[36.783096,48.613814],[36.782925,48.613443],[36.782312,48.61358217602041],[36.782312,48.613582],[36.782139,48.613621],[36.782312,48.613927],[36.782312,48.613925921874994],[36.782333,48.613963],[36.782467,48.613936]]]}},{"type":"Feature","properties":{"cadnum":"1420384409:00:000:0070"},"geometry":{"type":"Polygon","coordinates":[[[36.792411,48.614088],[36.792057,48.614221],[36.792632,48.61481],[36.79263278431373,48.61481],[36.792672,48.61485],[36.793022,48.614702],[36.792411,48.614088]]]}},{"type":"Feature","properties":{"cadnum":"1420384409:00:000:0072"},"geometry":{"type":"Polygon","coordinates":[[[36.789906,48.614375],[36.78929,48.614583],[36.789405,48.61481],[36.78940640878378,48.61481],[36.789501,48.614993],[36.79017,48.614747],[36.789906,48.614375]]]}},{"type":"Feature","properties":{"cadnum":"1420384409:00:000:0017"},"geometry":{"type":"Polygon","coordinates":[[[36.789896,48.616653],[36.790309,48.616505],[36.78973,48.615807],[36.789317,48.615955],[36.789896,48.616653]]]}},{"type":"Feature","properties":{"cadnum":"1420384409:00:000:0012"},"geometry":{"type":"Polygon","coordinates":[[[36.790885,48.614649],[36.790757397515534,48.614697],[36.790757,48.614697],[36.79067099999923,48.61472950000029],[36.790457,48.61481],[36.79045798461539,48.61481],[36.790413,48.614827],[36.79083,48.615314],[36.791306,48.615136],[36.79102307061503,48.61481],[36.791024,48.61481],[36.790885,48.614649]]]}},{"type":"Feature","properties":{"cadnum":"1420384409:00:000:0013"},"geometry":{"type":"Polygon","coordinates":[[[36.791751,48.616386],[36.792227,48.616208],[36.791306,48.615136],[36.79083,48.615314],[36.791751,48.616386]]]}},{"type":"Feature","properties":{"cadnum":"1420384409:00:000:0016"},"geometry":{"type":"Polygon","coordinates":[[[36.789317,48.615955],[36.78973,48.615807],[36.789258,48.615237],[36.788845,48.615385],[36.789317,48.615955]]]}},{"type":"Feature","properties":{"cadnum":"1420384409:00:000:0048"},"geometry":{"type":"Polygon","coordinates":[[[36.78929,48.614583],[36.789187,48.614385],[36.788742,48.614491],[36.788913,48.61481],[36.78891436423841,48.61481],[36.788935,48.614848],[36.789124,48.61513],[36.789501,48.614993],[36.789348,48.614697],[36.789347753303964,48.614697],[36.78929,48.614583]]]}},{"type":"Feature","properties":{"cadnum":"1420384409:00:000:0015"},"geometry":{"type":"Polygon","coordinates":[[[36.792411,48.613003],[36.792721,48.612893],[36.792128,48.61216],[36.791818,48.61227],[36.792411,48.613003]]]}},{"type":"Feature","properties":{"cadnum":"1420384409:00:000:0046"},"geometry":{"type":"Polygon","coordinates":[[[36.791382,48.614298],[36.791764,48.614174],[36.791652,48.61402],[36.791504,48.613722],[36.791409,48.613532],[36.790983,48.613681],[36.791185,48.614025],[36.791382,48.614298]]]}},{"type":"Feature","properties":{"cadnum":"1420384409:00:000:0073"},"geometry":{"type":"Polygon","coordinates":[[[36.78929,48.614583],[36.789906,48.614375],[36.789371,48.613633],[36.788908,48.613814],[36.789187,48.614385],[36.78929,48.614583]]]}},{"type":"Feature","properties":{"cadnum":"1420384409:00:000:0049"},"geometry":{"type":"Polygon","coordinates":[[[36.788742,48.614491],[36.789187,48.614385],[36.788908,48.613814],[36.788468,48.614001],[36.788742,48.614491]]]}},{"type":"Feature","properties":{"cadnum":"1420384409:00:000:0047"},"geometry":{"type":"Polygon","coordinates":[[[36.790983,48.613681],[36.791409,48.613532],[36.791158,48.613025],[36.790956,48.613093],[36.790665,48.613191],[36.790952,48.613633],[36.790983,48.613681]]]}},{"type":"Feature","properties":{"cadnum":"1420384409:00:000:0027"},"geometry":{"type":"Polygon","coordinates":[[[36.791401,48.613668],[36.791832,48.613523],[36.791382,48.612948],[36.790956,48.613093],[36.791401,48.613668]]]}},{"type":"Feature","properties":{"cadnum":"1420384409:00:000:0026"},"geometry":{"type":"Polygon","coordinates":[[[36.791837,48.614233],[36.792267,48.614088],[36.791832,48.613523],[36.791401,48.613668],[36.791837,48.614233]]]}},{"type":"Feature","properties":{"cadnum":"1420384409:00:000:0052"},"geometry":{"type":"Polygon","coordinates":[[[36.776004,48.61782],[36.776457,48.617702],[36.776057,48.617066],[36.775681,48.617226],[36.776004,48.61782]]]}},{"type":"Feature","properties":{"cadnum":"1420384409:00:000:0061"},"geometry":{"type":"Polygon","coordinates":[[[36.785252,48.617933],[36.785998,48.617707],[36.785805,48.617407],[36.785,48.61755],[36.785252,48.617933]]]}},{"type":"Feature","properties":{"cadnum":"1420384409:00:000:0075"},"geometry":{"type":"Polygon","coordinates":[[[36.785463,48.615679],[36.785916,48.615534],[36.785508,48.614931],[36.784937,48.61502],[36.785463,48.615679]]]}},{"type":"Feature","properties":{"cadnum":"1420384409:00:000:0058"},"geometry":{"type":"Polygon","coordinates":[[[36.787277,48.617345],[36.787606,48.617223],[36.787359,48.616864],[36.787013,48.616968],[36.787277,48.617345]]]}},{"type":"Feature","properties":{"cadnum":"1420384409:00:000:0029"},"geometry":{"type":"Polygon","coordinates":[[[36.783046,48.618274],[36.784017,48.618048],[36.783864,48.617757],[36.783195,48.617912],[36.782893,48.617984],[36.783046,48.618274]]]}},{"type":"Feature","properties":{"cadnum":"1420384409:00:000:0021"},"geometry":{"type":"Polygon","coordinates":[[[36.783195,48.617912],[36.783918,48.617746],[36.783751,48.617437],[36.783029,48.617606],[36.783195,48.617912]]]}},{"type":"Feature","properties":{"cadnum":"1420384409:00:000:0011"},"geometry":{"type":"Polygon","coordinates":[[[36.786455,48.617476],[36.786797,48.617357],[36.786608,48.617119],[36.786267,48.617235],[36.786455,48.617476]]]}},{"type":"Feature","properties":{"cadnum":"1420384409:00:000:0025"},"geometry":{"type":"Polygon","coordinates":[[[36.78487,48.616237],[36.785683,48.615964],[36.785499,48.615724],[36.784686,48.615994],[36.78487,48.616237]]]}},{"type":"Feature","properties":{"cadnum":"1420384409:00:000:0010"},"geometry":{"type":"Polygon","coordinates":[[[36.786267,48.617235],[36.786608,48.617119],[36.786065,48.616413],[36.785723,48.616529],[36.786267,48.617235]]]}},{"type":"Feature","properties":{"cadnum":"1420384409:00:000:0022"},"geometry":{"type":"Polygon","coordinates":[[[36.783918,48.617746],[36.784799,48.617538],[36.784637,48.617232],[36.783751,48.617437],[36.783918,48.617746]]]}},{"type":"Feature","properties":{"cadnum":"1420384409:00:000:0028"},"geometry":{"type":"Polygon","coordinates":[[[36.784017,48.618048],[36.784956,48.617829],[36.784799,48.617538],[36.783918,48.617746],[36.783864,48.617757],[36.784017,48.618048]]]}},{"type":"Feature","properties":{"cadnum":"1420384409:00:000:0065"},"geometry":{"type":"Polygon","coordinates":[[[36.78633,48.618286],[36.78704,48.618117],[36.786887,48.617669],[36.786092,48.617906],[36.78633,48.618286]]]}},{"type":"Feature","properties":{"cadnum":"1420384409:00:000:0063"},"geometry":{"type":"Polygon","coordinates":[[[36.782966,48.617579],[36.783442,48.617458],[36.782755,48.616406],[36.78239,48.616496],[36.782966,48.617579]]]}},{"type":"Feature","properties":{"cadnum":"1420384409:00:000:0074"},"geometry":{"type":"Polygon","coordinates":[[[36.785903,48.616255],[36.786302,48.616113],[36.786132,48.615857],[36.785916,48.615534],[36.785463,48.615679],[36.785499,48.615724],[36.785683,48.615964],[36.785903,48.616255]]]}},{"type":"Feature","properties":{"cadnum":"1420384409:00:000:0057"},"geometry":{"type":"Polygon","coordinates":[[[36.787013,48.616968],[36.787359,48.616864],[36.786837,48.616118],[36.78651,48.616241],[36.787013,48.616968]]]}},{"type":"Feature","properties":{"cadnum":"1420384409:00:000:0024"},"geometry":{"type":"Polygon","coordinates":[[[36.785099,48.616538],[36.785912,48.616264],[36.785683,48.615964],[36.78487,48.616237],[36.784946,48.616335],[36.785099,48.616538]]]}}]}