{"type":"FeatureCollection","features":[{"type":"Feature","properties":{"cadnum":"1420355101:00:000:0024"},"geometry":{"type":"Polygon","coordinates":[[[36.925528,48.777581],[36.926629,48.777128],[36.926453,48.776924],[36.925334,48.777386],[36.925528,48.777581]]]}},{"type":"Feature","properties":{"cadnum":"1420355101:00:000:0022"},"geometry":{"type":"Polygon","coordinates":[[[36.929938,48.774947],[36.930038,48.774813],[36.929692,48.774745],[36.929634,48.77489],[36.929938,48.774947]]]}},{"type":"Feature","properties":{"cadnum":"1420355101:00:000:0019"},"geometry":{"type":"Polygon","coordinates":[[[36.927751,48.774284],[36.927718,48.774349],[36.927718240000004,48.774349],[36.927688,48.774409],[36.927743,48.77442],[36.927747,48.774405],[36.927801,48.77442],[36.92786,48.774308],[36.927751,48.774284]]]}},{"type":"Feature","properties":{"cadnum":"1420355101:00:000:0026"},"geometry":{"type":"Polygon","coordinates":[[[36.925726,48.776226],[36.925321,48.775991],[36.925111439023325,48.77613734146415],[36.924652,48.776456],[36.924935,48.776646],[36.924963,48.77663116],[36.924963,48.776632],[36.925726,48.776226]]]}},{"type":"Feature","properties":{"cadnum":"1420355101:00:000:0028"},"geometry":{"type":"Polygon","coordinates":[[[36.925713,48.777788],[36.926808,48.777321],[36.926629,48.777128],[36.925528,48.777581],[36.925713,48.777788]]]}},{"type":"Feature","properties":{"cadnum":"1420355101:00:000:0029"},"geometry":{"type":"Polygon","coordinates":[[[36.925528,48.777581],[36.924963,48.777813],[36.924963,48.77781316606498],[36.92485799999999,48.777856],[36.924857,48.777856],[36.924677821759836,48.77792950231458],[36.924581,48.777969],[36.92458153736656,48.777969],[36.924172,48.778137],[36.924158,48.778143],[36.924365,48.778365],[36.924963,48.77810949090909],[36.924963,48.77811],[36.92512033333302,48.7780422666668],[36.925135,48.778036],[36.925135,48.778035952542375],[36.92546964459172,48.77789188520967],[36.925713,48.777788],[36.925528,48.777581]]]}},{"type":"Feature","properties":{"cadnum":"1420355101:00:000:0025"},"geometry":{"type":"Polygon","coordinates":[[[36.925528,48.777581],[36.925334,48.777386],[36.925135,48.77746806738544],[36.925135,48.777468],[36.92418600636943,48.777856],[36.924185,48.777856],[36.923983,48.777939],[36.924011,48.777969],[36.92401163636363,48.777969],[36.924172,48.778137],[36.924677821759595,48.77792950231468],[36.925135,48.777743],[36.925135,48.77774237345133],[36.925528,48.777581]]]}},{"type":"Feature","properties":{"cadnum":"1420355101:00:000:0021"},"geometry":{"type":"Polygon","coordinates":[[[36.930491,48.77421],[36.929961,48.774104],[36.92990550612245,48.774236],[36.929905,48.774236],[36.929692,48.774745],[36.930038,48.774813],[36.930460341538314,48.774250203077116],[36.930491,48.77421]]]}},{"type":"Feature","properties":{"cadnum":"1420355101:00:000:0010"},"geometry":{"type":"Polygon","coordinates":[[[36.920354,48.774133],[36.920049,48.774349],[36.9200508,48.774349],[36.919537,48.774716],[36.919641,48.774781],[36.919641,48.774779943462896],[36.91982,48.77489],[36.920633,48.774308],[36.920354,48.774133]]]}},{"type":"Feature","properties":{"cadnum":"1420355101:00:000:0009"},"geometry":{"type":"Polygon","coordinates":[[[36.921455,48.773716],[36.92118,48.773547],[36.920354,48.774133],[36.92051821142858,48.774236],[36.920517,48.774236],[36.920633,48.774308],[36.921455,48.773716]]]}},{"type":"Feature","properties":{"cadnum":"1420355101:00:000:0027"},"geometry":{"type":"Polygon","coordinates":[[[36.923763,48.77727],[36.924935,48.776646],[36.924652,48.776456],[36.923623,48.777167],[36.923763,48.77727]]]}},{"type":"Feature","properties":{"cadnum":"1420355101:00:000:0011"},"geometry":{"type":"Polygon","coordinates":[[[36.934376,48.774272],[36.934416,48.773023],[36.93417,48.77302],[36.934129,48.774269],[36.934376,48.774272]]]}},{"type":"Feature","properties":{"cadnum":"1420355101:00:000:0016"},"geometry":{"type":"Polygon","coordinates":[[[36.928839,48.772173],[36.929045,48.771679],[36.928695,48.771623],[36.928493,48.772117],[36.928839,48.772173]]]}},{"type":"Feature","properties":{"cadnum":"1420355101:00:000:0020"},"geometry":{"type":"Polygon","coordinates":[[[36.927011,48.773813],[36.927074,48.773692],[36.926881,48.77365],[36.926822,48.773769],[36.927011,48.773813]]]}},{"type":"Feature","properties":{"cadnum":"1420355101:00:000:0014"},"geometry":{"type":"Polygon","coordinates":[[[36.933101,48.775752],[36.933806,48.775695],[36.934382,48.775681],[36.934368,48.775458],[36.932994,48.7755],[36.933101,48.775752]]]}},{"type":"Feature","properties":{"cadnum":"1420355101:00:000:0017"},"geometry":{"type":"Polygon","coordinates":[[[36.932994,48.7755],[36.93421,48.775465],[36.934188,48.775231],[36.934143,48.775231],[36.932877,48.775263],[36.932944,48.7755],[36.932994,48.7755]]]}},{"type":"Feature","properties":{"cadnum":"1420355101:00:000:0015"},"geometry":{"type":"Polygon","coordinates":[[[36.934382,48.775681],[36.935571,48.775645],[36.935487,48.775427],[36.934368,48.775458],[36.934382,48.775681]]]}},{"type":"Feature","properties":{"cadnum":"1420355101:00:000:0013"},"geometry":{"type":"Polygon","coordinates":[[[36.934143,48.775231],[36.935355,48.775201],[36.935261,48.774968],[36.934049,48.774994],[36.934143,48.775231]]]}},{"type":"Feature","properties":{"cadnum":"1420355101:00:000:0012"},"geometry":{"type":"Polygon","coordinates":[[[36.932877,48.775263],[36.934143,48.775231],[36.934049,48.774994],[36.932778,48.775021],[36.932877,48.775263]]]}},{"type":"Feature","properties":{"cadnum":"1420355101:00:000:0023"},"geometry":{"type":"Polygon","coordinates":[[[36.933743,48.774828],[36.935248,48.774802],[36.935171,48.774541],[36.935158,48.774468],[36.935145,48.774372],[36.934575,48.774453],[36.933716,48.774464],[36.93372,48.774512],[36.933743,48.774828]]]}},{"type":"Feature","properties":{"cadnum":"1420355101:00:000:0018"},"geometry":{"type":"Polygon","coordinates":[[[36.93421,48.775465],[36.934368,48.775458],[36.935487,48.775427],[36.935405,48.775199],[36.935355,48.775201],[36.934188,48.775231],[36.93421,48.775465]]]}}]}