{"type":"FeatureCollection","features":[{"type":"Feature","properties":{"cadnum":"1420386903:00:000:0019"},"geometry":{"type":"Polygon","coordinates":[[[37.131454,48.69308],[37.13073,48.693421],[37.1319633314239,48.69453],[37.131962,48.69453],[37.132536,48.695045],[37.1332,48.694743],[37.132976,48.69453],[37.1329754331414,48.69453],[37.131454,48.69308]]]}},{"type":"Feature","properties":{"cadnum":"1420386903:00:000:0013"},"geometry":{"type":"Polygon","coordinates":[[[37.128382,48.696675],[37.128382,48.69667398898072],[37.128596,48.696572],[37.128382,48.69637693076923],[37.128382,48.696376],[37.128336,48.696335],[37.12821,48.696392],[37.12821,48.69639220891364],[37.127977,48.696498],[37.128197,48.696708],[37.12821,48.696721361111116],[37.12821,48.696722],[37.128233,48.696745],[37.128382,48.696675]]]}},{"type":"Feature","properties":{"cadnum":"1420386903:00:000:0015"},"geometry":{"type":"Polygon","coordinates":[[[37.128197,48.696708],[37.127847,48.696877],[37.12821,48.69720946728972],[37.12821,48.69721],[37.128476,48.697453],[37.128822,48.69729],[37.12836625531915,48.69686627659574],[37.128197,48.696708]]]}},{"type":"Feature","properties":{"cadnum":"1420386903:00:000:0020"},"geometry":{"type":"Polygon","coordinates":[[[37.133304,48.694233],[37.13362418048781,48.69453],[37.133623,48.69453],[37.133703,48.694603968253965],[37.133703,48.694604],[37.13371463636411,48.69461472727316],[37.133875,48.694763],[37.133875,48.6947625625],[37.133959,48.69484],[37.134301,48.694684],[37.13425494155844,48.694643],[37.134256,48.694643],[37.133865239714424,48.69429322361418],[37.133627,48.694079],[37.133304,48.694233]]]}},{"type":"Feature","properties":{"cadnum":"1420386903:00:000:0018"},"geometry":{"type":"Polygon","coordinates":[[[37.132882,48.695354],[37.133529,48.69506],[37.1332,48.694743],[37.132536,48.695045],[37.132882,48.695354]]]}},{"type":"Feature","properties":{"cadnum":"1420386903:00:000:0031"},"geometry":{"type":"Polygon","coordinates":[[[37.132634,48.69659],[37.132999,48.696415],[37.132374,48.695866],[37.132024,48.696042],[37.132634,48.69659]]]}},{"type":"Feature","properties":{"cadnum":"1420386903:00:000:0032"},"geometry":{"type":"Polygon","coordinates":[[[37.133241,48.697136],[37.133619,48.696963],[37.133026,48.696442],[37.132999,48.696415],[37.132634,48.69659],[37.133241,48.697136]]]}},{"type":"Feature","properties":{"cadnum":"1420386903:00:000:0037"},"geometry":{"type":"Polygon","coordinates":[[[37.12941,48.695819],[37.129805,48.695618],[37.129365,48.695191],[37.128929,48.695383],[37.12941,48.695819]]]}},{"type":"Feature","properties":{"cadnum":"1420386903:00:000:0012"},"geometry":{"type":"Polygon","coordinates":[[[37.128907,48.696356],[37.129244,48.696189],[37.129019,48.695976],[37.128673,48.696139],[37.128907,48.696356]]]}},{"type":"Feature","properties":{"cadnum":"1420386903:00:000:0024"},"geometry":{"type":"Polygon","coordinates":[[[37.133026,48.696442],[37.133359,48.696279],[37.132734,48.695697],[37.132374,48.695866],[37.133026,48.696442]]]}},{"type":"Feature","properties":{"cadnum":"1420386903:00:000:0028"},"geometry":{"type":"Polygon","coordinates":[[[37.12831408130081,48.69453],[37.128313,48.69453],[37.12808,48.694613],[37.128112,48.694643],[37.128113065693434,48.694643],[37.12821,48.69473094701987],[37.12821,48.694732],[37.128929,48.695383],[37.129365,48.695191],[37.128649,48.69453],[37.12864891457287,48.69453],[37.128556,48.694444],[37.12831408130081,48.69453]]]}},{"type":"Feature","properties":{"cadnum":"1420386903:00:000:0026"},"geometry":{"type":"Polygon","coordinates":[[[37.130259,48.696605],[37.130663,48.696415],[37.130124,48.695917],[37.129715,48.696104],[37.130259,48.696605]]]}},{"type":"Feature","properties":{"cadnum":"1420386903:00:000:0025"},"geometry":{"type":"Polygon","coordinates":[[[37.133875,48.697148],[37.133875,48.69714710163934],[37.134148,48.69702],[37.133875,48.696764177528095],[37.133875,48.696764],[37.133359,48.696279],[37.133026,48.696442],[37.133703,48.69703862178702],[37.133703,48.697039],[37.133843,48.697162],[37.133875,48.697148]]]}},{"type":"Feature","properties":{"cadnum":"1420386903:00:000:0008"},"geometry":{"type":"Polygon","coordinates":[[[37.12821,48.69570053333333],[37.12821,48.695701],[37.12836137500053,48.69563493749977],[37.128382,48.695626],[37.128382,48.695625936416185],[37.128556,48.69555],[37.128382,48.695383040462424],[37.128382,48.695383],[37.12833934579827,48.69534211215324],[37.12821,48.695218],[37.12821,48.69521812269939],[37.12773,48.694758],[37.127361,48.694921],[37.128202,48.695704],[37.12821,48.69570053333333]]]}},{"type":"Feature","properties":{"cadnum":"1420386903:00:000:0009"},"geometry":{"type":"Polygon","coordinates":[[[37.129535,48.696952],[37.129873,48.696785],[37.129244,48.696189],[37.128907,48.696356],[37.129535,48.696952]]]}},{"type":"Feature","properties":{"cadnum":"1420386903:00:000:0010"},"geometry":{"type":"Polygon","coordinates":[[[37.128382,48.69688286926995],[37.128822,48.69729],[37.129198,48.697115],[37.128596,48.696572],[37.128233,48.696745],[37.128382,48.696883],[37.128382,48.69688286926995]]]}},{"type":"Feature","properties":{"cadnum":"1420386903:00:000:0027"},"geometry":{"type":"Polygon","coordinates":[[[37.129715,48.696104],[37.130124,48.695917],[37.129805,48.695618],[37.12941,48.695819],[37.129715,48.696104]]]}},{"type":"Feature","properties":{"cadnum":"1420386903:00:000:0033"},"geometry":{"type":"Polygon","coordinates":[[[37.133462,48.694381],[37.133034,48.694586],[37.133094,48.694643],[37.13309426751592,48.694643],[37.1332,48.694743],[37.133529,48.69506],[37.133875,48.694884],[37.133875,48.694882984375],[37.133959,48.69484],[37.13371463636411,48.69461472727316],[37.133623,48.69453],[37.13362294274809,48.69453],[37.133462,48.694381]]]}},{"type":"Feature","properties":{"cadnum":"1420386903:00:000:0036"},"geometry":{"type":"Polygon","coordinates":[[[37.129198,48.697115],[37.129535,48.696952],[37.128907,48.696356],[37.128569,48.696545],[37.128596,48.696572],[37.129198,48.697115]]]}},{"type":"Feature","properties":{"cadnum":"1420386903:00:000:0023"},"geometry":{"type":"Polygon","coordinates":[[[37.135298,48.69653],[37.135636,48.696409],[37.134759,48.6956],[37.134441,48.695772],[37.135298,48.69653]]]}},{"type":"Feature","properties":{"cadnum":"1420386903:00:000:0038"},"geometry":{"type":"Polygon","coordinates":[[[37.136237,48.696409],[37.137181,48.696083],[37.136435,48.695333],[37.136066,48.695481],[37.135739,48.695143],[37.135146,48.695395],[37.136066,48.696252],[37.136237,48.696409]]]}},{"type":"Feature","properties":{"cadnum":"1420386903:00:000:0022"},"geometry":{"type":"Polygon","coordinates":[[[37.134441,48.695772],[37.134759,48.6956],[37.134135,48.695022],[37.133789,48.6952],[37.134441,48.695772]]]}},{"type":"Feature","properties":{"cadnum":"1420386903:00:000:0030"},"geometry":{"type":"Polygon","coordinates":[[[37.135636,48.696409],[37.136066,48.696252],[37.135074,48.695327],[37.134674,48.695519],[37.134759,48.6956],[37.135636,48.696409]]]}},{"type":"Feature","properties":{"cadnum":"1420386903:00:000:0029"},"geometry":{"type":"Polygon","coordinates":[[[37.134674,48.695519],[37.135074,48.695327],[37.134525,48.69482],[37.134135,48.695022],[37.134674,48.695519]]]}},{"type":"Feature","properties":{"cadnum":"1420386903:00:000:0035"},"geometry":{"type":"Polygon","coordinates":[[[37.131961,48.693563],[37.132361,48.693359],[37.13184,48.692878],[37.131454,48.69308],[37.131961,48.693563]]]}},{"type":"Feature","properties":{"cadnum":"1420386903:00:000:0021"},"geometry":{"type":"Polygon","coordinates":[[[37.133304,48.694233],[37.133627,48.694079],[37.132141,48.692742],[37.13184,48.692878],[37.133304,48.694233]]]}},{"type":"Feature","properties":{"cadnum":"1420386903:00:000:0034"},"geometry":{"type":"Polygon","coordinates":[[[37.133034,48.694586],[37.133462,48.694381],[37.133304,48.694233],[37.133246,48.69418],[37.132819,48.694378],[37.133034,48.694586]]]}},{"type":"Feature","properties":{"cadnum":"1420386903:00:000:0017"},"geometry":{"type":"Polygon","coordinates":[[[37.127051,48.696216],[37.12742,48.696053],[37.126575,48.695271],[37.126265,48.695464],[37.127051,48.696216]]]}},{"type":"Feature","properties":{"cadnum":"1420386903:00:000:0016"},"geometry":{"type":"Polygon","coordinates":[[[37.127847,48.696877],[37.128197,48.696708],[37.127977,48.696498],[37.127623,48.696673],[37.127847,48.696877]]]}},{"type":"Feature","properties":{"cadnum":"1420386903:00:000:0014"},"geometry":{"type":"Polygon","coordinates":[[[37.12742,48.696053],[37.127793,48.695902],[37.12694,48.695108],[37.126575,48.695271],[37.12742,48.696053]]]}},{"type":"Feature","properties":{"cadnum":"1420386903:00:000:0039"},"geometry":{"type":"Polygon","coordinates":[[[37.127021,48.697269],[37.127847,48.696877],[37.127623,48.696673],[37.127051,48.696216],[37.126265,48.695464],[37.126221,48.695425],[37.125359,48.695811],[37.127021,48.697269]]]}}]}