{"type":"FeatureCollection","features":[{"type":"Feature","properties":{"cadnum":"1420985501:01:000:0033"},"geometry":{"type":"Polygon","coordinates":[[[37.914469,48.575822],[37.915371,48.575218],[37.914978,48.575003],[37.914128,48.575631],[37.91419,48.575667],[37.913733,48.575993],[37.913733,48.5759933850365],[37.913356,48.576261],[37.913612,48.576401],[37.913733,48.576319366438355],[37.913733,48.576321],[37.914469,48.575822]]]}},{"type":"Feature","properties":{"cadnum":"1420985501:01:000:0004"},"geometry":{"type":"Polygon","coordinates":[[[37.918367,48.577048],[37.918662,48.576974],[37.918691,48.577021],[37.918823,48.576988],[37.918795,48.576941],[37.918951,48.576902],[37.918885,48.576787],[37.91877,48.576711],[37.918658,48.576793],[37.918535,48.576717],[37.918519,48.576728],[37.918414,48.576658],[37.918219,48.576787],[37.918367,48.577048]]]}}]}