{"type":"FeatureCollection","features":[{"type":"Feature","properties":{"cadnum":"1420382203:00:000:0096"},"geometry":{"type":"Polygon","coordinates":[[[37.039929,48.802485],[37.039744,48.802482],[37.03974,48.803302],[37.03974073286052,48.803302],[37.03974,48.803612],[37.039924,48.803627],[37.03992474200913,48.803302],[37.039925,48.803302],[37.039929,48.802485]]]}},{"type":"Feature","properties":{"cadnum":"1420382203:00:000:0089"},"geometry":{"type":"Polygon","coordinates":[[[37.040491,48.802399499999844],[37.040495,48.802219],[37.040495,48.802095],[37.04045275999956,48.80209403999999],[37.040252,48.802089],[37.040227,48.803302],[37.04022763102726,48.803302],[37.04022,48.803666],[37.040319,48.803667222222224],[37.040319,48.803668],[37.040463,48.803669],[37.040469881250004,48.803302],[37.040471,48.803302],[37.040491,48.802401],[37.040491,48.802399499999844]]]}},{"type":"Feature","properties":{"cadnum":"1420382203:00:000:0129"},"geometry":{"type":"Polygon","coordinates":[[[37.040317,48.80178],[37.040334,48.800853],[37.040003,48.800853],[37.039994,48.80178],[37.040317,48.80178]]]}},{"type":"Feature","properties":{"cadnum":"1420382203:00:000:0128"},"geometry":{"type":"Polygon","coordinates":[[[37.040313,48.802105],[37.040317,48.80178],[37.039994,48.80178],[37.03999,48.802502],[37.039984,48.803302],[37.039985382513656,48.803302],[37.039984,48.803555],[37.040286,48.803555],[37.040293,48.803189],[37.040292171261484,48.803189],[37.040313,48.802105]]]}},{"type":"Feature","properties":{"cadnum":"1420382203:00:000:0095"},"geometry":{"type":"Polygon","coordinates":[[[37.039929,48.802485],[37.039943,48.800838],[37.039753,48.800835],[37.039744,48.802482],[37.039929,48.802485]]]}},{"type":"Feature","properties":{"cadnum":"1420382203:00:000:0088"},"geometry":{"type":"Polygon","coordinates":[[[37.040491,48.80209490909091],[37.040495,48.802095],[37.040522,48.800838],[37.040491,48.800838],[37.040319,48.800838],[37.040275,48.800838],[37.040252,48.802089],[37.040319,48.80209068200837],[37.040319,48.802091],[37.04045275999956,48.80209403999999],[37.040491,48.802095],[37.040491,48.80209490909091]]]}},{"type":"Feature","properties":{"cadnum":"1420382203:00:000:0074"},"geometry":{"type":"Polygon","coordinates":[[[37.033847,48.798752],[37.033834,48.798388],[37.033824,48.797838],[37.033484,48.797838],[37.033505,48.79874],[37.033847,48.798752]]]}},{"type":"Feature","properties":{"cadnum":"1420382203:00:000:0064"},"geometry":{"type":"Polygon","coordinates":[[[37.034153,48.797825],[37.034121,48.796855],[37.033807,48.796855],[37.033824,48.797825],[37.034153,48.797825]]]}},{"type":"Feature","properties":{"cadnum":"1420382203:00:000:0075"},"geometry":{"type":"Polygon","coordinates":[[[37.033824,48.797838],[37.033824,48.797825],[37.033807,48.796855],[37.033802,48.796698],[37.033452,48.79668],[37.033484,48.797838],[37.033824,48.797838]]]}},{"type":"Feature","properties":{"cadnum":"1420382203:00:000:0063"},"geometry":{"type":"Polygon","coordinates":[[[37.034148,48.798763],[37.03417,48.798349],[37.034153,48.797825],[37.033824,48.797825],[37.033834,48.798388],[37.033847,48.798752],[37.034148,48.798763]]]}},{"type":"Feature","properties":{"cadnum":"1420382203:00:000:0117"},"geometry":{"type":"Polygon","coordinates":[[[37.033794,48.80303],[37.033834,48.801421],[37.033452,48.801417],[37.033415,48.803003],[37.033794,48.80303]]]}},{"type":"Feature","properties":{"cadnum":"1420382203:00:000:0116"},"geometry":{"type":"Polygon","coordinates":[[[37.033834,48.801421],[37.033851,48.800612],[37.033474,48.800607],[37.033452,48.801417],[37.033834,48.801421]]]}},{"type":"Feature","properties":{"cadnum":"1420382203:00:000:0059"},"geometry":{"type":"Polygon","coordinates":[[[37.045503,48.798785],[37.045543,48.79732],[37.045134,48.797334],[37.045134,48.797361],[37.045099,48.798722],[37.045099,48.798781],[37.045503,48.798785]]]}},{"type":"Feature","properties":{"cadnum":"1420382203:00:000:0056"},"geometry":{"type":"Polygon","coordinates":[[[37.045099,48.798722],[37.045134,48.797361],[37.044726,48.797367],[37.044712,48.798719],[37.045099,48.798722]]]}},{"type":"Feature","properties":{"cadnum":"1420382203:00:000:0065"},"geometry":{"type":"Polygon","coordinates":[[[37.041038,48.799296],[37.041074,48.798649],[37.041069,48.798379],[37.040733,48.798376],[37.040737,48.798636],[37.040706,48.799281],[37.041038,48.799296]]]}},{"type":"Feature","properties":{"cadnum":"1420382203:00:000:0066"},"geometry":{"type":"Polygon","coordinates":[[[37.041069,48.798379],[37.041056,48.79711],[37.040719,48.797103],[37.040733,48.798376],[37.041069,48.798379]]]}},{"type":"Feature","properties":{"cadnum":"1420382203:00:000:0087"},"geometry":{"type":"Polygon","coordinates":[[[37.044231,48.798666],[37.044264,48.797373],[37.043885,48.797379],[37.043841,48.798663],[37.044231,48.798666]]]}},{"type":"Feature","properties":{"cadnum":"1420382203:00:000:0058"},"geometry":{"type":"Polygon","coordinates":[[[37.045471,48.799542],[37.045503,48.798785],[37.045099,48.798781],[37.045063,48.79953],[37.045471,48.799542]]]}},{"type":"Feature","properties":{"cadnum":"1420382203:00:000:0086"},"geometry":{"type":"Polygon","coordinates":[[[37.044187,48.799471],[37.044231,48.798666],[37.043841,48.798663],[37.043814,48.799456],[37.044187,48.799471]]]}},{"type":"Feature","properties":{"cadnum":"1420382203:00:000:0051"},"geometry":{"type":"Polygon","coordinates":[[[37.046621,48.801953],[37.04632,48.80195],[37.046303,48.803302],[37.046303920382165,48.803302],[37.046302,48.803503],[37.046612,48.803506],[37.046613,48.803189],[37.04661275389177,48.803189],[37.046621,48.801953]]]}},{"type":"Feature","properties":{"cadnum":"1420382203:00:000:0142"},"geometry":{"type":"Polygon","coordinates":[[[37.051286,48.803247],[37.051186,48.802931],[37.050791,48.802981],[37.05084710526316,48.803189],[37.050846,48.803189],[37.050873,48.803285],[37.051286,48.803247]]]}},{"type":"Feature","properties":{"cadnum":"1420382203:00:000:0084"},"geometry":{"type":"Polygon","coordinates":[[[37.050214,48.802799],[37.049405,48.802873],[37.049463,48.803302],[37.049463967391304,48.803302],[37.049474,48.803373],[37.050281,48.803299],[37.050214,48.802799]]]}},{"type":"Feature","properties":{"cadnum":"1420382203:00:000:0085"},"geometry":{"type":"Polygon","coordinates":[[[37.047816,48.803094],[37.047789,48.802243],[37.047541,48.802239],[37.047556,48.803107],[37.047557682051284,48.803189],[37.047557,48.803189],[37.047559607843134,48.80328288235273],[37.04756,48.803302],[37.04756013888889,48.803302],[37.047564,48.803441],[37.04783,48.803444],[37.04781989662029,48.80320978528854],[37.047816,48.803094]]]}},{"type":"Feature","properties":{"cadnum":"1420382203:00:000:0141"},"geometry":{"type":"Polygon","coordinates":[[[37.050791,48.802981],[37.050431,48.801662],[37.050387,48.801508],[37.049991,48.801555],[37.05023,48.802333],[37.050418,48.803302],[37.050418289855074,48.803302],[37.050423,48.803327],[37.050873,48.803285],[37.050791,48.802981]]]}},{"type":"Feature","properties":{"cadnum":"1420382203:00:000:0093"},"geometry":{"type":"Polygon","coordinates":[[[37.049527,48.798888],[37.049164,48.798891],[37.049149,48.799684],[37.04915008474576,48.799684],[37.049149,48.799748],[37.049509,48.799719],[37.049510175373136,48.799632022387904],[37.049527,48.798888]]]}},{"type":"Feature","properties":{"cadnum":"1420382203:00:000:0094"},"geometry":{"type":"Polygon","coordinates":[[[37.049164,48.798891],[37.049527,48.798888],[37.049558,48.797314],[37.049195,48.797316],[37.049164,48.798891]]]}},{"type":"Feature","properties":{"cadnum":"1420382203:00:000:0039"},"geometry":{"type":"Polygon","coordinates":[[[37.047237,48.799066],[37.046702,48.799033],[37.046629322807014,48.799571],[37.046629,48.799571],[37.04662618007664,48.7995942643677],[37.046625,48.799603],[37.046625120358804,48.79960300703985],[37.046625,48.799604],[37.047155,48.799634],[37.047237,48.799066]]]}},{"type":"Feature","properties":{"cadnum":"1420382203:00:000:0070"},"geometry":{"type":"Polygon","coordinates":[[[37.047793,48.798728],[37.047843,48.79734],[37.047506,48.797355],[37.047461,48.798728],[37.047793,48.798728]]]}},{"type":"Feature","properties":{"cadnum":"1420382203:00:000:0071"},"geometry":{"type":"Polygon","coordinates":[[[37.046541,48.799592],[37.046589,48.799068],[37.046598,48.798778],[37.046216,48.798776],[37.046216,48.79898],[37.046212,48.799062],[37.046199,48.799198],[37.046159,48.799574],[37.046541,48.799592]]]}},{"type":"Feature","properties":{"cadnum":"1420382203:00:000:0040"},"geometry":{"type":"Polygon","coordinates":[[[37.047237,48.799066],[37.047425,48.797702],[37.046895,48.797669],[37.046702,48.799033],[37.047237,48.799066]]]}},{"type":"Feature","properties":{"cadnum":"1420382203:00:000:0108"},"geometry":{"type":"Polygon","coordinates":[[[37.049868,48.798811],[37.049904,48.797314],[37.049558,48.797314],[37.049527,48.798811],[37.049868,48.798811]]]}},{"type":"Feature","properties":{"cadnum":"1420382203:00:000:0104"},"geometry":{"type":"Polygon","coordinates":[[[37.051036,48.798406],[37.051378,48.798403],[37.051333,48.797266],[37.050987,48.797266],[37.051036,48.798406]]]}},{"type":"Feature","properties":{"cadnum":"1420382203:00:000:0107"},"geometry":{"type":"Polygon","coordinates":[[[37.049868,48.798811],[37.049527,48.798811],[37.049527,48.798888],[37.04951155527638,48.799571],[37.049511,48.799571],[37.049510175373136,48.799632022387904],[37.049509,48.799684],[37.04950947297297,48.799684],[37.049509,48.799719],[37.049851,48.799693],[37.049851127393836,48.79967745795165],[37.049868,48.798811]]]}},{"type":"Feature","properties":{"cadnum":"1420382203:00:000:0069"},"geometry":{"type":"Polygon","coordinates":[[[37.04778,48.799149],[37.047793,48.798728],[37.047461,48.798728],[37.047447,48.799172],[37.04743935957447,48.799571],[37.047439,48.799571],[37.047438,48.799642],[37.047757,48.79966],[37.04778,48.799149]]]}},{"type":"Feature","properties":{"cadnum":"1420382203:00:000:0103"},"geometry":{"type":"Polygon","coordinates":[[[37.051378,48.798403],[37.051036,48.798406],[37.051072,48.79929],[37.051306,48.79929205865103],[37.051306,48.799293],[37.051413,48.799293],[37.051378,48.798403]]]}},{"type":"Feature","properties":{"cadnum":"1420382203:00:000:0137"},"geometry":{"type":"Polygon","coordinates":[[[37.050431,48.801662],[37.050777,48.801614],[37.050598,48.801037],[37.05054,48.800741],[37.050217,48.80078],[37.050274,48.801123],[37.050431,48.801662]]]}},{"type":"Feature","properties":{"cadnum":"1420382203:00:000:0138"},"geometry":{"type":"Polygon","coordinates":[[[37.050791,48.802981],[37.051186,48.802931],[37.051127,48.802745],[37.050777,48.801614],[37.050431,48.801662],[37.050791,48.802981]]]}},{"type":"Feature","properties":{"cadnum":"1420382203:00:000:0123"},"geometry":{"type":"Polygon","coordinates":[[[37.051055,48.801524],[37.051392,48.801476],[37.051139,48.800627],[37.050793,48.800675],[37.05091,48.801083],[37.051055,48.801524]]]}},{"type":"Feature","properties":{"cadnum":"1420382203:00:000:0124"},"geometry":{"type":"Polygon","coordinates":[[[37.051477,48.80284542647058],[37.05149,48.802885],[37.051827,48.802837],[37.051472,48.801757],[37.051392,48.801476],[37.051055,48.801524],[37.051059,48.80155],[37.051422,48.802678],[37.051477,48.802848],[37.051477,48.80284542647058]]]}},{"type":"Feature","properties":{"cadnum":"1420382203:00:000:0078"},"geometry":{"type":"Polygon","coordinates":[[[37.046881,48.803133],[37.047237,48.803118],[37.047223,48.801805],[37.046872,48.801796],[37.046881,48.803133]]]}},{"type":"Feature","properties":{"cadnum":"1420382203:00:000:0122"},"geometry":{"type":"Polygon","coordinates":[[[37.051422,48.802678],[37.051306,48.802316],[37.051306,48.80231753719006],[37.051059,48.80155],[37.050717,48.801598],[37.051068,48.802728],[37.051422,48.802678]]]}},{"type":"Feature","properties":{"cadnum":"1420382203:00:000:0044"},"geometry":{"type":"Polygon","coordinates":[[[37.051477,48.80175621146954],[37.051751,48.801713],[37.051575,48.801195],[37.051392,48.800589],[37.051139,48.800627],[37.051472,48.801757],[37.051477,48.801757],[37.051477,48.80175621146954]]]}},{"type":"Feature","properties":{"cadnum":"1420382203:00:000:0121"},"geometry":{"type":"Polygon","coordinates":[[[37.050717,48.801598],[37.051059,48.80155],[37.051055,48.801524],[37.05091,48.801083],[37.050793,48.800675],[37.05048,48.800725],[37.050537,48.801021],[37.050717,48.801598]]]}},{"type":"Feature","properties":{"cadnum":"1420382203:00:000:0077"},"geometry":{"type":"Polygon","coordinates":[[[37.047223,48.801805],[37.047218,48.800938],[37.046864,48.800935],[37.046872,48.801796],[37.047223,48.801805]]]}},{"type":"Feature","properties":{"cadnum":"1420382203:00:000:0083"},"geometry":{"type":"Polygon","coordinates":[[[37.047789,48.802243],[37.04774,48.800947],[37.047514,48.800941],[37.047541,48.802239],[37.047789,48.802243]]]}},{"type":"Feature","properties":{"cadnum":"1420382203:00:000:0050"},"geometry":{"type":"Polygon","coordinates":[[[37.046621,48.801953],[37.046625,48.801316],[37.046617,48.800921],[37.046325,48.800917],[37.046329,48.801394],[37.04632,48.80195],[37.046621,48.801953]]]}},{"type":"Feature","properties":{"cadnum":"1420382203:00:000:0062"},"geometry":{"type":"Polygon","coordinates":[[[37.048705,48.801285],[37.048696,48.80095],[37.0484,48.800944],[37.048404,48.801281],[37.048705,48.801285]]]}},{"type":"Feature","properties":{"cadnum":"1420382203:00:000:0139"},"geometry":{"type":"Polygon","coordinates":[[[37.049991,48.801555],[37.050387,48.801508],[37.050274,48.801123],[37.050217,48.80078],[37.049789,48.800833],[37.049875,48.801224],[37.049991,48.801555]]]}},{"type":"Feature","properties":{"cadnum":"1420382203:00:000:0082"},"geometry":{"type":"Polygon","coordinates":[[[37.040715,48.802222],[37.040495,48.802219],[37.04047350415512,48.803189],[37.040472,48.803189],[37.040463,48.803669],[37.040683,48.803666],[37.04068986792453,48.803302],[37.040691,48.803302],[37.040715,48.802222]]]}},{"type":"Feature","properties":{"cadnum":"1420382203:00:000:0042"},"geometry":{"type":"Polygon","coordinates":[[[37.057554,48.7995],[37.057468,48.798612],[37.057122,48.798627],[37.057199,48.799489],[37.057554,48.7995]]]}},{"type":"Feature","properties":{"cadnum":"1420382203:00:000:0047"},"geometry":{"type":"Polygon","coordinates":[[[37.058569,48.798559],[37.058915,48.798557],[37.058906,48.797213],[37.058569,48.79721],[37.058569,48.798559]]]}},{"type":"Feature","properties":{"cadnum":"1420382203:00:000:0046"},"geometry":{"type":"Polygon","coordinates":[[[37.058919,48.799432],[37.058915,48.798557],[37.058569,48.798559],[37.058564,48.799426],[37.058919,48.799432]]]}},{"type":"Feature","properties":{"cadnum":"1420382203:00:000:0052"},"geometry":{"type":"Polygon","coordinates":[[[37.058214,48.799489],[37.058556,48.799482],[37.058533,48.799027],[37.05842,48.798592],[37.058084,48.798592],[37.058183,48.798971],[37.058214,48.799489]]]}},{"type":"Feature","properties":{"cadnum":"1420382203:00:000:0053"},"geometry":{"type":"Polygon","coordinates":[[[37.05842,48.798592],[37.05808,48.79727],[37.057738,48.797285],[37.058084,48.798592],[37.05842,48.798592]]]}},{"type":"Feature","properties":{"cadnum":"1420382203:00:000:0043"},"geometry":{"type":"Polygon","coordinates":[[[37.057122,48.798627],[37.057468,48.798612],[37.057347,48.797252],[37.056996,48.797234],[37.057122,48.798627]]]}},{"type":"Feature","properties":{"cadnum":"1420382203:00:000:0090"},"geometry":{"type":"Polygon","coordinates":[[[37.054441,48.799598],[37.054396,48.799145],[37.054292,48.798672],[37.05396,48.798698],[37.054063,48.799178],[37.054105,48.799598],[37.054441,48.799598]]]}},{"type":"Feature","properties":{"cadnum":"1420382203:00:000:0037"},"geometry":{"type":"Polygon","coordinates":[[[37.055506,48.799509],[37.055384,48.798592],[37.055051,48.798583],[37.055174,48.799506],[37.055506,48.799509]]]}},{"type":"Feature","properties":{"cadnum":"1420382203:00:000:0034"},"geometry":{"type":"Polygon","coordinates":[[[37.055789,48.798603],[37.05613,48.798598],[37.05612,48.797207],[37.055774,48.797207],[37.055789,48.798603]]]}},{"type":"Feature","properties":{"cadnum":"1420382203:00:000:0091"},"geometry":{"type":"Polygon","coordinates":[[[37.05396,48.798698],[37.054292,48.798672],[37.053992,48.79729],[37.053659,48.797299],[37.05396,48.798698]]]}},{"type":"Feature","properties":{"cadnum":"1420382203:00:000:0038"},"geometry":{"type":"Polygon","coordinates":[[[37.055384,48.798592],[37.055204,48.797222],[37.054872,48.797213],[37.055051,48.798583],[37.055384,48.798592]]]}},{"type":"Feature","properties":{"cadnum":"1420382203:00:000:0033"},"geometry":{"type":"Polygon","coordinates":[[[37.055797,48.7995],[37.056139,48.799494],[37.05613,48.798598],[37.055789,48.798603],[37.055797,48.7995]]]}},{"type":"Feature","properties":{"cadnum":"1420382203:00:000:0111"},"geometry":{"type":"Polygon","coordinates":[[[37.056489,48.79953],[37.056826,48.799521],[37.056795,48.799083],[37.056686,48.798601],[37.056359,48.798636],[37.056453,48.799062],[37.056489,48.79953]]]}},{"type":"Feature","properties":{"cadnum":"1420382203:00:000:0098"},"geometry":{"type":"Polygon","coordinates":[[[37.039969,48.79853],[37.039996,48.797044],[37.039556,48.797027],[37.039534,48.79853],[37.039969,48.79853]]]}},{"type":"Feature","properties":{"cadnum":"1420382203:00:000:0097"},"geometry":{"type":"Polygon","coordinates":[[[37.039956,48.79924],[37.039973,48.798684],[37.039969,48.79853],[37.039534,48.79853],[37.039524,48.799219],[37.039956,48.79924]]]}},{"type":"Feature","properties":{"cadnum":"1420382203:00:000:0054"},"geometry":{"type":"Polygon","coordinates":[[[37.038765,48.799187],[37.038765,48.798121],[37.038473,48.798125],[37.038473,48.798157],[37.038478,48.799169],[37.038765,48.799187]]]}},{"type":"Feature","properties":{"cadnum":"1420382203:00:000:0036"},"geometry":{"type":"Polygon","coordinates":[[[37.035864,48.797864],[37.035859,48.796766],[37.035559,48.796752],[37.035554,48.796932],[37.035559,48.797823],[37.035864,48.797864]]]}},{"type":"Feature","properties":{"cadnum":"1420382203:00:000:0048"},"geometry":{"type":"Polygon","coordinates":[[[37.038172,48.799163],[37.038172,48.798207],[37.037849,48.798184],[37.037853,48.799136],[37.038172,48.799163]]]}},{"type":"Feature","properties":{"cadnum":"1420382203:00:000:0080"},"geometry":{"type":"Polygon","coordinates":[[[37.038172,48.79816],[37.038473,48.798157],[37.038473,48.798125],[37.038478,48.796982],[37.038172,48.796982],[37.038172,48.79816]]]}},{"type":"Feature","properties":{"cadnum":"1420382203:00:000:0049"},"geometry":{"type":"Polygon","coordinates":[[[37.038172,48.798207],[37.038172,48.796982],[37.037849,48.796965],[37.037849,48.798184],[37.038172,48.798207]]]}},{"type":"Feature","properties":{"cadnum":"1420382203:00:000:0035"},"geometry":{"type":"Polygon","coordinates":[[[37.035905,48.798879],[37.035859,48.798796],[37.035855,48.798717],[37.035868,48.798717],[37.035864,48.797864],[37.035559,48.797823],[37.035568,48.798835],[37.035905,48.798879]]]}},{"type":"Feature","properties":{"cadnum":"1420382203:00:000:0079"},"geometry":{"type":"Polygon","coordinates":[[[37.038478,48.799169],[37.038473,48.798157],[37.038172,48.79816],[37.038172,48.799163],[37.038478,48.799169]]]}},{"type":"Feature","properties":{"cadnum":"1420382203:00:000:0109"},"geometry":{"type":"Polygon","coordinates":[[[37.036407,48.798982],[37.036411,48.797899],[37.03612,48.797899],[37.036124,48.798722],[37.036115,48.798932],[37.036407,48.798982]]]}},{"type":"Feature","properties":{"cadnum":"1420382203:00:000:0110"},"geometry":{"type":"Polygon","coordinates":[[[37.036411,48.797899],[37.036407,48.796823],[37.036291,48.796816],[37.036102,48.796808],[37.03612,48.797899],[37.036411,48.797899]]]}},{"type":"Feature","properties":{"cadnum":"1420382203:00:000:0055"},"geometry":{"type":"Polygon","coordinates":[[[37.038473,48.798125],[37.038765,48.798121],[37.038774,48.796989],[37.038478,48.796982],[37.038473,48.798125]]]}},{"type":"Feature","properties":{"cadnum":"1420382203:00:000:0100"},"geometry":{"type":"Polygon","coordinates":[[[37.060877,48.802382],[37.061196,48.802335],[37.060743,48.800835],[37.06042,48.800861],[37.060877,48.802382]]]}},{"type":"Feature","properties":{"cadnum":"1420382203:00:000:0068"},"geometry":{"type":"Polygon","coordinates":[[[37.058174,48.802524],[37.058501,48.802485],[37.058011,48.800929],[37.057671,48.800974],[37.058174,48.802524]]]}},{"type":"Feature","properties":{"cadnum":"1420382203:00:000:0106"},"geometry":{"type":"Polygon","coordinates":[[[37.061206,48.802361],[37.061583,48.802296],[37.061483,48.80195],[37.061089,48.800642],[37.060698,48.800684],[37.060743,48.800835],[37.061196,48.802335],[37.061206,48.802361]]]}},{"type":"Feature","properties":{"cadnum":"1420382203:00:000:0031"},"geometry":{"type":"Polygon","coordinates":[[[37.058663,48.800935],[37.058996,48.800914],[37.058713,48.800018],[37.058376,48.800039],[37.058663,48.800935]]]}},{"type":"Feature","properties":{"cadnum":"1420382203:00:000:0032"},"geometry":{"type":"Polygon","coordinates":[[[37.059175,48.802562],[37.059508,48.802542],[37.058996,48.800914],[37.058663,48.800935],[37.05908,48.802254],[37.059175,48.802562]]]}},{"type":"Feature","properties":{"cadnum":"1420382203:00:000:0115"},"geometry":{"type":"Polygon","coordinates":[[[37.057405,48.802349],[37.057728,48.802307],[37.057315,48.801021],[37.056983,48.801059],[37.057405,48.802349]]]}},{"type":"Feature","properties":{"cadnum":"1420382203:00:000:0114"},"geometry":{"type":"Polygon","coordinates":[[[37.056971,48.80102271929823],[37.056983,48.801059],[37.057315,48.801021],[37.057154,48.800512],[37.057055,48.800134],[37.056799,48.80015],[37.056799,48.80015007531381],[37.056732,48.800154],[37.056812,48.800542],[37.056971,48.801023],[37.056971,48.80102271929823]]]}},{"type":"Feature","properties":{"cadnum":"1420382203:00:000:0105"},"geometry":{"type":"Polygon","coordinates":[[[37.060698,48.800684],[37.061089,48.800642],[37.060854,48.799884],[37.060464,48.799908],[37.060698,48.800684]]]}},{"type":"Feature","properties":{"cadnum":"1420382203:00:000:0112"},"geometry":{"type":"Polygon","coordinates":[[[37.060055,48.80082],[37.060392,48.800763],[37.060141,48.799929],[37.059782,48.799953],[37.060055,48.80082]]]}},{"type":"Feature","properties":{"cadnum":"1420382203:00:000:0072"},"geometry":{"type":"Polygon","coordinates":[[[37.059359,48.800861],[37.059705,48.800838],[37.05944,48.799974],[37.05909,48.8],[37.059359,48.800861]]]}},{"type":"Feature","properties":{"cadnum":"1420382203:00:000:0023"},"geometry":{"type":"Polygon","coordinates":[[[37.059709,48.800846],[37.060055,48.80082],[37.059782,48.799953],[37.05944,48.799974],[37.059709,48.800846]]]}},{"type":"Feature","properties":{"cadnum":"1420382203:00:000:0024"},"geometry":{"type":"Polygon","coordinates":[[[37.060204,48.802423],[37.060554,48.802399],[37.060468,48.802142],[37.060055,48.80082],[37.059709,48.800846],[37.060128,48.802171],[37.060204,48.802423]]]}},{"type":"Feature","properties":{"cadnum":"1420382203:00:000:0113"},"geometry":{"type":"Polygon","coordinates":[[[37.060567,48.802453],[37.060887,48.802414],[37.060877,48.802382],[37.06042,48.800861],[37.060392,48.800763],[37.060055,48.80082],[37.060468,48.802142],[37.060554,48.802399],[37.060567,48.802453]]]}},{"type":"Feature","properties":{"cadnum":"1420382203:00:000:0067"},"geometry":{"type":"Polygon","coordinates":[[[37.057671,48.800974],[37.058011,48.800929],[37.057747,48.800081],[37.05741,48.800103],[37.057514,48.800494],[37.057671,48.800974]]]}},{"type":"Feature","properties":{"cadnum":"1420382203:00:000:0099"},"geometry":{"type":"Polygon","coordinates":[[[37.06042,48.800861],[37.060743,48.800835],[37.060464,48.799908],[37.060141,48.799929],[37.06042,48.800861]]]}},{"type":"Feature","properties":{"cadnum":"1420382203:00:000:0073"},"geometry":{"type":"Polygon","coordinates":[[[37.059778,48.802204],[37.060128,48.802171],[37.059705,48.800838],[37.059359,48.800861],[37.059778,48.802204]]]}},{"type":"Feature","properties":{"cadnum":"1420382203:00:000:0102"},"geometry":{"type":"Polygon","coordinates":[[[37.054126,48.802858],[37.054495,48.802844],[37.053925,48.801178],[37.053574,48.801213],[37.054126,48.802858]]]}},{"type":"Feature","properties":{"cadnum":"1420382203:00:000:0045"},"geometry":{"type":"Polygon","coordinates":[[[37.051908,48.803092],[37.052204,48.803068],[37.052124,48.802829],[37.051751,48.801713],[37.051472,48.801757],[37.051831,48.802852],[37.051908,48.803092]]]}},{"type":"Feature","properties":{"cadnum":"1420382203:00:000:0060"},"geometry":{"type":"Polygon","coordinates":[[[37.052304,48.801465],[37.052617,48.801417],[37.05242,48.800858],[37.052275,48.800489],[37.051971,48.800524],[37.05211,48.800923],[37.052304,48.801465]]]}},{"type":"Feature","properties":{"cadnum":"1420382203:00:000:0061"},"geometry":{"type":"Polygon","coordinates":[[[37.052828,48.802917],[37.053134,48.802875],[37.052703,48.801663],[37.052617,48.801417],[37.052304,48.801465],[37.052455,48.801875],[37.052828,48.802917]]]}},{"type":"Feature","properties":{"cadnum":"1420382203:00:000:0120"},"geometry":{"type":"Polygon","coordinates":[[[37.054428,48.802648],[37.054764,48.802627],[37.054284,48.801171],[37.053938,48.801208],[37.054428,48.802648]]]}},{"type":"Feature","properties":{"cadnum":"1420382203:00:000:0101"},"geometry":{"type":"Polygon","coordinates":[[[37.053574,48.801213],[37.053925,48.801178],[37.053749,48.800654],[37.053655,48.800346],[37.053291,48.800361],[37.053574,48.801213]]]}},{"type":"Feature","properties":{"cadnum":"1420382203:00:000:0057"},"geometry":{"type":"Polygon","coordinates":[[[37.051984,48.799903],[37.052254,48.799888],[37.052245,48.799799],[37.051971,48.799814],[37.051984,48.799903]]]}},{"type":"Feature","properties":{"cadnum":"1420382203:00:000:0076"},"geometry":{"type":"Polygon","coordinates":[[[37.052927,48.801314],[37.053246,48.801263],[37.052941,48.800376],[37.052608,48.800406],[37.052927,48.801314]]]}},{"type":"Feature","properties":{"cadnum":"1420382203:00:000:0119"},"geometry":{"type":"Polygon","coordinates":[[[37.053938,48.801208],[37.054284,48.801171],[37.054005,48.800331],[37.053655,48.800346],[37.053749,48.800654],[37.053925,48.801178],[37.053938,48.801208]]]}},{"type":"Feature","properties":{"cadnum":"1420382203:00:000:0118"},"geometry":{"type":"Polygon","coordinates":[[[37.040948,48.802166],[37.040975,48.800846],[37.040746,48.800844],[37.040715,48.802163],[37.040948,48.802166]]]}},{"type":"Feature","properties":{"cadnum":"1420382203:00:000:0081"},"geometry":{"type":"Polygon","coordinates":[[[37.040715,48.802222],[37.040746,48.800844],[37.040522,48.800838],[37.040495,48.802219],[37.040715,48.802222]]]}},{"type":"Feature","properties":{"cadnum":"1420382203:00:000:0008"},"geometry":{"type":"Polygon","coordinates":[[[37.044461,48.80066],[37.044465,48.800518],[37.044281,48.800515],[37.044277,48.80066],[37.044461,48.80066]]]}},{"type":"Feature","properties":{"cadnum":"1420382203:00:000:0092"},"geometry":{"type":"Polygon","coordinates":[[[37.044801,48.800654],[37.045359,48.800645],[37.045359,48.800382],[37.044771,48.800414],[37.044801,48.800654]]]}},{"type":"Feature","properties":{"cadnum":"1420382203:00:000:0041"},"geometry":{"type":"Polygon","coordinates":[[[37.045813,48.800657],[37.045813,48.800482],[37.045539,48.800482],[37.045539,48.800657],[37.045813,48.800657]]]}}]}