{"type":"FeatureCollection","features":[{"type":"Feature","properties":{"cadnum":"1420383303:00:000:0032"},"geometry":{"type":"Polygon","coordinates":[[[36.938095,48.689816],[36.936142,48.689934],[36.936001514731274,48.68994710225304],[36.935778,48.689966],[36.935885,48.691017],[36.93588574025974,48.691017],[36.93589,48.691058],[36.936121,48.691048],[36.936121,48.691047237322515],[36.937921,48.690966],[36.938095,48.689816]]]}},{"type":"Feature","properties":{"cadnum":"1420383303:00:000:0033"},"geometry":{"type":"Polygon","coordinates":[[[36.927199,48.690557],[36.927038,48.690554],[36.925577,48.690512],[36.92557311881188,48.690904],[36.925573,48.690904],[36.925572480769226,48.69096844230873],[36.925572,48.691017],[36.92557208952552,48.691017],[36.925564,48.692021],[36.927195,48.692054],[36.92719680347826,48.691017],[36.927197,48.691017],[36.927199,48.690557]]]}},{"type":"Feature","properties":{"cadnum":"1420383303:00:000:0030"},"geometry":{"type":"Polygon","coordinates":[[[36.928892,48.690435],[36.927199,48.690557],[36.92719749130435,48.690904],[36.927197,48.690904],[36.927195,48.692075],[36.927617,48.69208],[36.928753,48.691695],[36.928942,48.691636],[36.928911,48.690904],[36.92891053436426,48.690904],[36.928892,48.690435]]]}},{"type":"Feature","properties":{"cadnum":"1420383303:00:000:0031"},"geometry":{"type":"Polygon","coordinates":[[[36.930558300428736,48.69030324034335],[36.930338,48.690304],[36.929701,48.690352],[36.928892,48.690435],[36.928915,48.691017],[36.92891578551912,48.691017],[36.928942,48.691636],[36.929849,48.691339],[36.930456,48.69130315661104],[36.930456,48.691304],[36.931296,48.691253],[36.931287885386816,48.691017],[36.931288,48.691017],[36.931264,48.690298],[36.930558300428736,48.69030324034335]]]}},{"type":"Feature","properties":{"cadnum":"1420383303:00:000:0018"},"geometry":{"type":"Polygon","coordinates":[[[36.932871,48.688636],[36.933321,48.688629],[36.933303,48.687965],[36.932831,48.687974],[36.932871,48.688636]]]}},{"type":"Feature","properties":{"cadnum":"1420383303:00:000:0042"},"geometry":{"type":"Polygon","coordinates":[[[36.934485,48.690592],[36.935831,48.690521],[36.935778,48.689966],[36.934435,48.690064],[36.934485,48.690592]]]}},{"type":"Feature","properties":{"cadnum":"1420383303:00:000:0043"},"geometry":{"type":"Polygon","coordinates":[[[36.934745,48.688475],[36.935235,48.688466],[36.935208,48.687834],[36.934741,48.687834],[36.934745,48.688475]]]}},{"type":"Feature","properties":{"cadnum":"1420383303:00:000:0035"},"geometry":{"type":"Polygon","coordinates":[[[36.933757,48.687909],[36.934265,48.687906],[36.934278,48.687577],[36.933743,48.687601],[36.933757,48.687909]]]}},{"type":"Feature","properties":{"cadnum":"1420383303:00:000:0041"},"geometry":{"type":"Polygon","coordinates":[[[36.931277,48.690761],[36.93285,48.690678],[36.93276,48.690189],[36.931758,48.690263],[36.931264,48.690298],[36.931277,48.690761]]]}},{"type":"Feature","properties":{"cadnum":"1420383303:00:000:0020"},"geometry":{"type":"Polygon","coordinates":[[[36.933707,48.688531],[36.934197,48.688508],[36.934265,48.687906],[36.933757,48.687909],[36.933707,48.688531]]]}},{"type":"Feature","properties":{"cadnum":"1420383303:00:000:0010"},"geometry":{"type":"Polygon","coordinates":[[[36.931111,48.690177],[36.931044,48.689647],[36.930628,48.6896705165692],[36.930628,48.68967],[36.930531,48.689676],[36.9306,48.690203],[36.930628,48.690203],[36.930628,48.69020157534246],[36.931111,48.690177]]]}},{"type":"Feature","properties":{"cadnum":"1420383303:00:000:0037"},"geometry":{"type":"Polygon","coordinates":[[[36.935387,48.689409],[36.935414,48.688804],[36.935185,48.688816],[36.934875,48.688834],[36.934893,48.689385],[36.934884,48.689409],[36.935387,48.689409]]]}},{"type":"Feature","properties":{"cadnum":"1420383303:00:000:0019"},"geometry":{"type":"Polygon","coordinates":[[[36.932831,48.687974],[36.933303,48.687965],[36.933277,48.687594],[36.932831,48.687603],[36.932831,48.687974]]]}},{"type":"Feature","properties":{"cadnum":"1420383303:00:000:0009"},"geometry":{"type":"Polygon","coordinates":[[[36.931044,48.689647],[36.930972,48.689056],[36.93046,48.689083],[36.930531,48.689676],[36.931044,48.689647]]]}},{"type":"Feature","properties":{"cadnum":"1420383303:00:000:0016"},"geometry":{"type":"Polygon","coordinates":[[[36.942911,48.688561],[36.942924,48.68814],[36.942196,48.68814],[36.942183,48.688559],[36.942911,48.688561]]]}},{"type":"Feature","properties":{"cadnum":"1420383303:00:000:0023"},"geometry":{"type":"Polygon","coordinates":[[[36.943921,48.688594],[36.943961,48.68814],[36.944024,48.687473],[36.943755,48.687458],[36.943651,48.688579],[36.943921,48.688594]]]}},{"type":"Feature","properties":{"cadnum":"1420383303:00:000:0027"},"geometry":{"type":"Polygon","coordinates":[[[36.94499,48.688564],[36.945534,48.688549],[36.945489,48.687986],[36.944949,48.688003],[36.94499,48.688564]]]}},{"type":"Feature","properties":{"cadnum":"1420383303:00:000:0028"},"geometry":{"type":"Polygon","coordinates":[[[36.944949,48.688003],[36.945489,48.687986],[36.945479,48.687876],[36.944941,48.687891],[36.944949,48.688003]]]}},{"type":"Feature","properties":{"cadnum":"1420383303:00:000:0021"},"geometry":{"type":"Polygon","coordinates":[[[36.944276,48.689483],[36.944303,48.688917],[36.94385,48.688911],[36.943823,48.689477],[36.944276,48.689483]]]}},{"type":"Feature","properties":{"cadnum":"1420383303:00:000:0022"},"geometry":{"type":"Polygon","coordinates":[[[36.943823,48.689477],[36.94385,48.688911],[36.943638,48.688908],[36.943607,48.689474],[36.943823,48.689477]]]}},{"type":"Feature","properties":{"cadnum":"1420383303:00:000:0017"},"geometry":{"type":"Polygon","coordinates":[[[36.942924,48.68814],[36.942951,48.68739],[36.942223,48.68739],[36.942196,48.68814],[36.942924,48.68814]]]}},{"type":"Feature","properties":{"cadnum":"1420383303:00:000:0026"},"geometry":{"type":"Polygon","coordinates":[[[36.940768,48.688449],[36.940768,48.688419],[36.940844,48.687698],[36.940431,48.687693],[36.940364,48.688401],[36.940359,48.688434],[36.940768,48.688449]]]}},{"type":"Feature","properties":{"cadnum":"1420383303:00:000:0040"},"geometry":{"type":"Polygon","coordinates":[[[36.937458,48.689783],[36.937961,48.689762],[36.93797,48.689632],[36.937988,48.689284],[36.937485,48.689282],[36.937458,48.689783]]]}},{"type":"Feature","properties":{"cadnum":"1420383303:00:000:0024"},"geometry":{"type":"Polygon","coordinates":[[[36.93797,48.689632],[36.938261,48.689616],[36.938288,48.689495],[36.93832,48.689038],[36.938311,48.688644],[36.938011,48.688656],[36.93797,48.689632]]]}},{"type":"Feature","properties":{"cadnum":"1420383303:00:000:0039"},"geometry":{"type":"Polygon","coordinates":[[[36.937988,48.689284],[36.938011,48.688656],[36.937516,48.688682],[36.937485,48.689282],[36.937988,48.689284]]]}},{"type":"Feature","properties":{"cadnum":"1420383303:00:000:0025"},"geometry":{"type":"Polygon","coordinates":[[[36.941173,48.68846],[36.941177,48.688434],[36.941249,48.687704],[36.940844,48.687698],[36.940768,48.688419],[36.940768,48.688449],[36.941173,48.68846]]]}},{"type":"Feature","properties":{"cadnum":"1420383303:00:000:0038"},"geometry":{"type":"Polygon","coordinates":[[[36.927262,48.690423],[36.927837,48.690403],[36.927841,48.689797],[36.927294,48.689797],[36.927262,48.690423]]]}},{"type":"Feature","properties":{"cadnum":"1420383303:00:000:0007"},"geometry":{"type":"Polygon","coordinates":[[[36.930424,48.6897],[36.930424,48.68908],[36.929917,48.689109],[36.929921,48.6897],[36.930424,48.6897]]]}},{"type":"Feature","properties":{"cadnum":"1420383303:00:000:0008"},"geometry":{"type":"Polygon","coordinates":[[[36.929921,48.69023],[36.93042,48.690195],[36.930424,48.6897],[36.929921,48.6897],[36.929921,48.69023]]]}},{"type":"Feature","properties":{"cadnum":"1420383303:00:000:0036"},"geometry":{"type":"Polygon","coordinates":[[[36.927841,48.689797],[36.927846,48.689216],[36.927321,48.689237],[36.927294,48.689797],[36.927841,48.689797]]]}},{"type":"Feature","properties":{"cadnum":"1420383303:00:000:0014"},"geometry":{"type":"Polygon","coordinates":[[[36.949567,48.689493],[36.94989,48.689477],[36.94994,48.688588],[36.949576,48.688605],[36.949567,48.689493]]]}},{"type":"Feature","properties":{"cadnum":"1420383303:00:000:0013"},"geometry":{"type":"Polygon","coordinates":[[[36.948871,48.689261],[36.949393,48.689237],[36.949401,48.68865],[36.94888,48.688674],[36.948871,48.689261]]]}},{"type":"Feature","properties":{"cadnum":"1420383303:00:000:0015"},"geometry":{"type":"Polygon","coordinates":[[[36.949567,48.689688],[36.949882,48.689667],[36.94989,48.689477],[36.949567,48.689493],[36.949567,48.689688]]]}},{"type":"Feature","properties":{"cadnum":"1420383303:00:000:0029"},"geometry":{"type":"Polygon","coordinates":[[[36.948808,48.689243],[36.948861,48.688671],[36.948305,48.688691],[36.948269,48.68924],[36.948808,48.689243]]]}}]}