{"type":"FeatureCollection","features":[{"type":"Feature","properties":{"cadnum":"1420688201:07:000:1495"},"geometry":{"type":"Polygon","coordinates":[[[38.746018,47.717697],[38.746064,47.717325],[38.743372,47.7173691773743],[38.743372,47.717369],[38.742317,47.717385],[38.742276,47.71776],[38.7432,47.71774482481752],[38.7432,47.717745],[38.746018,47.717697]]]}},{"type":"Feature","properties":{"cadnum":"1420688201:07:000:1494"},"geometry":{"type":"Polygon","coordinates":[[[38.733846,47.750244],[38.733864,47.750214],[38.73355,47.750085],[38.732854,47.750054],[38.732705,47.750048],[38.7326595,47.750347],[38.732659,47.750347],[38.732296,47.752754],[38.734106,47.752878],[38.734462,47.750526],[38.73389,47.75048],[38.733865,47.750347],[38.73386489908257,47.750347],[38.733846,47.750244]]]}}]}