{"type":"FeatureCollection","features":[{"type":"Feature","properties":{"cadnum":"1420355111:00:000:0080"},"geometry":{"type":"Polygon","coordinates":[[[36.90301032921898,48.69796462551426],[36.902891,48.697984],[36.902939884210525,48.698156],[36.902939,48.698156],[36.903119,48.698784],[36.903162,48.698772],[36.903162,48.698770752525256],[36.903515,48.698662],[36.90336587747036,48.698269],[36.903366,48.698269],[36.903237,48.697927],[36.90301032921898,48.69796462551426]]]}},{"type":"Feature","properties":{"cadnum":"1420355111:00:000:0068"},"geometry":{"type":"Polygon","coordinates":[[[36.886683,48.70303054213483],[36.886978,48.703038],[36.886683,48.70229798579545],[36.886683,48.702296],[36.886626,48.702155],[36.886322,48.702214],[36.886622,48.703029],[36.886683,48.703031],[36.886683,48.70303054213483]]]}},{"type":"Feature","properties":{"cadnum":"1420355111:00:000:0089"},"geometry":{"type":"Polygon","coordinates":[[[36.889591,48.701609],[36.889156,48.701686],[36.889193908653844,48.701781],[36.889193,48.701781],[36.889425,48.702356],[36.889842,48.702287],[36.88969598418973,48.701894],[36.889696,48.701894],[36.889591,48.701609]]]}},{"type":"Feature","properties":{"cadnum":"1420355111:00:000:0054"},"geometry":{"type":"Polygon","coordinates":[[[36.88744,48.702812],[36.887668,48.7027],[36.88766,48.702679],[36.887381,48.70203],[36.887129,48.702069],[36.88744,48.702812]]]}},{"type":"Feature","properties":{"cadnum":"1420355111:00:000:0021"},"geometry":{"type":"Polygon","coordinates":[[[36.888972,48.701698],[36.888572,48.701772],[36.88857664754099,48.701781],[36.888576,48.701781],[36.888895,48.702397],[36.889259,48.702291],[36.889012,48.701781],[36.88901180612245,48.701781],[36.888972,48.701698]]]}},{"type":"Feature","properties":{"cadnum":"1420355111:00:000:0065"},"geometry":{"type":"Polygon","coordinates":[[[36.887884,48.702561],[36.888203,48.702486],[36.88792,48.701926],[36.887605,48.701985],[36.887664,48.702137],[36.887714,48.702223],[36.887884,48.702561]]]}},{"type":"Feature","properties":{"cadnum":"1420355111:00:000:0022"},"geometry":{"type":"Polygon","coordinates":[[[36.888028,48.701876],[36.888037,48.701894],[36.888037709779184,48.701894],[36.88837,48.70251],[36.888634,48.702447],[36.888396,48.702071],[36.888333,48.701964],[36.888253,48.701831],[36.888028,48.701876]]]}},{"type":"Feature","properties":{"cadnum":"1420355111:00:000:0090"},"geometry":{"type":"Polygon","coordinates":[[[36.889438,48.702383],[36.889852,48.702309],[36.889842,48.702287],[36.889425,48.702356],[36.889438,48.702383]]]}},{"type":"Feature","properties":{"cadnum":"1420355111:00:000:0116"},"geometry":{"type":"Polygon","coordinates":[[[36.891091,48.701606],[36.891033,48.701336],[36.890903,48.70136],[36.890916,48.701395],[36.890979,48.701538],[36.890746,48.701585],[36.890683,48.70144],[36.89067,48.701404],[36.89009,48.701511],[36.890265,48.701766],[36.8902749609375,48.701781],[36.890274,48.701781],[36.8903103008595,48.70183421776489],[36.89035,48.701894],[36.8903510794702,48.701894],[36.890377,48.701932],[36.891132,48.701799],[36.891091,48.701606]]]}},{"type":"Feature","properties":{"cadnum":"1420355111:00:000:0062"},"geometry":{"type":"Polygon","coordinates":[[[36.885863,48.70299],[36.885769,48.702614],[36.885706,48.702326],[36.885427,48.702377],[36.885494,48.702611],[36.885571,48.702966],[36.885863,48.70299]]]}},{"type":"Feature","properties":{"cadnum":"1420355111:00:000:0098"},"geometry":{"type":"Polygon","coordinates":[[[36.883074,48.702697],[36.883577,48.702625],[36.883473,48.702486],[36.883402,48.702386],[36.883334,48.702297],[36.88285,48.702412],[36.88289,48.702454],[36.882934,48.702519],[36.882984,48.70259],[36.883074,48.702697]]]}},{"type":"Feature","properties":{"cadnum":"1420355111:00:000:0015"},"geometry":{"type":"Polygon","coordinates":[[[36.884066,48.701544],[36.883546,48.701639],[36.88361727843137,48.701781],[36.883617,48.701781],[36.88363053953474,48.70180741860437],[36.883674,48.701894],[36.883674912500005,48.701894],[36.883699,48.701941],[36.883779,48.702095],[36.884305,48.702001],[36.88420639999984,48.70181399999969],[36.884066,48.701544]]]}},{"type":"Feature","properties":{"cadnum":"1420355111:00:000:0112"},"geometry":{"type":"Polygon","coordinates":[[[36.881834,48.701683],[36.881488,48.701618],[36.881456,48.701894],[36.881457241935486,48.701894],[36.881456,48.701905],[36.881425,48.702229],[36.881421,48.702273],[36.881781,48.702403],[36.881781,48.702379],[36.881808,48.702042],[36.881820285714234,48.70186385714356],[36.881834,48.701683]],[[36.881565,48.702128],[36.881578,48.70211],[36.881605,48.702122],[36.881592,48.702137],[36.881565,48.702128]]]}},{"type":"Feature","properties":{"cadnum":"1420355111:00:000:0097"},"geometry":{"type":"Polygon","coordinates":[[[36.882777,48.701808],[36.882728,48.701814],[36.882687,48.701823],[36.882588,48.701828],[36.882445,48.701843],[36.882463,48.701891],[36.882465,48.701894],[36.882465085872575,48.701894],[36.882714,48.702252],[36.882741,48.702291],[36.88285,48.702412],[36.883334,48.702297],[36.883276,48.702216],[36.883213,48.702148],[36.883196,48.702124],[36.882944,48.70179],[36.882777,48.701808]]]}},{"type":"Feature","properties":{"cadnum":"1420355111:00:000:0108"},"geometry":{"type":"Polygon","coordinates":[[[36.883546,48.701639],[36.88297988079473,48.701781],[36.882978,48.701781],[36.882944,48.70179],[36.883021,48.701894],[36.88302246706587,48.701894],[36.883196,48.702124],[36.883725,48.701992],[36.883699,48.701941],[36.88363053953474,48.70180741860437],[36.883546,48.701639]]]}},{"type":"Feature","properties":{"cadnum":"1420355111:00:000:0106"},"geometry":{"type":"Polygon","coordinates":[[[36.881066,48.701562],[36.88103,48.701746],[36.8810228409091,48.701781],[36.881022,48.701781],[36.881003,48.701878],[36.880996,48.701894],[36.880996964071855,48.701894],[36.88094,48.702045],[36.8809,48.702142],[36.881189,48.702216],[36.881189,48.7022148560794],[36.881421,48.702273],[36.881425,48.702229],[36.881456,48.701905],[36.88147,48.701781],[36.88146910144928,48.701781],[36.881488,48.701618],[36.881189,48.701578322274884],[36.881189,48.701578],[36.881066,48.701562]]]}},{"type":"Feature","properties":{"cadnum":"1420355111:00:000:0006"},"geometry":{"type":"Polygon","coordinates":[[[36.883936,48.702524],[36.884484,48.702401],[36.884301,48.702015],[36.88377,48.70211],[36.883936,48.702524]]]}},{"type":"Feature","properties":{"cadnum":"1420355111:00:000:0105"},"geometry":{"type":"Polygon","coordinates":[[[36.885791,48.701707],[36.8854,48.701781],[36.88545,48.701894],[36.885451119047616,48.701894],[36.88559,48.702201],[36.885976,48.702119],[36.88586640035896,48.701876877917165],[36.885791,48.701707]]]}},{"type":"Feature","properties":{"cadnum":"1420355111:00:000:0078"},"geometry":{"type":"Polygon","coordinates":[[[36.886683,48.699905],[36.886683,48.69990444444445],[36.886955,48.69986],[36.886683,48.699001333333335],[36.886683,48.699],[36.886649,48.698894],[36.886357,48.699009],[36.886511,48.69948418493151],[36.886511,48.699485],[36.886649,48.69991],[36.886683,48.699905]]]}},{"type":"Feature","properties":{"cadnum":"1420355111:00:000:0032"},"geometry":{"type":"Polygon","coordinates":[[[36.886878,48.698967],[36.886819,48.698811],[36.886683,48.69883661038961],[36.886683,48.698836],[36.886469,48.698876],[36.886528,48.699024],[36.886683,48.698999],[36.886683,48.69899875714286],[36.886878,48.698967]]]}},{"type":"Feature","properties":{"cadnum":"1420355111:00:000:0107"},"geometry":{"type":"Polygon","coordinates":[[[36.890647,48.699204],[36.890961,48.699122],[36.890777,48.69865],[36.890696,48.698443],[36.890615,48.698239],[36.890301,48.698294],[36.890337,48.698384],[36.890413,48.698591],[36.890647,48.699204]],[[36.890628,48.698534],[36.890615,48.698532],[36.890615,48.698523],[36.890628,48.698526],[36.890628,48.698534]]]}},{"type":"Feature","properties":{"cadnum":"1420355111:00:000:0109"},"geometry":{"type":"Polygon","coordinates":[[[36.891132,48.701126],[36.891527,48.701045],[36.891146,48.700316],[36.890786,48.70039],[36.891132,48.701126]]]}},{"type":"Feature","properties":{"cadnum":"1420355111:00:000:0099"},"geometry":{"type":"MultiPolygon","coordinates":[[[[36.89119,48.697912],[36.890871,48.697963],[36.890943,48.698156],[36.890986,48.698269],[36.890986763005785,48.698269],[36.891077,48.698502],[36.891167,48.698725],[36.891222,48.698864],[36.89154,48.698817],[36.891527,48.698787],[36.891482,48.698668],[36.891482,48.698683],[36.89145,48.698683],[36.891456,48.698665],[36.891481,48.698665],[36.891446,48.698573],[36.891327899280576,48.698269],[36.891328,48.698269],[36.89119,48.697912]]],[[[36.891481,48.698665],[36.891482,48.698668],[36.891482,48.698665],[36.891481,48.698665]]]]}},{"type":"Feature","properties":{"cadnum":"1420355111:00:000:0067"},"geometry":{"type":"Polygon","coordinates":[[[36.89210066972513,48.70014813761461],[36.892176,48.700134],[36.892176,48.70013343902439],[36.892209,48.700127],[36.892152,48.69999],[36.892004,48.70002],[36.892004,48.70002020408163],[36.89176,48.70007],[36.891819,48.700201],[36.892004,48.70016628011204],[36.892004,48.700167],[36.89210066972513,48.70014813761461]]]}},{"type":"Feature","properties":{"cadnum":"1420355111:00:000:0066"},"geometry":{"type":"Polygon","coordinates":[[[36.892534,48.70085],[36.892209,48.700127],[36.89210066972513,48.70014813761461],[36.891819,48.700201],[36.892003,48.700607],[36.892004,48.70060912751677],[36.892004,48.700611],[36.892152,48.700924],[36.892176,48.70092],[36.892176,48.70091935078534],[36.892534,48.70085]]]}},{"type":"Feature","properties":{"cadnum":"1420355111:00:000:0020"},"geometry":{"type":"Polygon","coordinates":[[[36.891527,48.701045],[36.891806,48.700992],[36.891685,48.700752],[36.891366,48.700168],[36.8911,48.700234],[36.891527,48.701045]]]}},{"type":"Feature","properties":{"cadnum":"1420355111:00:000:0102"},"geometry":{"type":"Polygon","coordinates":[[[36.888733,48.701579],[36.889798,48.701381],[36.889632,48.701131],[36.889075,48.701274],[36.889012,48.701173],[36.888607,48.701265],[36.888733,48.701579]]]}},{"type":"Feature","properties":{"cadnum":"1420355111:00:000:0030"},"geometry":{"type":"Polygon","coordinates":[[[36.887134,48.700859],[36.8877,48.700761],[36.887605,48.700461],[36.887399,48.700494],[36.887018,48.700562],[36.887134,48.700859]]]}},{"type":"Feature","properties":{"cadnum":"1420355111:00:000:0114"},"geometry":{"type":"Polygon","coordinates":[[[36.890628,48.700201],[36.890953,48.700124],[36.890584,48.699311],[36.890228,48.699427],[36.890628,48.700201]]]}},{"type":"Feature","properties":{"cadnum":"1420355111:00:000:0040"},"geometry":{"type":"Polygon","coordinates":[[[36.887655,48.69914],[36.888136,48.699054],[36.887947,48.698579],[36.887484,48.698653],[36.887655,48.69914]]]}},{"type":"Feature","properties":{"cadnum":"1420355111:00:000:0100"},"geometry":{"type":"Polygon","coordinates":[[[36.889295,48.699504],[36.889605,48.699459],[36.890148,48.699341],[36.890027,48.699024],[36.889165,48.699166],[36.889295,48.699504]]]}},{"type":"Feature","properties":{"cadnum":"1420355111:00:000:0084"},"geometry":{"type":"Polygon","coordinates":[[[36.890045,48.700311],[36.890538,48.70021],[36.890534,48.700206],[36.89009,48.699466],[36.889695,48.699534],[36.890045,48.700307],[36.890045,48.700311]]]}},{"type":"Feature","properties":{"cadnum":"1420355111:00:000:0039"},"geometry":{"type":"Polygon","coordinates":[[[36.887861,48.69972],[36.888366,48.699641],[36.888136,48.699054],[36.887655,48.69914],[36.887861,48.69972]]]}},{"type":"Feature","properties":{"cadnum":"1420355111:00:000:0103"},"geometry":{"type":"Polygon","coordinates":[[[36.889408,48.698224],[36.888846,48.698333],[36.889165,48.699166],[36.890027,48.699024],[36.889815,48.698496],[36.889731,48.698277],[36.889691,48.698182],[36.889408,48.698224]]]}},{"type":"Feature","properties":{"cadnum":"1420355111:00:000:0076"},"geometry":{"type":"Polygon","coordinates":[[[36.890341,48.701274],[36.890759,48.701188],[36.890413,48.700509],[36.890008,48.700595],[36.890207,48.700981],[36.890341,48.701274]]]}},{"type":"Feature","properties":{"cadnum":"1420355111:00:000:0019"},"geometry":{"type":"Polygon","coordinates":[[[36.888693,48.699587],[36.888926,48.699551],[36.888733,48.699021],[36.888496,48.699065],[36.888693,48.699587]]]}},{"type":"Feature","properties":{"cadnum":"1420355111:00:000:0111"},"geometry":{"type":"Polygon","coordinates":[[[36.888504,48.700616],[36.889048,48.700506],[36.888873,48.700165],[36.888337,48.700275],[36.888504,48.700616]]]}},{"type":"Feature","properties":{"cadnum":"1420355111:00:000:0031"},"geometry":{"type":"Polygon","coordinates":[[[36.887202,48.699819],[36.886878,48.698967],[36.886528,48.699024],[36.886874,48.699872],[36.887202,48.699819]]]}},{"type":"Feature","properties":{"cadnum":"1420355111:00:000:0075"},"geometry":{"type":"Polygon","coordinates":[[[36.888827,48.699782],[36.889236,48.6997],[36.889186,48.699596],[36.88876,48.69967],[36.888827,48.699782]]]}},{"type":"Feature","properties":{"cadnum":"1420355111:00:000:0077"},"geometry":{"type":"Polygon","coordinates":[[[36.888207,48.701247],[36.888553,48.701188],[36.888527,48.701108],[36.888392,48.700794],[36.88806,48.70085],[36.888181,48.701185],[36.888207,48.701247]]]}},{"type":"Feature","properties":{"cadnum":"1420355111:00:000:0074"},"geometry":{"type":"Polygon","coordinates":[[[36.889249,48.700489],[36.889609,48.700402],[36.889299,48.699821],[36.889236,48.6997],[36.888827,48.699782],[36.889249,48.700489]]]}},{"type":"Feature","properties":{"cadnum":"1420355111:00:000:0071"},"geometry":{"type":"Polygon","coordinates":[[[36.888527,48.701108],[36.888926,48.701028],[36.888783,48.700714],[36.888392,48.700794],[36.888527,48.701108]]]}},{"type":"Feature","properties":{"cadnum":"1420355111:00:000:0012"},"geometry":{"type":"Polygon","coordinates":[[[36.887737,48.701748],[36.8881,48.701677],[36.887934,48.701217],[36.88753,48.701276],[36.887737,48.701748]]]}},{"type":"Feature","properties":{"cadnum":"1420355111:00:000:0037"},"geometry":{"type":"Polygon","coordinates":[[[36.887853,48.701238],[36.888181,48.701179],[36.88806,48.70085],[36.887737,48.700912],[36.887853,48.701238]]]}},{"type":"Feature","properties":{"cadnum":"1420355111:00:000:0025"},"geometry":{"type":"Polygon","coordinates":[[[36.88753,48.701276],[36.887938,48.701215],[36.887771,48.700898],[36.88735,48.700968],[36.887435,48.701129],[36.88753,48.701276]]]}},{"type":"Feature","properties":{"cadnum":"1420355111:00:000:0110"},"geometry":{"type":"Polygon","coordinates":[[[36.890786,48.70039],[36.891146,48.700316],[36.8911,48.700234],[36.891091,48.700213],[36.890733,48.700283],[36.890786,48.70039]]]}},{"type":"Feature","properties":{"cadnum":"1420355111:00:000:0115"},"geometry":{"type":"Polygon","coordinates":[[[36.880194,48.701322],[36.880074,48.701063],[36.879854,48.700489],[36.879638,48.69994],[36.8786,48.700074],[36.879234,48.701259],[36.879372,48.701526],[36.87973086018236,48.701781],[36.87973,48.701781],[36.879835,48.701855],[36.879957,48.701894],[36.87995730263158,48.701894],[36.88055,48.702083],[36.88046050662252,48.701894],[36.880461,48.701894],[36.880194,48.701322]]]}},{"type":"Feature","properties":{"cadnum":"1420355111:00:000:0113"},"geometry":{"type":"Polygon","coordinates":[[[36.898027,48.698013],[36.899509,48.697879],[36.89928,48.697286],[36.898597,48.697314],[36.897855,48.697369],[36.898027,48.698013]]]}},{"type":"Feature","properties":{"cadnum":"1420355111:00:000:0047"},"geometry":{"type":"Polygon","coordinates":[[[36.900842,48.698211],[36.901229,48.698138],[36.901423,48.698105],[36.902023,48.697989],[36.901993,48.69723],[36.900618,48.697314],[36.899392,48.697387],[36.899607,48.697951],[36.899702,48.697947],[36.900048,48.697954],[36.900465,48.697984],[36.900631,48.698016],[36.900735,48.698063],[36.900775,48.698081],[36.900842,48.698211]]]}},{"type":"Feature","properties":{"cadnum":"1420355111:00:000:0017"},"geometry":{"type":"Polygon","coordinates":[[[36.901423,48.698105],[36.901229,48.698138],[36.901236832061066,48.698156],[36.901236,48.698156],[36.901683,48.699175],[36.901912,48.699134],[36.90149895807772,48.698269],[36.9015,48.698269],[36.901423,48.698105]]]}},{"type":"Feature","properties":{"cadnum":"1420355111:00:000:0122"},"geometry":{"type":"Polygon","coordinates":[[[36.896967,48.697947],[36.896967,48.697932],[36.896474,48.697971],[36.89650778995434,48.698156],[36.896507,48.698156],[36.896514,48.69819],[36.896128,48.698258],[36.896129,48.698269],[36.89613031994261,48.698269],[36.896275,48.698955],[36.897187,48.698757],[36.89705464725458,48.698269],[36.897055,48.698269],[36.896967,48.697947]]]}},{"type":"Feature","properties":{"cadnum":"1420355111:00:000:0073"},"geometry":{"type":"Polygon","coordinates":[[[36.892534,48.70085],[36.892811,48.700797],[36.892461,48.699928],[36.892152,48.69999],[36.892534,48.70085]]]}},{"type":"Feature","properties":{"cadnum":"1420355111:00:000:0038"},"geometry":{"type":"Polygon","coordinates":[[[36.894343,48.697802],[36.893975,48.697862],[36.894064346154344,48.69822203846355],[36.894348,48.699368],[36.894618,48.699314],[36.894725,48.69929],[36.89445276868794,48.69823277291824],[36.894343,48.697802]]]}},{"type":"Feature","properties":{"cadnum":"1420355111:00:000:0104"},"geometry":{"type":"Polygon","coordinates":[[[36.896756,48.701268],[36.897047,48.701208],[36.896957,48.700995],[36.896625,48.700281],[36.896297,48.700343],[36.896503,48.700707],[36.896756,48.701268]]]}},{"type":"Feature","properties":{"cadnum":"1420355111:00:000:0011"},"geometry":{"type":"Polygon","coordinates":[[[36.892811,48.700797],[36.89314,48.700735],[36.893027,48.700456],[36.892789,48.699866],[36.892461,48.699928],[36.892811,48.700797]]]}},{"type":"Feature","properties":{"cadnum":"1420355111:00:000:0094"},"geometry":{"type":"Polygon","coordinates":[[[36.896957,48.700995],[36.897348,48.700918],[36.897012,48.700201],[36.896625,48.700281],[36.896957,48.700995]]]}},{"type":"Feature","properties":{"cadnum":"1420355111:00:000:0029"},"geometry":{"type":"Polygon","coordinates":[[[36.892907,48.700142],[36.8934,48.700047],[36.893287,48.699756],[36.892794,48.699854],[36.892907,48.700142]]]}},{"type":"Feature","properties":{"cadnum":"1420355111:00:000:0082"},"geometry":{"type":"Polygon","coordinates":[[[36.894639,48.699404],[36.894958,48.699362],[36.894932,48.699276],[36.894622,48.699341],[36.894639,48.699404]]]}},{"type":"Feature","properties":{"cadnum":"1420355111:00:000:0057"},"geometry":{"type":"Polygon","coordinates":[[[36.897218,48.697903],[36.896908,48.69793],[36.89696933333333,48.698156],[36.896969,48.698156],[36.897128,48.69874],[36.897411,48.69868],[36.89729299999998,48.698207999999916],[36.897218,48.697903]]]}},{"type":"Feature","properties":{"cadnum":"1420355111:00:000:0083"},"geometry":{"type":"Polygon","coordinates":[[[36.894016,48.700568],[36.894312,48.700521],[36.893953,48.699676],[36.893692,48.69972],[36.894016,48.700568]]]}},{"type":"Feature","properties":{"cadnum":"1420355111:00:000:0086"},"geometry":{"type":"Polygon","coordinates":[[[36.894478,48.700465],[36.894936,48.700379],[36.894756,48.699771],[36.894266,48.699845],[36.894478,48.700465]]]}},{"type":"Feature","properties":{"cadnum":"1420355111:00:000:0117"},"geometry":{"type":"Polygon","coordinates":[[[36.896046,48.700162],[36.896153,48.700142],[36.896194,48.700136],[36.896406,48.700094],[36.896226,48.699709],[36.89609,48.699234],[36.896077,48.699193],[36.895763,48.699241],[36.895947,48.699836],[36.896046,48.700162]]]}},{"type":"Feature","properties":{"cadnum":"1420355111:00:000:0092"},"geometry":{"type":"Polygon","coordinates":[[[36.893341,48.699896],[36.893733,48.699833],[36.893683,48.699705],[36.893293,48.699771],[36.893341,48.699896]]]}},{"type":"Feature","properties":{"cadnum":"1420355111:00:000:0028"},"geometry":{"type":"Polygon","coordinates":[[[36.893144,48.700725],[36.893624,48.700634],[36.8934,48.700047],[36.892907,48.700142],[36.893144,48.700725]]]}},{"type":"Feature","properties":{"cadnum":"1420355111:00:000:0081"},"geometry":{"type":"Polygon","coordinates":[[[36.894985,48.70037],[36.895259,48.700316],[36.895142,48.699966],[36.894958,48.699362],[36.894639,48.699404],[36.894838,48.700017],[36.894985,48.70037]]]}},{"type":"Feature","properties":{"cadnum":"1420355111:00:000:0093"},"geometry":{"type":"Polygon","coordinates":[[[36.893624,48.700634],[36.894016,48.700568],[36.893733,48.699833],[36.893341,48.699896],[36.893624,48.700634]]]}},{"type":"Feature","properties":{"cadnum":"1420355111:00:000:0060"},"geometry":{"type":"Polygon","coordinates":[[[36.897047,48.699341],[36.897474,48.699261],[36.897308,48.698867],[36.897169,48.69889],[36.896876,48.698947],[36.897047,48.699341]]]}},{"type":"Feature","properties":{"cadnum":"1420355111:00:000:0050"},"geometry":{"type":"Polygon","coordinates":[[[36.896316,48.701322],[36.89653,48.701283],[36.896149,48.700367],[36.895924,48.700406],[36.896316,48.701322]]]}},{"type":"Feature","properties":{"cadnum":"1420355111:00:000:0059"},"geometry":{"type":"Polygon","coordinates":[[[36.897497,48.69997064589235],[36.897497,48.699971],[36.89764735377216,48.69994210849084],[36.897669,48.699938],[36.897669,48.699937949019606],[36.897752,48.699922],[36.897669,48.69972620512821],[36.897669,48.699726],[36.897635,48.699646],[36.897591,48.699534],[36.897474,48.699261],[36.897047,48.699341],[36.897106,48.699474],[36.897218,48.699735],[36.897316,48.700005],[36.897497,48.69997064589235]]]}},{"type":"Feature","properties":{"cadnum":"1420355111:00:000:0061"},"geometry":{"type":"Polygon","coordinates":[[[36.892712,48.701544],[36.893198,48.701454],[36.892978,48.700977],[36.892498,48.701069],[36.892712,48.701544]]]}},{"type":"Feature","properties":{"cadnum":"1420355111:00:000:0070"},"geometry":{"type":"Polygon","coordinates":[[[36.883146,48.701144],[36.883779,48.701034],[36.883762,48.700992],[36.883446,48.701039],[36.883127,48.70109],[36.883146,48.701144]]]}},{"type":"Feature","properties":{"cadnum":"1420355111:00:000:0085"},"geometry":{"type":"Polygon","coordinates":[[[36.881515,48.700744],[36.881429,48.700459],[36.88125,48.699946],[36.88109801851827,48.699966962962996],[36.8809,48.699993],[36.881142,48.700803],[36.881189,48.700796],[36.881189,48.70079556568365],[36.881515,48.700744]]]}},{"type":"Feature","properties":{"cadnum":"1420355111:00:000:0056"},"geometry":{"type":"Polygon","coordinates":[[[36.881286,48.701117],[36.882068,48.701019],[36.882032,48.700835],[36.882001,48.700823],[36.881223,48.700939],[36.881286,48.701117]]]}},{"type":"Feature","properties":{"cadnum":"1420355111:00:000:0063"},"geometry":{"type":"Polygon","coordinates":[[[36.88607,48.700005],[36.886379,48.69996],[36.886102,48.699145],[36.885823,48.699234],[36.88607,48.700005]]]}},{"type":"Feature","properties":{"cadnum":"1420355111:00:000:0023"},"geometry":{"type":"Polygon","coordinates":[[[36.883024,48.700506],[36.883406,48.70045],[36.883272,48.700115],[36.883334,48.700103],[36.883159,48.699727],[36.882746,48.699789],[36.883024,48.700506]]]}},{"type":"Feature","properties":{"cadnum":"1420355111:00:000:0088"},"geometry":{"type":"Polygon","coordinates":[[[36.88563,48.700544],[36.886249,48.700444],[36.88611,48.700133],[36.885486,48.700234],[36.88563,48.700544]]]}},{"type":"Feature","properties":{"cadnum":"1420355111:00:000:0101"},"geometry":{"type":"Polygon","coordinates":[[[36.884196,48.701395],[36.884668,48.701309],[36.884462,48.700773],[36.884444,48.700735],[36.883963,48.700823],[36.884196,48.701395]]]}},{"type":"Feature","properties":{"cadnum":"1420355111:00:000:0118"},"geometry":{"type":"Polygon","coordinates":[[[36.882391,48.701709],[36.882624,48.701689],[36.882467,48.701176],[36.882068,48.701206],[36.882104,48.70165],[36.882391,48.701709]]]}},{"type":"Feature","properties":{"cadnum":"1420355111:00:000:0069"},"geometry":{"type":"Polygon","coordinates":[[[36.883294,48.701577],[36.88399,48.701454],[36.883779,48.701034],[36.883146,48.701144],[36.883294,48.701577]]]}},{"type":"Feature","properties":{"cadnum":"1420355111:00:000:0091"},"geometry":{"type":"Polygon","coordinates":[[[36.882741,48.701155],[36.883133,48.701105],[36.882993,48.700654],[36.882603,48.700711],[36.882607,48.700722],[36.882724,48.701093],[36.882741,48.701155]]]}},{"type":"Feature","properties":{"cadnum":"1420355111:00:000:0024"},"geometry":{"type":"Polygon","coordinates":[[[36.882746,48.699789],[36.883159,48.699727],[36.883043,48.699483],[36.882647,48.699536],[36.882746,48.699789]]]}},{"type":"Feature","properties":{"cadnum":"1420355111:00:000:0079"},"geometry":{"type":"Polygon","coordinates":[[[36.882068,48.701206],[36.882467,48.701176],[36.882463,48.701138],[36.882724,48.701093],[36.882607,48.700722],[36.881991,48.700826],[36.882028,48.701007],[36.882068,48.701206]]]}},{"type":"Feature","properties":{"cadnum":"1420355111:00:000:0087"},"geometry":{"type":"Polygon","coordinates":[[[36.88505,48.701247],[36.885477,48.70117],[36.88528,48.70074],[36.884875,48.700812],[36.88505,48.701247]]]}},{"type":"Feature","properties":{"cadnum":"1420355111:00:000:0064"},"geometry":{"type":"Polygon","coordinates":[[[36.882252,48.700616],[36.88258,48.700562],[36.882454,48.70023],[36.882252,48.69967],[36.881928,48.699727],[36.882127,48.700275],[36.882252,48.700616]]]}},{"type":"Feature","properties":{"cadnum":"1420355111:00:000:0007"},"geometry":{"type":"Polygon","coordinates":[[[36.884462,48.700773],[36.884838,48.700714],[36.884695,48.700349],[36.884309,48.700408],[36.884462,48.700773]]]}},{"type":"Feature","properties":{"cadnum":"1420355111:00:000:0008"},"geometry":{"type":"Polygon","coordinates":[[[36.883375,48.701093],[36.883693,48.701058],[36.883559,48.700621],[36.883259,48.700654],[36.883375,48.701093]]]}},{"type":"Feature","properties":{"cadnum":"1420355111:00:000:0049"},"geometry":{"type":"Polygon","coordinates":[[[36.898305,48.699018],[36.89874,48.698967],[36.898557,48.698301],[36.898121,48.698351],[36.898305,48.699018]]]}},{"type":"Feature","properties":{"cadnum":"1420355111:00:000:0027"},"geometry":{"type":"Polygon","coordinates":[[[36.898453,48.700767],[36.898803,48.700705],[36.898471,48.699946],[36.898071,48.700017],[36.898453,48.700767]]]}},{"type":"Feature","properties":{"cadnum":"1420355111:00:000:0120"},"geometry":{"type":"Polygon","coordinates":[[[36.901224,48.700402],[36.901624,48.700329],[36.901547,48.700144],[36.901148,48.700219],[36.901224,48.700402]]]}},{"type":"Feature","properties":{"cadnum":"1420355111:00:000:0035"},"geometry":{"type":"Polygon","coordinates":[[[36.897964,48.700746],[36.8984,48.70066],[36.898071,48.700017],[36.897645,48.7001],[36.897964,48.700746]]]}},{"type":"Feature","properties":{"cadnum":"1420355111:00:000:0036"},"geometry":{"type":"Polygon","coordinates":[[[36.898094,48.70101],[36.898538,48.700933],[36.898453,48.700767],[36.8984,48.70066],[36.897964,48.700746],[36.898094,48.70101]]]}},{"type":"Feature","properties":{"cadnum":"1420355111:00:000:0119"},"geometry":{"type":"Polygon","coordinates":[[[36.901148,48.700219],[36.901547,48.700144],[36.901256,48.699436],[36.900857,48.69951],[36.901148,48.700219]]]}},{"type":"Feature","properties":{"cadnum":"1420355111:00:000:0026"},"geometry":{"type":"Polygon","coordinates":[[[36.898538,48.700933],[36.89888,48.70088],[36.898803,48.700705],[36.898453,48.700767],[36.898538,48.700933]]]}},{"type":"Feature","properties":{"cadnum":"1420355111:00:000:0048"},"geometry":{"type":"Polygon","coordinates":[[[36.898498,48.699697],[36.898934,48.69965],[36.89874,48.698967],[36.898305,48.699018],[36.898498,48.699697]]]}},{"type":"Feature","properties":{"cadnum":"1420355111:00:000:0041"},"geometry":{"type":"Polygon","coordinates":[[[36.880074,48.701063],[36.880554,48.700995],[36.880393,48.700423],[36.879854,48.700489],[36.880074,48.701063]]]}},{"type":"Feature","properties":{"cadnum":"1420355111:00:000:0042"},"geometry":{"type":"Polygon","coordinates":[[[36.879854,48.700489],[36.880393,48.700423],[36.88023,48.699857],[36.879638,48.69994],[36.879854,48.700489]]]}}]}