{"type":"FeatureCollection","features":[{"type":"Feature","properties":{"cadnum":"1420383801:00:000:0009"},"geometry":{"type":"Polygon","coordinates":[[[37.071624849397594,48.61481],[37.071523,48.614863],[37.071846,48.615136],[37.067785,48.617241],[37.067785,48.61724104040404],[37.067561,48.617357],[37.065845,48.617942],[37.06443687200001,48.618328],[37.064435,48.618328],[37.062464,48.61886972608493],[37.062464,48.618869],[37.060172,48.619498],[37.060158,48.619925],[37.062464,48.619272],[37.062464,48.61927119450801],[37.06538624193547,48.618442],[37.065389,48.618442],[37.066065,48.61825],[37.067776,48.617665],[37.067785,48.61766037569061],[37.067785,48.617661],[37.06794756794092,48.6175768463066],[37.067957,48.617572],[37.067957,48.61757196377808],[37.072147,48.615403],[37.072556,48.615726],[37.073278,48.61535288590604],[37.073278,48.615353],[37.073360145035515,48.61531043511588],[37.07345,48.615264],[37.07345,48.61526387519747],[37.07432592378049,48.61481],[37.074326,48.61481],[37.078943,48.612422],[37.078943,48.6124214989255],[37.0813437314879,48.611179],[37.081345,48.611179],[37.08214,48.610767],[37.081745,48.610429],[37.084436,48.609033],[37.084436,48.60903242343097],[37.08546,48.608502],[37.084911,48.608359],[37.084436,48.60860605882353],[37.084436,48.608605],[37.081458,48.61015],[37.081135,48.609876],[37.07884331402936,48.611065],[37.078843,48.611065],[37.07866460285047,48.61115754853022],[37.078623,48.611179],[37.078623252857646,48.611179],[37.073278,48.613952],[37.073278,48.613952202628695],[37.071624,48.61481],[37.071624849397594,48.61481]]]}},{"type":"Feature","properties":{"cadnum":"1420383801:00:000:0076"},"geometry":{"type":"Polygon","coordinates":[[[37.122367,48.663327],[37.122669,48.663226],[37.12225,48.662713],[37.122013,48.662441],[37.121743,48.66252],[37.12195,48.662847],[37.122227,48.663158],[37.122367,48.663327]]]}},{"type":"Feature","properties":{"cadnum":"1420383801:00:000:0068"},"geometry":{"type":"Polygon","coordinates":[[[37.120778,48.661868],[37.12071765573769,48.661886],[37.120715,48.661886],[37.120369,48.66199],[37.120374,48.662],[37.120375530278224,48.662],[37.120768,48.662601],[37.121195,48.662482],[37.120790000000234,48.661886000000344],[37.120778,48.661868]]]}},{"type":"Feature","properties":{"cadnum":"1420383801:00:000:0056"},"geometry":{"type":"Polygon","coordinates":[[[37.123436,48.662597],[37.123269,48.662366],[37.123095,48.662141],[37.122717,48.662257],[37.122717,48.66225712121212],[37.122592,48.662295],[37.122717,48.66252677083333],[37.122717,48.662527],[37.122736,48.662562],[37.122883,48.662764],[37.122889,48.662764],[37.122889,48.662763437500004],[37.122915,48.662761],[37.122919,48.662764],[37.123436,48.662597]]]}},{"type":"Feature","properties":{"cadnum":"1420383801:00:000:0077"},"geometry":{"type":"Polygon","coordinates":[[[37.122889,48.663507],[37.122889,48.663506030674846],[37.122893,48.663505],[37.12280500000019,48.66339600000024],[37.122669,48.663226],[37.122367,48.663327],[37.122386,48.663345],[37.122529,48.663298],[37.122717,48.66353089552239],[37.122717,48.663531],[37.12273,48.663547],[37.122889,48.663507]]]}},{"type":"Feature","properties":{"cadnum":"1420383801:00:000:0055"},"geometry":{"type":"Polygon","coordinates":[[[37.121231,48.661462],[37.121015,48.661524],[37.120935,48.661544],[37.121201617169376,48.661886],[37.121201,48.661886],[37.121271,48.661975],[37.121604,48.662355],[37.121873,48.662274],[37.121751,48.662141],[37.121684,48.662073],[37.121545,48.661886],[37.121544665427514,48.661886],[37.121231,48.661462]]]}},{"type":"Feature","properties":{"cadnum":"1420383801:00:000:0060"},"geometry":{"type":"Polygon","coordinates":[[[37.118118,48.665994],[37.118311,48.665932],[37.118262,48.665882],[37.118203,48.665814],[37.118154,48.66576],[37.117992,48.665582],[37.117812,48.665656],[37.117961,48.665822],[37.118069,48.665941],[37.118118,48.665994]]]}},{"type":"Feature","properties":{"cadnum":"1420383801:00:000:0047"},"geometry":{"type":"Polygon","coordinates":[[[37.114736,48.663597],[37.115189,48.663473],[37.11461,48.662743],[37.114103,48.662879],[37.114736,48.663597]]]}},{"type":"Feature","properties":{"cadnum":"1420383801:00:000:0053"},"geometry":{"type":"Polygon","coordinates":[[[37.112975,48.663642],[37.113137,48.663558],[37.113101,48.663529],[37.113298,48.663431],[37.113056,48.663244],[37.112854,48.663331],[37.112688,48.663402],[37.112975,48.663642]]]}},{"type":"Feature","properties":{"cadnum":"1420383801:00:000:0051"},"geometry":{"type":"Polygon","coordinates":[[[37.113056,48.664138],[37.11342,48.664016],[37.112975,48.663642],[37.112688,48.663402],[37.112337,48.663508],[37.113056,48.664138]]]}},{"type":"Feature","properties":{"cadnum":"1420383801:00:000:0070"},"geometry":{"type":"Polygon","coordinates":[[[37.111902,48.663884540716616],[37.112652,48.664422],[37.113155,48.664224],[37.113056,48.664138],[37.112337,48.663508],[37.11182844723696,48.66366325125605],[37.111664,48.663713],[37.111731,48.66376142016807],[37.111731,48.663762],[37.111826418918696,48.66383037837822],[37.111902,48.663885],[37.111902,48.663884540716616]]]}},{"type":"Feature","properties":{"cadnum":"1420383801:00:000:0052"},"geometry":{"type":"Polygon","coordinates":[[[37.114386,48.664466],[37.114583,48.664407],[37.11443,48.664265],[37.114277,48.664158],[37.114201,48.664123],[37.113694,48.663731],[37.113298,48.663431],[37.113101,48.663529],[37.113137,48.663558],[37.11395,48.66422],[37.11409,48.664155],[37.114228,48.664274],[37.114386,48.664466]]]}},{"type":"Feature","properties":{"cadnum":"1420383801:00:000:0059"},"geometry":{"type":"Polygon","coordinates":[[[37.117013,48.664796],[37.117179,48.664713],[37.11691,48.664372],[37.116618,48.664013],[37.11642,48.664072],[37.117013,48.664796]]]}},{"type":"Feature","properties":{"cadnum":"1420383801:00:000:0069"},"geometry":{"type":"Polygon","coordinates":[[[37.113294,48.664822],[37.113654,48.664713],[37.11355,48.664589],[37.113451,48.664484],[37.113155,48.664224],[37.112652,48.664422],[37.112962,48.664644],[37.113222,48.664822],[37.113281,48.664807],[37.113294,48.664822]]]}},{"type":"Feature","properties":{"cadnum":"1420383801:00:000:0049"},"geometry":{"type":"Polygon","coordinates":[[[37.11413,48.664552],[37.114386,48.664466],[37.114228,48.664274],[37.11409,48.664155],[37.11395,48.66422],[37.113137,48.663558],[37.112975,48.663642],[37.11342,48.664016],[37.113788,48.664318],[37.11413,48.664552]]]}},{"type":"Feature","properties":{"cadnum":"1420383801:00:000:0046"},"geometry":{"type":"Polygon","coordinates":[[[37.115243,48.664167],[37.115652,48.66406],[37.115189,48.663473],[37.114736,48.663597],[37.115243,48.664167]]]}},{"type":"Feature","properties":{"cadnum":"1420383801:00:000:0078"},"geometry":{"type":"Polygon","coordinates":[[[37.11391,48.661284],[37.113532,48.661117],[37.112985,48.66088],[37.112912,48.660957],[37.113428,48.661174],[37.113815,48.661337],[37.115382,48.662],[37.115384123167146,48.662],[37.115922,48.662227],[37.116057,48.662212],[37.115302,48.661886],[37.11530149441341,48.661886],[37.11391,48.661284]]]}},{"type":"Feature","properties":{"cadnum":"1420383801:00:000:0050"},"geometry":{"type":"Polygon","coordinates":[[[37.113654,48.664713],[37.11413,48.664552],[37.113784,48.664318],[37.11342,48.664016],[37.113056,48.664138],[37.113451,48.664484],[37.11355,48.664589],[37.113654,48.664713]]]}},{"type":"Feature","properties":{"cadnum":"1420383801:00:000:0057"},"geometry":{"type":"Polygon","coordinates":[[[37.123342,48.663149],[37.123558,48.66277],[37.123436,48.662597],[37.122919,48.662764],[37.123342,48.663149]]]}},{"type":"Feature","properties":{"cadnum":"1420383801:00:000:0079"},"geometry":{"type":"Polygon","coordinates":[[[37.124151,48.663776],[37.124187,48.663707],[37.124078,48.663683],[37.124047,48.663752],[37.124151,48.663776]]]}},{"type":"Feature","properties":{"cadnum":"1420383801:00:000:0092"},"geometry":{"type":"Polygon","coordinates":[[[37.120053,48.657993],[37.119623,48.658216],[37.119654974193544,48.658258],[37.119654,48.658258],[37.120153,48.658907],[37.120646,48.658762],[37.12026008729999,48.65826199999792],[37.120053,48.657993]]]}},{"type":"Feature","properties":{"cadnum":"1420383801:00:000:0044"},"geometry":{"type":"Polygon","coordinates":[[[37.12217,48.658014],[37.121873,48.658171],[37.122121,48.658371],[37.12212180441641,48.658371],[37.122376,48.658575],[37.122606,48.658744],[37.122717,48.65868438162544],[37.122717,48.658685],[37.122798597222385,48.65864055555547],[37.122889,48.658592],[37.122889,48.65859131489362],[37.122952,48.658557],[37.122889,48.658518127659576],[37.122889,48.658518],[37.122703,48.658403],[37.122616478257086,48.65833995651898],[37.12217,48.658014]]]}},{"type":"Feature","properties":{"cadnum":"1420383801:00:000:0083"},"geometry":{"type":"Polygon","coordinates":[[[37.121765,48.65732],[37.122659647058825,48.658258],[37.122658,48.658258],[37.122673,48.658272],[37.122717,48.658317375],[37.122717,48.658318],[37.122986,48.658593],[37.123117,48.658527],[37.123,48.658406],[37.123045,48.658382],[37.123006351351385,48.65834513513517],[37.122897,48.658239],[37.1228261803272,48.65816660655669],[37.121931,48.657249],[37.121765,48.65732]]]}},{"type":"Feature","properties":{"cadnum":"1420383801:00:000:0084"},"geometry":{"type":"Polygon","coordinates":[[[37.121765,48.65732],[37.121931,48.657249],[37.121814,48.657126],[37.121648,48.657198],[37.121765,48.65732]]]}},{"type":"Feature","properties":{"cadnum":"1420383801:00:000:0045"},"geometry":{"type":"Polygon","coordinates":[[[37.121873,48.658171],[37.12217,48.658014],[37.121275,48.657367],[37.121011,48.657477],[37.121873,48.658171]]]}},{"type":"Feature","properties":{"cadnum":"1420383801:00:000:0090"},"geometry":{"type":"Polygon","coordinates":[[[37.132199,48.658103],[37.131848,48.657865],[37.131571,48.658041],[37.13192600438596,48.658258],[37.131924,48.658258],[37.131944,48.658269],[37.132105,48.658371],[37.13210642228739,48.658371],[37.132487,48.65861],[37.132747,48.658435],[37.13264069491527,48.658371],[37.132641,48.658371],[37.132199,48.658103]]]}},{"type":"Feature","properties":{"cadnum":"1420383801:00:000:0063"},"geometry":{"type":"Polygon","coordinates":[[[37.132361,48.65799],[37.132001,48.657765],[37.131848,48.657865],[37.132199,48.658103],[37.132454634328354,48.658258],[37.132453,48.658258],[37.133173,48.658694],[37.13333,48.658566],[37.13300077922079,48.658371],[37.133002,48.658371],[37.132361,48.65799]]]}},{"type":"Feature","properties":{"cadnum":"1420383801:00:000:0042"},"geometry":{"type":"Polygon","coordinates":[[[37.132963,48.656854],[37.13333,48.656631],[37.133223,48.656557],[37.133143,48.656519],[37.132496,48.656288],[37.132172,48.656486],[37.132621,48.656679],[37.132963,48.656854]]]}},{"type":"Feature","properties":{"cadnum":"1420383801:00:000:0093"},"geometry":{"type":"Polygon","coordinates":[[[37.128907,48.65642],[37.129284,48.656195],[37.128902,48.655916],[37.128692,48.655762],[37.128296,48.656008],[37.128588,48.656204],[37.128907,48.65642]]]}},{"type":"Feature","properties":{"cadnum":"1420383801:00:000:0094"},"geometry":{"type":"Polygon","coordinates":[[[37.129734,48.656976],[37.13003,48.656753],[37.129284,48.656195],[37.128907,48.65642],[37.129734,48.656976]]]}},{"type":"Feature","properties":{"cadnum":"1420383801:00:000:0036"},"geometry":{"type":"Polygon","coordinates":[[[37.12821,48.6570695116959],[37.12821,48.65707],[37.128319,48.657008],[37.127833,48.656658],[37.127586,48.656471],[37.127285,48.656644],[37.12751,48.656827],[37.127977,48.657201],[37.12821,48.6570695116959]]]}},{"type":"Feature","properties":{"cadnum":"1420383801:00:000:0043"},"geometry":{"type":"Polygon","coordinates":[[[37.132172,48.656486],[37.132496,48.656288],[37.132118,48.656151],[37.131309,48.655872],[37.131072,48.656015],[37.132172,48.656486]]]}},{"type":"Feature","properties":{"cadnum":"1420383801:00:000:0037"},"geometry":{"type":"Polygon","coordinates":[[[37.127977,48.657201],[37.12821,48.65738682469136],[37.12821,48.657388],[37.12861,48.657706],[37.128983,48.657486],[37.128319,48.657008],[37.127977,48.657201]]]}},{"type":"Feature","properties":{"cadnum":"1420383801:00:000:0058"},"geometry":{"type":"Polygon","coordinates":[[[37.114727,48.661574],[37.115073,48.661355],[37.114318,48.661061],[37.113918,48.660906],[37.113218,48.660634],[37.113042,48.660827],[37.113608,48.661079],[37.113981,48.661245],[37.114727,48.661574]]]}},{"type":"Feature","properties":{"cadnum":"1420383801:00:000:0082"},"geometry":{"type":"Polygon","coordinates":[[[37.126872,48.659539],[37.12712,48.659388],[37.126562,48.658993],[37.126315,48.659127],[37.126872,48.659539]]]}},{"type":"Feature","properties":{"cadnum":"1420383801:00:000:0054"},"geometry":{"type":"Polygon","coordinates":[[[37.128382,48.660406],[37.128382,48.660405909574465],[37.128543,48.660304],[37.128974,48.660604],[37.129212,48.660459],[37.128472,48.659945],[37.12822858156008,48.660099226950486],[37.128044,48.660215],[37.12821,48.660326022508045],[37.12821,48.660327],[37.128355,48.660423],[37.128382,48.660406]]]}},{"type":"Feature","properties":{"cadnum":"1420383801:00:000:0048"},"geometry":{"type":"Polygon","coordinates":[[[37.123984,48.660361],[37.124617,48.660088],[37.124684,48.660061],[37.12442,48.65978],[37.123705,48.660035],[37.123984,48.660361]]]}},{"type":"Feature","properties":{"cadnum":"1420383801:00:000:0081"},"geometry":{"type":"Polygon","coordinates":[[[37.127747,48.660189],[37.128009,48.660044],[37.127959,48.660014],[37.127977,48.659996],[37.127168,48.659424],[37.12712,48.659388],[37.126872,48.659539],[37.127747,48.660189]]]}},{"type":"Feature","properties":{"cadnum":"1420383801:00:000:0073"},"geometry":{"type":"Polygon","coordinates":[[[37.123261,48.65983],[37.122956,48.659462],[37.122889,48.65948610878661],[37.122889,48.659486],[37.122551,48.659607],[37.12252,48.659666],[37.122579,48.659756],[37.122565,48.659762],[37.122573,48.659771],[37.122587,48.659765],[37.122717,48.65989673333333],[37.122717,48.659897],[37.122812,48.659993],[37.122889,48.659966],[37.122889,48.6599650467706],[37.123261,48.65983]]]}},{"type":"Feature","properties":{"cadnum":"1420383801:00:000:0010"},"geometry":{"type":"Polygon","coordinates":[[[37.123158,48.660838],[37.123296,48.660708],[37.123782,48.660539],[37.123818,48.660506],[37.123656,48.660316],[37.123589,48.660316],[37.12291,48.660512],[37.123158,48.660838]]]}},{"type":"Feature","properties":{"cadnum":"1420383801:00:000:0080"},"geometry":{"type":"Polygon","coordinates":[[[37.123117,48.661256],[37.123283,48.661197],[37.123216,48.661111],[37.123049,48.661168],[37.123117,48.661256]]]}},{"type":"Feature","properties":{"cadnum":"1420383801:00:000:0072"},"geometry":{"type":"Polygon","coordinates":[[[37.12596,48.659121],[37.126275,48.658927],[37.125596,48.658355],[37.125246,48.658542],[37.12596,48.659121]]]}},{"type":"Feature","properties":{"cadnum":"1420383801:00:000:0035"},"geometry":{"type":"Polygon","coordinates":[[[37.122956,48.661102],[37.123055,48.661064],[37.122996,48.660992],[37.122893,48.661031],[37.122956,48.661102]]]}},{"type":"Feature","properties":{"cadnum":"1420383801:00:000:0029"},"geometry":{"type":"Polygon","coordinates":[[[37.128009,48.660044],[37.128292,48.659866],[37.127434,48.659257],[37.127168,48.659424],[37.127977,48.659996],[37.127959,48.660014],[37.128009,48.660044]]]}},{"type":"Feature","properties":{"cadnum":"1420383801:00:000:0030"},"geometry":{"type":"Polygon","coordinates":[[[37.127168,48.659424],[37.127434,48.659257],[37.126854,48.65885],[37.126562,48.658993],[37.127168,48.659424]]]}},{"type":"Feature","properties":{"cadnum":"1420383801:00:000:0071"},"geometry":{"type":"Polygon","coordinates":[[[37.125139,48.657966],[37.12499,48.657842],[37.124986,48.657836],[37.124613,48.658023],[37.124856,48.658228],[37.12489313286713,48.658258],[37.124892,48.658258],[37.125246,48.658542],[37.125596,48.658355],[37.125139,48.657966]]]}},{"type":"Feature","properties":{"cadnum":"1420383801:00:000:0040"},"geometry":{"type":"Polygon","coordinates":[[[37.12181,48.660141],[37.122151,48.660044],[37.121891,48.659699],[37.121617,48.659284],[37.121289,48.659373],[37.121554,48.659791],[37.12181,48.660141]]]}},{"type":"Feature","properties":{"cadnum":"1420383801:00:000:0062"},"geometry":{"type":"Polygon","coordinates":[[[37.117969,48.659228],[37.118302,48.659127],[37.118172,48.658936],[37.117871,48.659079],[37.117969,48.659228]]]}},{"type":"Feature","properties":{"cadnum":"1420383801:00:000:0061"},"geometry":{"type":"Polygon","coordinates":[[[37.118495,48.659981],[37.118824,48.659883],[37.118652,48.65964],[37.118302,48.659127],[37.117969,48.659228],[37.118307,48.659726],[37.118495,48.659981]]]}},{"type":"Feature","properties":{"cadnum":"1420383801:00:000:0041"},"geometry":{"type":"Polygon","coordinates":[[[37.121873,48.660236],[37.122214,48.660132],[37.122151,48.660044],[37.12181,48.660141],[37.121873,48.660236]]]}},{"type":"Feature","properties":{"cadnum":"1420383801:00:000:0089"},"geometry":{"type":"Polygon","coordinates":[[[37.120539,48.659417],[37.121024,48.659284],[37.120646,48.658762],[37.120153,48.658907],[37.120539,48.659417]]]}},{"type":"Feature","properties":{"cadnum":"1420383801:00:000:0096"},"geometry":{"type":"Polygon","coordinates":[[[37.119915,48.661288],[37.120707,48.661075],[37.120485,48.660733],[37.120154,48.660837],[37.119695,48.660985],[37.119915,48.661288]]]}},{"type":"Feature","properties":{"cadnum":"1420383801:00:000:0064"},"geometry":{"type":"Polygon","coordinates":[[[37.125573,48.657302],[37.125974,48.657103],[37.125713,48.656869],[37.125435,48.656614],[37.125022,48.656803],[37.125323,48.657073],[37.125573,48.657302]]]}},{"type":"Feature","properties":{"cadnum":"1420383801:00:000:0066"},"geometry":{"type":"Polygon","coordinates":[[[37.127124,48.657528],[37.127501,48.657326],[37.127133,48.657008],[37.126917,48.656827],[37.12654,48.657023],[37.126738,48.657195],[37.127124,48.657528]]]}},{"type":"Feature","properties":{"cadnum":"1420383801:00:000:0074"},"geometry":{"type":"Polygon","coordinates":[[[37.126374,48.656917],[37.126734,48.65673],[37.126719,48.656717],[37.126451,48.656483],[37.126113,48.656202],[37.125759,48.656385],[37.12605,48.656637],[37.126374,48.656917]]]}},{"type":"Feature","properties":{"cadnum":"1420383801:00:000:0075"},"geometry":{"type":"Polygon","coordinates":[[[37.125759,48.656385],[37.126113,48.656202],[37.125187,48.655424],[37.124887,48.655635],[37.125759,48.656385]]]}},{"type":"Feature","properties":{"cadnum":"1420383801:00:000:0067"},"geometry":{"type":"Polygon","coordinates":[[[37.127851,48.658153],[37.128189,48.657916],[37.127501,48.657326],[37.127124,48.657528],[37.127851,48.658153]]]}},{"type":"Feature","properties":{"cadnum":"1420383801:00:000:0065"},"geometry":{"type":"Polygon","coordinates":[[[37.125022,48.656803],[37.125435,48.656614],[37.12455,48.655791],[37.124128,48.655996],[37.125022,48.656803]]]}},{"type":"Feature","properties":{"cadnum":"1420383801:00:000:0088"},"geometry":{"type":"Polygon","coordinates":[[[37.13122,48.659527],[37.131485,48.659376],[37.131449,48.659355],[37.130847,48.658987],[37.130479,48.658723],[37.130236,48.658881],[37.130613,48.659127],[37.13122,48.659527]]]}},{"type":"Feature","properties":{"cadnum":"1420383801:00:000:0091"},"geometry":{"type":"Polygon","coordinates":[[[37.13298,48.658922],[37.133173,48.658694],[37.132747,48.658435],[37.132487,48.65861],[37.13298,48.658922]]]}},{"type":"Feature","properties":{"cadnum":"1420383801:00:000:0085"},"geometry":{"type":"Polygon","coordinates":[[[37.131413,48.659037],[37.131741,48.658859],[37.131342,48.658578],[37.131036,48.658373],[37.13068,48.658599],[37.131063,48.658827],[37.131413,48.659037]]]}},{"type":"Feature","properties":{"cadnum":"1420383801:00:000:0087"},"geometry":{"type":"Polygon","coordinates":[[[37.131449,48.659355],[37.131826,48.659287],[37.131413,48.659037],[37.131063,48.658827],[37.13068,48.658599],[37.130479,48.658723],[37.130847,48.658987],[37.131449,48.659355]]]}},{"type":"Feature","properties":{"cadnum":"1420383801:00:000:0086"},"geometry":{"type":"Polygon","coordinates":[[[37.131826,48.659287],[37.132185,48.659174],[37.131741,48.658859],[37.131413,48.659037],[37.131826,48.659287]]]}}]}