{"type":"FeatureCollection","features":[{"type":"Feature","properties":{"cadnum":"1420387501:00:000:0014"},"geometry":{"type":"Polygon","coordinates":[[[37.025435,48.607117],[37.025565,48.607088],[37.025511,48.606987],[37.025385,48.607014],[37.025435,48.607117]]]}},{"type":"Feature","properties":{"cadnum":"1420387501:00:000:0094"},"geometry":{"type":"Polygon","coordinates":[[[37.025982,48.607266],[37.026328,48.607076],[37.026337,48.60702],[37.02618,48.606684],[37.025722,48.606779],[37.025852,48.607029],[37.025892,48.60702],[37.02592,48.607067],[37.025878,48.607076],[37.025982,48.607266]]]}},{"type":"Feature","properties":{"cadnum":"1420387501:00:000:0115"},"geometry":{"type":"Polygon","coordinates":[[[37.026603,48.604806],[37.026957,48.604703],[37.026845,48.604548],[37.026679,48.604293],[37.026611,48.60418],[37.026526,48.603976],[37.026171,48.603993],[37.026144,48.603999],[37.026203,48.604145],[37.026251,48.604236],[37.026377,48.60443],[37.026603,48.604806]]]}},{"type":"Feature","properties":{"cadnum":"1420387501:00:000:0015"},"geometry":{"type":"Polygon","coordinates":[[[37.025367,48.606981],[37.025565,48.606937],[37.025475,48.606749],[37.025272,48.606794],[37.025367,48.606981]]]}},{"type":"Feature","properties":{"cadnum":"1420387501:00:000:0138"},"geometry":{"type":"Polygon","coordinates":[[[37.025735,48.605514],[37.026153,48.605427],[37.026894,48.605208],[37.026769,48.605006],[37.025614,48.605273],[37.025735,48.605514]]]}},{"type":"Feature","properties":{"cadnum":"1420387501:00:000:0136"},"geometry":{"type":"Polygon","coordinates":[[[37.027761,48.603628],[37.027712,48.603545],[37.02737,48.603589],[37.02747828307692,48.603801],[37.027478,48.603801],[37.027533035713276,48.6039081964266],[37.027536,48.603914],[37.02753601532567,48.603914],[37.027612,48.604062],[37.027855,48.604397],[37.028178,48.604284],[37.027958,48.603963],[37.027891,48.603853],[37.027861,48.603801],[37.02786095555555,48.603801],[37.027761,48.603628]]]}},{"type":"Feature","properties":{"cadnum":"1420387501:00:000:0066"},"geometry":{"type":"Polygon","coordinates":[[[37.028597,48.603725],[37.027891,48.603853],[37.027928,48.603914],[37.02792815454546,48.603914],[37.027958,48.603963],[37.028178,48.604284],[37.028834,48.604046],[37.028735942857146,48.603914],[37.028736,48.603914],[37.028597,48.603725]]]}},{"type":"Feature","properties":{"cadnum":"1420387501:00:000:0113"},"geometry":{"type":"Polygon","coordinates":[[[37.026396,48.606904],[37.026764,48.606824],[37.027559,48.606393],[37.027509,48.606318],[37.026643,48.606586],[37.026283,48.60666],[37.026396,48.606904]]]}},{"type":"Feature","properties":{"cadnum":"1420387501:00:000:0126"},"geometry":{"type":"Polygon","coordinates":[[[37.025901,48.607426],[37.025771,48.607188],[37.025672,48.607212],[37.025511,48.607251],[37.025452,48.607263],[37.02553914285714,48.607433],[37.025539,48.607433],[37.025574,48.607501],[37.025901,48.607426]]]}},{"type":"Feature","properties":{"cadnum":"1420387501:00:000:0135"},"geometry":{"type":"Polygon","coordinates":[[[37.029505,48.604178],[37.028874,48.604198],[37.029495,48.605493],[37.029943,48.605321],[37.030541,48.605995],[37.031031,48.605796],[37.031237,48.605282],[37.031358,48.604709],[37.031358,48.604117],[37.029505,48.6041783091358],[37.029505,48.604178]]]}},{"type":"Feature","properties":{"cadnum":"1420387501:00:000:0109"},"geometry":{"type":"Polygon","coordinates":[[[37.02384,48.6074425542522],[37.02384,48.607443],[37.023957,48.607388],[37.023903,48.607322],[37.023704,48.607088],[37.023215,48.607258],[37.02336820069204,48.607433],[37.023368,48.607433],[37.02339232258127,48.60746055425292],[37.023468,48.607547],[37.023468629629626,48.607547],[37.023511,48.607595],[37.02361411111112,48.607547],[37.023616,48.607547],[37.02384,48.6074425542522]]]}},{"type":"Feature","properties":{"cadnum":"1420387501:00:000:0128"},"geometry":{"type":"Polygon","coordinates":[[[37.028156,48.60568],[37.028453,48.605555],[37.028282,48.605374],[37.028174,48.605416],[37.028211,48.605455],[37.028012,48.605532],[37.028156,48.60568]]]}},{"type":"Feature","properties":{"cadnum":"1420387501:00:000:0044"},"geometry":{"type":"Polygon","coordinates":[[[37.026494,48.603892],[37.026502,48.603914],[37.02650238095238,48.603914],[37.026526,48.603976],[37.026611,48.60418],[37.026679,48.604293],[37.026845,48.604548],[37.026957,48.604703],[37.027276,48.604599],[37.026983,48.604156],[37.026813,48.60383],[37.026494,48.603892]]]}},{"type":"Feature","properties":{"cadnum":"1420387501:00:000:0012"},"geometry":{"type":"Polygon","coordinates":[[[37.027096,48.603661],[37.026777,48.603749],[37.02680011111111,48.603801],[37.0268,48.603801],[37.026813,48.60383],[37.026856,48.603914],[37.02685680368098,48.603914],[37.026983,48.604156],[37.027276,48.604599],[37.027582,48.604498],[37.027325,48.604133],[37.02724,48.603952],[37.02719724999959,48.603865929999166],[37.027096,48.603661]]]}},{"type":"Feature","properties":{"cadnum":"1420387501:00:000:0061"},"geometry":{"type":"Polygon","coordinates":[[[37.02446,48.603749],[37.024316,48.603476],[37.024006600000426,48.603546199999904],[37.0234,48.603681],[37.02346643776824,48.603801],[37.023466,48.603801],[37.024012,48.604788],[37.024012,48.604787831013915],[37.024343,48.605386],[37.025807,48.605089],[37.025731,48.604908],[37.025708,48.604857],[37.025578,48.604548],[37.025367,48.60457],[37.025402,48.604641],[37.025371,48.604647],[37.025376,48.604656],[37.025182,48.604688],[37.025129,48.604572],[37.02478677172504,48.603914],[37.024787,48.603914],[37.024679,48.603705],[37.02446,48.603749]]]}},{"type":"Feature","properties":{"cadnum":"1420387501:00:000:0098"},"geometry":{"type":"Polygon","coordinates":[[[37.024954,48.607388],[37.02483767924528,48.607433],[37.024836,48.607433],[37.024132,48.607705],[37.024392,48.608006],[37.024819,48.607857],[37.024769,48.607798],[37.025148,48.607655],[37.024987,48.607433],[37.02498626415095,48.607433],[37.024954,48.607388]]]}},{"type":"Feature","properties":{"cadnum":"1420387501:00:000:0116"},"geometry":{"type":"Polygon","coordinates":[[[37.026458,48.603788],[37.026396,48.603595],[37.026355,48.60347],[37.026287,48.60328],[37.026261,48.603203],[37.026238,48.603122],[37.025901,48.603159],[37.025924,48.603236],[37.025974,48.603426],[37.026041,48.603646],[37.026098257462685,48.603801],[37.026098,48.603801],[37.026107059352505,48.603824827338094],[37.02614,48.603914],[37.026140963541664,48.603914],[37.026171,48.603993],[37.026526,48.603976],[37.0264894285713,48.603875999999666],[37.026458,48.603788]]]}},{"type":"Feature","properties":{"cadnum":"1420387501:00:000:0067"},"geometry":{"type":"Polygon","coordinates":[[[37.02919,48.603794],[37.02918,48.603619],[37.029171,48.603351],[37.027608,48.603289],[37.027671,48.603441],[37.027702,48.603527],[37.027721,48.603527],[37.027716,48.603545],[37.027712,48.603545],[37.027761,48.603628],[37.027891,48.603853],[37.02818,48.603801],[37.02817781250001,48.603801],[37.028597,48.603725],[37.02865289417989,48.603801],[37.028652,48.603801],[37.028834,48.604046],[37.029194,48.603916],[37.029190224,48.60380744000002],[37.02919,48.603794]],[[37.029046,48.603702],[37.02905,48.603684],[37.029077,48.603687],[37.029073,48.603705],[37.029046,48.603702]],[[37.028295,48.603613],[37.0283,48.603595],[37.028327,48.603601],[37.028318,48.603615],[37.028295,48.603613]]]}},{"type":"Feature","properties":{"cadnum":"1420387501:00:000:0048"},"geometry":{"type":"Polygon","coordinates":[[[37.026337,48.604947],[37.02666,48.604843],[37.02632,48.604335],[37.026198,48.604038],[37.025861,48.604112],[37.026,48.604406],[37.026337,48.604947]]]}},{"type":"Feature","properties":{"cadnum":"1420387501:00:000:0145"},"geometry":{"type":"Polygon","coordinates":[[[37.025084,48.605644],[37.025605,48.605537],[37.025506,48.60533],[37.024985,48.605436],[37.025084,48.605644]]]}},{"type":"Feature","properties":{"cadnum":"1420387501:00:000:0079"},"geometry":{"type":"Polygon","coordinates":[[[37.018679,48.61143],[37.018881,48.611337],[37.018737,48.611124],[37.018518,48.61120373846154],[37.018518,48.611203],[37.01814,48.611341],[37.018297,48.61156],[37.018518,48.611485],[37.018518,48.61148479819277],[37.018679,48.61143]]]}},{"type":"Feature","properties":{"cadnum":"1420387501:00:000:0137"},"geometry":{"type":"Polygon","coordinates":[[[37.022834,48.611067],[37.022712,48.610939],[37.022618,48.610827],[37.022618,48.610741],[37.022443,48.610562],[37.02198,48.610752],[37.022102,48.610895],[37.022056,48.610919],[37.022169,48.611044],[37.022312,48.611179],[37.02231423333333,48.611179],[37.022385,48.611245],[37.02255148314606,48.611179],[37.022552,48.611179],[37.022834,48.611067]]]}},{"type":"Feature","properties":{"cadnum":"1420387501:00:000:0139"},"geometry":{"type":"Polygon","coordinates":[[[37.019523,48.613696],[37.019847,48.613562],[37.01929,48.612801],[37.018993,48.612906],[37.019523,48.613696]]]}},{"type":"Feature","properties":{"cadnum":"1420387501:00:000:0078"},"geometry":{"type":"Polygon","coordinates":[[[37.018026,48.611179],[37.0180267173913,48.611179],[37.01814,48.611341],[37.018347,48.611265428571436],[37.018347,48.611266],[37.01858594366197,48.611179],[37.018586,48.611179],[37.018737,48.611124],[37.018463,48.610717],[37.018347,48.610759],[37.018347,48.61075911221122],[37.017857,48.610937],[37.018026,48.611179]]]}},{"type":"Feature","properties":{"cadnum":"1420387501:00:000:0123"},"geometry":{"type":"Polygon","coordinates":[[[37.022366,48.614762],[37.022272,48.614788],[37.021649,48.613972],[37.021459,48.613969],[37.022068,48.61481],[37.0220688436214,48.61481],[37.022339,48.615183],[37.022569,48.615112],[37.022498,48.615002],[37.022532,48.614993],[37.02240049350649,48.61481],[37.022401,48.61481],[37.022366,48.614762]]]}},{"type":"Feature","properties":{"cadnum":"1420387501:00:000:0131"},"geometry":{"type":"Polygon","coordinates":[[[37.019308,48.611014],[37.018944,48.610542],[37.018764,48.610607],[37.01876,48.610601],[37.01871,48.610619],[37.018716,48.610624],[37.018463,48.610717],[37.01869728009829,48.611065],[37.018697,48.611065],[37.018737,48.611124],[37.018776,48.611179],[37.018776096385544,48.611179],[37.018796,48.611207],[37.018870140845074,48.611179],[37.018871,48.611179],[37.019308,48.611014]]]}},{"type":"Feature","properties":{"cadnum":"1420387501:00:000:0129"},"geometry":{"type":"Polygon","coordinates":[[[37.020565,48.610699],[37.020413,48.610752],[37.020774,48.611179],[37.02077443396226,48.611179],[37.020947,48.611383],[37.021217,48.611735],[37.021347,48.61167],[37.021181,48.611359],[37.020906,48.611065],[37.0209058375,48.611065],[37.020565,48.610699]]]}},{"type":"Feature","properties":{"cadnum":"1420387501:00:000:0039"},"geometry":{"type":"Polygon","coordinates":[[[37.02394972935799,48.611103298165304],[37.023907,48.611065],[37.023906132075474,48.611065],[37.023831,48.610999],[37.02366621854304,48.611065],[37.023664,48.611065],[37.023454,48.61115],[37.023485,48.611179],[37.023486757475084,48.611179],[37.023794,48.611451],[37.02384,48.611492779816516],[37.02384,48.611493],[37.024077,48.611709],[37.02446,48.611555],[37.024042,48.611186],[37.024012,48.61115911111111],[37.024012,48.611159],[37.024012,48.611158],[37.02394972935799,48.611103298165304]]]}},{"type":"Feature","properties":{"cadnum":"1420387501:00:000:0075"},"geometry":{"type":"Polygon","coordinates":[[[37.023624,48.61238],[37.02392,48.612259],[37.023786,48.612101],[37.023498,48.612228],[37.023624,48.61238]]]}},{"type":"Feature","properties":{"cadnum":"1420387501:00:000:0074"},"geometry":{"type":"Polygon","coordinates":[[[37.023498,48.612228],[37.023786,48.612101],[37.023395,48.611632],[37.023125,48.611326],[37.022842,48.611451],[37.023135,48.611783],[37.023498,48.612228]]]}},{"type":"Feature","properties":{"cadnum":"1420387501:00:000:0034"},"geometry":{"type":"Polygon","coordinates":[[[37.022151,48.611049],[37.022075,48.611026],[37.02171,48.610684],[37.021329,48.610839],[37.02158011111111,48.611065],[37.02158,48.611065],[37.021599,48.611082],[37.021626,48.611077],[37.02171,48.611179],[37.0217104137931,48.611179],[37.021746,48.611222],[37.021886,48.611391],[37.022339,48.611207],[37.02217,48.611065],[37.022169830769236,48.611065],[37.022151,48.611049]]]}},{"type":"Feature","properties":{"cadnum":"1420387501:00:000:0140"},"geometry":{"type":"Polygon","coordinates":[[[37.018518,48.612701482071714],[37.018598,48.612792],[37.01898,48.612644],[37.01845,48.612048],[37.018347,48.612088],[37.018347,48.61208843501326],[37.018073,48.612196],[37.018518,48.612703],[37.018518,48.612701482071714]]]}},{"type":"Feature","properties":{"cadnum":"1420387501:00:000:0147"},"geometry":{"type":"Polygon","coordinates":[[[37.033249,48.614458],[37.033146,48.614322],[37.032801,48.613868],[37.031979,48.614138],[37.031979,48.614465],[37.032109,48.614661],[37.0321336442953,48.614697],[37.032133,48.614697],[37.032212,48.614812],[37.032549,48.614697],[37.03254761647727,48.614697],[37.033249,48.614458]],[[37.032769,48.614553],[37.032769,48.614572],[37.032742,48.614572],[37.032742,48.614553],[37.032769,48.614553]]]}},{"type":"Feature","properties":{"cadnum":"1420387501:00:000:0085"},"geometry":{"type":"Polygon","coordinates":[[[37.025161,48.616217],[37.025354,48.616155],[37.025215,48.615866],[37.024891,48.615257],[37.024815,48.615299],[37.024563,48.615433],[37.024968,48.615952],[37.025161,48.616217]]]}},{"type":"Feature","properties":{"cadnum":"1420387501:00:000:0096"},"geometry":{"type":"Polygon","coordinates":[[[37.025452,48.61453],[37.02516039896373,48.614697],[37.02516,48.614697],[37.025115,48.614723],[37.025425,48.614982],[37.025735,48.614753],[37.025664,48.614697],[37.025663932735426,48.614697],[37.025452,48.61453]]]}},{"type":"Feature","properties":{"cadnum":"1420387501:00:000:0070"},"geometry":{"type":"Polygon","coordinates":[[[37.027213,48.614262],[37.026903,48.614379],[37.027232,48.61481],[37.02723232919255,48.61481],[37.027515,48.61518],[37.027798,48.615076],[37.0276056939314,48.61481],[37.027606,48.61481],[37.027213,48.614262]]]}},{"type":"Feature","properties":{"cadnum":"1420387501:00:000:0042"},"geometry":{"type":"Polygon","coordinates":[[[37.034998,48.609759],[37.034893,48.609654],[37.034664,48.609752],[37.034826,48.60991351497006],[37.034826,48.609914],[37.035262,48.610349],[37.035486,48.61025],[37.034998,48.609759531197305],[37.034998,48.609759]]]}},{"type":"Feature","properties":{"cadnum":"1420387501:00:000:0060"},"geometry":{"type":"Polygon","coordinates":[[[37.037899,48.610978],[37.03766302739725,48.611065],[37.037661,48.611065],[37.037503,48.611124],[37.037551,48.611179],[37.03755138487973,48.611179],[37.038015,48.611706],[37.038411,48.61156],[37.037975,48.611065],[37.03797474626866,48.611065],[37.037899,48.610978]]]}},{"type":"Feature","properties":{"cadnum":"1420387501:00:000:0032"},"geometry":{"type":"Polygon","coordinates":[[[37.037652,48.610538],[37.037845,48.610452],[37.037553,48.610091],[37.037386,48.609891],[37.037382,48.609867],[37.037256,48.609734],[37.037059,48.609823],[37.03722,48.609992],[37.037266,48.61004],[37.03736,48.610153],[37.037652,48.610538]]]}},{"type":"Feature","properties":{"cadnum":"1420387501:00:000:0055"},"geometry":{"type":"Polygon","coordinates":[[[37.035931,48.610388],[37.035719,48.610485],[37.036484,48.611179],[37.03648517948717,48.611179],[37.036618,48.611299],[37.036776,48.611225],[37.036614,48.611065],[37.036613991150446,48.611065],[37.035931,48.610388]]]}},{"type":"Feature","properties":{"cadnum":"1420387501:00:000:0093"},"geometry":{"type":"Polygon","coordinates":[[[37.039817,48.611053],[37.038972,48.609966],[37.038694,48.610073],[37.03945904797048,48.611065],[37.039458,48.611065],[37.03949947667347,48.61111742190674],[37.03953,48.611157],[37.039817,48.611053]]]}},{"type":"Feature","properties":{"cadnum":"1420387501:00:000:0097"},"geometry":{"type":"Polygon","coordinates":[[[37.037845,48.609933],[37.038388,48.609728],[37.038186,48.609497],[37.037979,48.609297],[37.037486,48.609517],[37.037845,48.609933]]]}},{"type":"Feature","properties":{"cadnum":"1420387501:00:000:0120"},"geometry":{"type":"Polygon","coordinates":[[[37.039817,48.611053],[37.040199,48.610916],[37.039543,48.609725],[37.038922,48.609909],[37.038972,48.609966],[37.039817,48.611053]]]}},{"type":"Feature","properties":{"cadnum":"1420387501:00:000:0092"},"geometry":{"type":"Polygon","coordinates":[[[37.038694,48.610073],[37.038972,48.609966],[37.038644,48.609583],[37.03828,48.609167],[37.037979,48.609297],[37.038186,48.609497],[37.038694,48.610073]]]}},{"type":"Feature","properties":{"cadnum":"1420387501:00:000:0106"},"geometry":{"type":"Polygon","coordinates":[[[37.040319,48.61172978313253],[37.040319,48.61173],[37.040427,48.611694],[37.040023,48.611126],[37.039501,48.611308],[37.039753,48.611614],[37.039902,48.611566],[37.040095,48.611804],[37.040319,48.61172978313253]]]}},{"type":"Feature","properties":{"cadnum":"1420387501:00:000:0090"},"geometry":{"type":"Polygon","coordinates":[[[37.040922,48.613683],[37.040517,48.613214],[37.040326973153846,48.61328118120824],[37.03988,48.613437],[37.039686,48.613197],[37.03753,48.61396],[37.038101,48.614676],[37.040491,48.613835],[37.040491,48.61383452902156],[37.040922,48.613683]]]}},{"type":"Feature","properties":{"cadnum":"1420387501:00:000:0103"},"geometry":{"type":"Polygon","coordinates":[[[37.04044880714035,48.61438520000079],[37.040491,48.614372],[37.040491,48.61437193826006],[37.041388,48.61409],[37.041276,48.613954],[37.040922,48.613683],[37.040319,48.613895],[37.040319,48.61389552384938],[37.038101,48.614676],[37.03753,48.61396],[37.037409,48.613793],[37.036354,48.614153],[37.036568,48.614399],[37.037373,48.614399],[37.03760936982969,48.614697],[37.037609,48.614697],[37.037682680097895,48.61478942490869],[37.037699,48.61481],[37.03769908232932,48.61481],[37.038006,48.615195],[37.039417,48.614708],[37.039453,48.614697],[37.03945216071429,48.614697],[37.040319,48.61442581005587],[37.040319,48.614426],[37.04044880714035,48.61438520000079]]]}},{"type":"Feature","properties":{"cadnum":"1420387501:00:000:1135"},"geometry":{"type":"Polygon","coordinates":[[[37.019102,48.618319],[37.019371,48.618292],[37.01955,48.618295],[37.019892,48.618301],[37.020871,48.618171],[37.020957,48.618167],[37.021657,48.618162],[37.022119,48.618114],[37.02229,48.618093],[37.021869,48.617374],[37.019565,48.617984],[37.018643,48.618226],[37.01838050943382,48.61829605660381],[37.01825870329671,48.618328],[37.018256,48.618328],[37.016914,48.618681],[37.016959,48.618755],[37.016982,48.61875],[37.017108,48.618746],[37.017938,48.618556],[37.018347,48.61845375],[37.018347,48.618454],[37.018729,48.618358],[37.019102,48.618319]]]}},{"type":"Feature","properties":{"cadnum":"1420387501:00:000:0063"},"geometry":{"type":"Polygon","coordinates":[[[37.015324,48.617921],[37.014794,48.618016],[37.01496,48.618442],[37.01496097247706,48.618442],[37.015045,48.618655],[37.015831,48.618515],[37.015671,48.618328],[37.01567084836852,48.618328],[37.015324,48.617921]]]}},{"type":"Feature","properties":{"cadnum":"1420387501:00:000:0127"},"geometry":{"type":"Polygon","coordinates":[[[37.022021,48.60911],[37.022259,48.609021],[37.02207,48.608786],[37.021752,48.608377],[37.021527,48.608448],[37.021607,48.608558],[37.02189,48.60895],[37.022012,48.609098],[37.022021,48.60911]]]}},{"type":"Feature","properties":{"cadnum":"1420387501:00:000:0119"},"geometry":{"type":"Polygon","coordinates":[[[37.022739,48.607399],[37.022335,48.607522],[37.022354,48.607547],[37.02235452965235,48.607547],[37.022717,48.608011],[37.022731,48.608033],[37.023121,48.607901],[37.02279374999991,48.60747199999989],[37.022739,48.607399]]]}},{"type":"Feature","properties":{"cadnum":"1420387501:00:000:0050"},"geometry":{"type":"Polygon","coordinates":[[[37.022834,48.611067],[37.023202,48.610919],[37.022959,48.610666],[37.022995,48.610655],[37.022658,48.61028],[37.022299,48.610417],[37.022443,48.610562],[37.022618,48.610741],[37.022618,48.610827],[37.022712,48.610939],[37.022834,48.611067]]]}},{"type":"Feature","properties":{"cadnum":"1420387501:00:000:0076"},"geometry":{"type":"Polygon","coordinates":[[[37.022911,48.608727],[37.023184,48.608626],[37.022744,48.608068],[37.022425,48.608166],[37.022911,48.608727]]]}},{"type":"Feature","properties":{"cadnum":"1420387501:00:000:0086"},"geometry":{"type":"Polygon","coordinates":[[[37.021752,48.61056],[37.022228,48.61034],[37.022178,48.610283],[37.022483,48.610168],[37.022892,48.610014],[37.022695,48.609794],[37.022587,48.609835],[37.022295,48.609945],[37.022385,48.610028],[37.021549,48.61036],[37.021752,48.61056]]]}},{"type":"Feature","properties":{"cadnum":"1420387501:00:000:0108"},"geometry":{"type":"Polygon","coordinates":[[[37.023215,48.607258],[37.022739,48.607399],[37.0227645,48.607433],[37.022764,48.607433],[37.02279374999991,48.60747199999989],[37.02285,48.607547],[37.02285096153846,48.607547],[37.023121,48.607901],[37.023629,48.607729],[37.023511,48.607595],[37.02339232258127,48.60746055425292],[37.023215,48.607258]]]}},{"type":"Feature","properties":{"cadnum":"1420387501:00:000:0080"},"geometry":{"type":"Polygon","coordinates":[[[37.020822,48.610627],[37.021029,48.61055],[37.02048,48.609935],[37.020274,48.610009],[37.020692,48.610491],[37.020822,48.610627]]]}},{"type":"Feature","properties":{"cadnum":"1420387501:00:000:0125"},"geometry":{"type":"Polygon","coordinates":[[[37.021567,48.609279],[37.022012,48.609098],[37.02189,48.60895],[37.021607,48.608558],[37.021199,48.608695],[37.021333,48.608941],[37.021567,48.609279]]]}},{"type":"Feature","properties":{"cadnum":"1420387501:00:000:0141"},"geometry":{"type":"Polygon","coordinates":[[[37.022259,48.609021],[37.022469,48.608941],[37.022304,48.608713],[37.021976,48.608302],[37.021752,48.608377],[37.02207,48.608786],[37.022259,48.609021]]]}},{"type":"Feature","properties":{"cadnum":"1420387501:00:000:0102"},"geometry":{"type":"Polygon","coordinates":[[[37.021406,48.610182],[37.021666,48.610082],[37.0214,48.609799],[37.021226,48.609621],[37.020993,48.609716],[37.02119,48.609942],[37.021366,48.61015],[37.021406,48.610182]]]}},{"type":"Feature","properties":{"cadnum":"1420387501:00:000:0105"},"geometry":{"type":"Polygon","coordinates":[[[37.022219,48.608166],[37.022717,48.608011],[37.022335,48.607522],[37.021832,48.607673],[37.022219,48.608166]]]}},{"type":"Feature","properties":{"cadnum":"1420387501:00:000:0112"},"geometry":{"type":"Polygon","coordinates":[[[37.02022,48.609802],[37.020561,48.609677],[37.020004,48.608986],[37.019662,48.609105],[37.02022,48.609802]]]}},{"type":"Feature","properties":{"cadnum":"1420387501:00:000:0122"},"geometry":{"type":"Polygon","coordinates":[[[37.021549,48.61036],[37.022385,48.610028],[37.022295,48.609945],[37.022228,48.609876],[37.021886,48.609998],[37.021666,48.610082],[37.021406,48.610182],[37.021383,48.610191],[37.021549,48.61036]]]}},{"type":"Feature","properties":{"cadnum":"1420387501:00:000:0111"},"geometry":{"type":"Polygon","coordinates":[[[37.025762,48.613116],[37.025933,48.613012],[37.025354,48.612588],[37.025156,48.612796],[37.025565,48.613102],[37.025664,48.613042],[37.025762,48.613116]]]}},{"type":"Feature","properties":{"cadnum":"1420387501:00:000:0059"},"geometry":{"type":"Polygon","coordinates":[[[37.026494,48.614233],[37.02671,48.614097],[37.026666,48.614051],[37.026423,48.61417],[37.026494,48.614233]]]}},{"type":"Feature","properties":{"cadnum":"1420387501:00:000:0095"},"geometry":{"type":"Polygon","coordinates":[[[37.025115,48.614723],[37.025452,48.61453],[37.024716,48.613974],[37.024446,48.61417],[37.025115,48.614723]]]}},{"type":"Feature","properties":{"cadnum":"1420387501:00:000:0038"},"geometry":{"type":"Polygon","coordinates":[[[37.024429,48.612024],[37.024756,48.611815],[37.02446,48.611555],[37.024077,48.611709],[37.024429,48.612024]]]}},{"type":"Feature","properties":{"cadnum":"1420387501:00:000:0058"},"geometry":{"type":"Polygon","coordinates":[[[37.026423,48.61417],[37.026666,48.614051],[37.026,48.613455],[37.025775,48.613285],[37.025538,48.61344],[37.026023,48.613826],[37.026423,48.61417]]]}},{"type":"Feature","properties":{"cadnum":"1420387501:00:000:0110"},"geometry":{"type":"Polygon","coordinates":[[[37.025664,48.613175],[37.025762,48.613116],[37.025664,48.613042],[37.025565,48.613102],[37.025664,48.613175]]]}},{"type":"Feature","properties":{"cadnum":"1420387501:00:000:0082"},"geometry":{"type":"Polygon","coordinates":[[[37.022982,48.607234],[37.023741,48.60702],[37.023601,48.606794],[37.023704,48.606756],[37.023637,48.606672],[37.022762,48.60691],[37.022856,48.607091],[37.022905,48.607082],[37.022982,48.607234]]]}},{"type":"Feature","properties":{"cadnum":"1420387501:00:000:0143"},"geometry":{"type":"Polygon","coordinates":[[[37.021649,48.606637],[37.021653,48.606532],[37.021662,48.606446],[37.021697,48.606349],[37.020997,48.606048],[37.020781,48.60628],[37.021649,48.606637]]]}},{"type":"Feature","properties":{"cadnum":"1420387501:00:000:0142"},"geometry":{"type":"Polygon","coordinates":[[[37.026777,48.603749],[37.027096,48.603661],[37.027047,48.60356],[37.026949,48.603357],[37.026804,48.603073],[37.026436,48.603043],[37.026566,48.603313],[37.02667,48.603527],[37.026777,48.603749]]]}},{"type":"Feature","properties":{"cadnum":"1420387501:00:000:0124"},"geometry":{"type":"Polygon","coordinates":[[[37.011425,48.617766],[37.011053,48.617841],[37.011137,48.618316],[37.01115242857142,48.618328],[37.011152,48.618328],[37.011214318181004,48.618376136363004],[37.011299,48.618442],[37.011299586402274,48.618442],[37.011609,48.618681],[37.01156092917847,48.618442],[37.011561,48.618442],[37.011425,48.617766]]]}},{"type":"Feature","properties":{"cadnum":"1420387501:00:000:0134"},"geometry":{"type":"Polygon","coordinates":[[[37.025025,48.610138],[37.025376,48.609974],[37.025079,48.609636],[37.025021,48.60966],[37.024702,48.60936],[37.024415,48.609481],[37.025025,48.610138]]]}},{"type":"Feature","properties":{"cadnum":"1420387501:00:000:0107"},"geometry":{"type":"Polygon","coordinates":[[[37.025255,48.609372],[37.025785,48.609169],[37.025937,48.609098],[37.025754,48.608837],[37.025278,48.609006],[37.025012,48.609096],[37.025255,48.609372]]]}},{"type":"Feature","properties":{"cadnum":"1420387501:00:000:0005"},"geometry":{"type":"Polygon","coordinates":[[[37.024995,48.607887],[37.025021,48.607877],[37.025148,48.607837],[37.025362,48.607768],[37.025255,48.607619],[37.025148,48.607655],[37.025039,48.607694],[37.025084,48.607759],[37.024968,48.607845],[37.024995,48.607887]]]}},{"type":"Feature","properties":{"cadnum":"1420387501:00:000:0081"},"geometry":{"type":"Polygon","coordinates":[[[37.026018,48.608321],[37.026823,48.608121],[37.027029,48.608041],[37.02688,48.60772],[37.026194,48.607837],[37.025865,48.607928],[37.025852,48.607964],[37.026018,48.608321]]]}},{"type":"Feature","properties":{"cadnum":"1420387501:00:000:0089"},"geometry":{"type":"Polygon","coordinates":[[[37.026018,48.608321],[37.026823,48.608121],[37.027029,48.608041],[37.02688,48.60772],[37.026194,48.607837],[37.025865,48.607928],[37.025857,48.607955],[37.026,48.607923],[37.026045,48.608006],[37.026086,48.607996],[37.026108,48.608047],[37.026072,48.608056],[37.026121,48.608154],[37.02596,48.60819],[37.026018,48.608321]]]}},{"type":"Feature","properties":{"cadnum":"1420387501:00:000:0088"},"geometry":{"type":"Polygon","coordinates":[[[37.02596,48.60819],[37.026121,48.608154],[37.026072,48.608056],[37.026108,48.608047],[37.026086,48.607996],[37.026045,48.608006],[37.026,48.607923],[37.025857,48.607955],[37.025852,48.607964],[37.02596,48.60819]]]}},{"type":"Feature","properties":{"cadnum":"1420387501:00:000:0072"},"geometry":{"type":"Polygon","coordinates":[[[37.017911,48.610666],[37.018221,48.610565],[37.017947,48.610188],[37.017584,48.609772],[37.017287,48.609871],[37.017731,48.610399],[37.017911,48.610666]]]}},{"type":"Feature","properties":{"cadnum":"1420387501:00:000:0073"},"geometry":{"type":"Polygon","coordinates":[[[37.017287,48.609871],[37.017584,48.609772],[37.017192,48.609325],[37.016919,48.609437],[37.017287,48.609871]]]}},{"type":"Feature","properties":{"cadnum":"1420387501:00:000:0026"},"geometry":{"type":"Polygon","coordinates":[[[37.022762,48.615145],[37.02287,48.615091],[37.022775,48.615011],[37.022672,48.615064],[37.022762,48.615145]]]}},{"type":"Feature","properties":{"cadnum":"1420387501:00:000:0118"},"geometry":{"type":"Polygon","coordinates":[[[37.018347,48.61802835597826],[37.018347,48.618029],[37.01849868000039,48.617991672499905],[37.018518,48.617987],[37.018518,48.61798691796875],[37.018603,48.617966],[37.018383,48.617627],[37.018347,48.617563],[37.018347,48.61756339378238],[37.01819,48.617286],[37.017722,48.617416],[37.01815,48.618076],[37.018347,48.61802835597826]]]}},{"type":"Feature","properties":{"cadnum":"1420387501:00:000:0068"},"geometry":{"type":"Polygon","coordinates":[[[37.017098,48.61213],[37.017399,48.612017],[37.017058,48.611548],[37.01686,48.611311],[37.016855,48.611308],[37.016505,48.611441],[37.016546,48.611483],[37.016613,48.61156],[37.016622,48.61157],[37.016756,48.611744],[37.017098,48.61213]]]}},{"type":"Feature","properties":{"cadnum":"1420387501:00:000:0144"},"geometry":{"type":"Polygon","coordinates":[[[37.01376,48.613645],[37.014295,48.613624],[37.014089,48.613039],[37.013567,48.613113],[37.01376,48.613645]]]}},{"type":"Feature","properties":{"cadnum":"1420387501:00:000:0030"},"geometry":{"type":"Polygon","coordinates":[[[37.013025,48.612864738853496],[37.013078,48.613018],[37.013509,48.612965],[37.013357,48.612567],[37.012921,48.612564],[37.013025,48.612867],[37.013025,48.612864738853496]]]}},{"type":"Feature","properties":{"cadnum":"1420387501:00:000:0029"},"geometry":{"type":"Polygon","coordinates":[[[37.013303,48.613668],[37.01376,48.613645],[37.013509,48.612965],[37.013078,48.613018],[37.013303,48.613668]]]}},{"type":"Feature","properties":{"cadnum":"1420387501:00:000:0100"},"geometry":{"type":"Polygon","coordinates":[[[37.013303,48.613668],[37.013051,48.612948],[37.013025,48.61295129949239],[37.013025,48.612951],[37.012661,48.612997],[37.012854,48.61367592893399],[37.012854,48.613676],[37.012858,48.61369],[37.013025,48.613682],[37.013025,48.61368174382022],[37.013303,48.613668]]]}},{"type":"Feature","properties":{"cadnum":"1420387501:00:000:0019"},"geometry":{"type":"Polygon","coordinates":[[[37.015054,48.612642],[37.015221,48.612591],[37.015382,48.612534],[37.015167,48.612163],[37.015001,48.611916],[37.014695,48.612012],[37.014901,48.612338],[37.015054,48.612642]]]}},{"type":"Feature","properties":{"cadnum":"1420387501:00:000:0091"},"geometry":{"type":"Polygon","coordinates":[[[37.014403,48.614106],[37.014731,48.614102],[37.014749,48.613859],[37.014762,48.613746],[37.014372,48.613758],[37.014403,48.614106]]]}},{"type":"Feature","properties":{"cadnum":"1420387501:00:000:0069"},"geometry":{"type":"Polygon","coordinates":[[[37.017183,48.612226],[37.017439,48.612074],[37.017399,48.612017],[37.017098,48.61213],[37.017183,48.612226]]]}},{"type":"Feature","properties":{"cadnum":"1420387501:00:000:0132"},"geometry":{"type":"Polygon","coordinates":[[[37.039111,48.61222],[37.039205,48.612189],[37.038748,48.611602],[37.038469,48.611712],[37.038711,48.612009],[37.038774,48.611985],[37.038945,48.612202],[37.039111,48.61222]]]}},{"type":"Feature","properties":{"cadnum":"1420387501:00:000:0077"},"geometry":{"type":"Polygon","coordinates":[[[37.037023,48.612083],[37.037287,48.611973],[37.037031,48.6117],[37.036681,48.611278],[37.036417,48.611373],[37.036757,48.611798],[37.037023,48.612083]]]}},{"type":"Feature","properties":{"cadnum":"1420387501:00:000:0133"},"geometry":{"type":"Polygon","coordinates":[[[37.039205,48.612189],[37.039444,48.612101],[37.039004,48.611501],[37.038748,48.611602],[37.039205,48.612189]]]}},{"type":"Feature","properties":{"cadnum":"1420387501:00:000:0087"},"geometry":{"type":"Polygon","coordinates":[[[37.014919,48.617027],[37.015198,48.616965],[37.015108,48.616798],[37.014722,48.616223],[37.014385,48.61632],[37.014735,48.616903],[37.014785,48.616959],[37.014838,48.616998],[37.014919,48.617027]]]}},{"type":"Feature","properties":{"cadnum":"1420387501:00:000:0062"},"geometry":{"type":"Polygon","coordinates":[[[37.014794,48.618016],[37.015324,48.617921],[37.015234,48.617814],[37.014861,48.617282],[37.014533,48.617336],[37.014794,48.618016]]]}},{"type":"Feature","properties":{"cadnum":"1420387501:00:000:0121"},"geometry":{"type":"Polygon","coordinates":[[[37.016748,48.617879],[37.017079,48.617814],[37.016573,48.61709],[37.016186,48.617185],[37.01641,48.617559],[37.016513,48.617529],[37.016748,48.617879]]]}},{"type":"Feature","properties":{"cadnum":"1420387501:00:000:0146"},"geometry":{"type":"Polygon","coordinates":[[[37.017381,48.617624],[37.017781,48.617508],[37.017722,48.617416],[37.017529,48.617122],[37.017349,48.616882],[37.016955,48.616985],[37.017381,48.617624]]]}},{"type":"Feature","properties":{"cadnum":"1420387501:00:000:0117"},"geometry":{"type":"Polygon","coordinates":[[[37.017722,48.617416],[37.01819,48.617286],[37.018024,48.617007],[37.017848,48.616751],[37.017349,48.616882],[37.017529,48.617122],[37.017722,48.617416]]]}},{"type":"Feature","properties":{"cadnum":"1420387501:00:000:0031"},"geometry":{"type":"Polygon","coordinates":[[[37.015243,48.616926],[37.015508,48.616882],[37.015471,48.616793],[37.015463,48.616793],[37.0154,48.616641],[37.01527,48.616457],[37.015032,48.615854],[37.014762,48.615899],[37.015009,48.616514],[37.015135,48.616763],[37.015243,48.616926]]]}},{"type":"Feature","properties":{"cadnum":"1420387501:00:000:0065"},"geometry":{"type":"Polygon","coordinates":[[[37.034291,48.612418],[37.034763,48.612267],[37.034629,48.612095],[37.03418,48.612261],[37.034291,48.612418]]]}},{"type":"Feature","properties":{"cadnum":"1420387501:00:000:0114"},"geometry":{"type":"Polygon","coordinates":[[[37.032495,48.613734],[37.032725,48.613654],[37.032163,48.612988],[37.03192,48.613081],[37.032495,48.613734]]]}},{"type":"Feature","properties":{"cadnum":"1420387501:00:000:0084"},"geometry":{"type":"Polygon","coordinates":[[[37.032725,48.613654],[37.03298,48.613556],[37.0324,48.612906],[37.032163,48.612988],[37.032725,48.613654]]]}},{"type":"Feature","properties":{"cadnum":"1420387501:00:000:0033"},"geometry":{"type":"Polygon","coordinates":[[[37.010087,48.614685],[37.01004957425743,48.614697],[37.010048,48.614697],[37.009772,48.614786],[37.009791,48.61481],[37.0097911392405,48.61481],[37.009961,48.615023],[37.010185,48.615284],[37.010428,48.615207],[37.01024,48.614922],[37.010275,48.61491],[37.010190962441314,48.61481],[37.010192,48.61481],[37.010087,48.614685]]]}},{"type":"Feature","properties":{"cadnum":"1420387501:00:000:0130"},"geometry":{"type":"Polygon","coordinates":[[[37.011242,48.614141],[37.011632,48.613969],[37.011309,48.613378],[37.010882,48.613479],[37.011242,48.614141]]]}},{"type":"Feature","properties":{"cadnum":"1420387501:00:000:0022"},"geometry":{"type":"Polygon","coordinates":[[[37.012269,48.614028],[37.012445,48.614011],[37.012414,48.613879],[37.012238,48.613897],[37.012269,48.614028]]]}},{"type":"Feature","properties":{"cadnum":"1420387501:00:000:0028"},"geometry":{"type":"Polygon","coordinates":[[[37.010234,48.614485],[37.010558,48.614357],[37.010414,48.614239],[37.0102,48.614001],[37.010141,48.613951],[37.009808,48.614082],[37.0101,48.614381],[37.010171,48.614352],[37.010234,48.614485]]]}}]}