{"type":"FeatureCollection","features":[{"type":"Feature","properties":{"cadnum":"1420355000:01:000:0366"},"geometry":{"type":"Polygon","coordinates":[[[36.993719,48.764574],[36.990881,48.766508],[36.990881,48.76650911680912],[36.99016742259414,48.766995],[36.990165,48.766995],[36.989493,48.767454],[36.990239,48.767931],[36.990696,48.768224],[36.991053,48.767981],[36.991053,48.767980674087816],[36.99233087579329,48.767109],[36.992332,48.767109],[36.995053,48.765255],[36.993719,48.764574]]]}},{"type":"Feature","properties":{"cadnum":"1420355000:01:000:0352"},"geometry":{"type":"Polygon","coordinates":[[[36.991887,48.768988],[36.991541,48.768766],[36.991053,48.76909946666667],[36.991053,48.769099],[36.98882961779142,48.770616],[36.988829,48.770616],[36.987719,48.771374],[36.989143,48.772286],[36.991053,48.770986],[36.991053,48.770985518934076],[36.99155772340227,48.7706407779847],[36.992969,48.769681],[36.991887,48.768988]]]}},{"type":"Feature","properties":{"cadnum":"1420355000:01:000:0351"},"geometry":{"type":"Polygon","coordinates":[[[36.994537,48.770684],[36.993109,48.769769],[36.992969,48.769681],[36.991594157442755,48.770616],[36.991594,48.770616],[36.99155772340233,48.77064077798466],[36.991428,48.770729],[36.99142856057494,48.770729],[36.990881,48.771103],[36.990881,48.77110306806283],[36.989143,48.772286],[36.990558,48.773191],[36.990881,48.77297436161616],[36.990881,48.772975],[36.99225,48.772055],[36.994263,48.770921],[36.994484974683544,48.770729],[36.994485,48.770729],[36.994537,48.770684]]]}},{"type":"Feature","properties":{"cadnum":"1420355000:01:000:0522"},"geometry":{"type":"Polygon","coordinates":[[[36.982594,48.718162],[36.98214,48.718254],[36.982073,48.718266],[36.98218,48.718494],[36.982185,48.718604],[36.982189,48.718808],[36.980941,48.718758],[36.981511,48.720018],[36.98151126943232,48.720018],[36.982499,48.722195],[36.984264,48.721846],[36.98378,48.720779],[36.983541,48.720426],[36.983608,48.720405],[36.983382,48.719905],[36.98338097952586,48.719905],[36.982594,48.718162]]]}},{"type":"Feature","properties":{"cadnum":"1420355000:01:000:0253"},"geometry":{"type":"Polygon","coordinates":[[[36.956669,48.790606],[36.955008,48.791024],[36.95576196345748,48.792334],[36.955761,48.792334],[36.957162,48.794762],[36.957922,48.79466169957081],[36.957922,48.794662],[36.95801545720141,48.794649365626846],[36.958094,48.794639],[36.958094,48.79463874751491],[36.958928,48.794526],[36.958094,48.793079349900594],[36.958094,48.793079],[36.95803620495284,48.79297909904841],[36.957922,48.792781],[36.957922,48.792781691415314],[36.95772837315436,48.792447],[36.957729,48.792447],[36.956669,48.790606]]]}},{"type":"Feature","properties":{"cadnum":"1420355000:01:000:0383"},"geometry":{"type":"Polygon","coordinates":[[[36.923665,48.744586],[36.920709,48.745006],[36.92095604278075,48.745267],[36.920956,48.745267],[36.92097050322668,48.74528227742027],[36.921063,48.74538],[36.92106327364864,48.74538],[36.921518,48.745859],[36.922034,48.747485],[36.924464,48.747139],[36.92391243322649,48.74538],[36.923913,48.74538],[36.923665,48.744586]]]}},{"type":"Feature","properties":{"cadnum":"1420355000:01:000:0384"},"geometry":{"type":"Polygon","coordinates":[[[36.922613,48.741336],[36.919663,48.741757],[36.9196715704225,48.741757],[36.919641,48.74176139817629],[36.919641,48.741761],[36.917861,48.742015],[36.919641,48.743885],[36.919641,48.743884556900724],[36.920709,48.745006],[36.923665,48.744586],[36.922713,48.741644],[36.92271249643706,48.741644],[36.922613,48.741336]]]}},{"type":"Feature","properties":{"cadnum":"1420355000:01:000:0602"},"geometry":{"type":"Polygon","coordinates":[[[36.915522,48.741644],[36.914148,48.74254043495146],[36.914148,48.74254],[36.912277,48.743759],[36.913531030845164,48.745267],[36.913531,48.745267],[36.91353777118195,48.745275105405],[36.913625,48.74538],[36.91362539917695,48.74538],[36.913734,48.74551],[36.914148,48.746333],[36.914148,48.74633236185132],[36.91469,48.747408],[36.915839,48.748204],[36.9177,48.748489],[36.91947,48.748702863275035],[36.91947,48.748704],[36.919587,48.748717],[36.919641,48.748726],[36.919641,48.74872501937046],[36.92074519565218,48.748889],[36.920741,48.748889],[36.920826,48.748901],[36.921279,48.748959],[36.920772,48.746546],[36.919923254104766,48.74538],[36.919924,48.74538],[36.919541,48.744852],[36.915998,48.741644],[36.91599743003413,48.741644],[36.915799,48.741464],[36.91552254948805,48.741644],[36.915522,48.741644]]]}},{"type":"Feature","properties":{"cadnum":"1420355000:01:000:0610"},"geometry":{"type":"Polygon","coordinates":[[[36.903277,48.750781],[36.905056,48.750541],[36.904858,48.749697],[36.903162,48.749927612419704],[36.903162,48.749927],[36.900505,48.750287],[36.897497,48.750694],[36.897497,48.750694228295814],[36.897358,48.750713],[36.897497,48.751186504065046],[36.897497,48.751187],[36.897604,48.751551],[36.897669,48.751543],[36.897669,48.75154218207988],[36.90299,48.75082033357322],[36.90299,48.750821],[36.903277,48.750781]]]}},{"type":"Feature","properties":{"cadnum":"1420355000:01:000:0454"},"geometry":{"type":"Polygon","coordinates":[[[36.965593,48.75048],[36.96350507975577,48.7505413530283],[36.961707,48.750593],[36.961756,48.752037],[36.961771342419084,48.752511],[36.961771,48.752511],[36.961825,48.754066],[36.962352,48.75405],[36.963415,48.75403450688259],[36.963415,48.754035],[36.965456,48.754004],[36.965509610180845,48.752624],[36.96551,48.752624],[36.965539,48.751884],[36.965593,48.75048]]]}},{"type":"Feature","properties":{"cadnum":"1420355000:01:000:0449"},"geometry":{"type":"Polygon","coordinates":[[[36.963415,48.754185],[36.963415,48.75418587423043],[36.96245,48.754202],[36.962581,48.756245],[36.96258140174672,48.756245],[36.962664,48.757506],[36.963127,48.757495],[36.963587,48.756893],[36.963587,48.756892778220454],[36.964081702839756,48.756245],[36.964082,48.756245],[36.965687,48.754145],[36.963415,48.754185]]]}},{"type":"Feature","properties":{"cadnum":"1420355000:02:000:0078"},"geometry":{"type":"Polygon","coordinates":[[[36.919245,48.758939],[36.919267,48.758922],[36.919168,48.75886],[36.919145,48.758877],[36.919245,48.758939]]]}},{"type":"Feature","properties":{"cadnum":"1420355000:02:000:0039"},"geometry":{"type":"Polygon","coordinates":[[[36.906255,48.789656],[36.904687,48.789603],[36.90299,48.789823],[36.90299,48.78982309073482],[36.901597,48.790002],[36.899886,48.789896],[36.899117,48.789969],[36.898224,48.790523],[36.8984,48.792228],[36.898411132420094,48.792334],[36.89841,48.792334],[36.898637,48.794494],[36.90299,48.79429486828729],[36.90299,48.794295],[36.908484,48.79404284819064],[36.908484,48.794043],[36.910518,48.79395],[36.91035988737624,48.792447],[36.91036,48.792447],[36.910086,48.789828],[36.9097,48.789969],[36.90939,48.789984],[36.908655,48.789907741721855],[36.908655,48.789907],[36.906255,48.789656]]]}},{"type":"Feature","properties":{"cadnum":"1420355000:01:000:0155"},"geometry":{"type":"Polygon","coordinates":[[[36.89755979364957,48.792268940287286],[36.897669,48.792264],[36.897669,48.79226361904762],[36.8984,48.792228],[36.898224,48.790523],[36.897519,48.790958],[36.897497,48.790969],[36.897497,48.790969174880765],[36.896261,48.791597],[36.896033,48.791783],[36.89609,48.792334],[36.897249,48.792283],[36.897497,48.79227178095238],[36.897497,48.792272],[36.89755979364957,48.792268940287286]]]}},{"type":"Feature","properties":{"cadnum":"1420355000:02:000:0124"},"geometry":{"type":"Polygon","coordinates":[[[36.972946,48.749784],[36.972946,48.749771],[36.972933,48.749775],[36.972933,48.749784],[36.972946,48.749784]]]}},{"type":"Feature","properties":{"cadnum":"1420355000:01:000:0856"},"geometry":{"type":"Polygon","coordinates":[[[36.929988,48.73186],[36.928103,48.731806],[36.92807,48.731797],[36.927378,48.731596],[36.926723,48.731596],[36.925667,48.73167],[36.925135,48.73174330113636],[36.925135,48.731743],[36.923036,48.732032],[36.919986,48.732034],[36.920823,48.734512],[36.92082324714612,48.734512],[36.921971,48.737903],[36.925135,48.737442],[36.925135,48.73744195145631],[36.930628,48.736642],[36.930628,48.7366418860654],[36.935257,48.735966],[36.93479027249521,48.734512],[36.934791,48.734512],[36.934026,48.732124],[36.931237,48.731987],[36.930456,48.731849],[36.930456,48.73184928571428],[36.929984,48.731765],[36.929988,48.73186]]]}},{"type":"Feature","properties":{"cadnum":"1420355000:02:000:0040"},"geometry":{"type":"Polygon","coordinates":[[[36.912687,48.789493],[36.912063,48.789526],[36.910688,48.789603],[36.910153,48.789804],[36.91041624252743,48.792334],[36.910416,48.792334],[36.910585,48.793947],[36.913977,48.79379182290205],[36.913977,48.793792],[36.91947,48.79354081938559],[36.91947,48.793541],[36.92012,48.793511],[36.920124,48.793556],[36.920363,48.7935],[36.92105,48.792941],[36.922326,48.792638],[36.923202,48.792706],[36.924895,48.792494],[36.925074,48.792355],[36.924984,48.792124],[36.924118,48.791819],[36.922684,48.791523],[36.921575,48.791417],[36.920214,48.791585],[36.919644,48.791535],[36.91957724447834,48.7915069933731],[36.917717,48.790719],[36.915467,48.790079],[36.913981,48.789899],[36.913769,48.789872],[36.912687,48.789493]]]}},{"type":"Feature","properties":{"cadnum":"1420355000:02:000:0038"},"geometry":{"type":"Polygon","coordinates":[[[36.919641,48.793665],[36.919641,48.793664989708404],[36.920053,48.793571],[36.920123,48.793557],[36.919641,48.793579143951],[36.919641,48.793579],[36.914148,48.79383018061441],[36.914148,48.79383],[36.908655,48.794081180614405],[36.908655,48.794081],[36.90753,48.794132],[36.90771924987067,48.795952],[36.907719,48.795952],[36.907963,48.79828],[36.908484,48.798256660404626],[36.908484,48.798257],[36.910974,48.798142],[36.912248,48.797528],[36.913977,48.79696198],[36.913977,48.796962],[36.91424,48.796876],[36.914761,48.79658],[36.915113,48.796237],[36.915414,48.796032],[36.915421,48.795952],[36.915420972477065,48.795952],[36.915452,48.795596],[36.915758,48.795269],[36.916412,48.794919],[36.918921,48.793828],[36.91947,48.7937037125],[36.91947,48.793704],[36.91963509028815,48.79366633789309],[36.919641,48.793665]]]}},{"type":"Feature","properties":{"cadnum":"1420355000:01:000:0301"},"geometry":{"type":"Polygon","coordinates":[[[36.977493,48.785095],[36.977492665972946,48.785095],[36.97626,48.784244],[36.97491427357513,48.785095],[36.974912,48.785095],[36.97446487500062,48.78537937499961],[36.971113,48.787499],[36.971499,48.78783],[36.971658927937916,48.788715],[36.971658,48.788715],[36.971662,48.788732],[36.971727,48.788828],[36.97172891689008,48.788828],[36.972182,48.789478],[36.972582,48.789789],[36.973929,48.788724],[36.974396,48.788359],[36.974573,48.787941],[36.974573,48.78793975878221],[36.974828,48.787336],[36.9764,48.786409],[36.976813,48.785723],[36.977645521235516,48.785209],[36.977646,48.785209],[36.977652,48.785205],[36.977493,48.785095]]]}},{"type":"Feature","properties":{"cadnum":"1420355000:01:000:0003"},"geometry":{"type":"Polygon","coordinates":[[[36.957922,48.719588],[36.95772221627907,48.719905],[36.957722,48.719905],[36.95767526865568,48.71997949253896],[36.957651,48.720018],[36.95765111180123,48.720018],[36.957419,48.720388],[36.956718,48.721493],[36.957571,48.721532],[36.957603,48.722915],[36.957922,48.723139144602854],[36.957922,48.72314],[36.958476053784864,48.723529],[36.958476,48.723529],[36.963415,48.72699577908836],[36.963415,48.726996],[36.963478,48.72704],[36.963587,48.725822],[36.963587,48.72581731948887],[36.963791,48.723529],[36.96379010345759,48.723529],[36.964111,48.71994],[36.963587,48.719976137931035],[36.963587,48.719976],[36.963587,48.719975],[36.963014789474144,48.72001573684208],[36.962651,48.720041],[36.962648,48.719905],[36.96264717004048,48.719905],[36.962633,48.71903],[36.958289,48.719015],[36.957922,48.719588]]]}},{"type":"Feature","properties":{"cadnum":"1420355000:01:001:0114"},"geometry":{"type":"Polygon","coordinates":[[[36.907791,48.720757],[36.903492,48.720285],[36.903389,48.721389],[36.90436,48.722548],[36.904934,48.723642],[36.90493448884639,48.723642],[36.905701,48.725098],[36.907739,48.725755],[36.908484,48.72565089519651],[36.908484,48.725652],[36.913992445839774,48.724878833608294],[36.917164,48.724434],[36.916947,48.723529],[36.91694693613247,48.723529],[36.916569,48.721951],[36.914148,48.72201825],[36.914148,48.722018],[36.913041,48.722048],[36.912587,48.720938],[36.908655,48.720790418230564],[36.908655,48.72079],[36.907791,48.720757]]]}},{"type":"Feature","properties":{"cadnum":"1420355000:01:000:0163"},"geometry":{"type":"Polygon","coordinates":[[[36.900622,48.783364],[36.899738,48.782527],[36.897497,48.783523],[36.897497,48.783523331360946],[36.895641,48.784347],[36.896503,48.785194],[36.897669,48.784677],[36.897669,48.78467654944],[36.900622,48.783364]]]}},{"type":"Feature","properties":{"cadnum":"1420355000:01:000:0158"},"geometry":{"type":"Polygon","coordinates":[[[36.892079897611254,48.78814021688566],[36.892176,48.788119],[36.892176,48.788118965921996],[36.894645,48.787573],[36.895498,48.787839],[36.896993,48.787706],[36.895219,48.78596],[36.893849,48.786569],[36.892004,48.787389],[36.892004,48.787389383386575],[36.889672,48.788425],[36.889506,48.788496],[36.889798,48.788644],[36.892004,48.78815697308663],[36.892004,48.788157],[36.892079897611254,48.78814021688566]]]}},{"type":"Feature","properties":{"cadnum":"1420355000:01:000:0446"},"geometry":{"type":"Polygon","coordinates":[[[36.95808633723671,48.75432621580097],[36.955999,48.754385],[36.956098,48.755869],[36.956122,48.756245],[36.956123405551274,48.756245],[36.956201,48.757429],[36.956215,48.75769],[36.957922,48.757641851516766],[36.957922,48.757642],[36.958825,48.757616],[36.958734462264154,48.756245],[36.958735,48.756245],[36.958609,48.754311],[36.95808633723671,48.75432621580097]]]}},{"type":"Feature","properties":{"cadnum":"1420355000:01:000:0447"},"geometry":{"type":"Polygon","coordinates":[[[36.960563,48.754255],[36.958609,48.754311],[36.95872763805584,48.756132],[36.958727,48.756132],[36.958825,48.757616],[36.959997,48.757583],[36.960779,48.757559],[36.960685,48.756132],[36.960683731658285,48.756132],[36.960563,48.754255]]]}},{"type":"Feature","properties":{"cadnum":"1420355000:01:000:0448"},"geometry":{"type":"Polygon","coordinates":[[[36.96245,48.754202],[36.96236,48.754205],[36.960563,48.754255],[36.960691,48.756245],[36.960692443587945,48.756245],[36.960779,48.757559],[36.962664,48.757506],[36.962574,48.756132],[36.962573754282914,48.756132],[36.96245,48.754202]]]}},{"type":"Feature","properties":{"cadnum":"1420355000:01:000:0035"},"geometry":{"type":"Polygon","coordinates":[[[36.832880372727274,48.67651],[36.832122,48.680137],[36.83212253740458,48.680137],[36.83201,48.680679],[36.837072,48.68116740466183],[36.837072,48.681168],[36.841662,48.68161],[36.842566,48.68169745674418],[36.842566,48.681698],[36.848059,48.68223042531779],[36.848059,48.682231],[36.851822,48.682595],[36.852368859587706,48.680137],[36.852369,48.680137],[36.852918,48.677677],[36.848059,48.67723],[36.848059,48.67723027065678],[36.842566,48.676725],[36.842566,48.676725151219514],[36.842327,48.676703],[36.84023427450978,48.67651],[36.84024,48.67651],[36.837072,48.676219],[36.837072,48.67621911931818],[36.83302,48.675845],[36.83288,48.67651],[36.832880372727274,48.67651]]]}},{"type":"Feature","properties":{"cadnum":"1420355000:01:000:0307"},"geometry":{"type":"Polygon","coordinates":[[[36.967916,48.778482],[36.963415,48.781328],[36.963415,48.781328778378374],[36.96318221367521,48.781476],[36.96318,48.781476],[36.963032,48.781571],[36.963057,48.781589],[36.96305781395348,48.781589],[36.963587,48.781958],[36.963587,48.781956538126366],[36.963874,48.782156],[36.964044,48.782269],[36.965297,48.781476],[36.96529667040265,48.781476],[36.968927,48.77918],[36.967916,48.778482]]]}},{"type":"Feature","properties":{"cadnum":"1420355000:01:000:0308"},"geometry":{"type":"Polygon","coordinates":[[[36.967009,48.777856],[36.96700896774194,48.777856],[36.966903,48.777783],[36.966787220430106,48.777856],[36.966787,48.777856],[36.96672886143095,48.777892795843535],[36.966608,48.777969],[36.96660845651055,48.777969],[36.963717,48.779799],[36.963415,48.77999],[36.963415,48.779990654731456],[36.962023,48.78087],[36.9628952596291,48.781476],[36.962895,48.781476],[36.963032,48.781571],[36.963587,48.78122],[36.963587,48.78121924372362],[36.967916,48.778482],[36.96717272364217,48.777969],[36.967173,48.777969],[36.96702611320447,48.77786781131863],[36.967009,48.777856]]]}},{"type":"Feature","properties":{"cadnum":"1420355000:01:000:0310"},"geometry":{"type":"Polygon","coordinates":[[[36.958896,48.777253],[36.958016,48.777386],[36.95863,48.777969],[36.95863017339668,48.777969],[36.958955,48.778277],[36.95975,48.779126],[36.960765,48.778718],[36.959665,48.777856],[36.95966490921788,48.777856],[36.958896,48.777253]]]}},{"type":"Feature","properties":{"cadnum":"1420355000:01:000:0279"},"geometry":{"type":"Polygon","coordinates":[[[36.960266,48.781434],[36.958411,48.781403],[36.958517,48.781589],[36.95851803729921,48.781589],[36.960567,48.785149],[36.961021,48.785034],[36.962794,48.78459],[36.963587,48.784391],[36.963587,48.78439066838046],[36.964582,48.78414],[36.96474,48.784101],[36.963415,48.783669],[36.963415,48.78366970103093],[36.963199,48.783599],[36.961318,48.783432],[36.960828,48.783228],[36.960823,48.782917],[36.961878,48.782761],[36.96045335875486,48.781589],[36.960454,48.781589],[36.960266,48.781434]]]}},{"type":"Feature","properties":{"cadnum":"1420355000:01:000:0309"},"geometry":{"type":"Polygon","coordinates":[[[36.965706,48.776956],[36.964088,48.777578],[36.963578756676576,48.77778532937685],[36.96340378074866,48.777856],[36.963403,48.777856],[36.96328705449049,48.777903144298655],[36.963124,48.777969],[36.963125090625,48.777969],[36.961829,48.778496],[36.959876,48.779289],[36.960589,48.779875],[36.962022,48.78087],[36.963415,48.77998880511182],[36.963415,48.779989],[36.963514248649716,48.779926021620945],[36.963587,48.77988],[36.963587,48.77987985714286],[36.963716,48.779798],[36.96674176588663,48.777885227424534],[36.966905,48.777783],[36.965706,48.776956]]]}},{"type":"Feature","properties":{"cadnum":"1420355000:01:000:0319"},"geometry":{"type":"Polygon","coordinates":[[[36.963945,48.777428],[36.965081,48.776989],[36.964375,48.776436],[36.963587,48.776553379166664],[36.963587,48.776553],[36.958896,48.777253],[36.959809,48.777969],[36.95980919953596,48.777969],[36.960765,48.778718],[36.961951,48.778235],[36.96270688837278,48.77792827441833],[36.963587,48.777573],[36.963587,48.7775725509434],[36.963945,48.777428]]]}},{"type":"Feature","properties":{"cadnum":"1420355000:01:000:0320"},"geometry":{"type":"Polygon","coordinates":[[[36.964375,48.776436],[36.963415,48.775683],[36.963415,48.775683046153844],[36.963262,48.775563],[36.958094,48.77633432883895],[36.958094,48.776334],[36.957054,48.776489],[36.957764,48.777149],[36.957922,48.777297595238096],[36.957922,48.777299],[36.958016,48.777386],[36.958094,48.777375],[36.958094,48.777374211363636],[36.958896,48.777253],[36.963415,48.77657866616926],[36.963415,48.776579],[36.964375,48.776436]]]}},{"type":"Feature","properties":{"cadnum":"1420355000:01:000:0286"},"geometry":{"type":"Polygon","coordinates":[[[36.95038,48.777753],[36.950439129629636,48.777856],[36.950439,48.777856],[36.95046462355667,48.77790040877612],[36.950504,48.777969],[36.950504200218425,48.777969],[36.952024,48.780603],[36.9526,48.780643],[36.9526,48.78064268398576],[36.953834,48.780727],[36.954167,48.780701],[36.95254319108279,48.77788408757959],[36.952204,48.777294],[36.95038,48.777753]]]}},{"type":"Feature","properties":{"cadnum":"1420355000:01:000:0287"},"geometry":{"type":"Polygon","coordinates":[[[36.953825,48.776886],[36.9526,48.777194882521485],[36.9526,48.777194],[36.952204,48.777294],[36.952429,48.777685430412376],[36.952429,48.777686],[36.952592,48.777969],[36.952592138840075,48.777969],[36.954167,48.780701],[36.955945,48.780565],[36.954448155407896,48.777969],[36.954449,48.777969],[36.953825,48.776886]]]}},{"type":"Feature","properties":{"cadnum":"1420355000:01:000:0039"},"geometry":{"type":"Polygon","coordinates":[[[36.958999,48.729321],[36.958977,48.728604],[36.958094,48.72873707772512],[36.958094,48.728737],[36.9526,48.729562312268314],[36.9526,48.729562],[36.950928,48.729813],[36.951148,48.7305],[36.952429,48.73030855578512],[36.952429,48.730309],[36.958094,48.729458],[36.958094,48.7294571281337],[36.958999,48.729321]]]}},{"type":"Feature","properties":{"cadnum":"1420355000:01:000:0464"},"geometry":{"type":"Polygon","coordinates":[[[36.964605,48.759475],[36.963415,48.759533],[36.963415,48.75953325285605],[36.962274,48.759588],[36.96219546236559,48.759754],[36.962195,48.759754],[36.961932,48.760313],[36.96226,48.76047],[36.963587,48.760408],[36.963587,48.76040774350707],[36.968998,48.760148],[36.968957,48.759754],[36.968955,48.759754],[36.96895486577181,48.759754],[36.968903,48.759271],[36.964605,48.759475]]]}},{"type":"Feature","properties":{"cadnum":"1420355000:01:001:0103"},"geometry":{"type":"Polygon","coordinates":[[[36.91106072413797,48.71628],[36.911056,48.71628],[36.908655,48.716543251166414],[36.908655,48.716543],[36.908294,48.716582],[36.906591,48.716577],[36.904251,48.716318],[36.904243,48.716394],[36.90424371836007,48.716394],[36.904036,48.718562],[36.904077,48.718565],[36.908484,48.718734425950196],[36.908484,48.718735],[36.908874,48.718749],[36.908807,48.717812],[36.912243,48.717471],[36.911899,48.71628],[36.91189899014778,48.71628],[36.911874,48.716191],[36.91106072413797,48.71628]]]}},{"type":"Feature","properties":{"cadnum":"1420355000:01:000:0201"},"geometry":{"type":"Polygon","coordinates":[[[36.925135,48.78492739819005],[36.928499,48.785209],[36.92850980434784,48.785209],[36.929346,48.785279],[36.929393,48.785095],[36.92939290800682,48.785095],[36.929517,48.784622],[36.929517,48.784338],[36.925135,48.783973314448836],[36.925135,48.783973],[36.922734,48.783773],[36.922684,48.784018],[36.922554,48.784711],[36.925135,48.784928],[36.925135,48.78492739819005]]]}},{"type":"Feature","properties":{"cadnum":"1420355000:01:000:0157"},"geometry":{"type":"Polygon","coordinates":[[[36.928556,48.788277],[36.92803,48.788232],[36.927872,48.788828],[36.92787322493573,48.788828],[36.927698,48.789493],[36.928039,48.78952],[36.92825,48.789422],[36.92840795190948,48.788828],[36.928408,48.788828],[36.928556,48.788277]]]}},{"type":"Feature","properties":{"cadnum":"1420355000:02:000:0110"},"geometry":{"type":"Polygon","coordinates":[[[36.980066,48.730236515279245],[36.982742,48.730761],[36.983021,48.730817],[36.982971,48.73069],[36.982531,48.729726],[36.980066,48.72969701100152],[36.980066,48.729696],[36.979656,48.729691],[36.979643,48.730154],[36.980066,48.730237],[36.980066,48.730236515279245]]]}},{"type":"Feature","properties":{"cadnum":"1420355000:02:000:0111"},"geometry":{"type":"Polygon","coordinates":[[[36.986398,48.727265],[36.98639940127386,48.727265],[36.985388,48.727466],[36.985388,48.72746689912023],[36.982149,48.728109],[36.98335785534125,48.730776],[36.983357,48.730776],[36.983371,48.730805],[36.983388,48.730888],[36.983392,48.730889],[36.983393096244114,48.730889],[36.985388,48.73128044587747],[36.985388,48.731281],[36.988724,48.731934],[36.988914,48.731972],[36.989191,48.731898],[36.991053,48.731407],[36.991053,48.73140656054191],[36.992062,48.73114],[36.99187099175824,48.730889],[36.991871,48.730889],[36.991053,48.72980907474747],[36.991053,48.729809],[36.990845,48.729534],[36.989295183459284,48.727265],[36.989296,48.727265],[36.98895,48.726759],[36.986398,48.727265]]]}},{"type":"Feature","properties":{"cadnum":"1420355000:02:000:0112"},"geometry":{"type":"Polygon","coordinates":[[[36.95803377660092,48.7416387623318],[36.9579195867769,48.741644],[36.957903,48.741644],[36.95647583476052,48.7417102221357],[36.955456,48.741757],[36.95546771653542,48.741757],[36.9526,48.74189006540007],[36.9526,48.74189],[36.948552,48.742077],[36.948678,48.742838],[36.949261,48.744496],[36.949275,48.744511],[36.9526,48.744358],[36.9526,48.74435706125331],[36.957922,48.74410998517211],[36.957922,48.74411],[36.95793707479338,48.74410928531851],[36.958094,48.744102],[36.958094,48.744101845644984],[36.958829,48.744067],[36.958681,48.7437],[36.958857,48.741644],[36.958856796178345,48.741644],[36.958861,48.7416],[36.95803377660092,48.7416387623318]]]}},{"type":"Feature","properties":{"cadnum":"1420355000:01:000:0376"},"geometry":{"type":"Polygon","coordinates":[[[36.904526,48.762975],[36.90382,48.761637],[36.903444,48.761317],[36.903162,48.76135923788546],[36.903162,48.761359],[36.900878,48.761696],[36.901323,48.763008],[36.901256,48.763019],[36.90161,48.763322],[36.90171153012048,48.763375],[36.901711,48.763375],[36.90181047826061,48.763426652173784],[36.901928,48.763488],[36.90192862962963,48.763488],[36.902023,48.763537],[36.90299,48.76357860052678],[36.90299,48.763579],[36.9030731606525,48.763582178114106],[36.903162,48.763586],[36.903162,48.763585573248406],[36.903304,48.763591],[36.903704,48.763603],[36.905042,48.763642],[36.904993,48.763482],[36.904526,48.762975]]]}},{"type":"Feature","properties":{"cadnum":"1420355000:01:000:0569"},"geometry":{"type":"Polygon","coordinates":[[[36.90299,48.758769],[36.90299,48.758769472103005],[36.90223,48.759209],[36.90275015197569,48.759754],[36.902749,48.759754],[36.903162,48.760185],[36.903162,48.760184862857145],[36.903865,48.76092],[36.904503,48.761287],[36.906035,48.763319],[36.907067,48.762481],[36.90453276782484,48.7598311337647],[36.903331,48.758572],[36.90299,48.758769]]]}},{"type":"Feature","properties":{"cadnum":"1420355000:01:001:0092"},"geometry":{"type":"Polygon","coordinates":[[[36.954423,48.734227],[36.954444,48.734209],[36.954347,48.73415],[36.954324,48.734164],[36.954423,48.734227]]]}},{"type":"Feature","properties":{"cadnum":"1420355000:01:001:0093"},"geometry":{"type":"Polygon","coordinates":[[[36.957077,48.732361],[36.9571,48.732346],[36.957001,48.732284],[36.956978,48.732298],[36.957077,48.732361]]]}},{"type":"Feature","properties":{"cadnum":"1420355000:01:000:0082"},"geometry":{"type":"Polygon","coordinates":[[[36.952429,48.734179],[36.952429,48.73417911111111],[36.95241,48.73412],[36.949802,48.734512],[36.949804638532115,48.734512],[36.947107,48.73491824841116],[36.947107,48.734917],[36.945664,48.735134],[36.945825,48.735607],[36.946936,48.7354406099844],[36.946936,48.735441],[36.952429,48.734614757591906],[36.952429,48.734615],[36.952567,48.734594],[36.952503,48.734399],[36.95250146785715,48.734399],[36.952446,48.734232],[36.952429,48.734179]]]}},{"type":"Feature","properties":{"cadnum":"1420355000:01:001:0097"},"geometry":{"type":"Polygon","coordinates":[[[36.975843,48.719164],[36.975866,48.719149],[36.975767,48.719087],[36.975744,48.719101],[36.975843,48.719164]]]}},{"type":"Feature","properties":{"cadnum":"1420355000:01:001:0098"},"geometry":{"type":"Polygon","coordinates":[[[36.978403,48.717362],[36.978426,48.717347],[36.978327,48.717285],[36.978304,48.717302],[36.978403,48.717362]]]}},{"type":"Feature","properties":{"cadnum":"1420355000:01:000:0438"},"geometry":{"type":"Polygon","coordinates":[[[36.946936,48.754647],[36.946936,48.7546471295206],[36.94354,48.754749],[36.942781,48.754684],[36.942303280589364,48.756132],[36.942303,48.756132],[36.942093,48.756772],[36.942062,48.756801],[36.947107,48.75666],[36.947107,48.75665920977199],[36.948471,48.756621],[36.94844562576687,48.756245],[36.948446,48.756245],[36.948337,48.754604],[36.946936,48.754647]]]}},{"type":"Feature","properties":{"cadnum":"1420355000:01:000:0601"},"geometry":{"type":"Polygon","coordinates":[[[36.935949,48.773971],[36.935949,48.773971141291106],[36.9353,48.774349],[36.93530223529412,48.774349],[36.935176,48.774423],[36.935949,48.77643688994709],[36.935949,48.776439],[36.936286,48.777314],[36.936326,48.777608],[36.936062630985916,48.777856],[36.936062,48.777856],[36.93599724170608,48.77791757345979],[36.935949,48.777963],[36.935949,48.777963370786516],[36.935943,48.777969],[36.93594315517241,48.777969],[36.935818,48.778088],[36.934992,48.778454],[36.935949,48.78102390156394],[36.935949,48.781024],[36.936079,48.781373],[36.941227,48.780473],[36.941614,48.7804],[36.941614,48.780399335495495],[36.944217,48.779905],[36.942814221285424,48.77787513164818],[36.942133,48.776888],[36.941562173913354,48.776065217391746],[36.940422,48.77442],[36.940303,48.774236],[36.940301851508124,48.774236],[36.93898,48.772194],[36.937426,48.773108],[36.935949,48.773971]]]}},{"type":"Feature","properties":{"cadnum":"1420355000:01:000:0543"},"geometry":{"type":"Polygon","coordinates":[[[36.957989,48.766694],[36.95566948674696,48.766995],[36.955664,48.766995],[36.95445,48.767153],[36.954687,48.767958],[36.954693,48.767969],[36.958094,48.767529],[36.958094,48.76752877731092],[36.958874,48.767428],[36.958352,48.766995],[36.95835092530121,48.766995],[36.958094,48.7667813246493],[36.958094,48.766781],[36.957989,48.766694]]]}},{"type":"Feature","properties":{"cadnum":"1420355000:01:000:0326"},"geometry":{"type":"Polygon","coordinates":[[[36.959574,48.770314],[36.959098,48.769568],[36.957922,48.769744],[36.957922,48.76974465720407],[36.95436,48.770276],[36.95447558498896,48.770616],[36.954475,48.770616],[36.954624,48.771052],[36.95726559047375,48.770658244975536],[36.957922,48.77056058895706],[36.957922,48.770561],[36.959574,48.770314]]]}},{"type":"Feature","properties":{"cadnum":"1420355000:01:000:0327"},"geometry":{"type":"Polygon","coordinates":[[[36.959098,48.769568],[36.958851,48.769183],[36.958094,48.76929219052745],[36.958094,48.769292],[36.954217,48.769846],[36.95436,48.770276],[36.958094,48.769719],[36.958094,48.7697182585034],[36.959098,48.769568]]]}},{"type":"Feature","properties":{"cadnum":"1420355000:01:000:0542"},"geometry":{"type":"Polygon","coordinates":[[[36.959606,48.768038],[36.958874,48.767428],[36.957922,48.767551],[36.957922,48.76755125227874],[36.954693,48.767969],[36.954913,48.768709],[36.957922,48.76827860232631],[36.957922,48.768279],[36.959606,48.768038]]]}},{"type":"Feature","properties":{"cadnum":"1420355000:01:000:0442"},"geometry":{"type":"Polygon","coordinates":[[[36.956272,48.758546],[36.956215,48.75769],[36.956201,48.757429],[36.952429,48.757537],[36.952429,48.75753783195799],[36.948601,48.757646],[36.948678,48.758762],[36.952429,48.758654883222846],[36.952429,48.758655],[36.956272,48.758546]]]}},{"type":"Feature","properties":{"cadnum":"1420355000:01:000:0193"},"geometry":{"type":"Polygon","coordinates":[[[36.91484,48.788443],[36.914867,48.788451],[36.915582,48.788505],[36.918151411764725,48.788715],[36.918148,48.788715],[36.919641,48.788837],[36.919641,48.78883597305654],[36.921734,48.789007],[36.921789,48.788715],[36.92178872610097,48.788715],[36.921946,48.787897],[36.91947,48.787691],[36.91947,48.7876916930759],[36.915135,48.787329],[36.91484,48.788443]]]}},{"type":"Feature","properties":{"cadnum":"1420355000:01:000:0561"},"geometry":{"type":"Polygon","coordinates":[[[36.924504,48.754806],[36.923332,48.754977],[36.923753,48.756245],[36.92375368590398,48.756245],[36.924369,48.75809],[36.925135,48.757978],[36.925135,48.75797759090909],[36.925403,48.757938],[36.925542,48.757918],[36.925135,48.756697702936094],[36.925135,48.756696],[36.92501461627897,48.756336759689646],[36.924963,48.756182],[36.924963,48.75618273015873],[36.924946,48.756132],[36.9249453856845,48.756132],[36.924504,48.754806]]]}},{"type":"Feature","properties":{"cadnum":"1420355000:02:000:0079"},"geometry":{"type":"Polygon","coordinates":[[[36.922321,48.756778],[36.922344,48.756763],[36.922245,48.756701],[36.922222,48.756716],[36.922321,48.756778]]]}},{"type":"Feature","properties":{"cadnum":"1420355000:01:000:0559"},"geometry":{"type":"Polygon","coordinates":[[[36.922151,48.755148],[36.920088,48.755449],[36.920604,48.756245],[36.92060422164276,48.756245],[36.921028,48.756899],[36.921691,48.758479],[36.923186,48.758261],[36.922478,48.756132],[36.922477505013674,48.756132],[36.922151,48.755148]]]}},{"type":"Feature","properties":{"cadnum":"1420355000:01:000:0560"},"geometry":{"type":"Polygon","coordinates":[[[36.923334,48.754977],[36.922151,48.755148],[36.922515,48.756245],[36.922515578205726,48.756245],[36.923186,48.758261],[36.924044,48.758136],[36.924369,48.758089],[36.92375464741952,48.756245],[36.923755,48.756245],[36.923334,48.754977]]]}},{"type":"Feature","properties":{"cadnum":"1420355000:02:000:0105"},"geometry":{"type":"Polygon","coordinates":[[[36.98214,48.711639],[36.981866,48.711538],[36.981,48.711604],[36.980241,48.711553],[36.98001695081983,48.71154263934427],[36.979692,48.711527],[36.978516,48.711592],[36.97914427527613,48.712656],[36.979144,48.712656],[36.979688,48.713577],[36.980066,48.714344],[36.980066,48.71434294615384],[36.980155,48.714523],[36.980442,48.71511],[36.981213,48.716394],[36.9812144,48.716394],[36.98126,48.71647],[36.98164119999999,48.716394],[36.981642,48.716394],[36.984589,48.715809],[36.983524,48.71401],[36.983451,48.713882],[36.982734,48.712656],[36.982733100000004,48.712656],[36.98214,48.711639]]]}},{"type":"Feature","properties":{"cadnum":"1420355000:01:000:0418"},"geometry":{"type":"Polygon","coordinates":[[[36.937001,48.74051],[36.936691,48.739637],[36.935949,48.739752],[36.935949,48.73975265772286],[36.930456,48.740604],[36.930456,48.740604597938145],[36.929658,48.740728],[36.92974,48.740956],[36.929968,48.741601],[36.930456,48.74152558181818],[36.930456,48.741526],[36.936121,48.740647],[36.936121,48.740646349809886],[36.937001,48.74051]]]}},{"type":"Feature","properties":{"cadnum":"1420355000:02:000:0020"},"geometry":{"type":"Polygon","coordinates":[[[36.944581,48.734399],[36.9443302870935,48.734419971854145],[36.943229,48.734512],[36.943230115226335,48.734512],[36.941676,48.734642],[36.941442,48.734664],[36.941442,48.7346643043248],[36.935949,48.735185],[36.935949,48.73518522641509],[36.935114,48.735264],[36.931489,48.735744],[36.932096847762445,48.738022],[36.932096,48.738022],[36.932611,48.739944],[36.935949,48.73941524558404],[36.935949,48.739416],[36.93947,48.738857],[36.941614,48.738854],[36.941614,48.73885367465322],[36.943028,48.738851],[36.943661,48.738111],[36.94389,48.738022],[36.94388948377126,48.738022],[36.945322,48.737464],[36.9453903479021,48.73447133828674],[36.945395,48.734331],[36.9445812541436,48.734399],[36.944581,48.734399]]]}},{"type":"Feature","properties":{"cadnum":"1420355000:01:000:0421"},"geometry":{"type":"Polygon","coordinates":[[[36.935949,48.737545],[36.935921,48.737361],[36.935791,48.73697],[36.930628,48.73777227310216],[36.930628,48.737772],[36.928713,48.738069],[36.928717,48.738078],[36.928736,48.738135],[36.92873714823261,48.738135],[36.929027,48.738955],[36.930456,48.73873275078076],[36.930456,48.738733],[36.934816810307325,48.73805499078755],[36.936061,48.737862],[36.935949,48.737545]]]}},{"type":"Feature","properties":{"cadnum":"1420355000:01:000:0166"},"geometry":{"type":"Polygon","coordinates":[[[36.898524,48.781447],[36.898204,48.781589],[36.89820501401869,48.781589],[36.897669,48.78182747609147],[36.897669,48.781827],[36.894505,48.783231],[36.895641,48.784347],[36.897669,48.783447],[36.897669,48.78344655555556],[36.899738,48.782527],[36.899572,48.78237],[36.89931,48.782136],[36.898557,48.781476],[36.89855688028169,48.781476],[36.898524,48.781447]]]}},{"type":"Feature","properties":{"cadnum":"1420355000:01:000:0167"},"geometry":{"type":"Polygon","coordinates":[[[36.894343,48.781589],[36.89434365156795,48.781589],[36.893306,48.78205],[36.894505,48.783231],[36.897497,48.78190332364096],[36.897497,48.781904],[36.898459,48.781476],[36.89845864788733,48.781476],[36.898524,48.781447],[36.898305,48.781251],[36.897497,48.780795],[36.897497,48.78079566666667],[36.896895,48.780455],[36.894343,48.781589]]]}},{"type":"Feature","properties":{"cadnum":"1420355000:02:000:0075"},"geometry":{"type":"Polygon","coordinates":[[[36.912017,48.764011],[36.91204,48.763993],[36.911941,48.763931],[36.911919,48.763949],[36.912017,48.764011]]]}},{"type":"Feature","properties":{"cadnum":"1420355000:02:000:0074"},"geometry":{"type":"Polygon","coordinates":[[[36.909547,48.765744],[36.90957,48.765729],[36.909471,48.765666],[36.909448,48.765684],[36.909547,48.765744]]]}},{"type":"Feature","properties":{"cadnum":"1420355000:01:000:0044"},"geometry":{"type":"Polygon","coordinates":[[[36.944972,48.724794],[36.943341,48.724376],[36.94427690308065,48.727152],[36.944276,48.727152],[36.944766,48.728601],[36.946185,48.728388],[36.945768,48.727152],[36.94576690651558,48.727152],[36.944972,48.724794]]]}},{"type":"Feature","properties":{"cadnum":"1420355000:01:000:0047"},"geometry":{"type":"Polygon","coordinates":[[[36.9453,48.728566],[36.94354,48.728829],[36.9441940407767,48.730776],[36.944194,48.730776],[36.94420144812304,48.730798050770886],[36.944232,48.730889],[36.944232168185,48.730889],[36.944676,48.732203],[36.946441,48.731943],[36.946083344473,48.730889],[36.946084,48.730889],[36.9453,48.728566]]]}},{"type":"Feature","properties":{"cadnum":"1420355000:01:000:0059"},"geometry":{"type":"Polygon","coordinates":[[[36.941614,48.73013089189191],[36.941666,48.730666],[36.943781,48.730414],[36.943108,48.728438],[36.942932,48.727937],[36.941614,48.7281324885906],[36.941614,48.728132],[36.941146,48.728201],[36.939286,48.728476],[36.9389,48.728533],[36.939089,48.729226],[36.939722,48.728977],[36.940705,48.728832],[36.941442,48.729113927429275],[36.941442,48.729115],[36.941518,48.729143],[36.941614,48.730132],[36.941614,48.73013089189191]]]}},{"type":"Feature","properties":{"cadnum":"1420355000:01:000:0043"},"geometry":{"type":"Polygon","coordinates":[[[36.943341,48.724376],[36.941919,48.724008],[36.943014,48.727265],[36.94301508210784,48.727265],[36.943527,48.728784],[36.944766,48.728601],[36.94431421256039,48.727265],[36.944315,48.727265],[36.943341,48.724376]]]}},{"type":"Feature","properties":{"cadnum":"1420355000:01:000:0284"},"geometry":{"type":"Polygon","coordinates":[[[36.947107,48.78076473529412],[36.94751688135593,48.781476],[36.947516,48.781476],[36.947681,48.78176],[36.94835958098592,48.781589],[36.94836,48.781589],[36.950192,48.781127],[36.949985,48.781085],[36.948615,48.780073],[36.949006,48.780162],[36.947968,48.77836],[36.947107,48.778577752906976],[36.947107,48.778577],[36.946005,48.778854],[36.947107,48.780765],[36.947107,48.78076473529412]]]}},{"type":"Feature","properties":{"cadnum":"1420355000:02:000:0077"},"geometry":{"type":"Polygon","coordinates":[[[36.916541,48.760837],[36.916564,48.76082],[36.916464,48.760758],[36.916442,48.760775],[36.916541,48.760837]]]}},{"type":"Feature","properties":{"cadnum":"1420355000:02:000:0076"},"geometry":{"type":"Polygon","coordinates":[[[36.91421,48.762472],[36.914231,48.762457],[36.914134,48.762395],[36.914111,48.762409],[36.91421,48.762472]]]}},{"type":"Feature","properties":{"cadnum":"1420355000:01:000:0431"},"geometry":{"type":"Polygon","coordinates":[[[36.941614,48.74090238822447],[36.941614,48.740902],[36.940584,48.741067],[36.940525,48.741076],[36.940768,48.741757],[36.940768386446145,48.741757],[36.941442,48.74364174943567],[36.941442,48.743643],[36.941886,48.744885],[36.944982,48.744402],[36.943996,48.741644],[36.94399564285714,48.741644],[36.943616,48.740581],[36.941614,48.74090238822447]]]}},{"type":"Feature","properties":{"cadnum":"1420355000:01:000:0432"},"geometry":{"type":"Polygon","coordinates":[[[36.945295,48.740427],[36.944272,48.740472],[36.944375,48.740924],[36.944093,48.740957],[36.943683,48.740569],[36.943616,48.740581],[36.944036,48.741757],[36.94403639811458,48.741757],[36.944982,48.744402],[36.945332,48.744345],[36.94663,48.744144],[36.9457716348,48.741757],[36.945773,48.741757],[36.945295,48.740427]]]}},{"type":"Feature","properties":{"cadnum":"1420355000:02:000:0088"},"geometry":{"type":"Polygon","coordinates":[[[36.94646,48.739826],[36.946481,48.739808],[36.946383,48.739745],[36.94636,48.739763],[36.94646,48.739826]]]}},{"type":"Feature","properties":{"cadnum":"1420355000:02:000:0087"},"geometry":{"type":"Polygon","coordinates":[[[36.943733,48.741739],[36.943634,48.741677],[36.943611,48.741695],[36.94371,48.741757],[36.943733,48.741739]]]}},{"type":"Feature","properties":{"cadnum":"1420355000:01:000:0081"},"geometry":{"type":"Polygon","coordinates":[[[36.95252027968156,48.73509800590248],[36.9526,48.735086],[36.9526,48.735085783972124],[36.952716,48.735068],[36.952567,48.734594],[36.947107,48.735415278636125],[36.947107,48.735415],[36.945825,48.735607],[36.945983,48.736081],[36.946936,48.73593771085409],[36.946936,48.735939],[36.952429,48.73511175264831],[36.952429,48.735112],[36.95252027968156,48.73509800590248]]]}},{"type":"Feature","properties":{"cadnum":"1420355000:01:000:0282"},"geometry":{"type":"Polygon","coordinates":[[[36.951014,48.781298],[36.950192,48.781127],[36.94880808658009,48.781476],[36.948808,48.781476],[36.947681,48.78176],[36.947107,48.781905618791946],[36.947107,48.781905],[36.945997,48.782184],[36.9468,48.783281],[36.946936,48.78324688925081],[36.946936,48.783248],[36.952456,48.781858],[36.952159,48.781601],[36.95211359199998,48.781589],[36.952115,48.781589],[36.951014,48.781298]]]}},{"type":"Feature","properties":{"cadnum":"1420355000:01:000:0531"},"geometry":{"type":"Polygon","coordinates":[[[36.944945,48.784374],[36.942285,48.784766],[36.942625,48.785209],[36.942625799795714,48.785209],[36.943292,48.786074],[36.945644,48.785283],[36.94558692553192,48.785209],[36.945587,48.785209],[36.944945,48.784374]]]}},{"type":"Feature","properties":{"cadnum":"1420355000:01:000:0512"},"geometry":{"type":"Polygon","coordinates":[[[36.966222,48.737983],[36.966209,48.737725],[36.965274,48.736739],[36.967245,48.735098],[36.964066,48.735095],[36.96405444605263,48.738022],[36.964054,48.738022],[36.964052,48.738561],[36.964308,48.738513],[36.966081,48.738022],[36.96608088157895,48.738022],[36.966222,48.737983]]]}},{"type":"Feature","properties":{"cadnum":"1420355000:01:000:0511"},"geometry":{"type":"Polygon","coordinates":[[[36.96234229707525,48.738022],[36.962342,48.738022],[36.962341,48.738889],[36.963415,48.738682991974315],[36.963415,48.738684],[36.964052,48.738561],[36.964053580705006,48.738135],[36.964054,48.738135],[36.964066,48.735095],[36.963415,48.735094],[36.963415,48.73509458286176],[36.96235,48.735092],[36.96234229707525,48.738022]]]}},{"type":"Feature","properties":{"cadnum":"1420355000:01:000:0334"},"geometry":{"type":"Polygon","coordinates":[[[36.976728,48.769133],[36.97455075015774,48.770616],[36.97455,48.770616],[36.974395827900416,48.77072105215158],[36.974384,48.770729],[36.97438416382252,48.770729],[36.97326,48.771495],[36.974401,48.77228579207921],[36.974401,48.772286],[36.9744452647061,48.772316470588386],[36.974573,48.772405],[36.974573,48.7724044],[36.974616,48.772434],[36.977282,48.770616],[36.97728192816093,48.770616],[36.978138,48.770033],[36.976728,48.769133]]]}},{"type":"Feature","properties":{"cadnum":"1420355000:01:000:0425"},"geometry":{"type":"Polygon","coordinates":[[[36.94658,48.747473],[36.946454,48.747094],[36.94623,48.746416],[36.941442,48.747067],[36.941442,48.74706731930809],[36.939475,48.747334],[36.939802,48.748391],[36.940565,48.748287],[36.941614,48.748146],[36.941614,48.74814570066173],[36.94658,48.747473]]]}},{"type":"Feature","properties":{"cadnum":"1420355000:02:000:0042"},"geometry":{"type":"Polygon","coordinates":[[[36.914148,48.773205188724035],[36.91551242812255,48.774236],[36.915512,48.774236],[36.916884,48.775272],[36.918516,48.774328],[36.91679,48.773261],[36.916651,48.772924],[36.917277,48.772484],[36.916609,48.772516],[36.913977,48.772831],[36.913977,48.77283105088495],[36.913696,48.772864],[36.914148,48.773206],[36.914148,48.773205188724035]]]}},{"type":"Feature","properties":{"cadnum":"1420355000:01:000:0537"},"geometry":{"type":"Polygon","coordinates":[[[36.919491,48.774932],[36.91947,48.774918],[36.91947,48.77491896864865],[36.918566,48.774358],[36.917371,48.77505],[36.919641,48.776765],[36.919641,48.77676402945301],[36.920183,48.777173],[36.920799,48.775708],[36.919751,48.775956],[36.919641,48.77602298717949],[36.919641,48.776022],[36.919595,48.776051],[36.91947,48.775842],[36.91947,48.77584211295681],[36.919294,48.775548],[36.919294,48.775056],[36.91947,48.77494521827411],[36.91947,48.774946],[36.919491,48.774932]]]}},{"type":"Feature","properties":{"cadnum":"1420355000:02:000:0041"},"geometry":{"type":"Polygon","coordinates":[[[36.912632,48.772991],[36.911717,48.773112],[36.913353,48.774349],[36.91335361009818,48.774349],[36.913977,48.77481984427966],[36.913977,48.77482],[36.915577,48.776029],[36.916884,48.775272],[36.915661648648644,48.774349],[36.915662,48.774349],[36.913977,48.773076],[36.913977,48.77307661504425],[36.913696,48.772864],[36.912632,48.772991]]]}},{"type":"Feature","properties":{"cadnum":"1420355000:01:000:0151"},"geometry":{"type":"Polygon","coordinates":[[[36.890801,48.795717],[36.889633,48.79546],[36.88938415371901,48.795952],[36.889383,48.795952],[36.88784,48.799014],[36.889444,48.798942],[36.889461,48.798835],[36.890650476240026,48.796065],[36.890651,48.796065],[36.890801,48.795717]]]}},{"type":"Feature","properties":{"cadnum":"1420355000:01:000:0276"},"geometry":{"type":"Polygon","coordinates":[[[36.955127,48.78205],[36.95497,48.782101],[36.953632,48.782426],[36.955236,48.785209],[36.955236790584415,48.785209],[36.955882,48.786327],[36.956282,48.786226],[36.957373,48.785954],[36.956879,48.785095],[36.95687842924976,48.785095],[36.955127,48.78205]]]}},{"type":"Feature","properties":{"cadnum":"1420355000:01:000:0274"},"geometry":{"type":"Polygon","coordinates":[[[36.952163,48.782793],[36.950718,48.783158],[36.951899,48.785209],[36.95190067018073,48.785209],[36.9526,48.786423],[36.9526,48.78642263265306],[36.952968,48.787061],[36.953318,48.786972],[36.95441,48.786697],[36.95355268164794,48.785209],[36.953553,48.785209],[36.9526,48.78355312010675],[36.9526,48.783553],[36.952163,48.782793]]]}},{"type":"Feature","properties":{"cadnum":"1420355000:01:000:0263"},"geometry":{"type":"Polygon","coordinates":[[[36.952968,48.787061],[36.9526,48.78715385343228],[36.9526,48.787153],[36.951894,48.78733],[36.951601,48.787404],[36.950178,48.787762],[36.950999,48.788828],[36.95099923754266,48.788828],[36.952043,48.79018],[36.9526,48.790908],[36.9526,48.79090592079208],[36.953035,48.791473],[36.954121,48.791201],[36.955546,48.79084],[36.954321,48.788715],[36.95432003717673,48.788715],[36.953318,48.786972],[36.952968,48.787061]]]}},{"type":"Feature","properties":{"cadnum":"1420355000:01:000:0264"},"geometry":{"type":"Polygon","coordinates":[[[36.954796,48.786602],[36.95441,48.786697],[36.953318,48.786972],[36.954385,48.788828],[36.95438614117647,48.788828],[36.955546,48.79084],[36.957023,48.790469],[36.956012,48.788715],[36.95601197169812,48.788715],[36.954796,48.786602]]]}},{"type":"Feature","properties":{"cadnum":"1420355000:01:000:0275"},"geometry":{"type":"Polygon","coordinates":[[[36.952163,48.782793],[36.952429,48.78325560869566],[36.952429,48.783256],[36.953487390168966,48.785095],[36.953487,48.785095],[36.95441,48.786697],[36.954796,48.786602],[36.955882,48.786327],[36.955171,48.785095],[36.95517029536471,48.785095],[36.953632,48.782426],[36.953156,48.782542],[36.952429,48.782726],[36.952429,48.782726043478256],[36.952163,48.782793]]]}},{"type":"Feature","properties":{"cadnum":"1420355000:01:000:0296"},"geometry":{"type":"Polygon","coordinates":[[[36.940634,48.771747],[36.941442,48.77315275510204],[36.941442,48.773153],[36.942129,48.774349],[36.94213004423192,48.774349],[36.943028,48.775909],[36.943638,48.775755],[36.944303,48.775589],[36.943524,48.774236],[36.94352297984712,48.774236],[36.941932,48.771471],[36.941442,48.771576],[36.941442,48.77157633061225],[36.940634,48.771747]]]}},{"type":"Feature","properties":{"cadnum":"1420355000:01:001:0113"},"geometry":{"type":"Polygon","coordinates":[[[36.90135,48.74843],[36.901354,48.748421],[36.901341,48.748418],[36.901341,48.748427],[36.90135,48.74843]]]}},{"type":"Feature","properties":{"cadnum":"1420355000:01:000:0536"},"geometry":{"type":"Polygon","coordinates":[[[36.973656,48.774106],[36.973271,48.774349],[36.973272694805196,48.774349],[36.972236,48.775006],[36.972811,48.775359],[36.974203,48.77632],[36.974401,48.77619531351351],[36.974401,48.776196],[36.975627,48.77542],[36.975421,48.775305],[36.974886,48.774953],[36.974573,48.77473809484536],[36.974573,48.774738],[36.97400809760956,48.774349],[36.974009,48.774349],[36.973656,48.774106]]]}},{"type":"Feature","properties":{"cadnum":"1420355000:01:000:0318"},"geometry":{"type":"Polygon","coordinates":[[[36.96908,48.7727087193507],[36.971263,48.774349],[36.971264120481926,48.774349],[36.971446,48.774485],[36.971616,48.774624],[36.972236,48.775006],[36.973451,48.774236],[36.97345003292181,48.774236],[36.973656,48.774106],[36.973646,48.7741],[36.972038,48.772963],[36.97078,48.772061],[36.969685,48.772075],[36.969042,48.772072],[36.968257,48.772171],[36.968652,48.772395],[36.968908,48.77257988888889],[36.968908,48.772582],[36.968922,48.77259],[36.96908,48.77271],[36.96908,48.7727087193507]]]}},{"type":"Feature","properties":{"cadnum":"1420355000:01:000:0316"},"geometry":{"type":"Polygon","coordinates":[[[36.97305,48.775785],[36.972614,48.775482],[36.971953,48.775071],[36.96908,48.77689009490969],[36.96908,48.77689],[36.967551768303984,48.777856],[36.967551,48.777856],[36.967485210831036,48.777898071185305],[36.967373,48.777969],[36.967374295302015,48.777969],[36.967318,48.778005],[36.968377,48.778738],[36.968908,48.779102826458036],[36.968908,48.779103],[36.9689887240946,48.77915828838932],[36.96908,48.779221],[36.96908,48.77922080377358],[36.969438,48.779466],[36.970498,48.780197],[36.971553,48.780929],[36.97241888461246,48.78152553845952],[36.972614,48.78166],[36.97278840195121,48.781548962079505],[36.974573,48.780422],[36.974573,48.780420277392516],[36.977285,48.778706],[36.976224,48.777975],[36.97621527731093,48.777969],[36.976216,48.777969],[36.975165,48.777244],[36.974527330709336,48.77680330708708],[36.974109,48.776513],[36.97305,48.775785]]]}},{"type":"Feature","properties":{"cadnum":"1420355000:01:000:0527"},"geometry":{"type":"Polygon","coordinates":[[[36.93600106076994,48.78714256661039],[36.936121,48.787105],[36.936121,48.78710470685343],[36.937948,48.786528],[36.937246,48.785554],[36.936506,48.785442],[36.936121,48.785582314183124],[36.936121,48.785582],[36.934655,48.786117],[36.935508,48.787297],[36.935949,48.78715887275693],[36.935949,48.787159],[36.93600106076994,48.78714256661039]]]}},{"type":"Feature","properties":{"cadnum":"1420355000:01:000:0232"},"geometry":{"type":"Polygon","coordinates":[[[36.938743,48.787632],[36.935949,48.788511],[36.935949,48.788511977947415],[36.935302072972966,48.788715],[36.935302,48.788715],[36.93527440528763,48.78872368281898],[36.934942,48.788828],[36.93494287671233,48.788828],[36.93391,48.789153],[36.934705,48.790256],[36.936121,48.789811],[36.936121,48.78981089356367],[36.9392455394154,48.788828],[36.939246,48.788828],[36.939538,48.788736],[36.938743,48.787632]]]}},{"type":"Feature","properties":{"cadnum":"1420355000:01:000:0390"},"geometry":{"type":"Polygon","coordinates":[[[36.933805,48.759717],[36.933803026666666,48.759754],[36.933802,48.759754],[36.933765,48.760574],[36.93434,48.760586],[36.936121,48.760623],[36.936121,48.760622030837006],[36.936176,48.760623],[36.936672,48.760634],[36.93670686363637,48.759867],[36.936707,48.759867],[36.936771,48.758519],[36.935949,48.758502],[36.935949,48.75850241825432],[36.933864,48.758459],[36.933805,48.759717]]]}},{"type":"Feature","properties":{"cadnum":"1420355000:01:000:0395"},"geometry":{"type":"Polygon","coordinates":[[[36.93510433018868,48.756132],[36.935104,48.756132],[36.935095,48.756334],[36.936121,48.756357],[36.936121,48.75635576319176],[36.936726,48.756369],[36.936737,48.756132],[36.936736361938415,48.756132],[36.936825,48.754264],[36.935949,48.754247],[36.935949,48.75424728910463],[36.935194,48.754231],[36.93510433018868,48.756132]]]}},{"type":"Feature","properties":{"cadnum":"1420355000:02:000:0086"},"geometry":{"type":"Polygon","coordinates":[[[36.94129,48.743457],[36.941311,48.743442],[36.941213,48.74338],[36.94119,48.743394],[36.94129,48.743457]]]}},{"type":"Feature","properties":{"cadnum":"1420355000:02:000:0085"},"geometry":{"type":"Polygon","coordinates":[[[36.938527,48.74538],[36.93852722580645,48.74538],[36.93854,48.745388],[36.938563,48.745374],[36.938464,48.745311],[36.938441,48.745326],[36.938527,48.74538]]]}},{"type":"Feature","properties":{"cadnum":"1420355000:02:000:0037"},"geometry":{"type":"Polygon","coordinates":[[[36.903162,48.794332119823785],[36.903162,48.794332],[36.897669,48.79458216663725],[36.897669,48.794582],[36.894887,48.794708],[36.894871,48.795249],[36.895133,48.795676],[36.89540332390745,48.795952],[36.895402,48.795952],[36.895735,48.796292],[36.896485,48.796791],[36.897071,48.797119],[36.897497,48.797390172268905],[36.897497,48.797391],[36.897547,48.797422],[36.897669,48.79757],[36.897669,48.79756934626038],[36.897908,48.797858],[36.897842,48.798759],[36.898539,48.798735],[36.90044,48.798671],[36.902289,48.798559],[36.90299,48.7985164421535],[36.90299,48.798517],[36.903653,48.798476],[36.904175,48.798452],[36.907963,48.79828],[36.90773084364261,48.796065],[36.907731,48.796065],[36.90753,48.794132],[36.903162,48.794332119823785]]]}},{"type":"Feature","properties":{"cadnum":"1420355000:01:000:0544"},"geometry":{"type":"Polygon","coordinates":[[[36.934265,48.763105],[36.932229,48.763061],[36.932709,48.763488],[36.93270923825887,48.763488],[36.934548,48.765121],[36.934852,48.765358],[36.935032,48.765305],[36.934889,48.765252],[36.93559,48.764417],[36.934579623736774,48.76341717847457],[36.934265,48.763105]]]}},{"type":"Feature","properties":{"cadnum":"1420355000:01:000:0546"},"geometry":{"type":"Polygon","coordinates":[[[36.934265,48.763105],[36.93453711488251,48.763375],[36.934537,48.763375],[36.934579623736774,48.76341717847457],[36.934651,48.763488],[36.93465119289827,48.763488],[36.93559,48.764417],[36.936121,48.763784],[36.936121,48.76378287159533],[36.936463,48.763375],[36.93646280601358,48.763375],[36.937233,48.762457],[36.935949,48.76243],[36.935949,48.762430452253625],[36.934812,48.762407],[36.934265,48.763105]]]}},{"type":"Feature","properties":{"cadnum":"1420355000:01:000:0315"},"geometry":{"type":"Polygon","coordinates":[[[36.977285,48.778706],[36.974401,48.780529],[36.974401,48.78053061688312],[36.97290394087403,48.781476],[36.972903,48.781476],[36.9727884019512,48.78154896207952],[36.972725,48.781589],[36.97272551630436,48.781589],[36.972614,48.78166],[36.973673,48.782391],[36.974401,48.78192993333333],[36.974401,48.78193],[36.975118,48.781476],[36.97511758410781,48.781476],[36.97834,48.779437],[36.977285,48.778706]]]}},{"type":"Feature","properties":{"cadnum":"1420355000:01:000:0305"},"geometry":{"type":"Polygon","coordinates":[[[36.972065,48.781346],[36.970979,48.780598],[36.969411,48.781589],[36.969411606481486,48.781589],[36.96908,48.781799049853376],[36.96908,48.781799],[36.966343,48.78353],[36.966689,48.783678],[36.967543,48.784205],[36.96908,48.783234],[36.96908,48.7832332395798],[36.97184107441279,48.78148733485115],[36.972065,48.781346]]]}},{"type":"Feature","properties":{"cadnum":"1420355000:01:000:0306"},"geometry":{"type":"Polygon","coordinates":[[[36.96511845145019,48.781589],[36.964044,48.782269],[36.965197,48.783039],[36.966343,48.78353],[36.968908,48.78190778041651],[36.968908,48.781908],[36.96959,48.781476],[36.96958979313824,48.781476],[36.970979,48.780598],[36.968926,48.779179],[36.965118,48.781589],[36.96511845145019,48.781589]]]}},{"type":"Feature","properties":{"cadnum":"1420355000:01:000:0314"},"geometry":{"type":"Polygon","coordinates":[[[36.9794,48.780168],[36.97834,48.779437],[36.974939,48.781589],[36.974939539647586,48.781589],[36.974573,48.78182109065551],[36.974573,48.781821],[36.973673,48.782391],[36.974401,48.782894937777776],[36.974401,48.782895],[36.97442045762767,48.782908406780045],[36.974573,48.783014],[36.974573,48.783013512195126],[36.974729,48.783121],[36.977151329483284,48.781589],[36.977152,48.781589],[36.9794,48.780168]]]}},{"type":"Feature","properties":{"cadnum":"1420355000:01:000:0195"},"geometry":{"type":"Polygon","coordinates":[[[36.91635,48.784596],[36.91605532137031,48.785095],[36.916055,48.785095],[36.915763,48.785591],[36.919641,48.785915],[36.919641,48.78591422972973],[36.922282,48.786134],[36.922372,48.785659],[36.922478,48.785107],[36.92234,48.785095],[36.92233361599994,48.785095],[36.919641,48.784871212101066],[36.919641,48.784871],[36.91635,48.784596]]]}},{"type":"Feature","properties":{"cadnum":"1420355000:01:000:0196"},"geometry":{"type":"Polygon","coordinates":[[[36.917052,48.783548],[36.916623,48.784135],[36.91635,48.784596],[36.91947,48.78485671103009],[36.91947,48.784857],[36.922478,48.785107],[36.922553,48.784713],[36.922686,48.784017],[36.91947,48.78375],[36.91947,48.783750667439165],[36.917052,48.783548]]]}},{"type":"Feature","properties":{"cadnum":"1420355000:01:000:0176"},"geometry":{"type":"Polygon","coordinates":[[[36.913977,48.782125],[36.913927,48.782125],[36.913927,48.784569],[36.913977,48.784569],[36.914148,48.784569],[36.915835,48.784569],[36.916163,48.783974],[36.916788,48.783116],[36.917223,48.782494],[36.917484,48.782125],[36.914148,48.782125],[36.913977,48.782125]]]}},{"type":"Feature","properties":{"cadnum":"1420355000:01:000:0609"},"geometry":{"type":"Polygon","coordinates":[[[36.905249,48.751391],[36.905186,48.751121],[36.905056,48.750541],[36.903277,48.750781],[36.903162,48.75079702787457],[36.903162,48.750797],[36.897604,48.751551],[36.897731,48.751969],[36.897869,48.752389],[36.903162,48.751674],[36.903162,48.751673701195216],[36.905249,48.751391]]]}},{"type":"Feature","properties":{"cadnum":"1420355000:01:000:0357"},"geometry":{"type":"Polygon","coordinates":[[[36.986331,48.765426],[36.985715,48.765029],[36.985559,48.764930247706424],[36.985559,48.76493],[36.985023,48.764588],[36.98149699801665,48.766995],[36.981496,48.766995],[36.981201,48.767197],[36.982504,48.768031],[36.98385763127414,48.767109],[36.983859,48.767109],[36.985388,48.76606748117647],[36.985388,48.766069],[36.986331,48.765426]]]}},{"type":"Feature","properties":{"cadnum":"1420355000:01:000:0340"},"geometry":{"type":"Polygon","coordinates":[[[36.985348,48.770139],[36.983883,48.769204],[36.98181175803279,48.770616],[36.981811,48.770616],[36.980518,48.771498],[36.981983,48.772434],[36.984649,48.770616],[36.984648669491534,48.770616],[36.985348,48.770139]]]}},{"type":"Feature","properties":{"cadnum":"1420355000:01:000:0355"},"geometry":{"type":"Polygon","coordinates":[[[36.988936,48.767096],[36.988271,48.76667],[36.987633,48.766262],[36.986555567886654,48.766995],[36.986555,48.766995],[36.985559,48.767674362467865],[36.985559,48.767673],[36.983807,48.768867],[36.985113,48.769701],[36.985388,48.76951355605381],[36.985388,48.769515],[36.988916932616796,48.767109],[36.988918,48.767109],[36.988936,48.767096]]]}},{"type":"Feature","properties":{"cadnum":"1420355000:01:000:0354"},"geometry":{"type":"Polygon","coordinates":[[[36.990239,48.767931],[36.989493,48.767454],[36.988936,48.767096],[36.985559,48.76939841347237],[36.985559,48.769397],[36.985113,48.769701],[36.985388,48.769877345291476],[36.985388,48.769878],[36.986416,48.770536],[36.990239,48.767931]]]}},{"type":"Feature","properties":{"cadnum":"1420355000:01:000:0356"},"geometry":{"type":"Polygon","coordinates":[[[36.987009,48.765862],[36.986331,48.765426],[36.985559,48.765952400848356],[36.985559,48.765951],[36.98402635751295,48.766995],[36.984025,48.766995],[36.982504,48.768031],[36.983807,48.768867],[36.985388,48.767789537671234],[36.985388,48.767791],[36.98638786683418,48.767109],[36.986388,48.767109],[36.987633,48.766262],[36.987009,48.765862]]]}},{"type":"Feature","properties":{"cadnum":"1420355000:01:000:0360"},"geometry":{"type":"Polygon","coordinates":[[[36.981529,48.76235],[36.981116,48.762084],[36.980066,48.7628011990172],[36.980066,48.762801],[36.97922463464337,48.763375],[36.979224,48.763375],[36.977294,48.764693],[36.978596,48.765527],[36.980066,48.764525],[36.980066,48.76452423300971],[36.981583516587676,48.763488],[36.981584,48.763488],[36.982419,48.762918],[36.981529,48.76235]]]}},{"type":"Feature","properties":{"cadnum":"1420355000:01:000:0538"},"geometry":{"type":"Polygon","coordinates":[[[36.92078,48.769589],[36.91947,48.769781],[36.91947,48.769782061212474],[36.917942,48.770006],[36.91813,48.770201],[36.918323,48.770365],[36.918768,48.770729],[36.918768308716714,48.770729],[36.919641,48.771442],[36.919641,48.77144175126904],[36.919667,48.771463],[36.921113,48.770806],[36.921057884210526,48.770729],[36.921058,48.770729],[36.920655,48.770163],[36.92078,48.769589]]]}},{"type":"Feature","properties":{"cadnum":"1420355000:01:000:0551"},"geometry":{"type":"Polygon","coordinates":[[[36.928902,48.759278],[36.929194,48.759867],[36.9291945,48.759867],[36.929336,48.76015],[36.929649,48.760475],[36.929662,48.76049],[36.930456,48.76050643892339],[36.930456,48.760507],[36.93057637292163,48.760508931116384],[36.930628,48.76051],[36.930628,48.760509759358285],[36.930643,48.76051],[36.93067191798942,48.759867],[36.930672,48.759867],[36.930742,48.758396],[36.930456,48.75839],[36.930456,48.758390344043505],[36.928605,48.758351],[36.928902,48.759278]]]}},{"type":"Feature","properties":{"cadnum":"1420355000:01:000:0548"},"geometry":{"type":"Polygon","coordinates":[[[36.934257,48.762352],[36.93434,48.760586],[36.933765,48.760574],[36.932503,48.760548],[36.93242,48.762314],[36.934257,48.762352]]]}},{"type":"Feature","properties":{"cadnum":"1420355000:01:000:0549"},"geometry":{"type":"Polygon","coordinates":[[[36.936121,48.761801],[36.936121,48.761800666666666],[36.936177,48.760624],[36.936121,48.76062301754386],[36.936121,48.760623],[36.934341,48.760585],[36.934256,48.76235],[36.935949,48.76238594284159],[36.935949,48.762386],[36.936093,48.762389],[36.936121,48.761801]]]}},{"type":"Feature","properties":{"cadnum":"1420355000:01:000:0501"},"geometry":{"type":"Polygon","coordinates":[[[36.977073,48.742794],[36.975285,48.742803],[36.97531750911913,48.745267],[36.975317,48.745267],[36.975331,48.746256],[36.976715,48.746247],[36.977119,48.746247],[36.977105,48.745267],[36.97710455800464,48.745267],[36.977073,48.742794]]]}},{"type":"Feature","properties":{"cadnum":"1420355000:01:000:0369"},"geometry":{"type":"Polygon","coordinates":[[[36.990921,48.763192],[36.9896,48.762505],[36.989497,48.762451],[36.98814174059788,48.763375],[36.988141,48.763375],[36.985715,48.765029],[36.986331,48.765426],[36.987009,48.765862],[36.990653,48.763375],[36.990652682432426,48.763375],[36.990921,48.763192]]]}},{"type":"Feature","properties":{"cadnum":"1420355000:01:000:0368"},"geometry":{"type":"Polygon","coordinates":[[[36.99048743023724,48.763488],[36.987009,48.765862],[36.987633,48.766262],[36.988271,48.76667],[36.990881,48.76488840762042],[36.990881,48.764889],[36.992327,48.763901],[36.991904,48.763703],[36.991273,48.763375],[36.99127278040541,48.763375],[36.990921,48.763192],[36.990487,48.763488],[36.99048743023724,48.763488]]]}},{"type":"Feature","properties":{"cadnum":"1420355000:02:000:0129"},"geometry":{"type":"Polygon","coordinates":[[[36.966402,48.749845],[36.966402,48.749815],[36.96637,48.749815],[36.96637,48.749845],[36.966402,48.749845]]]}},{"type":"Feature","properties":{"cadnum":"1420355000:02:000:0127"},"geometry":{"type":"Polygon","coordinates":[[[36.968266,48.749982],[36.968274,48.749975],[36.96827,48.749967],[36.968257,48.749973],[36.968266,48.749982]]]}},{"type":"Feature","properties":{"cadnum":"1420355000:02:000:0125"},"geometry":{"type":"Polygon","coordinates":[[[36.968383,48.750082],[36.968383,48.750061],[36.968337,48.750061],[36.968337,48.750082],[36.968383,48.750082]]]}},{"type":"Feature","properties":{"cadnum":"1420355000:02:000:0128"},"geometry":{"type":"Polygon","coordinates":[[[36.968253,48.749958],[36.968253,48.749949],[36.968239,48.749949],[36.968239,48.749958],[36.968253,48.749958]]]}},{"type":"Feature","properties":{"cadnum":"1420355000:02:000:0126"},"geometry":{"type":"Polygon","coordinates":[[[36.968392,48.749975],[36.968392,48.749943],[36.968297,48.749943],[36.968297,48.749975],[36.968392,48.749975]]]}},{"type":"Feature","properties":{"cadnum":"1420355000:01:000:0285"},"geometry":{"type":"Polygon","coordinates":[[[36.95038,48.777753],[36.94996943055555,48.777856],[36.949968,48.777856],[36.94965009876584,48.77793611111101],[36.949519,48.777969],[36.94951958730159,48.777969],[36.947968,48.77836],[36.949006,48.780162],[36.94972,48.780325],[36.951131,48.780541],[36.952024,48.780603],[36.95046462355667,48.77790040877612],[36.95038,48.777753]]]}},{"type":"Feature","properties":{"cadnum":"1420355000:01:000:0422"},"geometry":{"type":"Polygon","coordinates":[[[36.935791,48.73697],[36.935504,48.736117],[36.932657,48.736535],[36.930456,48.736855],[36.930456,48.73685502910361],[36.92891,48.73708],[36.92839,48.737157],[36.928713,48.738069],[36.930456,48.73779867571802],[36.930456,48.737799],[36.935791,48.73697]]]}},{"type":"Feature","properties":{"cadnum":"1420355000:01:000:0409"},"geometry":{"type":"Polygon","coordinates":[[[36.929027,48.738955],[36.928717,48.738078],[36.925135,48.738635242408094],[36.925135,48.738635],[36.922254,48.739082],[36.922568,48.740048],[36.925135,48.73965],[36.925135,48.73964933496094],[36.929059,48.739041],[36.929027,48.738955]]]}},{"type":"Feature","properties":{"cadnum":"1420355000:01:000:0260"},"geometry":{"type":"Polygon","coordinates":[[[36.966716,48.791925],[36.965494,48.789807],[36.963702,48.79026],[36.96489784545038,48.792334],[36.964897,48.792334],[36.965346,48.793112],[36.966244,48.792334],[36.966243534482764,48.792334],[36.966716,48.791925]]]}},{"type":"Feature","properties":{"cadnum":"1420355000:01:000:0564"},"geometry":{"type":"Polygon","coordinates":[[[36.922491,48.751812],[36.921194,48.75148],[36.92105,48.75174],[36.921343,48.752624],[36.92134363755796,48.752624],[36.922168,48.755099],[36.92352,48.754903],[36.92276065091973,48.752624],[36.922761,48.752624],[36.922491,48.751812]]]}},{"type":"Feature","properties":{"cadnum":"1420355000:01:000:0565"},"geometry":{"type":"Polygon","coordinates":[[[36.924138,48.752233],[36.922491,48.751811],[36.922723472324726,48.752511],[36.922723,48.752511],[36.923521,48.754903],[36.924956,48.754694],[36.924266632157575,48.752624],[36.924267,48.752624],[36.924138,48.752233]]]}},{"type":"Feature","properties":{"cadnum":"1420355000:02:000:0080"},"geometry":{"type":"Polygon","coordinates":[[[36.924464,48.755274],[36.924486,48.755256],[36.924388,48.755197],[36.924365,48.755212],[36.924464,48.755274]]]}},{"type":"Feature","properties":{"cadnum":"1420355000:01:000:0597"},"geometry":{"type":"Polygon","coordinates":[[[36.910719,48.730755],[36.910643,48.730648],[36.910602,48.730607],[36.910531,48.730569],[36.910167,48.730485],[36.909866,48.730431],[36.909344,48.730387],[36.909318,48.730642],[36.90937170850202,48.730776],[36.909371,48.730776],[36.909457,48.730989],[36.909543,48.731184],[36.909463,48.731199],[36.909538,48.731371],[36.909619,48.731356],[36.90965,48.731443],[36.908923,48.731575],[36.908868,48.731596],[36.908824,48.731626],[36.908807,48.731667],[36.908748,48.731913],[36.908897,48.731904],[36.908918,48.731842],[36.90895,48.731803],[36.909048,48.731765],[36.909147,48.731744],[36.909193,48.7317],[36.909233,48.731673],[36.909327,48.731626],[36.909381,48.731611],[36.909503,48.731588],[36.90965,48.731575],[36.909745,48.731611],[36.90987,48.731851],[36.90987,48.731884],[36.909889,48.731931],[36.909893,48.731957],[36.90992,48.731987],[36.909996,48.731996],[36.910109,48.731999],[36.910235,48.73223],[36.910396,48.732497],[36.910505,48.732657],[36.910616,48.732677],[36.910773,48.732669],[36.910931,48.732636],[36.911092,48.732607],[36.911421,48.732476],[36.911524,48.732393],[36.911524,48.732357],[36.911497,48.732304],[36.911492,48.732248],[36.911201,48.731658],[36.910935,48.731155],[36.910891,48.731078],[36.91073,48.730776],[36.910729970149255,48.730776],[36.910719,48.730755]]]}},{"type":"Feature","properties":{"cadnum":"1420355000:01:000:0529"},"geometry":{"type":"Polygon","coordinates":[[[36.948391,48.785951],[36.947905,48.785321],[36.947107,48.785589470588235],[36.947107,48.785588],[36.943777,48.786705],[36.944263,48.787339],[36.947107,48.786383],[36.947107,48.786382529896905],[36.948391,48.785951]]]}},{"type":"Feature","properties":{"cadnum":"1420355000:01:000:0456"},"geometry":{"type":"Polygon","coordinates":[[[36.956719,48.748526],[36.956242,48.747785],[36.956584,48.747722],[36.956667,48.747729],[36.956547,48.745937],[36.955745,48.746076],[36.954998,48.746307],[36.95516949461967,48.748889],[36.955169,48.748889],[36.955292,48.750734],[36.956863,48.750688],[36.95674960033352,48.749002],[36.95675,48.749002],[36.956719,48.748526]]]}},{"type":"Feature","properties":{"cadnum":"1420355000:01:000:0455"},"geometry":{"type":"Polygon","coordinates":[[[36.954998,48.746307],[36.954418,48.746488],[36.953199,48.746822],[36.953342,48.749002],[36.953342501580615,48.749002],[36.953461,48.750787],[36.955292,48.750734],[36.95517653333333,48.749002],[36.955177,48.749002],[36.954998,48.746307]]]}},{"type":"Feature","properties":{"cadnum":"1420355000:01:000:0312"},"geometry":{"type":"Polygon","coordinates":[[[36.980066,48.78114945744681],[36.980066,48.781149],[36.979369,48.781589],[36.97937042388562,48.781589],[36.975791,48.783854],[36.976876,48.784603],[36.979895,48.782693174921626],[36.979895,48.782694],[36.981546,48.781648],[36.981295,48.781476],[36.98129415820029,48.781476],[36.980459,48.7809],[36.980066,48.78114945744681]]]}},{"type":"Feature","properties":{"cadnum":"1420355000:01:000:0311"},"geometry":{"type":"Polygon","coordinates":[[[36.980434,48.784397],[36.981897,48.782649],[36.98165,48.782015],[36.981879,48.781879],[36.981547,48.781648],[36.980066,48.78258572760291],[36.980066,48.782585],[36.976876,48.784601],[36.977585641739125,48.785095],[36.977585,48.785095],[36.977702,48.785176],[36.978277,48.784821],[36.979499,48.784788],[36.979895,48.78462247619048],[36.979895,48.784623],[36.980434,48.784397]]]}},{"type":"Feature","properties":{"cadnum":"1420355000:01:000:0532"},"geometry":{"type":"Polygon","coordinates":[[[36.982868,48.781366],[36.983438,48.780778],[36.983074,48.780192],[36.98223,48.779493],[36.980438,48.780624],[36.9816696476684,48.781476],[36.981669,48.781476],[36.98179217073287,48.78156075609836],[36.981833,48.781589],[36.981833215827336,48.781589],[36.982073,48.781754],[36.982643,48.781476],[36.98264257399103,48.781476],[36.982868,48.781366]]]}},{"type":"Feature","properties":{"cadnum":"1420355000:01:000:0187"},"geometry":{"type":"Polygon","coordinates":[[[36.907129,48.773721],[36.90735369745223,48.774236],[36.907353,48.774236],[36.908655,48.777224],[36.908655,48.77722267943548],[36.90893079192274,48.777856],[36.90893,48.777856],[36.909137,48.778329],[36.910403,48.778088],[36.910301,48.777856],[36.91030078006965,48.777856],[36.908724,48.774236],[36.90872381777108,48.774236],[36.908484,48.773685],[36.908484,48.77368640259741],[36.908424,48.773549],[36.907129,48.773721]]]}},{"type":"Feature","properties":{"cadnum":"1420355000:01:000:0367"},"geometry":{"type":"Polygon","coordinates":[[[36.993719,48.764574],[36.993109,48.764266],[36.992327,48.763901],[36.991053,48.76477147856155],[36.991053,48.764771],[36.988271,48.76667],[36.988778335680756,48.766995],[36.988778,48.766995],[36.988936,48.767096],[36.988955,48.767109],[36.98895622625698,48.767109],[36.989493,48.767454],[36.98999809803922,48.767109],[36.99,48.767109],[36.991053,48.766392],[36.991053,48.76639078787879],[36.993719,48.764574]]]}},{"type":"Feature","properties":{"cadnum":"1420355000:02:000:0043"},"geometry":{"type":"Polygon","coordinates":[[[36.958094,48.741636],[36.958094,48.74163594036209],[36.958861,48.7416],[36.958951,48.740551],[36.957922,48.740597],[36.957922,48.740597620829654],[36.952429,48.740841],[36.952429,48.740841579060856],[36.948426,48.741019],[36.948418,48.741245],[36.948499,48.741757],[36.94850026789838,48.741757],[36.948552,48.742077],[36.952429,48.74189789945652],[36.952429,48.741898],[36.95647583476355,48.74171022213556],[36.957922,48.74164388931008],[36.957922,48.741644],[36.95803377660092,48.7416387623318],[36.958094,48.741636]]]}},{"type":"Feature","properties":{"cadnum":"1420355000:01:000:0222"},"geometry":{"type":"Polygon","coordinates":[[[36.919641,48.76686669029851],[36.919641,48.766866],[36.918769320987636,48.766995],[36.918766,48.766995],[36.915479,48.767481],[36.91659,48.768621],[36.91947,48.76819622123894],[36.91947,48.768197],[36.921498,48.767897],[36.92123067405765,48.767109],[36.921231,48.767109],[36.921078,48.766654],[36.919641,48.76686669029851]]]}},{"type":"Feature","properties":{"cadnum":"1420355000:01:000:0226"},"geometry":{"type":"Polygon","coordinates":[[[36.925066,48.765003],[36.924984,48.764884],[36.924665,48.764834],[36.922684,48.76479],[36.922133,48.764678],[36.92291454668861,48.766995],[36.922914,48.766995],[36.923269,48.768046],[36.924382,48.767863],[36.92456181336405,48.767109],[36.924562,48.767109],[36.924963,48.765433392857155],[36.924963,48.765435],[36.925066,48.765003]]]}},{"type":"Feature","properties":{"cadnum":"1420355000:02:000:0022"},"geometry":{"type":"Polygon","coordinates":[[[36.922271,48.77772],[36.92148,48.777969],[36.92148239634147,48.777969],[36.920283,48.778348],[36.92012,48.77888],[36.922254,48.778374],[36.92226416409266,48.777969],[36.922265,48.777969],[36.922271,48.77772]]]}},{"type":"Feature","properties":{"cadnum":"1420355000:01:000:0333"},"geometry":{"type":"Polygon","coordinates":[[[36.978138,48.770033],[36.977116,48.770729],[36.97711629152914,48.770729],[36.974616,48.772434],[36.974679,48.772478],[36.976072,48.773304],[36.979543,48.770936],[36.97922020937501,48.770729],[36.979221,48.770729],[36.978138,48.770033]]]}},{"type":"Feature","properties":{"cadnum":"1420355000:02:000:0083"},"geometry":{"type":"Polygon","coordinates":[[[36.933133,48.749185],[36.933154,48.74917],[36.933057,48.749108],[36.933034,48.749123],[36.933133,48.749185]]]}},{"type":"Feature","properties":{"cadnum":"1420355000:01:000:0341"},"geometry":{"type":"Polygon","coordinates":[[[36.978614,48.777969],[36.97861516773368,48.777969],[36.977558,48.778637],[36.978983,48.77962],[36.979895,48.779044842105264],[36.979895,48.779045],[36.980013134917584,48.778970339659544],[36.980066,48.778937],[36.980066,48.77893692934249],[36.980914,48.778401],[36.980685,48.778211],[36.980537,48.778123],[36.98025610861423,48.777969],[36.980257,48.777969],[36.979895,48.77777],[36.979895,48.777771049418604],[36.979378,48.777487],[36.978614,48.777969]]]}},{"type":"Feature","properties":{"cadnum":"1420355000:01:000:0313"},"geometry":{"type":"Polygon","coordinates":[[[36.979895,48.78125694835007],[36.979895,48.781258],[36.980461,48.780899],[36.979895,48.780509],[36.979895,48.78050989189189],[36.9794,48.780168],[36.977330764250524,48.781476],[36.97733,48.781476],[36.974729,48.783121],[36.97579,48.783853],[36.97936839629785,48.781589],[36.979369,48.781589],[36.979895,48.78125694835007]]]}},{"type":"Feature","properties":{"cadnum":"1420355000:01:000:0534"},"geometry":{"type":"Polygon","coordinates":[[[36.979378,48.777487],[36.978529,48.777016],[36.977604,48.776531],[36.975987,48.777551],[36.97642771770335,48.777856],[36.976427,48.777856],[36.977558,48.778637],[36.978794,48.777856],[36.978793112033195,48.777856],[36.979378,48.777487]]]}},{"type":"Feature","properties":{"cadnum":"1420355000:01:000:0533"},"geometry":{"type":"Polygon","coordinates":[[[36.98223,48.779493],[36.980914,48.778401],[36.980013134917584,48.778970339659544],[36.978983,48.77962],[36.980066,48.780368],[36.980066,48.78036709392265],[36.980438,48.780624],[36.98223,48.779493]]]}},{"type":"Feature","properties":{"cadnum":"1420355000:01:000:0467"},"geometry":{"type":"Polygon","coordinates":[[[36.97525,48.761705],[36.975138,48.760675],[36.974401,48.76071],[36.974401,48.76071012698413],[36.969155,48.760958],[36.969268,48.761989],[36.974573,48.761737],[36.974573,48.761736896348644],[36.97525,48.761705]]]}},{"type":"Feature","properties":{"cadnum":"1420355000:01:000:0468"},"geometry":{"type":"Polygon","coordinates":[[[36.974401,48.7597],[36.974401,48.75970019493602],[36.97173725471232,48.75982710901861],[36.969042,48.759955],[36.969155,48.760958],[36.974573,48.760702],[36.974573,48.76070183175034],[36.975138,48.760675],[36.97504588273616,48.759867],[36.975047,48.759867],[36.975025,48.75967],[36.974401,48.7597]]]}},{"type":"Feature","properties":{"cadnum":"1420355000:01:000:0466"},"geometry":{"type":"Polygon","coordinates":[[[36.974419,48.762907],[36.975321,48.762347],[36.97525,48.761705],[36.974401,48.761745],[36.974401,48.76174517040528],[36.969268,48.761989],[36.969362,48.762841],[36.970117,48.762984],[36.971711,48.763043],[36.97282,48.76294],[36.974082,48.762955],[36.974401,48.76290956379822],[36.974401,48.76291],[36.974419,48.762907]]]}},{"type":"Feature","properties":{"cadnum":"1420355000:01:000:0469"},"geometry":{"type":"Polygon","coordinates":[[[36.974918,48.758664],[36.974573,48.758681350096715],[36.974573,48.758681],[36.96908,48.758945030329905],[36.96908,48.758945],[36.968935,48.758952],[36.96902002076503,48.759754],[36.96902,48.759754],[36.9690206603475,48.75976003317494],[36.969032,48.759867],[36.969032368159205,48.759867],[36.969042,48.759955],[36.97089656716417,48.759867],[36.9709,48.759867],[36.971737254708984,48.759827109018765],[36.973278,48.759754],[36.973271708571424,48.759754],[36.974573,48.759692],[36.974573,48.759691730769234],[36.975025,48.75967],[36.974918,48.758664]]]}},{"type":"Feature","properties":{"cadnum":"1420355000:02:000:0123"},"geometry":{"type":"Polygon","coordinates":[[[36.992596,48.74899],[36.992596,48.748981],[36.992583,48.748981],[36.992583,48.74899],[36.992596,48.74899]]]}},{"type":"Feature","properties":{"cadnum":"1420355000:01:000:0540"},"geometry":{"type":"Polygon","coordinates":[[[36.953888,48.768855],[36.954913,48.768709],[36.954693,48.767969],[36.954687,48.767958],[36.952429,48.768251],[36.952429,48.768251175517044],[36.950811,48.768461],[36.951198,48.769378],[36.952429,48.76913917546362],[36.952429,48.76914],[36.953888,48.768855]]]}},{"type":"Feature","properties":{"cadnum":"1420355000:01:001:0095"},"geometry":{"type":"Polygon","coordinates":[[[36.96509,48.726728],[36.965113,48.726713],[36.965014,48.726651],[36.964991,48.726667],[36.96509,48.726728]]]}},{"type":"Feature","properties":{"cadnum":"1420355000:02:000:0092"},"geometry":{"type":"Polygon","coordinates":[[[36.967695,48.724894],[36.967717,48.724879],[36.967618,48.724818],[36.967597,48.724833],[36.967695,48.724894]]]}},{"type":"Feature","properties":{"cadnum":"1420355000:01:000:0605"},"geometry":{"type":"Polygon","coordinates":[[[36.97760264516129,48.734399],[36.977601,48.734399],[36.977595,48.734647],[36.980066,48.734668],[36.980066,48.73466738212842],[36.982122,48.734684],[36.98212682807017,48.734512],[36.982128,48.734512],[36.98214,48.734141],[36.979895,48.734125],[36.979895,48.73412574572127],[36.977612,48.734109],[36.97760264516129,48.734399]]]}},{"type":"Feature","properties":{"cadnum":"1420355000:01:000:0604"},"geometry":{"type":"Polygon","coordinates":[[[36.980066,48.73412621870824],[36.98214,48.734141],[36.982153,48.733611],[36.980447,48.733578],[36.980066,48.73357523913043],[36.980066,48.733575],[36.979306,48.733569],[36.97834,48.733587],[36.977631,48.73359],[36.977612,48.734109],[36.980066,48.734127],[36.980066,48.73412621870824]]]}},{"type":"Feature","properties":{"cadnum":"1420355000:01:000:0470"},"geometry":{"type":"Polygon","coordinates":[[[36.974918,48.758664],[36.974809,48.757693],[36.974401,48.757713],[36.974401,48.75771332258064],[36.974015,48.757732],[36.968908,48.7579],[36.968908,48.75790033333333],[36.968822,48.757903],[36.968908,48.758701353982275],[36.968908,48.758702],[36.968935,48.758952],[36.974401,48.758689267470736],[36.974401,48.75869],[36.974918,48.758664]]]}},{"type":"Feature","properties":{"cadnum":"1420355000:01:000:0208"},"geometry":{"type":"Polygon","coordinates":[[[36.910038,48.769675],[36.908577,48.770242],[36.908431,48.770295],[36.908655,48.770549],[36.908655,48.77054773111783],[36.90871525866666,48.770616],[36.908714,48.770616],[36.910745,48.772911],[36.91254,48.772673],[36.912674,48.772657],[36.910968933855955,48.770729],[36.91097,48.770729],[36.910038,48.769675]]]}},{"type":"Feature","properties":{"cadnum":"1420355000:01:000:0209"},"geometry":{"type":"Polygon","coordinates":[[[36.911462,48.769125],[36.910104,48.769649],[36.910038,48.769675],[36.91087007969639,48.770616],[36.910869,48.770616],[36.912674,48.772657],[36.914148,48.772483],[36.914148,48.772482528169014],[36.914403,48.772452],[36.913977,48.77197],[36.913977,48.77197064134405],[36.91287893346254,48.770729],[36.91288,48.770729],[36.911462,48.769125]]]}},{"type":"Feature","properties":{"cadnum":"1420355000:01:000:0207"},"geometry":{"type":"Polygon","coordinates":[[[36.907307,48.770729],[36.90730770666666,48.770729],[36.90663,48.770991],[36.907301,48.7716],[36.907038,48.771654],[36.90842,48.773219],[36.908484,48.77321055744681],[36.908484,48.773211],[36.910745,48.772911],[36.9088140013072,48.770729],[36.908815,48.770729],[36.908484,48.770354],[36.908484,48.77035509821428],[36.908431,48.770295],[36.907307,48.770729]]]}},{"type":"Feature","properties":{"cadnum":"1420355000:01:001:0111"},"geometry":{"type":"Polygon","coordinates":[[[36.920026,48.751963],[36.92003,48.751954],[36.920017,48.751951],[36.920013,48.75196],[36.920026,48.751963]]]}},{"type":"Feature","properties":{"cadnum":"1420355000:02:000:0133"},"geometry":{"type":"Polygon","coordinates":[[[36.920987,48.751975],[36.920987,48.751966],[36.920973,48.751966],[36.920973,48.751975],[36.920987,48.751975]]]}},{"type":"Feature","properties":{"cadnum":"1420355000:01:000:0382"},"geometry":{"type":"Polygon","coordinates":[[[36.92503,48.747749],[36.92538618798956,48.748889],[36.925385,48.748889],[36.925389,48.748898],[36.925525,48.749002],[36.92552503375527,48.749002],[36.925699,48.749135],[36.927747,48.749182],[36.927643,48.748889],[36.92764284019082,48.748889],[36.927087,48.747325],[36.924998,48.747651],[36.92503,48.747749]]]}},{"type":"Feature","properties":{"cadnum":"1420355000:01:000:0231"},"geometry":{"type":"Polygon","coordinates":[[[36.940351,48.789863],[36.939538,48.788736],[36.935949,48.789865],[36.935949,48.789865053672315],[36.934705,48.790256],[36.935517,48.791384],[36.935949,48.79198264900662],[36.935949,48.791983],[36.936201659482755,48.792334],[36.936201,48.792334],[36.93626759708754,48.79242560194198],[36.936283,48.792447],[36.93628315405405,48.792447],[36.93647,48.792704],[36.937646,48.792334],[36.93764511471521,48.792334],[36.941303,48.791183],[36.940351,48.789863]]]}},{"type":"Feature","properties":{"cadnum":"1420355000:02:000:0021"},"geometry":{"type":"Polygon","coordinates":[[[36.922231,48.779289],[36.922254,48.778374],[36.92012,48.77888],[36.920026,48.7792],[36.922231,48.779289]]]}},{"type":"Feature","properties":{"cadnum":"1420355000:01:000:0608"},"geometry":{"type":"Polygon","coordinates":[[[36.980066,48.735748],[36.977577,48.735729],[36.977572,48.736259],[36.979638,48.736289],[36.979895,48.73629080140187],[36.979895,48.736292],[36.982077,48.736307],[36.98209,48.735762],[36.980066,48.735748168564925],[36.980066,48.735748]]]}},{"type":"Feature","properties":{"cadnum":"1420355000:01:000:0607"},"geometry":{"type":"Polygon","coordinates":[[[36.980066,48.735206],[36.977585,48.735187],[36.977577,48.735729],[36.979895,48.73574669465649],[36.979895,48.735747],[36.98209,48.735762],[36.982109,48.735222],[36.980066,48.73520631300813],[36.980066,48.735206]]]}},{"type":"Feature","properties":{"cadnum":"1420355000:01:000:0606"},"geometry":{"type":"Polygon","coordinates":[[[36.977595,48.734647],[36.977591,48.73486],[36.977585,48.735187],[36.979895,48.7352046904474],[36.979895,48.735205],[36.982109,48.735222],[36.982122,48.734684],[36.979895,48.734666],[36.979895,48.73466654674221],[36.977595,48.734647]]]}},{"type":"Feature","properties":{"cadnum":"1420355000:01:000:0237"},"geometry":{"type":"Polygon","coordinates":[[[36.946674,48.790574],[36.945672,48.789271],[36.941614,48.7906351787234],[36.941614,48.790635],[36.941227,48.790765],[36.941442,48.79106333333334],[36.941442,48.791065],[36.942179,48.792083],[36.946674,48.790574]]]}},{"type":"Feature","properties":{"cadnum":"1420355000:01:000:0171"},"geometry":{"type":"Polygon","coordinates":[[[36.907993,48.782121],[36.90842060880829,48.785095],[36.90842,48.785095],[36.908537,48.785898],[36.908655,48.785898],[36.910239,48.785898],[36.910239,48.785209],[36.910243,48.782121],[36.908655,48.782121],[36.908484,48.782121],[36.907993,48.782121]]]}},{"type":"Feature","properties":{"cadnum":"1420355000:01:000:0161"},"geometry":{"type":"Polygon","coordinates":[[[36.902891,48.785072],[36.901767,48.784244],[36.900362,48.784867],[36.900708,48.785209],[36.90070996006656,48.785209],[36.902428,48.786898],[36.903162,48.786712],[36.903162,48.786711170798895],[36.905168,48.7862],[36.906048,48.786031],[36.905931,48.785628],[36.905707,48.785413],[36.905046,48.785253],[36.903497,48.785321],[36.903162,48.785184224852074],[36.903162,48.785184],[36.903162,48.785183],[36.902891,48.785072]]]}},{"type":"Feature","properties":{"cadnum":"1420355000:01:000:0272"},"geometry":{"type":"Polygon","coordinates":[[[36.949796,48.784264],[36.947865,48.784753],[36.948215,48.785209],[36.948215626546684,48.785209],[36.950178,48.787762],[36.951601,48.787404],[36.950274,48.785095],[36.95027261587302,48.785095],[36.949796,48.784264]]]}},{"type":"Feature","properties":{"cadnum":"1420355000:02:000:0082"},"geometry":{"type":"Polygon","coordinates":[[[36.929965,48.751412],[36.929988,48.751395],[36.92989,48.751335],[36.929867,48.75135],[36.929965,48.751412]]]}},{"type":"Feature","properties":{"cadnum":"1420355000:02:000:0132"},"geometry":{"type":"Polygon","coordinates":[[[36.928803,48.7518],[36.928816,48.751797],[36.928816,48.751788],[36.928803,48.751788],[36.928803,48.7518]]]}},{"type":"Feature","properties":{"cadnum":"1420355000:02:000:0068"},"geometry":{"type":"Polygon","coordinates":[[[36.895085,48.77587],[36.895129,48.775823],[36.895052,48.775793],[36.895012,48.775844],[36.895085,48.77587]]]}},{"type":"Feature","properties":{"cadnum":"1420355000:02:000:0067"},"geometry":{"type":"Polygon","coordinates":[[[36.894388,48.777673],[36.894397,48.777652],[36.894266,48.777628],[36.894258,48.777649],[36.894388,48.777673]]]}},{"type":"Feature","properties":{"cadnum":"1420355000:02:000:0069"},"geometry":{"type":"Polygon","coordinates":[[[36.897092,48.774479],[36.897115,48.774464],[36.897016,48.774402],[36.896993,48.774417],[36.897092,48.774479]]]}},{"type":"Feature","properties":{"cadnum":"1420355000:01:000:0203"},"geometry":{"type":"Polygon","coordinates":[[[36.900065,48.771616],[36.899293,48.772221],[36.897497,48.773564],[36.897497,48.77356450736497],[36.896447,48.774349],[36.89644800176057,48.774349],[36.89584,48.774804],[36.897669,48.774544],[36.897669,48.7745434765625],[36.899033,48.774349],[36.901408,48.77286],[36.900065,48.771616]]]}},{"type":"Feature","properties":{"cadnum":"1420355000:01:000:0270"},"geometry":{"type":"Polygon","coordinates":[[[36.963587,48.784389558219175],[36.963587,48.784389],[36.962797,48.784588],[36.963088463768116,48.785095],[36.963088,48.785095],[36.963415,48.78566184368738],[36.963415,48.785662],[36.965026,48.788456],[36.966812,48.788006],[36.965134,48.785095],[36.96513343137254,48.785095],[36.964583,48.784138],[36.963587,48.784389558219175]]]}},{"type":"Feature","properties":{"cadnum":"1420355000:01:000:0328"},"geometry":{"type":"Polygon","coordinates":[[[36.98443,48.777303],[36.984525,48.777055],[36.984799,48.776314],[36.984983,48.775912],[36.982169165029475,48.777856],[36.982169,48.777856],[36.982036,48.777948],[36.982325,48.778152],[36.982742,48.778395],[36.983568,48.778108],[36.983837,48.777856],[36.98383631381381,48.777856],[36.98443,48.777303]]]}},{"type":"Feature","properties":{"cadnum":"1420355000:02:000:0097"},"geometry":{"type":"Polygon","coordinates":[[[36.888383,48.786946],[36.88841,48.786937],[36.88836,48.786854],[36.888329,48.786863],[36.888383,48.786946]]]}},{"type":"Feature","properties":{"cadnum":"1420355000:02:000:0063"},"geometry":{"type":"Polygon","coordinates":[[[36.890894,48.786244],[36.890953,48.786203],[36.890884,48.786164],[36.890831,48.786209],[36.890894,48.786244]]]}},{"type":"Feature","properties":{"cadnum":"1420355000:02:000:0084"},"geometry":{"type":"Polygon","coordinates":[[[36.935881,48.747254],[36.935904,48.74724],[36.935804,48.747177],[36.935783,48.747192],[36.935881,48.747254]]]}},{"type":"Feature","properties":{"cadnum":"1420355000:01:000:0160"},"geometry":{"type":"Polygon","coordinates":[[[36.900366,48.784877],[36.899567,48.784084],[36.897618,48.784951],[36.897879,48.785209],[36.897880001848435,48.785209],[36.899966,48.787259],[36.900452,48.78717],[36.900842,48.787304],[36.902428,48.786898],[36.900588,48.785095],[36.90058793975903,48.785095],[36.900366,48.784877]]]}},{"type":"Feature","properties":{"cadnum":"1420355000:01:000:0162"},"geometry":{"type":"Polygon","coordinates":[[[36.900362,48.784867],[36.901767,48.784244],[36.900807,48.783533],[36.899567,48.784084],[36.900362,48.784867]]]}},{"type":"Feature","properties":{"cadnum":"1420355000:02:000:0064"},"geometry":{"type":"Polygon","coordinates":[[[36.891666,48.784448],[36.891675,48.784427],[36.891545,48.784404],[36.891536,48.784424],[36.891666,48.784448]]]}},{"type":"Feature","properties":{"cadnum":"1420355000:01:000:0381"},"geometry":{"type":"Polygon","coordinates":[[[36.925017,48.748901],[36.924904,48.748546],[36.924464,48.747139],[36.922034,48.747485],[36.922357,48.748509],[36.922568,48.74888],[36.923686,48.748806],[36.925017,48.748901]]]}},{"type":"Feature","properties":{"cadnum":"1420355000:01:000:0330"},"geometry":{"type":"Polygon","coordinates":[[[36.983757,48.773635],[36.982405,48.772768],[36.980085,48.774349],[36.98008613114754,48.774349],[36.98000389728005,48.77440536253839],[36.978924,48.775142],[36.979032,48.775254],[36.979895,48.77615597419355],[36.979895,48.776156],[36.979962,48.776226],[36.980066,48.776155],[36.980066,48.77615497735072],[36.982876,48.774236],[36.98287570168067,48.774236],[36.983757,48.773635]]]}},{"type":"Feature","properties":{"cadnum":"1420355000:01:000:0331"},"geometry":{"type":"Polygon","coordinates":[[[36.980973,48.771851],[36.980066,48.77246856771799],[36.980066,48.772468],[36.977536,48.774192],[36.977604942675164,48.774236],[36.977604,48.774236],[36.977737532971474,48.77432062063627],[36.977782,48.774349],[36.97778231614654,48.774349],[36.978767,48.774973],[36.978924,48.775142],[36.979895,48.77447964535902],[36.979895,48.77448],[36.98000389728005,48.77440536253839],[36.980066,48.774363],[36.980066,48.77436279775281],[36.980251,48.774236],[36.98025081910183,48.774236],[36.982405,48.772768],[36.980973,48.771851]]]}},{"type":"Feature","properties":{"cadnum":"1420355000:01:000:0599"},"geometry":{"type":"Polygon","coordinates":[[[36.96908,48.730457],[36.968943,48.728663],[36.968912,48.728666],[36.965782,48.728953],[36.963716,48.729146],[36.963543586538144,48.72912709752744],[36.962117,48.728966],[36.962224,48.730782],[36.963415,48.730782],[36.963559,48.730782],[36.963587,48.730783],[36.963587,48.73078203985765],[36.964964,48.730784],[36.965889,48.730784],[36.966392,48.730787],[36.967907,48.730787],[36.968908,48.73079041346974],[36.968908,48.730791],[36.96908,48.730791],[36.969105,48.730791],[36.96908,48.73046260493825],[36.96908,48.730457]]]}},{"type":"Feature","properties":{"cadnum":"1420355000:01:000:0204"},"geometry":{"type":"Polygon","coordinates":[[[36.905115,48.773659],[36.905702,48.773579],[36.904427,48.77227],[36.903162,48.77251824634655],[36.903162,48.772518],[36.901408,48.77286],[36.899213238415044,48.774236],[36.899212,48.774236],[36.899033,48.774349],[36.899809,48.774236],[36.899807610687,48.774236],[36.899931,48.774218],[36.903084,48.773929],[36.903162,48.773919],[36.903162,48.773918630723784],[36.905115,48.773659]]]}},{"type":"Feature","properties":{"cadnum":"1420355000:01:000:0177"},"geometry":{"type":"Polygon","coordinates":[[[36.90538,48.779091],[36.905579,48.779545],[36.90771216927593,48.781476],[36.907711,48.781476],[36.907927,48.78167],[36.907991,48.782121],[36.908484,48.782121],[36.908655,48.782121],[36.909361,48.782121],[36.90912840465116,48.781589],[36.909129,48.781589],[36.908484,48.78011],[36.908484,48.78011047252747],[36.907836,48.778623],[36.90538,48.779091]]]}},{"type":"Feature","properties":{"cadnum":"1420355000:02:000:0131"},"geometry":{"type":"Polygon","coordinates":[[[36.944689,48.751134],[36.944689,48.751125],[36.944676,48.751125],[36.944676,48.751134],[36.944689,48.751134]]]}},{"type":"Feature","properties":{"cadnum":"1420355000:01:000:0361"},"geometry":{"type":"Polygon","coordinates":[[[36.981116,48.762084],[36.97993833403006,48.76132975365398],[36.979858,48.761278],[36.979813,48.761249],[36.976531,48.763488],[36.97653148547718,48.763488],[36.975991,48.763857],[36.977294,48.764693],[36.97905852959029,48.763488],[36.979059,48.763488],[36.979895,48.76291766037736],[36.979895,48.762918],[36.981116,48.762084]]]}},{"type":"Feature","properties":{"cadnum":"1420355000:01:000:0133"},"geometry":{"type":"Polygon","coordinates":[[[36.857332,48.74115],[36.857009,48.740166],[36.853724,48.74061926728377],[36.853724,48.740619],[36.85144,48.740933],[36.851678,48.741612],[36.851696000000345,48.74167000000111],[36.851772,48.741917],[36.853552,48.74167170286885],[36.853552,48.741672],[36.857332,48.74115]]]}},{"type":"Feature","properties":{"cadnum":"1420355000:01:001:0094"},"geometry":{"type":"Polygon","coordinates":[[[36.959781,48.730462],[36.959804,48.730447],[36.959704,48.730385],[36.959682,48.7304],[36.959781,48.730462]]]}},{"type":"Feature","properties":{"cadnum":"1420355000:02:000:0091"},"geometry":{"type":"Polygon","coordinates":[[[36.962606,48.728474],[36.962629,48.728459],[36.96253,48.728397],[36.962507,48.728411],[36.962606,48.728474]]]}},{"type":"Feature","properties":{"cadnum":"1420355000:01:000:0332"},"geometry":{"type":"Polygon","coordinates":[[[36.980973,48.771851],[36.979895,48.77116],[36.979895,48.77116104798464],[36.979545,48.770936],[36.976074,48.773303],[36.97692,48.773804],[36.977536,48.774194],[36.979895,48.772585590909095],[36.979895,48.772586],[36.980973,48.771851]]]}},{"type":"Feature","properties":{"cadnum":"1420355000:02:000:0094"},"geometry":{"type":"Polygon","coordinates":[[[36.981197,48.715397],[36.98122,48.715382],[36.981116,48.71532],[36.981094,48.715334],[36.981197,48.715397]]]}},{"type":"Feature","properties":{"cadnum":"1420355000:02:000:0081"},"geometry":{"type":"Polygon","coordinates":[[[36.927168,48.753375],[36.927191,48.753358],[36.927091,48.753298],[36.927069,48.753313],[36.927168,48.753375]]]}},{"type":"Feature","properties":{"cadnum":"1420355000:02:000:0065"},"geometry":{"type":"Polygon","coordinates":[[[36.892574,48.782189],[36.892582,48.782169],[36.892448,48.782148],[36.892444,48.782169],[36.892574,48.782189]]]}},{"type":"Feature","properties":{"cadnum":"1420355000:01:000:0393"},"geometry":{"type":"Polygon","coordinates":[[[36.933541,48.754196],[36.931762,48.75416],[36.931664,48.756245],[36.931664693649374,48.756245],[36.931565,48.758368],[36.933344,48.758403],[36.93345,48.756132],[36.93344934943875,48.756132],[36.933541,48.754196]]]}},{"type":"Feature","properties":{"cadnum":"1420355000:01:000:0172"},"geometry":{"type":"Polygon","coordinates":[[[36.912133,48.782123],[36.911155,48.782123],[36.910243,48.782122],[36.910239147716226,48.785095],[36.910239,48.785095],[36.910239,48.785209],[36.910239,48.785899],[36.911742,48.7859],[36.912129,48.785916],[36.912129,48.785209],[36.912133,48.782123]]]}},{"type":"Feature","properties":{"cadnum":"1420355000:02:000:0089"},"geometry":{"type":"Polygon","coordinates":[[[36.949253,48.737859],[36.949275,48.737844],[36.949177,48.737782],[36.949154,48.7378],[36.949253,48.737859]]]}},{"type":"Feature","properties":{"cadnum":"1420355000:02:000:0090"},"geometry":{"type":"Polygon","coordinates":[[[36.95189,48.736004],[36.951911,48.735986],[36.951813,48.735927],[36.95179,48.735942],[36.95189,48.736004]]]}},{"type":"Feature","properties":{"cadnum":"1420355000:02:000:0130"},"geometry":{"type":"Polygon","coordinates":[[[36.958712,48.750473],[36.958712,48.750464],[36.958698,48.750464],[36.958698,48.750473],[36.958712,48.750473]]]}},{"type":"Feature","properties":{"cadnum":"1420355000:02:000:0073"},"geometry":{"type":"Polygon","coordinates":[[[36.906749,48.767706],[36.906771,48.767691],[36.906673,48.767629],[36.90665,48.767647],[36.906749,48.767706]]]}},{"type":"Feature","properties":{"cadnum":"1420355000:02:000:0072"},"geometry":{"type":"Polygon","coordinates":[[[36.904323,48.769408],[36.904346,48.769393],[36.904247,48.769332],[36.904224,48.769346],[36.904323,48.769408]]]}},{"type":"Feature","properties":{"cadnum":"1420355000:01:000:0194"},"geometry":{"type":"Polygon","coordinates":[[[36.919641,48.787705226979],[36.921946,48.787897],[36.921978,48.787729],[36.922145,48.786852],[36.91947,48.786629],[36.91947,48.78662973316001],[36.91541,48.786291],[36.915135,48.787329],[36.919641,48.787706],[36.919641,48.787705226979]]]}},{"type":"Feature","properties":{"cadnum":"1420355000:00:000:0225"},"geometry":{"type":"Polygon","coordinates":[[[36.911847,48.708124],[36.912463,48.707999],[36.91231,48.707863],[36.912224,48.707887],[36.91218,48.707819],[36.912157,48.707825],[36.91213,48.707786],[36.912113,48.707757],[36.911685,48.707887],[36.911847,48.708124]]]}},{"type":"Feature","properties":{"cadnum":"1420355000:01:001:0112"},"geometry":{"type":"Polygon","coordinates":[[[36.914465,48.750932],[36.91447,48.750923],[36.914457,48.750921],[36.914451,48.75093],[36.914465,48.750932]]]}},{"type":"Feature","properties":{"cadnum":"1420355000:02:000:0093"},"geometry":{"type":"Polygon","coordinates":[[[36.970358,48.722992],[36.970413,48.722957],[36.970354,48.722921],[36.970304,48.72296],[36.970358,48.722992]]]}},{"type":"Feature","properties":{"cadnum":"1420355000:01:001:0096"},"geometry":{"type":"Polygon","coordinates":[[[36.973283,48.720965],[36.973306,48.72095],[36.973207,48.720888],[36.973184,48.720903],[36.973283,48.720965]]]}},{"type":"Feature","properties":{"cadnum":"1420355000:02:000:0066"},"geometry":{"type":"Polygon","coordinates":[[[36.893481,48.779931],[36.89349,48.779911],[36.893355,48.779887],[36.89335,48.779907],[36.893481,48.779931]]]}},{"type":"Feature","properties":{"cadnum":"1420355000:02:000:0071"},"geometry":{"type":"Polygon","coordinates":[[[36.901993,48.771045],[36.902015,48.771028],[36.901916,48.770969],[36.901893,48.770984],[36.901993,48.771045]]]}},{"type":"Feature","properties":{"cadnum":"1420355000:02:000:0070"},"geometry":{"type":"Polygon","coordinates":[[[36.899656,48.77268],[36.899679,48.772665],[36.89958,48.772603],[36.899558,48.772617],[36.899656,48.77268]]]}}]}