{"type":"FeatureCollection","features":[{"type":"Feature","properties":{"cadnum":"1420384403:00:000:0002"},"geometry":{"type":"Polygon","coordinates":[[[36.754098,48.632694],[36.75380751552795,48.632852],[36.753806,48.632852],[36.753802,48.632855],[36.753929,48.632965],[36.753929472924185,48.632965],[36.754444,48.633409],[36.75475,48.633246],[36.754416936548225,48.632965],[36.754417,48.632965],[36.754098,48.632694]]]}},{"type":"Feature","properties":{"cadnum":"1420384403:00:000:0013"},"geometry":{"type":"Polygon","coordinates":[[[36.758752,48.636369],[36.759161,48.636173],[36.758643,48.6357],[36.758626,48.635686],[36.758213,48.635882],[36.758752,48.636369]]]}},{"type":"Feature","properties":{"cadnum":"1420384403:00:000:0012"},"geometry":{"type":"Polygon","coordinates":[[[36.758643,48.6357],[36.759066,48.635499],[36.759043,48.635475],[36.757836,48.634371],[36.757408,48.634576],[36.757601,48.634748],[36.758626,48.635686],[36.758643,48.6357]]]}},{"type":"Feature","properties":{"cadnum":"1420384403:00:000:0011"},"geometry":{"type":"Polygon","coordinates":[[[36.759161,48.636173],[36.759582,48.635971],[36.759066,48.635499],[36.758643,48.6357],[36.759161,48.636173]]]}},{"type":"Feature","properties":{"cadnum":"1420384403:00:000:0010"},"geometry":{"type":"Polygon","coordinates":[[[36.759043,48.635475],[36.759448,48.635286],[36.758096,48.634071],[36.75771,48.634255],[36.757836,48.634371],[36.759043,48.635475]]]}},{"type":"Feature","properties":{"cadnum":"1420384403:00:000:0006"},"geometry":{"type":"Polygon","coordinates":[[[36.76034,48.633713],[36.75992,48.633881],[36.760168,48.63413726666667],[36.760168,48.634138],[36.760616,48.6346],[36.760813,48.634659],[36.761325,48.634451],[36.760499,48.63365],[36.76034,48.633713407854984],[36.76034,48.633713]]]}},{"type":"Feature","properties":{"cadnum":"1420384403:00:000:0007"},"geometry":{"type":"Polygon","coordinates":[[[36.763337,48.632759],[36.763414,48.632738],[36.763486,48.632718],[36.76376,48.632637],[36.764083,48.63254],[36.763966,48.6315],[36.76318,48.631759],[36.762911,48.631848],[36.762874,48.63186],[36.762798,48.631883],[36.761891,48.631911],[36.760168,48.632264],[36.760168,48.632264293506495],[36.759955,48.632308],[36.759287,48.632965],[36.75928753518519,48.632965],[36.758855,48.633392],[36.758177,48.634059],[36.75863,48.634487],[36.75992,48.633881],[36.760168,48.6337818],[36.760168,48.633782],[36.760499,48.63365],[36.760764,48.633908],[36.762205,48.633225],[36.763058,48.632852],[36.76305685815603,48.632852],[36.763121,48.632824],[36.763337,48.632759]],[[36.763576,48.632587],[36.763584,48.632602],[36.763562,48.632608],[36.763553,48.632593],[36.763576,48.632587]],[[36.763356,48.632694],[36.763364,48.632712],[36.763337,48.632718],[36.763329,48.632699],[36.763356,48.632694]],[[36.763342,48.632225],[36.763351,48.632243],[36.763324,48.632248],[36.763314,48.632231],[36.763342,48.632225]],[[36.763176,48.632395],[36.763184,48.632412],[36.763157,48.632418],[36.763149,48.6324],[36.763176,48.632395]],[[36.763094,48.63186],[36.763104,48.631874],[36.763081,48.63188],[36.763073,48.631865],[36.763094,48.63186]],[[36.762964,48.63205],[36.762974,48.632067],[36.762947,48.632074],[36.762937,48.632056],[36.762964,48.63205]]]}},{"type":"Feature","properties":{"cadnum":"1420384403:00:000:0014"},"geometry":{"type":"Polygon","coordinates":[[[36.758213,48.635882],[36.758626,48.635686],[36.757601,48.634748],[36.75718,48.63495],[36.758213,48.635882]]]}},{"type":"Feature","properties":{"cadnum":"1420384403:00:000:0009"},"geometry":{"type":"Polygon","coordinates":[[[36.759582,48.635971],[36.759991,48.635775],[36.759448,48.635286],[36.759043,48.635475],[36.759066,48.635499],[36.759582,48.635971]]]}},{"type":"Feature","properties":{"cadnum":"1420384403:00:000:0004"},"geometry":{"type":"Polygon","coordinates":[[[36.756272,48.632706],[36.75814,48.63181],[36.757534,48.631332],[36.756991,48.631599],[36.757041,48.631946],[36.756928,48.632076],[36.756649,48.631981],[36.756425,48.631803],[36.755557,48.632246],[36.756272,48.632706]]]}},{"type":"Feature","properties":{"cadnum":"1420384403:00:000:0008"},"geometry":{"type":"Polygon","coordinates":[[[36.763729,48.628734],[36.762794,48.628743],[36.76279965202703,48.629221],[36.762799,48.629221],[36.76280081861014,48.629319659600036],[36.762801,48.629335],[36.762801101382486,48.629335],[36.762803,48.629438],[36.76168,48.629354],[36.761492,48.629343],[36.761266,48.629372],[36.760679,48.629455],[36.760983,48.62996],[36.761626,48.629972],[36.761815,48.629977],[36.761945,48.630102],[36.762125,48.630085],[36.763832,48.629918],[36.763780140602584,48.629335],[36.763781,48.629335],[36.763729,48.628734]],[[36.761783,48.629808],[36.761811,48.629803],[36.761819,48.629821],[36.761792,48.629827],[36.761783,48.629808]],[[36.761639,48.629939],[36.761666,48.629933],[36.761675,48.629948],[36.761649,48.629954],[36.761639,48.629939]],[[36.76159,48.629497],[36.761616,48.629491],[36.761626,48.629509],[36.761599,48.629515],[36.76159,48.629497]],[[36.761478,48.629672],[36.7615,48.629666],[36.761509,48.629684],[36.761486,48.629687],[36.761478,48.629672]]]}},{"type":"Feature","properties":{"cadnum":"1420384403:00:000:0003"},"geometry":{"type":"Polygon","coordinates":[[[36.763157,48.632863],[36.76292,48.632965],[36.76292062720403,48.632965],[36.762237,48.63326],[36.761285,48.633712],[36.761859,48.634276],[36.762838,48.633774],[36.763153,48.633647],[36.763633,48.63337],[36.76325276331361,48.632965],[36.763253,48.632965],[36.763157,48.632863]]]}},{"type":"Feature","properties":{"cadnum":"1420384403:00:000:0015"},"geometry":{"type":"Polygon","coordinates":[[[36.762781,48.628158],[36.763773,48.627775],[36.763782,48.6276],[36.763427,48.627691],[36.763337,48.62755],[36.762781,48.627737],[36.762893,48.62792],[36.762781,48.628042],[36.762781,48.628158]]]}},{"type":"Feature","properties":{"cadnum":"1420384403:00:000:0016"},"geometry":{"type":"Polygon","coordinates":[[[36.762794,48.628743],[36.763729,48.628734],[36.763719,48.62849],[36.763773,48.627775],[36.762781,48.628158],[36.762794,48.628743]]]}},{"type":"Feature","properties":{"cadnum":"1420384403:00:000:0005"},"geometry":{"type":"Polygon","coordinates":[[[36.761348,48.635107],[36.761779,48.634888],[36.761325,48.634451],[36.760813,48.634659],[36.760872,48.634677],[36.761348,48.635107]]]}}]}