{"type":"FeatureCollection","features":[{"type":"Feature","properties":{"cadnum":"1420687101:01:000:0294"},"geometry":{"type":"Polygon","coordinates":[[[38.337581,47.918041],[38.337666,47.917324],[38.337235,47.9173],[38.337154,47.917968],[38.337581,47.918041]]]}},{"type":"Feature","properties":{"cadnum":"1420687101:01:000:0295"},"geometry":{"type":"Polygon","coordinates":[[[38.337554,47.918287],[38.337581,47.918041],[38.337154,47.917968],[38.337141,47.918115],[38.337554,47.918287]]]}},{"type":"Feature","properties":{"cadnum":"1420687101:05:000:0928"},"geometry":{"type":"Polygon","coordinates":[[[38.328495,47.941181],[38.330368,47.94035],[38.329824,47.93936],[38.329793,47.939303],[38.327965,47.940116],[38.328495,47.941181]]]}}]}