{"type":"FeatureCollection","features":[{"type":"Feature","properties":{"cadnum":"1420655600:03:000:0010"},"geometry":{"type":"Polygon","coordinates":[[[38.25586263091483,47.813097],[38.255862,47.813097],[38.256678,47.814358],[38.256678,47.814575],[38.256328,47.815368],[38.256108,47.815969],[38.25576436909871,47.816786],[38.255764,47.816786],[38.255336,47.817802],[38.256495,47.817425],[38.25845,47.816786],[38.25844970424836,47.816786],[38.259974,47.816289],[38.259974,47.81628782762201],[38.261728,47.815715],[38.261822,47.815507],[38.262032,47.815066],[38.261445,47.814894],[38.261439,47.814894],[38.25993710316335,47.81440590646482],[38.259495,47.814261],[38.257285,47.813519],[38.257124,47.813481],[38.25648372395833,47.813212],[38.256485,47.813212],[38.255732,47.812895],[38.25586263091483,47.813097]],[[38.259845,47.814961],[38.259864,47.814916],[38.259931,47.814928],[38.259913,47.81497],[38.259872,47.814965],[38.259845,47.814961]],[[38.259805,47.815311],[38.259814,47.815293],[38.259841,47.815296],[38.259837,47.815317],[38.259811,47.815312],[38.259805,47.815311]],[[38.259172,47.815233],[38.259198,47.815236],[38.259194,47.815256],[38.259162,47.815251],[38.259172,47.815233]],[[38.258516,47.815191],[38.258525,47.815173],[38.258552,47.815175],[38.258548,47.815193],[38.258532,47.815192],[38.258516,47.815191]],[[38.257856,47.815127],[38.257864,47.815109],[38.257892,47.815112],[38.257887,47.815133],[38.257873,47.81513],[38.257856,47.815127]],[[38.257267,47.815073],[38.257277,47.815055],[38.257303,47.815057],[38.257298,47.815079],[38.257289,47.815077],[38.257267,47.815073]],[[38.257078,47.814675],[38.257097,47.814621],[38.257173,47.814632],[38.25716,47.814684],[38.257144,47.814682],[38.257078,47.814675]],[[38.261679,47.815492],[38.261687,47.815474],[38.261714,47.81548],[38.261709,47.815498],[38.261678,47.815495],[38.261679,47.815492]],[[38.261435,47.815357],[38.261449,47.81532],[38.261508,47.815329],[38.261494,47.815368],[38.261435,47.815359],[38.261435,47.815357]],[[38.2614,47.815468],[38.261413,47.815432],[38.261472,47.815441],[38.261458,47.81548],[38.261399,47.815471],[38.2614,47.815468]],[[38.261108,47.815434],[38.261116,47.815413],[38.261143,47.815419],[38.261139,47.815438],[38.261108,47.815435],[38.261108,47.815434]],[[38.260434,47.815372],[38.260438,47.81535],[38.26047,47.815356],[38.26046,47.815374],[38.260438,47.815372],[38.260434,47.815372]]]}},{"type":"Feature","properties":{"cadnum":"1420655600:03:000:0011"},"geometry":{"type":"Polygon","coordinates":[[[38.260407,47.812575],[38.259802,47.81291],[38.259802,47.81291073157163],[38.259255,47.813212],[38.259255994535515,47.813212],[38.258471,47.813646],[38.259275,47.813999],[38.259974,47.814249],[38.259974,47.81424857310924],[38.260397,47.8144],[38.261516,47.814735],[38.261804,47.814804],[38.262037,47.814825],[38.262141,47.814838],[38.262495,47.81408],[38.262334,47.813993],[38.262078,47.813803],[38.261435,47.813329],[38.26124184913793,47.813212],[38.261242,47.813212],[38.260959,47.81304],[38.260407,47.812575]],[[38.261812,47.814005],[38.261839,47.814011],[38.261835,47.814029],[38.261804,47.814026],[38.261812,47.814005]],[[38.261691,47.814449],[38.261722,47.814451],[38.261714,47.814473],[38.261687,47.814467],[38.261691,47.814449]]]}},{"type":"Feature","properties":{"cadnum":"1420655600:01:000:0339"},"geometry":{"type":"Polygon","coordinates":[[[38.501236,47.835078],[38.500742,47.835229],[38.500855,47.835341],[38.50085557746479,47.835341],[38.500886,47.835371],[38.501317,47.835236],[38.501312,47.835226],[38.50131187341772,47.835226],[38.501236,47.835078]]]}},{"type":"Feature","properties":{"cadnum":"1420655600:01:000:0341"},"geometry":{"type":"Polygon","coordinates":[[[38.500608,47.8351],[38.501151,47.834901],[38.501084,47.834759],[38.50045,47.834943],[38.500608,47.8351]]]}},{"type":"Feature","properties":{"cadnum":"1420655600:01:000:0299"},"geometry":{"type":"Polygon","coordinates":[[[38.295629,47.805613],[38.295423,47.8057],[38.295438850746265,47.805718],[38.295438,47.805718],[38.295509704348,47.80579846086976],[38.295541,47.805834],[38.295541375770014,47.805834],[38.295872,47.806205],[38.296083,47.80612],[38.29582688059702,47.805834],[38.295827,47.805834],[38.295629,47.805613]]]}},{"type":"Feature","properties":{"cadnum":"1420655600:02:000:0053"},"geometry":{"type":"Polygon","coordinates":[[[38.292933,47.804384],[38.292933,47.804383125],[38.293721,47.804063],[38.29286081916659,47.804168730560775],[38.292346,47.804231],[38.287439,47.804632025009845],[38.287439,47.804632],[38.283871,47.804922],[38.28418,47.805553],[38.284213,47.805613],[38.28426526244344,47.805718],[38.284265,47.805718],[38.285173,47.807538],[38.286786,47.806883],[38.28684,47.806859],[38.287268,47.80668537061769],[38.287268,47.806686],[38.28936015289256,47.805834],[38.289361,47.805834],[38.292683,47.804484],[38.292761,47.8044528],[38.292761,47.804453],[38.29279300000033,47.80443999999987],[38.292933,47.804384]]]}},{"type":"Feature","properties":{"cadnum":"1420655600:01:000:0358"},"geometry":{"type":"Polygon","coordinates":[[[38.296941,47.804575],[38.297664,47.804244],[38.297593,47.804135],[38.29713,47.804238],[38.296712,47.80434],[38.296941,47.804575]]]}},{"type":"Feature","properties":{"cadnum":"1420655600:01:000:0419"},"geometry":{"type":"Polygon","coordinates":[[[38.293285,47.804974],[38.293985,47.80469],[38.293834,47.804521],[38.293123,47.804819],[38.293268,47.804967],[38.293285,47.804974]]]}},{"type":"Feature","properties":{"cadnum":"1420655600:01:000:0360"},"geometry":{"type":"Polygon","coordinates":[[[38.296712,47.80434],[38.29713,47.804238],[38.297593,47.804135],[38.297516,47.804021],[38.296528,47.804104],[38.296712,47.80434]]]}},{"type":"Feature","properties":{"cadnum":"1420655600:01:000:0309"},"geometry":{"type":"Polygon","coordinates":[[[38.292396,47.810292],[38.292792,47.810126],[38.292625,47.809936],[38.292207,47.810099],[38.292396,47.810292]]]}},{"type":"Feature","properties":{"cadnum":"1420655600:02:000:0047"},"geometry":{"type":"Polygon","coordinates":[[[38.288291,47.812204],[38.288561,47.812084],[38.288322,47.811822],[38.288048,47.811981],[38.288291,47.812204]]]}},{"type":"Feature","properties":{"cadnum":"1420655600:02:000:0044"},"geometry":{"type":"Polygon","coordinates":[[[38.289094,47.812804],[38.289161,47.812777],[38.289238,47.81275],[38.289243,47.81275],[38.289188,47.812687],[38.289041,47.812741],[38.289071,47.812777],[38.289094,47.812804]]]}},{"type":"Feature","properties":{"cadnum":"1420655600:01:000:0350"},"geometry":{"type":"Polygon","coordinates":[[[38.289063,47.81006],[38.289417,47.809906],[38.28932,47.8098],[38.288964,47.809948],[38.289063,47.81006]]]}},{"type":"Feature","properties":{"cadnum":"1420655600:01:000:0342"},"geometry":{"type":"Polygon","coordinates":[[[38.288614,47.810983],[38.288901,47.81085],[38.288677,47.810624],[38.288421,47.810735],[38.288614,47.810983]]]}},{"type":"Feature","properties":{"cadnum":"1420655600:01:000:0347"},"geometry":{"type":"Polygon","coordinates":[[[38.288861,47.813097],[38.289126,47.812982],[38.288905,47.812768],[38.288811,47.812665],[38.288561,47.812756],[38.288861,47.813097]]]}},{"type":"Feature","properties":{"cadnum":"1420655600:01:000:0400"},"geometry":{"type":"Polygon","coordinates":[[[38.29288687412623,47.81060031468517],[38.292933,47.810582],[38.292933,47.81058174133333],[38.293136,47.8105],[38.292935,47.810277],[38.29280156081072,47.81033528378382],[38.292536,47.810449],[38.29258,47.810503],[38.292729,47.810663],[38.292761,47.81065029411764],[38.292761,47.810651],[38.29288687412623,47.81060031468517]]]}},{"type":"Feature","properties":{"cadnum":"1420655600:01:000:0298"},"geometry":{"type":"Polygon","coordinates":[[[38.289939,47.810735],[38.290168,47.810621],[38.28988,47.810344],[38.289656,47.810443],[38.289939,47.810735]]]}},{"type":"Feature","properties":{"cadnum":"1420655600:01:000:0300"},"geometry":{"type":"Polygon","coordinates":[[[38.288691,47.811559],[38.289,47.811447],[38.288838,47.811278],[38.288767,47.811206],[38.288528,47.811296],[38.288555,47.81133],[38.288524,47.811344],[38.288691,47.811559]]]}},{"type":"Feature","properties":{"cadnum":"1420655600:01:000:0385"},"geometry":{"type":"Polygon","coordinates":[[[38.288874,47.813085],[38.289126,47.812982],[38.288905,47.812768],[38.288735,47.812584],[38.288622,47.812642],[38.288784,47.812801],[38.288817,47.813001],[38.288874,47.813085]]]}},{"type":"Feature","properties":{"cadnum":"1420655600:01:000:0379"},"geometry":{"type":"Polygon","coordinates":[[[38.289171,47.812892],[38.289314,47.812835],[38.289243,47.81275],[38.289238,47.81275],[38.289161,47.812777],[38.289094,47.812804],[38.289157,47.812877],[38.289171,47.812892]]]}},{"type":"Feature","properties":{"cadnum":"1420655600:02:000:0032"},"geometry":{"type":"Polygon","coordinates":[[[38.292499,47.811308],[38.292576,47.81126],[38.292584,47.811254],[38.292819,47.811097],[38.292723,47.810814],[38.292194,47.811019],[38.292499,47.811308]]]}},{"type":"Feature","properties":{"cadnum":"1420655600:03:000:0012"},"geometry":{"type":"Polygon","coordinates":[[[38.291578,47.810992],[38.291767,47.810901],[38.291272,47.810464],[38.291102,47.810548],[38.291341,47.810778],[38.291461,47.810892],[38.291578,47.810992]]]}},{"type":"Feature","properties":{"cadnum":"1420655600:01:000:0377"},"geometry":{"type":"Polygon","coordinates":[[[38.287522,47.812403],[38.28758,47.812364],[38.287698,47.812283],[38.28772,47.812265],[38.287463,47.812093],[38.287400997573165,47.8121362427182],[38.287132,47.812322],[38.287146,47.812331],[38.287262,47.812421],[38.287266,47.812421],[38.287387,47.8125],[38.287439,47.812463],[38.287439,47.812462637037044],[38.287522,47.812403]]]}},{"type":"Feature","properties":{"cadnum":"1420655600:01:000:0270"},"geometry":{"type":"Polygon","coordinates":[[[38.288905,47.812768],[38.289157,47.812663],[38.288915,47.812397],[38.288848,47.812428],[38.288664,47.812503],[38.288811,47.812665],[38.288905,47.812768]]]}},{"type":"Feature","properties":{"cadnum":"1420655600:01:000:0310"},"geometry":{"type":"Polygon","coordinates":[[[38.29201,47.809411],[38.292017,47.809408],[38.292016562499995,47.809408],[38.29236,47.809251],[38.292342,47.809236],[38.292207,47.809101],[38.291861,47.809251],[38.291983,47.809384],[38.291676,47.809523],[38.29167800000001,47.809523],[38.291645,47.809538],[38.29174,47.809637],[38.292077,47.809486],[38.29201,47.809411]]]}},{"type":"Feature","properties":{"cadnum":"1420655600:01:000:0297"},"geometry":{"type":"Polygon","coordinates":[[[38.28949,47.810518],[38.289656,47.810443],[38.28988,47.810344],[38.289727,47.810195],[38.28936,47.810385],[38.28949,47.810518]]]}},{"type":"Feature","properties":{"cadnum":"1420655600:01:000:0311"},"geometry":{"type":"Polygon","coordinates":[[[38.29006,47.807912],[38.290425,47.807758],[38.290245,47.807577],[38.289899,47.807749],[38.29006,47.807912]]]}},{"type":"Feature","properties":{"cadnum":"1420655600:01:000:0376"},"geometry":{"type":"Polygon","coordinates":[[[38.29187,47.808624],[38.29223,47.808467],[38.29201,47.80824],[38.29165,47.808401],[38.29187,47.808624]]]}},{"type":"Feature","properties":{"cadnum":"1420655600:01:000:0409"},"geometry":{"type":"Polygon","coordinates":[[[38.289071,47.809318],[38.289463,47.809148],[38.289409,47.809101],[38.289383,47.809076],[38.288995,47.809245],[38.289071,47.809318]]]}},{"type":"Feature","properties":{"cadnum":"1420655600:01:000:0321"},"geometry":{"type":"Polygon","coordinates":[[[38.293033,47.807661],[38.292872,47.807728],[38.293025,47.807909],[38.292912,47.807963],[38.292647,47.808077],[38.292761,47.80820197777777],[38.292761,47.808203],[38.292782,47.808225],[38.292933,47.808161],[38.292933,47.80816047935368],[38.293339,47.807987],[38.293033,47.807661]]]}},{"type":"Feature","properties":{"cadnum":"1420655600:01:000:0290"},"geometry":{"type":"Polygon","coordinates":[[[38.287863,47.807614],[38.287576,47.80733],[38.28736108955254,47.80742838432822],[38.287199,47.807502],[38.287439,47.807732],[38.287439,47.80773136607143],[38.287492,47.807782],[38.287863,47.807614]]]}},{"type":"Feature","properties":{"cadnum":"1420655600:01:000:0323"},"geometry":{"type":"Polygon","coordinates":[[[38.293033,47.806069],[38.292933,47.805948230769225],[38.292933,47.805948],[38.292903,47.805912],[38.292033,47.806304],[38.292184,47.80644],[38.292761,47.80618809212283],[38.292761,47.806189],[38.293033,47.806069]]]}},{"type":"Feature","properties":{"cadnum":"1420655600:01:000:0388"},"geometry":{"type":"Polygon","coordinates":[[[38.288416,47.808153],[38.288758,47.807987],[38.288595,47.807831],[38.288255,47.807996],[38.288308,47.808048],[38.288416,47.808153]]]}},{"type":"Feature","properties":{"cadnum":"1420655600:01:000:0394"},"geometry":{"type":"Polygon","coordinates":[[[38.288475,47.807553],[38.28878,47.807415],[38.288565,47.807221],[38.288326,47.80701],[38.288048,47.807136],[38.288475,47.807553]]]}},{"type":"Feature","properties":{"cadnum":"1420655600:01:000:0328"},"geometry":{"type":"Polygon","coordinates":[[[38.288754,47.808452],[38.289085,47.808319],[38.288852,47.808084],[38.288502,47.808231],[38.288754,47.808452]]]}},{"type":"Feature","properties":{"cadnum":"1420655600:01:000:0291"},"geometry":{"type":"Polygon","coordinates":[[[38.290307,47.806521],[38.29046,47.806436],[38.290289,47.806283],[38.290559,47.806147],[38.29037,47.805957],[38.289912,47.806192],[38.290307,47.806521]]]}},{"type":"Feature","properties":{"cadnum":"1420655600:03:000:0018"},"geometry":{"type":"Polygon","coordinates":[[[38.261376,47.812057],[38.2625,47.812946],[38.26245515413534,47.813097],[38.262455,47.813097],[38.262440458127976,47.813146482758974],[38.262421,47.813212],[38.26242120408163,47.813212],[38.262383,47.813342],[38.263523,47.814093],[38.265295,47.81332549794239],[38.265295,47.813326],[38.265821,47.813097],[38.26582067771085,47.813097],[38.266322,47.81288],[38.265295,47.81252],[38.265295,47.81252080846179],[38.262418,47.811514],[38.261376,47.812057]]]}},{"type":"Feature","properties":{"cadnum":"1420655600:03:000:0002"},"geometry":{"type":"Polygon","coordinates":[[[38.269812,47.812636],[38.268101,47.812174],[38.26807,47.812165],[38.266017,47.813055],[38.266049,47.813061],[38.2662173178808,47.813097],[38.266216,47.813097],[38.267643,47.813402],[38.268507,47.813097],[38.268505833333336,47.813097],[38.269812,47.812636]]]}},{"type":"Feature","properties":{"cadnum":"1420655600:01:000:0406"},"geometry":{"type":"Polygon","coordinates":[[[38.276453,47.81088953665689],[38.276453,47.810889],[38.275687,47.810615],[38.27096,47.81229487487242],[38.27096,47.812294],[38.268374,47.813212],[38.268375037818814,47.813212],[38.265496,47.814234],[38.266412,47.814259],[38.269997,47.813097],[38.26999550351288,47.813097],[38.270788,47.81284063939394],[38.270788,47.812841],[38.276281,47.81106074439541],[38.276281,47.811061],[38.276622,47.81095],[38.276453,47.81088953665689]]]}},{"type":"Feature","properties":{"cadnum":"1420655600:02:000:0037"},"geometry":{"type":"Polygon","coordinates":[[[38.268271,47.815377],[38.268299,47.815272],[38.268307,47.815238],[38.268307,47.815236],[38.268317,47.815196],[38.268236,47.815184],[38.268276,47.815021],[38.268294,47.814967],[38.26842,47.814557],[38.268506,47.814563],[38.268554,47.814367],[38.26829,47.814337],[38.26824,47.814331],[38.267967,47.814297],[38.267697,47.81532],[38.268271,47.815377]]]}},{"type":"Feature","properties":{"cadnum":"1420655600:02:000:0030"},"geometry":{"type":"Polygon","coordinates":[[[38.275094,47.812392],[38.27433,47.811813],[38.271542,47.812726],[38.27096,47.812964511936336],[38.27096,47.812964],[38.27063500806452,47.813097],[38.270635,47.813097],[38.27062601135873,47.81310068182019],[38.270354,47.813212],[38.27035424382716,47.813212],[38.269053,47.813745],[38.268963,47.813779],[38.268644,47.814331],[38.268532,47.815236],[38.270788,47.81549988138386],[38.270788,47.815501],[38.271573,47.815592],[38.271752,47.81415],[38.273513,47.814306],[38.274062,47.81431],[38.274282,47.814391],[38.274056,47.814418],[38.273702,47.815851],[38.273764,47.81586],[38.276281,47.8161398746746],[38.276281,47.81614],[38.27637713479483,47.81615056426317],[38.276453,47.816159],[38.276453,47.816158901098895],[38.276918,47.81621],[38.277511,47.814738],[38.277538,47.814668],[38.277681,47.814288],[38.27639387605334,47.81322244524702],[38.2763814137931,47.813212],[38.276382,47.813212],[38.27628,47.813127],[38.275094,47.812392]]]}},{"type":"Feature","properties":{"cadnum":"1420655600:02:000:0036"},"geometry":{"type":"Polygon","coordinates":[[[38.262433,47.812962],[38.261839,47.812452],[38.261103,47.811896],[38.260389,47.812258],[38.260366,47.81224],[38.260281,47.812283],[38.261332604883464,47.813097],[38.261331,47.813097],[38.261445,47.813184],[38.26148,47.813212],[38.261480682051285,47.813212],[38.261942,47.813574],[38.262518,47.814014],[38.262774,47.814186],[38.263093,47.814331],[38.263385,47.814442],[38.264049,47.814654],[38.265295,47.81496300072939],[38.265295,47.814964],[38.26542,47.814994],[38.265467,47.815006],[38.265467,47.815005463414636],[38.266322,47.815214],[38.266533,47.815263],[38.267099,47.815368],[38.267112,47.815338],[38.266672,47.815254],[38.265986,47.815079],[38.265523,47.814922],[38.26541904597677,47.814895555555495],[38.264126,47.81456],[38.263456,47.814388],[38.26316,47.814286],[38.262854,47.81415],[38.262617,47.813996],[38.262024,47.813537],[38.262221,47.81342],[38.26321,47.814089],[38.26369,47.814279],[38.265055,47.81431],[38.26506,47.814261],[38.263699,47.814216],[38.263259,47.814029],[38.262324,47.813354],[38.262396,47.813097],[38.2623952,47.813097],[38.262433,47.812962]]]}},{"type":"Feature","properties":{"cadnum":"1420655600:03:000:0001"},"geometry":{"type":"Polygon","coordinates":[[[38.266049,47.813061],[38.266017,47.813055],[38.265919356687895,47.813097],[38.265917,47.813097],[38.26566014732148,47.81320849553569],[38.265652,47.813212],[38.265652074074076,47.813212],[38.265467,47.81329233762058],[38.265467,47.813292],[38.26356,47.814116],[38.263582,47.814125],[38.263726,47.814186],[38.265361,47.814232],[38.265467,47.814194],[38.265467,47.81419344609991],[38.267643,47.813402],[38.26675404918033,47.813212],[38.266755,47.813212],[38.266049,47.813061]]]}},{"type":"Feature","properties":{"cadnum":"1420655600:02:000:0051"},"geometry":{"type":"Polygon","coordinates":[[[38.266385,47.815073],[38.266426,47.814889],[38.266232,47.814867],[38.266192,47.815052],[38.266385,47.815073]]]}},{"type":"Feature","properties":{"cadnum":"1420655600:01:000:0398"},"geometry":{"type":"Polygon","coordinates":[[[38.277102,47.812337],[38.277525,47.812095],[38.277353,47.811966],[38.276945,47.812207],[38.277102,47.812337]]]}},{"type":"Feature","properties":{"cadnum":"1420655600:00:001:0015"},"geometry":{"type":"Polygon","coordinates":[[[38.280624,47.809342],[38.28034859405989,47.80945131683149],[38.280016,47.809583],[38.280188,47.809837],[38.280834,47.809568],[38.28074051162792,47.80946827906978],[38.280624,47.809342]]]}},{"type":"Feature","properties":{"cadnum":"1420655600:01:000:0415"},"geometry":{"type":"Polygon","coordinates":[[[38.279855,47.812111],[38.280179,47.811942],[38.280142,47.811914],[38.280022,47.811824],[38.27999,47.8118],[38.279672,47.811969],[38.279855,47.812111]]]}},{"type":"Feature","properties":{"cadnum":"1420655600:01:000:0393"},"geometry":{"type":"Polygon","coordinates":[[[38.27689,47.812919],[38.276702,47.812781],[38.276293,47.813034],[38.276379115107915,47.813097],[38.276379,47.813097],[38.276483,47.813173],[38.27689,47.812919]]]}},{"type":"Feature","properties":{"cadnum":"1420655600:01:000:0386"},"geometry":{"type":"Polygon","coordinates":[[[38.279595,47.810756],[38.279739,47.810666],[38.279752,47.810675],[38.279792,47.810708],[38.279806,47.810717],[38.280175,47.810515],[38.279968,47.810322],[38.279846,47.81038],[38.279487,47.810675],[38.279595,47.810756]]]}},{"type":"Feature","properties":{"cadnum":"1420655600:01:000:0387"},"geometry":{"type":"Polygon","coordinates":[[[38.281121,47.81123],[38.28163,47.810964],[38.281463,47.810838],[38.280964,47.811109],[38.281121,47.81123]]]}},{"type":"Feature","properties":{"cadnum":"1420655600:01:000:0384"},"geometry":{"type":"Polygon","coordinates":[[[38.27676,47.81044],[38.277179,47.810289],[38.277012,47.810145],[38.276554,47.810268],[38.276453,47.81030240659341],[38.276453,47.810302],[38.276181,47.810394],[38.276281,47.81045172058823],[38.276281,47.810453],[38.276392334552256,47.81051598354671],[38.276453,47.810551],[38.276453,47.81055030285714],[38.276456,47.810552],[38.27676,47.81044]]]}},{"type":"Feature","properties":{"cadnum":"1420655600:01:000:0397"},"geometry":{"type":"Polygon","coordinates":[[[38.279653,47.810802],[38.279806,47.810717],[38.279792,47.810708],[38.279752,47.810675],[38.279739,47.810666],[38.279595,47.810756],[38.279653,47.810802]]]}},{"type":"Feature","properties":{"cadnum":"1420655600:01:000:0390"},"geometry":{"type":"Polygon","coordinates":[[[38.281946,47.81292766990291],[38.282029,47.813001],[38.282299,47.812837],[38.281872,47.812475],[38.281603,47.812636],[38.281775,47.81278190712075],[38.281775,47.812782],[38.281926,47.81291],[38.281946,47.812928],[38.281946,47.81292766990291]]]}},{"type":"Feature","properties":{"cadnum":"1420655600:01:000:0312"},"geometry":{"type":"Polygon","coordinates":[[[38.293784,47.809287],[38.294264,47.809076],[38.294102,47.808902],[38.293622,47.809112],[38.293784,47.809287]]]}},{"type":"Feature","properties":{"cadnum":"1420655600:01:000:0331"},"geometry":{"type":"Polygon","coordinates":[[[38.295882,47.808168],[38.296285,47.807836],[38.296151,47.807734],[38.296043,47.807806],[38.296043,47.807818],[38.295945,47.807878],[38.295836,47.807942],[38.295679,47.807833],[38.295585,47.807878],[38.295882,47.808168]]]}},{"type":"Feature","properties":{"cadnum":"1420655600:01:000:0332"},"geometry":{"type":"Polygon","coordinates":[[[38.295815,47.807387],[38.296021,47.80729],[38.296056,47.807275],[38.296052,47.807272],[38.296186,47.807209],[38.295985,47.807006],[38.295566,47.807188],[38.295815,47.807387]]]}},{"type":"Feature","properties":{"cadnum":"1420655600:01:000:0320"},"geometry":{"type":"Polygon","coordinates":[[[38.293712,47.808394],[38.293909,47.808319],[38.293641,47.807994],[38.293406,47.80809],[38.293541,47.808222],[38.293712,47.808394]]]}},{"type":"Feature","properties":{"cadnum":"1420655600:02:000:0031"},"geometry":{"type":"Polygon","coordinates":[[[38.298426,47.80876],[38.298426,47.808759779411766],[38.298526,47.808705],[38.298585,47.808672],[38.298576,47.808651],[38.298426,47.80849447826087],[38.298426,47.808494],[38.29766,47.807695],[38.297117,47.808014],[38.296677,47.807655],[38.296254,47.807972],[38.29558,47.808485],[38.295532,47.808521],[38.295167,47.808712],[38.29509,47.808705],[38.295033,47.808739],[38.295023,47.80879],[38.294633,47.808971],[38.294723,47.809043],[38.29444164583334,47.809408],[38.294441,47.809408],[38.294157,47.809779],[38.294327,47.810011],[38.294345,47.810047],[38.294318,47.810087],[38.294098,47.810228],[38.293869,47.810364],[38.293599,47.810512],[38.293438,47.81059],[38.293469,47.810612],[38.293406,47.810648],[38.293515,47.810724],[38.293446,47.810771],[38.293415,47.810883],[38.293465,47.810916],[38.293329,47.811006],[38.293375,47.811037],[38.293343,47.811058],[38.293384,47.811085],[38.293415,47.811067],[38.293551,47.811158],[38.293757,47.811305],[38.293932,47.811191],[38.293945,47.811197],[38.294157,47.810992],[38.294673,47.810328],[38.294857,47.810084],[38.295253,47.809574],[38.29531190039825,47.80949761354602],[38.295477,47.809287],[38.295675,47.809028],[38.295773,47.808898],[38.295849,47.808802],[38.296079,47.808503],[38.2966,47.807882],[38.296645,47.807896],[38.296124,47.808515],[38.295895,47.808817],[38.295819,47.808913],[38.295346,47.809523],[38.295347685082874,47.809523],[38.295297,47.809589],[38.294201,47.811004],[38.294161,47.811058],[38.29413,47.811082],[38.293981,47.811215],[38.293991,47.811221],[38.295086,47.810512],[38.295629,47.810219],[38.297221,47.809408],[38.29722095477387,47.809408],[38.297386,47.809324],[38.298254,47.808853276923074],[38.298254,47.808854],[38.29838579381472,47.808781804123555],[38.298426,47.80876]]]}},{"type":"Feature","properties":{"cadnum":"1420655600:01:000:0389"},"geometry":{"type":"Polygon","coordinates":[[[38.293352,47.808817],[38.294085,47.808482],[38.293964,47.808349],[38.293771,47.808431],[38.293222,47.808678],[38.293352,47.808817]]]}},{"type":"Feature","properties":{"cadnum":"1420655600:01:000:0414"},"geometry":{"type":"Polygon","coordinates":[[[38.296501,47.807161],[38.296937,47.806997],[38.296685,47.806715],[38.296232,47.806883],[38.296501,47.807161]]]}},{"type":"Feature","properties":{"cadnum":"1420655600:03:000:0008"},"geometry":{"type":"Polygon","coordinates":[[[38.270576,47.808799],[38.268789,47.808171],[38.267351,47.808938],[38.268697529914526,47.809408],[38.268697,47.809408],[38.268991034334434,47.809510446351815],[38.269027,47.809523],[38.26902706493507,47.809523],[38.269139,47.809562],[38.269428,47.809408],[38.26942781629835,47.809408],[38.270576,47.808799]]]}},{"type":"Feature","properties":{"cadnum":"1420655600:03:000:0007"},"geometry":{"type":"Polygon","coordinates":[[[38.269211,47.809523],[38.26921218831169,47.809523],[38.269139,47.809562],[38.270788,47.8101415990099],[38.270788,47.810143],[38.270957,47.810201],[38.27096,47.8102],[38.27096,47.81019940376569],[38.272391,47.809438],[38.270788,47.808874],[38.270788,47.808874083333336],[38.270576,47.808799],[38.269211,47.809523]]]}},{"type":"Feature","properties":{"cadnum":"1420655600:03:000:0021"},"geometry":{"type":"Polygon","coordinates":[[[38.267351,47.808938],[38.266228,47.809523],[38.26622952857143,47.809523],[38.265779,47.809758],[38.270064,47.81126],[38.270788,47.81094648214286],[38.270788,47.810947],[38.271815,47.8105],[38.270957,47.810201],[38.269139,47.809562],[38.268991034334434,47.809510446351815],[38.267351,47.808938]]]}},{"type":"Feature","properties":{"cadnum":"1420655600:01:000:0404"},"geometry":{"type":"Polygon","coordinates":[[[38.292933,47.81634334924078],[38.292933,47.816343],[38.29161204032591,47.81686724999868],[38.291035,47.817096],[38.292761,47.818871945464664],[38.292761,47.818872],[38.292832,47.818945],[38.292933,47.818899],[38.292933,47.8188986837232],[38.294884,47.818004],[38.29385072988506,47.816901],[38.293851,47.816901],[38.293222,47.816228],[38.292933,47.81634334924078]]]}},{"type":"Feature","properties":{"cadnum":"1420655600:01:000:0324"},"geometry":{"type":"Polygon","coordinates":[[[38.290716,47.815637],[38.290958,47.815525],[38.29059,47.815293],[38.290366,47.815392],[38.290716,47.815637]]]}},{"type":"Feature","properties":{"cadnum":"1420655600:01:000:0325"},"geometry":{"type":"Polygon","coordinates":[[[38.290132,47.814983],[38.290316,47.81491],[38.290366,47.814876],[38.290266,47.814793],[38.2898,47.814382],[38.289566,47.814473],[38.290132,47.814983]]]}},{"type":"Feature","properties":{"cadnum":"1420655600:01:000:0408"},"geometry":{"type":"Polygon","coordinates":[[[38.291897,47.814132],[38.292067,47.814056],[38.291381,47.81358],[38.291201,47.813655],[38.291897,47.814132]]]}},{"type":"Feature","properties":{"cadnum":"1420655600:01:000:0327"},"geometry":{"type":"Polygon","coordinates":[[[38.290366,47.815284],[38.290595,47.815184],[38.290532,47.815112],[38.290519,47.815118],[38.290478,47.815073],[38.290316,47.81491],[38.290132,47.814983],[38.290083,47.815006],[38.290366,47.815284]]]}},{"type":"Feature","properties":{"cadnum":"1420655600:02:000:0042"},"geometry":{"type":"Polygon","coordinates":[[[38.277789,47.816602],[38.277219,47.81653],[38.277188,47.816638],[38.277152,47.816762],[38.277144615384614,47.816786],[38.277144,47.816786],[38.277116,47.816879],[38.277263,47.816901],[38.27726585882354,47.816901],[38.277695,47.816964],[38.27771092696629,47.816901],[38.277711,47.816901],[38.277789,47.816602]]]}},{"type":"Feature","properties":{"cadnum":"1420655600:02:000:0034"},"geometry":{"type":"Polygon","coordinates":[[[38.279033,47.816892],[38.279626,47.816596],[38.279582,47.816472],[38.278989,47.816533],[38.278728,47.816572],[38.278328,47.816605],[38.278428,47.816901],[38.27842938976378,47.816901],[38.278477,47.81704],[38.278557,47.817036],[38.278728,47.817006],[38.279008921052636,47.816901],[38.279009,47.816901],[38.279033,47.816892]],[[38.278508,47.816888],[38.278521,47.816883],[38.278534,47.816892],[38.278521,47.816897],[38.278508,47.816888]],[[38.278364,47.816614],[38.278378,47.816605],[38.278391,47.816614],[38.278378,47.816624],[38.278364,47.816614]]]}},{"type":"Feature","properties":{"cadnum":"1420655600:02:000:0043"},"geometry":{"type":"Polygon","coordinates":[[[38.278284,47.816674],[38.277924,47.816624],[38.277844,47.816873],[38.277982,47.816892],[38.277978,47.816901],[38.277979073170734,47.816901],[38.277942,47.817015],[38.278045,47.817031],[38.278085,47.816906],[38.278202,47.816924],[38.278218530386845,47.8168721546958],[38.278284,47.816674]]]}},{"type":"Feature","properties":{"cadnum":"1420655600:01:000:0318"},"geometry":{"type":"Polygon","coordinates":[[[38.285389,47.818478],[38.285662,47.818366],[38.285353,47.817974],[38.285062,47.818068],[38.285389,47.818478]]]}},{"type":"Feature","properties":{"cadnum":"1420655600:01:000:0391"},"geometry":{"type":"Polygon","coordinates":[[[38.287379,47.820261],[38.287333,47.819968],[38.286926,47.819995],[38.286979,47.820288],[38.287268,47.8202684925],[38.287268,47.820269],[38.287379,47.820261]]]}},{"type":"Feature","properties":{"cadnum":"1420655600:01:000:0405"},"geometry":{"type":"Polygon","coordinates":[[[38.295872,47.816367],[38.295715,47.816376],[38.295558,47.815812],[38.293285,47.816204],[38.293828589670014,47.816786],[38.293828,47.816786],[38.294903,47.817935],[38.295966,47.817974],[38.29590277609427,47.816901],[38.295903,47.816901],[38.295872,47.816367]]]}},{"type":"Feature","properties":{"cadnum":"1420655600:00:001:0153"},"geometry":{"type":"Polygon","coordinates":[[[38.296317,47.815459],[38.296317,47.815401],[38.296232,47.815401],[38.296232,47.815459],[38.296317,47.815459]]]}},{"type":"Feature","properties":{"cadnum":"1420655600:00:001:0155"},"geometry":{"type":"Polygon","coordinates":[[[38.296492,47.816144],[38.296492,47.816072],[38.296385,47.816072],[38.296385,47.816144],[38.296492,47.816144]]]}},{"type":"Feature","properties":{"cadnum":"1420655600:01:000:0349"},"geometry":{"type":"Polygon","coordinates":[[[38.293641,47.813818],[38.293869,47.813718],[38.293482,47.813372],[38.293419,47.813399],[38.293262,47.813465],[38.293641,47.813818]]]}},{"type":"Feature","properties":{"cadnum":"1420655600:01:000:0289"},"geometry":{"type":"Polygon","coordinates":[[[38.290249,47.820055],[38.290563,47.820034],[38.290505,47.819579],[38.290182,47.81963],[38.290249,47.820055]]]}},{"type":"Feature","properties":{"cadnum":"1420655600:01:000:0314"},"geometry":{"type":"Polygon","coordinates":[[[38.290505,47.819579],[38.290824,47.81953],[38.291004,47.819503],[38.290941,47.819241],[38.290425,47.81928],[38.290429,47.819295],[38.290505,47.819579]]]}},{"type":"Feature","properties":{"cadnum":"1420655600:01:000:0344"},"geometry":{"type":"Polygon","coordinates":[[[38.289966,47.819654],[38.290182,47.81963],[38.290505,47.819579],[38.290429,47.819295],[38.28989,47.819338],[38.289966,47.819654]]]}},{"type":"Feature","properties":{"cadnum":"1420655600:01:000:0285"},"geometry":{"type":"Polygon","coordinates":[[[38.293128,47.819877],[38.293069,47.819416],[38.292809,47.819434],[38.292849,47.819886],[38.292933,47.819881],[38.292933,47.81988],[38.292975,47.819877],[38.292979,47.819886],[38.293128,47.819877]]]}},{"type":"Feature","properties":{"cadnum":"1420655600:01:000:0346"},"geometry":{"type":"Polygon","coordinates":[[[38.2917,47.819968],[38.291974,47.81995],[38.291964,47.819886],[38.291947,47.81989],[38.29188,47.819425],[38.291645,47.81944],[38.2917,47.819968]]]}},{"type":"Feature","properties":{"cadnum":"1420655600:01:000:0287"},"geometry":{"type":"Polygon","coordinates":[[[38.28992,47.82008],[38.290249,47.820055],[38.290182,47.81963],[38.289966,47.819654],[38.289867,47.819669],[38.28992,47.82008]]]}},{"type":"Feature","properties":{"cadnum":"1420655600:01:000:0313"},"geometry":{"type":"Polygon","coordinates":[[[38.289444,47.8197],[38.289872,47.819673],[38.28997,47.819657],[38.289899,47.81934],[38.289894,47.819331],[38.289413,47.819367],[38.289444,47.8197]]]}},{"type":"Feature","properties":{"cadnum":"1420655600:01:000:0326"},"geometry":{"type":"Polygon","coordinates":[[[38.290914,47.82001],[38.291178,47.819995],[38.291111,47.819485],[38.291004,47.819503],[38.290824,47.81953],[38.290914,47.82001]]]}},{"type":"Feature","properties":{"cadnum":"1420655600:01:000:0296"},"geometry":{"type":"Polygon","coordinates":[[[38.288205,47.820197],[38.288601,47.82017],[38.288528,47.819763],[38.288146,47.819787],[38.288205,47.820197]]]}},{"type":"Feature","properties":{"cadnum":"1420655600:03:000:0009"},"geometry":{"type":"Polygon","coordinates":[[[38.252785,47.836088],[38.252736,47.836119],[38.253336,47.83655],[38.251791,47.83733],[38.25264,47.838012],[38.25130675053305,47.838913],[38.251306,47.838913],[38.251252,47.83895],[38.251294,47.838989],[38.252007,47.83964],[38.252048,47.839676],[38.253045,47.84059],[38.253086,47.840626],[38.254309,47.83999695337159],[38.254309,47.839997],[38.25436309809784,47.83996912816632],[38.25448,47.839909],[38.25448,47.83990889923954],[38.256413,47.838913],[38.256412918269234,47.838913],[38.256594,47.83882],[38.256648,47.838793],[38.258107,47.838043],[38.258062,47.838],[38.256921,47.837207],[38.256877,47.837177],[38.255789,47.836411],[38.255745,47.836378],[38.255296,47.836061],[38.254309,47.835365],[38.254309,47.83536583128834],[38.25427395670995,47.835341],[38.254274,47.835341],[38.254154,47.835256],[38.252785,47.836088]],[[38.256009,47.838995],[38.255945,47.839028],[38.25594614285714,47.839028],[38.255929,47.839037],[38.255852,47.838973],[38.255938,47.838932],[38.256009,47.838995]],[[38.256414,47.838696],[38.256468,47.838733],[38.256391,47.838783],[38.256342,47.838745],[38.256414,47.838696]]]}},{"type":"Feature","properties":{"cadnum":"1420655600:01:000:0381"},"geometry":{"type":"Polygon","coordinates":[[[38.301734,47.807326],[38.301819,47.80729],[38.301631,47.807058],[38.301595,47.807046],[38.301532,47.807067],[38.301734,47.807326]]]}},{"type":"Feature","properties":{"cadnum":"1420655600:01:000:0380"},"geometry":{"type":"Polygon","coordinates":[[[38.301276,47.807523],[38.301734,47.807326],[38.301532,47.807067],[38.301015,47.807233],[38.301235,47.807516],[38.301276,47.807523]]]}},{"type":"Feature","properties":{"cadnum":"1420655600:02:000:0040"},"geometry":{"type":"Polygon","coordinates":[[[38.307483,47.803034],[38.307757,47.803019],[38.30796,47.802997],[38.307927,47.802853],[38.307671,47.802847],[38.307447,47.802871],[38.30747,47.802979],[38.307483,47.803034]]]}},{"type":"Feature","properties":{"cadnum":"1420655600:01:000:0308"},"geometry":{"type":"Polygon","coordinates":[[[38.293069,47.810093],[38.293178,47.810042],[38.293352,47.809966],[38.293132,47.809722],[38.292859,47.809839],[38.293069,47.810093]]]}},{"type":"Feature","properties":{"cadnum":"1420655600:01:000:0307"},"geometry":{"type":"Polygon","coordinates":[[[38.293352,47.809966],[38.293891,47.809707],[38.293694,47.809483],[38.293132,47.809722],[38.293352,47.809966]]]}},{"type":"Feature","properties":{"cadnum":"1420655600:03:000:0019"},"geometry":{"type":"Polygon","coordinates":[[[38.265467,47.81258029211295],[38.266322,47.81288],[38.268236,47.81205],[38.265467,47.81108117953077],[38.265467,47.811081],[38.264135,47.810615],[38.262418,47.811514],[38.265467,47.812581],[38.265467,47.81258029211295]]]}},{"type":"Feature","properties":{"cadnum":"1420655600:03:000:0020"},"geometry":{"type":"Polygon","coordinates":[[[38.265467,47.809921],[38.264135,47.810615],[38.265295,47.81102082582583],[38.265295,47.811021],[38.268236,47.81205],[38.270064,47.81126],[38.265779,47.809758],[38.265467,47.80992109090909],[38.265467,47.809921]]]}},{"type":"Feature","properties":{"cadnum":"1420655600:03:000:0006"},"geometry":{"type":"Polygon","coordinates":[[[38.272231,47.809523],[38.27223124901704,47.809523],[38.270957,47.810201],[38.271869,47.810521],[38.272758,47.810832],[38.274192,47.810069],[38.272391,47.809438],[38.272231,47.809523]]]}},{"type":"Feature","properties":{"cadnum":"1420655600:03:000:0004"},"geometry":{"type":"Polygon","coordinates":[[[38.269857,47.811393],[38.269888,47.811402],[38.270788,47.811682410447766],[38.270788,47.811683],[38.271708,47.811969],[38.27341,47.811369],[38.271487,47.810711],[38.271456,47.810699],[38.270788,47.810989],[38.270788,47.81098953853128],[38.269857,47.811393]]]}},{"type":"Feature","properties":{"cadnum":"1420655600:03:000:0005"},"geometry":{"type":"Polygon","coordinates":[[[38.27341,47.811369],[38.275628,47.810584],[38.275131,47.8104],[38.274192,47.810069],[38.272758,47.810832],[38.271869,47.810521],[38.271456,47.810699],[38.271487,47.810711],[38.27341,47.811369]]]}},{"type":"Feature","properties":{"cadnum":"1420655600:03:000:0003"},"geometry":{"type":"Polygon","coordinates":[[[38.271708,47.811969],[38.27096,47.81173646956522],[38.27096,47.811736],[38.269888,47.811402],[38.269857,47.811393],[38.26807,47.812165],[38.268101,47.812174],[38.269812,47.812636],[38.27096,47.812233],[38.27096,47.81223242608695],[38.271708,47.811969]]]}},{"type":"Feature","properties":{"cadnum":"1420655600:02:000:0012"},"geometry":{"type":"Polygon","coordinates":[[[38.257258,47.814723],[38.257258,47.814648],[38.257146,47.81465],[38.257151,47.814723],[38.257258,47.814723]]]}},{"type":"Feature","properties":{"cadnum":"1420655600:02:000:0011"},"geometry":{"type":"Polygon","coordinates":[[[38.259886,47.815003],[38.259886,47.81494],[38.259797,47.81494],[38.259797,47.815003],[38.259886,47.815003]]]}},{"type":"Feature","properties":{"cadnum":"1420655600:01:000:0301"},"geometry":{"type":"Polygon","coordinates":[[[38.299425,47.805188],[38.300103,47.80504],[38.299991,47.804892],[38.299322,47.80504],[38.299425,47.805188]]]}},{"type":"Feature","properties":{"cadnum":"1420655600:01:002:0268"},"geometry":{"type":"Polygon","coordinates":[[[38.30004,47.803884],[38.30009,47.803869],[38.300086,47.80386],[38.300067,47.803833],[38.30005,47.803809],[38.29996,47.803818],[38.299991,47.803869],[38.300027,47.80386],[38.30004,47.803884]]]}},{"type":"Feature","properties":{"cadnum":"1420655600:01:000:0395"},"geometry":{"type":"Polygon","coordinates":[[[38.302377,47.804566],[38.303036,47.804392],[38.303027,47.804365],[38.302973,47.804258],[38.302308,47.804439],[38.302377,47.804566]]]}},{"type":"Feature","properties":{"cadnum":"1420655600:01:000:0354"},"geometry":{"type":"Polygon","coordinates":[[[38.299605,47.804383],[38.300301,47.804159],[38.300197,47.804008],[38.299753,47.804123],[38.299478,47.804195],[38.299533,47.804276],[38.299605,47.804383]]]}},{"type":"Feature","properties":{"cadnum":"1420655600:01:000:0410"},"geometry":{"type":"Polygon","coordinates":[[[38.298792,47.804316],[38.299241,47.804175],[38.299052,47.8039],[38.298562,47.803927],[38.298558,47.803975],[38.298792,47.804316]]]}},{"type":"Feature","properties":{"cadnum":"1420655600:02:000:0014"},"geometry":{"type":"Polygon","coordinates":[[[38.267697,47.811203],[38.267697,47.81114],[38.267607,47.81114],[38.267607,47.811203],[38.267697,47.811203]]]}},{"type":"Feature","properties":{"cadnum":"1420655600:02:000:0013"},"geometry":{"type":"Polygon","coordinates":[[[38.269098,47.812953],[38.269143,47.812886],[38.269043,47.812856],[38.268999,47.812922],[38.269098,47.812953]]]}},{"type":"Feature","properties":{"cadnum":"1420655600:01:000:0401"},"geometry":{"type":"MultiPolygon","coordinates":[[[[38.278431,47.816454],[38.279011,47.816409],[38.279469,47.816361],[38.279433,47.81621],[38.277529,47.816262],[38.277511,47.816183],[38.279446,47.81605],[38.279617,47.816032],[38.280314,47.815972],[38.280551,47.815947],[38.281804,47.815812],[38.281796,47.815784],[38.281756,47.815598],[38.281724,47.815477],[38.281431,47.815489],[38.281284,47.815495],[38.281221,47.815157],[38.281203,47.815057],[38.28118,47.814949],[38.281158,47.814834],[38.281158,47.81482],[38.281154,47.814798],[38.280718,47.81484],[38.280785,47.815028],[38.280597,47.815055],[38.280529,47.814862],[38.279693,47.81494],[38.279735,47.815124],[38.279442,47.815151],[38.279416,47.815028],[38.279402,47.81497],[38.279186,47.814992],[38.27849,47.815073],[38.278324,47.815091],[38.277649,47.815118],[38.277645,47.815148],[38.277735,47.815145],[38.277745,47.815193],[38.277749,47.81522],[38.277816,47.815256],[38.277871,47.815272],[38.278274,47.815245],[38.278297,47.815363],[38.278382,47.81535],[38.278395,47.815419],[38.278167,47.815441],[38.277932,47.815462],[38.277968,47.81573],[38.277745,47.815743],[38.277704,47.815462],[38.277614,47.815444],[38.277291,47.816409],[38.278431,47.816454]],[[38.280997,47.814838],[38.280991,47.814829],[38.281005,47.814825],[38.28101,47.814834],[38.280997,47.814838]],[[38.280486,47.814876],[38.280137,47.814992],[38.280138,47.814994],[38.280125,47.814997],[38.280125,47.814988],[38.280134,47.814985],[38.280486,47.814876]],[[38.280098,47.814958],[38.280093,47.814949],[38.280106,47.814946],[38.280112,47.814955],[38.280098,47.814958]],[[38.279617,47.81516],[38.279617,47.815151],[38.279676,47.815145],[38.27968,47.815154],[38.279617,47.81516]],[[38.280486,47.814876],[38.280484,47.81487],[38.280484,47.814867],[38.280498,47.814867],[38.280529,47.814862],[38.280499,47.814872],[38.280507,47.814907],[38.280494,47.814907],[38.280486,47.814876]]],[[[38.280498,47.814871],[38.280529,47.814862],[38.280498,47.814868],[38.280498,47.814871]]],[[[38.280486,47.814876],[38.280499,47.814872],[38.280498,47.814871],[38.280486,47.814876]]]]}},{"type":"Feature","properties":{"cadnum":"1420655600:01:000:0416"},"geometry":{"type":"Polygon","coordinates":[[[38.277871,47.815272],[38.278274,47.815245],[38.278251,47.815093],[38.277649,47.815118],[38.277645,47.815148],[38.277735,47.815145],[38.277745,47.815193],[38.277749,47.81522],[38.277816,47.815256],[38.277871,47.815272]]]}},{"type":"Feature","properties":{"cadnum":"1420655600:02:000:0033"},"geometry":{"type":"Polygon","coordinates":[[[38.277745,47.815743],[38.277968,47.81573],[38.277932,47.815462],[38.278167,47.815441],[38.278395,47.815419],[38.278382,47.81535],[38.278297,47.815363],[38.278274,47.815245],[38.277871,47.815272],[38.277816,47.815256],[38.277749,47.81522],[38.277745,47.815193],[38.277735,47.815145],[38.277645,47.815148],[38.277641,47.815175],[38.277636,47.815202],[38.277636,47.815227],[38.277632,47.815265],[38.277622,47.815335],[38.277614,47.815444],[38.277704,47.815462],[38.277745,47.815743]]]}},{"type":"Feature","properties":{"cadnum":"1420655600:01:000:0348"},"geometry":{"type":"Polygon","coordinates":[[[38.279442,47.815151],[38.279735,47.815124],[38.279716,47.815028],[38.279703,47.814979],[38.279693,47.81494],[38.279842,47.814916],[38.27981,47.81482],[38.279204,47.81488],[38.279182,47.814883],[38.279182,47.81491],[38.279402,47.81497],[38.279442,47.815151]]]}},{"type":"Feature","properties":{"cadnum":"1420655600:01:000:0402"},"geometry":{"type":"Polygon","coordinates":[[[38.280336,47.816083],[38.280578,47.816063],[38.280569,47.816038],[38.280331,47.816059],[38.280336,47.816083]]]}},{"type":"Feature","properties":{"cadnum":"1420655600:01:000:0403"},"geometry":{"type":"Polygon","coordinates":[[[38.279469,47.816162],[38.279645,47.816146],[38.279635,47.816123],[38.279465,47.816137],[38.279469,47.816162]]]}},{"type":"Feature","properties":{"cadnum":"1420655600:01:000:0417"},"geometry":{"type":"Polygon","coordinates":[[[38.2792,47.815057],[38.279416,47.815037],[38.279416,47.815028],[38.279402,47.81497],[38.279182,47.81491],[38.279186,47.814992],[38.2792,47.815057]]]}},{"type":"Feature","properties":{"cadnum":"1420655600:01:000:0282"},"geometry":{"type":"Polygon","coordinates":[[[38.28184387499997,47.815898062500004],[38.281946,47.81589],[38.281946,47.815889258620686],[38.282007,47.815884],[38.282003,47.815851],[38.281946,47.8158564],[38.281946,47.815856],[38.281813,47.815869],[38.28175,47.815875],[38.281756,47.815905],[38.281775,47.8159035],[38.281775,47.815904],[38.28184387499997,47.815898062500004]]]}},{"type":"Feature","properties":{"cadnum":"1420655600:01:000:0283"},"geometry":{"type":"Polygon","coordinates":[[[38.281833333339556,47.81595352380894],[38.281946,47.815943],[38.281946,47.815942946938776],[38.28202,47.815936],[38.282016,47.81592],[38.282016,47.815914],[38.281866872927196,47.81592823204429],[38.28176,47.815938],[38.281764,47.815945],[38.281764,47.81596],[38.281775,47.81595897252747],[38.281775,47.815959],[38.281833333339556,47.81595352380894]]]}},{"type":"Feature","properties":{"cadnum":"1420655600:01:000:0333"},"geometry":{"type":"Polygon","coordinates":[[[38.281976,47.81456],[38.282092,47.814521],[38.282106,47.81453],[38.28224,47.81446],[38.282236,47.814418],[38.282123,47.814315],[38.281872,47.81444],[38.281859,47.814454],[38.281714,47.814523],[38.281775,47.81458223188407],[38.281775,47.814583],[38.281783,47.81459],[38.281946,47.814566],[38.281946,47.81456466321244],[38.281976,47.81456]]]}},{"type":"Feature","properties":{"cadnum":"1420655600:01:000:0281"},"geometry":{"type":"Polygon","coordinates":[[[38.281804,47.815812],[38.281946,47.815799],[38.281946,47.815798296503495],[38.282519,47.815743],[38.283116,47.815697],[38.283251,47.815685],[38.283435,47.815667],[38.283951,47.815562],[38.284261,47.815462],[38.284572,47.815363],[38.285255,47.815046],[38.285245,47.815039],[38.285186,47.814979],[38.285088,47.814883],[38.284993,47.814798],[38.284922,47.814834],[38.284783,47.814695],[38.284773,47.81469],[38.284819,47.814668],[38.284737,47.814594],[38.284679,47.814536],[38.284329,47.814695],[38.284171,47.814521],[38.284064,47.814485],[38.28392,47.814385],[38.283813,47.814442],[38.283664,47.814523],[38.283444,47.814635],[38.283138,47.814382],[38.282869,47.814491],[38.282546,47.81463],[38.282509,47.814594],[38.282433,47.81463],[38.282102,47.814686],[38.281984,47.814704],[38.281907,47.81472],[38.281859,47.814726],[38.2815,47.814762],[38.281154,47.814798],[38.281158,47.81482],[38.281158,47.814834],[38.28118,47.814949],[38.281203,47.815057],[38.281221,47.815157],[38.281284,47.815495],[38.281431,47.815489],[38.281724,47.815477],[38.281756,47.815598],[38.281796,47.815784],[38.281804,47.815812]],[[38.281775,47.814749],[38.281783,47.814747],[38.281787,47.814762],[38.281693,47.814777],[38.281687,47.814762],[38.281775,47.814748249999994],[38.281775,47.814749]],[[38.281387,47.814793],[38.281414,47.814789],[38.281418,47.814807],[38.281391,47.814811],[38.281387,47.814793]]]}},{"type":"Feature","properties":{"cadnum":"1420655600:01:000:0276"},"geometry":{"type":"Polygon","coordinates":[[[38.28379,47.813821],[38.28393,47.813758],[38.283444,47.813302],[38.283391,47.813329],[38.283305,47.813374],[38.28379,47.813821]]]}},{"type":"Feature","properties":{"cadnum":"1420655600:01:000:0418"},"geometry":{"type":"Polygon","coordinates":[[[38.284486,47.814349],[38.284653,47.814274],[38.284158,47.813797],[38.283983,47.813879],[38.284419,47.814286],[38.284486,47.814349]]]}},{"type":"Feature","properties":{"cadnum":"1420655600:01:000:0392"},"geometry":{"type":"Polygon","coordinates":[[[38.285861,47.808723],[38.286261,47.808542],[38.286117,47.808392],[38.285731,47.808573],[38.285861,47.808723]]]}},{"type":"Feature","properties":{"cadnum":"1420655600:01:000:0295"},"geometry":{"type":"Polygon","coordinates":[[[38.285731,47.808573],[38.286117,47.808392],[38.285972,47.808265],[38.285595,47.808428],[38.285731,47.808573]]]}},{"type":"Feature","properties":{"cadnum":"1420655600:01:000:0316"},"geometry":{"type":"Polygon","coordinates":[[[38.284459,47.812156],[38.285043,47.811692],[38.28484,47.811544],[38.284392,47.811903],[38.284392,47.811905],[38.284257,47.812012],[38.284459,47.812156]]]}},{"type":"Feature","properties":{"cadnum":"1420655600:01:000:0304"},"geometry":{"type":"Polygon","coordinates":[[[38.285878,47.810669],[38.286138,47.810527],[38.285919,47.810344],[38.285658,47.810485],[38.285878,47.810669]]]}},{"type":"Feature","properties":{"cadnum":"1420655600:01:000:0273"},"geometry":{"type":"Polygon","coordinates":[[[38.282842,47.811697],[38.282923,47.811668],[38.283144,47.811534],[38.282941,47.811378],[38.282599,47.811577],[38.282842,47.811697]]]}},{"type":"Feature","properties":{"cadnum":"1420655600:01:000:0319"},"geometry":{"type":"Polygon","coordinates":[[[38.28675,47.812596],[38.287146,47.812331],[38.286947,47.812198],[38.286557,47.812466],[38.28675,47.812596]]]}},{"type":"Feature","properties":{"cadnum":"1420655600:01:000:0278"},"geometry":{"type":"Polygon","coordinates":[[[38.286664,47.811402],[38.286746,47.811354],[38.286557,47.811224],[38.286476,47.811272],[38.286664,47.811402]]]}},{"type":"Feature","properties":{"cadnum":"1420655600:01:000:0407"},"geometry":{"type":"Polygon","coordinates":[[[38.285538,47.810552],[38.285632,47.810494],[38.285358,47.810289],[38.285263,47.810346],[38.285538,47.810552]]]}},{"type":"Feature","properties":{"cadnum":"1420655600:01:000:0399"},"geometry":{"type":"Polygon","coordinates":[[[38.286826,47.809839],[38.287167,47.809692],[38.287033,47.809523],[38.286687,47.80968],[38.286826,47.809839]]]}},{"type":"Feature","properties":{"cadnum":"1420655600:01:000:0306"},"geometry":{"type":"Polygon","coordinates":[[[38.283232,47.812832],[38.283435,47.81272],[38.283264,47.812554],[38.283116,47.812424],[38.282968,47.812503],[38.282896,47.812536],[38.283232,47.812832]]]}},{"type":"Feature","properties":{"cadnum":"1420655600:01:000:0343"},"geometry":{"type":"Polygon","coordinates":[[[38.28445,47.812165],[38.284459,47.812156],[38.284257,47.812012],[38.284239,47.81203],[38.28445,47.812165]]]}},{"type":"Feature","properties":{"cadnum":"1420655600:01:000:0383"},"geometry":{"type":"Polygon","coordinates":[[[38.282232,47.811308],[38.282752,47.810983],[38.282582,47.810856],[38.28207,47.811187],[38.282232,47.811308]]]}},{"type":"Feature","properties":{"cadnum":"1420655600:01:000:0317"},"geometry":{"type":"Polygon","coordinates":[[[38.284662,47.812283],[38.285241,47.811822],[38.285043,47.811692],[38.28445,47.812165],[38.284662,47.812283]]]}},{"type":"Feature","properties":{"cadnum":"1420655600:01:000:0315"},"geometry":{"type":"Polygon","coordinates":[[[38.285379,47.812488],[38.285798,47.812153],[38.285622,47.812048],[38.285186,47.812392],[38.285379,47.812488]]]}},{"type":"Feature","properties":{"cadnum":"1420655600:02:000:0052"},"geometry":{"type":"Polygon","coordinates":[[[38.273217,47.815954],[38.273271,47.815764],[38.271865,47.815616],[38.271852,47.815673],[38.271838,47.815682],[38.271783,47.815676],[38.27177,47.815676],[38.271739,47.8158],[38.273217,47.815954]]]}}]}