{"type":"FeatureCollection","features":[{"type":"Feature","properties":{"cadnum":"1420381007:00:000:0074"},"geometry":{"type":"Polygon","coordinates":[[[37.003816,48.683087],[37.003359,48.683113],[37.00331106758833,48.683651],[37.00331,48.683651],[37.003286,48.683932],[37.003575,48.68392],[37.003652,48.683651],[37.00365188183161,48.683651],[37.003816,48.683087]]]}},{"type":"Feature","properties":{"cadnum":"1420381007:00:000:0079"},"geometry":{"type":"Polygon","coordinates":[[[37.00746,48.683464],[37.006947,48.683461],[37.00690548148148,48.683651],[37.006904,48.683651],[37.006888,48.683731],[37.00736,48.683731],[37.007418,48.683731],[37.00746,48.683464]]]}},{"type":"Feature","properties":{"cadnum":"1420381007:00:000:0061"},"geometry":{"type":"Polygon","coordinates":[[[36.994581,48.687129],[36.994061,48.687073],[36.994019301886794,48.687277],[36.994019,48.687277],[36.99401073509933,48.687318911360215],[36.993996,48.687391],[36.99399651925321,48.687391],[36.99385,48.688134],[36.994348,48.688175],[36.994548,48.687277],[36.994547671755726,48.687277],[36.994581,48.687129]]]}},{"type":"Feature","properties":{"cadnum":"1420381007:00:000:0060"},"geometry":{"type":"Polygon","coordinates":[[[36.994581,48.687129],[36.994707,48.686566],[36.994173,48.686509],[36.994061,48.687073],[36.994581,48.687129]]]}},{"type":"Feature","properties":{"cadnum":"1420381007:00:000:0071"},"geometry":{"type":"Polygon","coordinates":[[[36.991365,48.68505],[36.991061,48.685041],[36.990957,48.686082],[36.991053,48.686085],[36.991053,48.686084071942446],[36.991235,48.686088],[36.991365,48.68505]]]}},{"type":"Feature","properties":{"cadnum":"1420381007:00:000:0031"},"geometry":{"type":"Polygon","coordinates":[[[36.991028,48.687298],[36.99102,48.687391],[36.991020276271186,48.687391],[36.990979,48.687888],[36.991254,48.687944],[36.99133,48.687298],[36.991028,48.687298]]]}},{"type":"Feature","properties":{"cadnum":"1420381007:00:000:0072"},"geometry":{"type":"Polygon","coordinates":[[[36.991365,48.68505],[36.99137,48.685003],[36.991438,48.684481],[36.991464,48.684267],[36.991137,48.684258],[36.991101,48.684629],[36.991061,48.685041],[36.991365,48.68505]]]}},{"type":"Feature","properties":{"cadnum":"1420381007:00:000:0020"},"geometry":{"type":"Polygon","coordinates":[[[36.99156,48.685045],[36.991617,48.684526],[36.991307,48.684513],[36.991267,48.685038],[36.99156,48.685045]]]}},{"type":"Feature","properties":{"cadnum":"1420381007:00:000:0022"},"geometry":{"type":"Polygon","coordinates":[[[36.993795,48.684982],[36.993831,48.684318],[36.993594,48.684312],[36.993554,48.684976],[36.993795,48.684982]]]}},{"type":"Feature","properties":{"cadnum":"1420381007:00:000:0026"},"geometry":{"type":"Polygon","coordinates":[[[36.993732,48.686195],[36.993795,48.684982],[36.993554,48.684976],[36.993472,48.686189],[36.993732,48.686195]]]}},{"type":"Feature","properties":{"cadnum":"1420381007:00:000:0021"},"geometry":{"type":"Polygon","coordinates":[[[36.991442,48.68613],[36.99156,48.685045],[36.991267,48.685038],[36.991177,48.686124],[36.991442,48.68613]]]}},{"type":"Feature","properties":{"cadnum":"1420381007:00:000:0041"},"geometry":{"type":"Polygon","coordinates":[[[36.993644,48.687313],[36.993629,48.687391],[36.99362967898384,48.687391],[36.993485,48.688179],[36.994065,48.688223],[36.994088,48.687354],[36.993644,48.687313]]]}},{"type":"Feature","properties":{"cadnum":"1420381007:00:000:0040"},"geometry":{"type":"Polygon","coordinates":[[[36.99411,48.686566],[36.993782,48.686535],[36.99365038560412,48.687277],[36.993649,48.687277],[36.993644,48.687313],[36.994088,48.687354],[36.99411,48.686566]]]}},{"type":"Feature","properties":{"cadnum":"1420381007:00:000:0032"},"geometry":{"type":"Polygon","coordinates":[[[36.99133,48.687298],[36.991442,48.686335],[36.991105,48.68634],[36.991028,48.687298],[36.99133,48.687298]]]}},{"type":"Feature","properties":{"cadnum":"1420381007:00:000:0064"},"geometry":{"type":"Polygon","coordinates":[[[37.016312,48.683043],[37.016699,48.68301],[37.016653,48.682556],[37.016622,48.682227],[37.016259,48.682239],[37.016267,48.682574],[37.016312,48.683043]]]}},{"type":"Feature","properties":{"cadnum":"1420381007:00:000:0080"},"geometry":{"type":"Polygon","coordinates":[[[37.016217,48.683051],[37.016312,48.683043],[37.016267,48.682574],[37.016259,48.682239],[37.015921,48.682251],[37.015907,48.682577],[37.01588,48.683016],[37.0162,48.683013],[37.016217,48.683051]]]}},{"type":"Feature","properties":{"cadnum":"1420381007:00:000:0057"},"geometry":{"type":"Polygon","coordinates":[[[37.025821,48.682684],[37.02676,48.68244],[37.026629,48.681922],[37.024012,48.68199518967372],[37.024012,48.681995],[37.02344,48.682011],[37.02358,48.682891],[37.02384,48.68286692592592],[37.02384,48.682867],[37.025821,48.682684]]]}},{"type":"Feature","properties":{"cadnum":"1420381007:00:000:0011"},"geometry":{"type":"Polygon","coordinates":[[[37.00011,48.683084],[37.000434,48.683049],[37.000376,48.682823],[37.000053,48.682858],[37.00011,48.683084]]]}},{"type":"Feature","properties":{"cadnum":"1420381007:00:000:0002"},"geometry":{"type":"Polygon","coordinates":[[[36.999967,48.68135],[36.999999,48.681346],[37.000296,48.681328],[37.000304,48.681326],[37.00016,48.680389],[36.999823,48.680409],[36.999967,48.68135]]]}},{"type":"Feature","properties":{"cadnum":"1420381007:00:000:0053"},"geometry":{"type":"Polygon","coordinates":[[[36.989371,48.687215],[36.989013,48.687215],[36.98901088636364,48.687277],[36.98901,48.687277],[36.98900865517241,48.68734244827586],[36.989007,48.687391],[36.989007657534245,48.687391],[36.989007,48.687423],[36.989367,48.687449],[36.98937,48.687277],[36.98936959090909,48.687277],[36.989371,48.687215]]]}},{"type":"Feature","properties":{"cadnum":"1420381007:00:000:0023"},"geometry":{"type":"Polygon","coordinates":[[[36.987543,48.685501],[36.987723,48.685124],[36.987126,48.685086],[36.98696,48.685474],[36.987543,48.685501]]]}},{"type":"Feature","properties":{"cadnum":"1420381007:00:000:0059"},"geometry":{"type":"Polygon","coordinates":[[[36.986223,48.685364],[36.986231,48.685302],[36.986137,48.685299],[36.986178,48.684988],[36.985728,48.684964],[36.985675,48.685335],[36.986223,48.685364]]]}},{"type":"Feature","properties":{"cadnum":"1420381007:00:000:0030"},"geometry":{"type":"Polygon","coordinates":[[[36.986231,48.685948],[36.986281,48.685504],[36.985904,48.685486],[36.985845,48.685928],[36.986231,48.685948]]]}},{"type":"Feature","properties":{"cadnum":"1420381007:00:000:0065"},"geometry":{"type":"Polygon","coordinates":[[[36.987426,48.684285],[36.987472,48.683825],[36.987135,48.683814],[36.987086,48.684273],[36.987426,48.684285]]]}},{"type":"Feature","properties":{"cadnum":"1420381007:00:000:0046"},"geometry":{"type":"Polygon","coordinates":[[[36.986218,48.684736],[36.986258,48.684318],[36.98581,48.684303],[36.985761,48.684721],[36.986218,48.684736]]]}},{"type":"Feature","properties":{"cadnum":"1420381007:00:000:0027"},"geometry":{"type":"Polygon","coordinates":[[[36.986753,48.684285],[36.986829,48.683811],[36.986488,48.683796],[36.986394,48.684267],[36.986753,48.684285]]]}},{"type":"Feature","properties":{"cadnum":"1420381007:00:000:0050"},"geometry":{"type":"Polygon","coordinates":[[[36.988644,48.686002],[36.988743,48.684944],[36.988451,48.684937],[36.988361,48.685996],[36.988644,48.686002]]]}},{"type":"Feature","properties":{"cadnum":"1420381007:00:000:0058"},"geometry":{"type":"Polygon","coordinates":[[[36.987149,48.684733],[36.98718,48.68433],[36.98674,48.684309],[36.986707,48.684709],[36.987149,48.684733]]]}},{"type":"Feature","properties":{"cadnum":"1420381007:00:000:0051"},"geometry":{"type":"Polygon","coordinates":[[[36.988743,48.684944],[36.988828,48.683962],[36.988531,48.683956],[36.988451,48.684937],[36.988743,48.684944]]]}},{"type":"Feature","properties":{"cadnum":"1420381007:00:000:0024"},"geometry":{"type":"Polygon","coordinates":[[[36.985559,48.685405276595745],[36.985576,48.685406],[36.985644,48.685038],[36.985388,48.685027],[36.985388,48.68502701373626],[36.985195,48.685018],[36.985109,48.685385],[36.985559,48.685406],[36.985559,48.685405276595745]]]}},{"type":"Feature","properties":{"cadnum":"1420381007:00:000:0052"},"geometry":{"type":"Polygon","coordinates":[[[36.989371,48.687215],[36.989394,48.686542],[36.98939,48.686376],[36.989026,48.686381],[36.989013,48.687215],[36.989371,48.687215]]]}},{"type":"Feature","properties":{"cadnum":"1420381007:00:000:0073"},"geometry":{"type":"Polygon","coordinates":[[[36.990751,48.687192],[36.990814,48.686559],[36.990831,48.686313],[36.990459,48.686326],[36.990454,48.686548],[36.990418,48.687185],[36.990751,48.687192]]]}},{"type":"Feature","properties":{"cadnum":"1420381007:00:000:0028"},"geometry":{"type":"Polygon","coordinates":[[[36.985559,48.68591513],[36.985845,48.685928],[36.985904,48.685486],[36.985559,48.68547151851852],[36.985559,48.685471],[36.985499,48.685469],[36.985451,48.685801],[36.985459,48.685801],[36.985445,48.68591],[36.985559,48.685916],[36.985559,48.68591513]]]}},{"type":"Feature","properties":{"cadnum":"1420381007:00:000:0033"},"geometry":{"type":"Polygon","coordinates":[[[36.98696,48.685474],[36.987126,48.685086],[36.986667,48.685086],[36.986501,48.685451],[36.98696,48.685474]]]}},{"type":"Feature","properties":{"cadnum":"1420381007:00:000:0029"},"geometry":{"type":"Polygon","coordinates":[[[36.985325,48.684647],[36.985369,48.684211],[36.98483,48.684203],[36.984755,48.684627],[36.985325,48.684647]]]}},{"type":"Feature","properties":{"cadnum":"1420381007:00:000:0062"},"geometry":{"type":"Polygon","coordinates":[[[36.984,48.686645],[36.98408,48.686111],[36.98351,48.686064],[36.983438,48.686598],[36.984,48.686645]]]}},{"type":"Feature","properties":{"cadnum":"1420381007:00:000:0063"},"geometry":{"type":"Polygon","coordinates":[[[36.983906,48.687245],[36.983986,48.686722],[36.984,48.686645],[36.983438,48.686598],[36.98338,48.687034],[36.983361,48.687209],[36.983906,48.687245]]]}},{"type":"Feature","properties":{"cadnum":"1420381007:00:000:0004"},"geometry":{"type":"Polygon","coordinates":[[[36.983618,48.685655],[36.983636,48.685302],[36.983555,48.685243],[36.983564,48.685029],[36.982899,48.685012],[36.982885,48.685308],[36.982981,48.685311],[36.982962,48.68564],[36.983618,48.685655]]]}},{"type":"Feature","properties":{"cadnum":"1420381007:00:000:0070"},"geometry":{"type":"Polygon","coordinates":[[[37.022079,48.6829],[37.022052,48.682224],[37.021819,48.682209],[37.021724,48.682185],[37.021649,48.682132],[37.021563,48.682064],[37.020435,48.6821],[37.020494,48.682856],[37.022079,48.6829]]]}},{"type":"Feature","properties":{"cadnum":"1420381007:00:000:0067"},"geometry":{"type":"Polygon","coordinates":[[[37.01893,48.682841],[37.018913,48.682144],[37.018477,48.682153],[37.018486,48.682841],[37.01893,48.682841]]]}},{"type":"Feature","properties":{"cadnum":"1420381007:00:000:0081"},"geometry":{"type":"Polygon","coordinates":[[[37.019123,48.682858],[37.020494,48.682844],[37.020435,48.6821],[37.019142,48.682135],[37.019123,48.682858]]]}},{"type":"Feature","properties":{"cadnum":"1420381007:00:000:0077"},"geometry":{"type":"Polygon","coordinates":[[[37.022075,48.682829],[37.023566,48.682814],[37.02344,48.682011],[37.023436,48.681978],[37.022326,48.682011],[37.022052,48.682224],[37.022075,48.682829]]]}},{"type":"Feature","properties":{"cadnum":"1420381007:00:000:0078"},"geometry":{"type":"Polygon","coordinates":[[[37.007527,48.683176],[37.007554,48.682873],[37.00736,48.682881],[37.00736,48.68288116666667],[37.007028,48.682895],[37.006947,48.683461],[37.00736,48.68346341520468],[37.00736,48.683464],[37.00746,48.683464],[37.007527,48.683176]]]}},{"type":"Feature","properties":{"cadnum":"1420381007:00:000:0054"},"geometry":{"type":"Polygon","coordinates":[[[37.00855,48.683422],[37.009053,48.683392],[37.009053,48.683291],[37.009099,48.682776],[37.008609,48.682799],[37.00855,48.683422]]]}},{"type":"Feature","properties":{"cadnum":"1420381007:00:000:0068"},"geometry":{"type":"Polygon","coordinates":[[[37.011722,48.683197],[37.012242,48.683191],[37.012202,48.682592],[37.011681,48.682621],[37.011722,48.683197]]]}},{"type":"Feature","properties":{"cadnum":"1420381007:00:000:0069"},"geometry":{"type":"Polygon","coordinates":[[[37.011726,48.683291],[37.012247,48.68328],[37.012242,48.683191],[37.011722,48.683197],[37.011726,48.683291]]]}}]}