{"type":"FeatureCollection","features":[{"type":"Feature","properties":{"cadnum":"1420387505:00:000:0008"},"geometry":{"type":"Polygon","coordinates":[[[37.043482,48.57831],[37.043023,48.578259],[37.042963,48.578481],[37.042963418426105,48.578481],[37.042853,48.578889],[37.043306,48.578964],[37.04346354601237,48.578377141103935],[37.043482,48.57831]]]}},{"type":"Feature","properties":{"cadnum":"1420387505:00:000:0009"},"geometry":{"type":"Polygon","coordinates":[[[37.043023,48.578259],[37.041801,48.578126],[37.041754,48.578481],[37.04175437647059,48.578481],[37.041725,48.578708],[37.042853,48.578889],[37.042994,48.578368],[37.04299354054054,48.578368],[37.043023,48.578259]]]}},{"type":"Feature","properties":{"cadnum":"1420387505:00:000:0010"},"geometry":{"type":"Polygon","coordinates":[[[37.035415,48.581624],[37.035662,48.581578],[37.035325,48.5805],[37.035037,48.580554],[37.035415,48.581624]]]}}]}