{"type":"FeatureCollection","features":[{"type":"Feature","properties":{"cadnum":"1420987501:02:002:0001"},"geometry":{"type":"Polygon","coordinates":[[[38.085568,48.574206],[38.084274,48.574622],[38.084320373333334,48.574733],[38.08432,48.574733],[38.084356973933794,48.57482060782025],[38.084368,48.574847],[38.08436811246805,48.574847],[38.085806,48.578254],[38.08609713846153,48.578368],[38.086094,48.578368],[38.086138,48.578384],[38.086176,48.578481],[38.08617621212121,48.578481],[38.086268,48.578714],[38.087345,48.578368],[38.087344003663,48.578368],[38.088689,48.577935],[38.086008,48.574733],[38.08600785179408,48.574733],[38.085568,48.574206]]]}},{"type":"Feature","properties":{"cadnum":"1420987501:03:000:0113"},"geometry":{"type":"Polygon","coordinates":[[[38.130439,48.632786],[38.130856,48.632435],[38.129617,48.631949],[38.12928,48.632285],[38.130439,48.632786]]]}}]}