{"type":"FeatureCollection","features":[{"type":"Feature","properties":{"cadnum":"1420383305:00:000:0098"},"geometry":{"type":"Polygon","coordinates":[[[36.919641,48.665315586956524],[36.919765,48.665354],[36.919806,48.665365],[36.919967,48.665155],[36.919684,48.665066],[36.919608,48.665042],[36.919595,48.665036],[36.919491,48.665161],[36.919518,48.665172],[36.919591,48.665196],[36.919572,48.665214],[36.919532,48.665262],[36.919518,48.66528],[36.919581,48.665297],[36.919641,48.665317],[36.919641,48.665315586956524]]]}},{"type":"Feature","properties":{"cadnum":"1420383305:00:000:0033"},"geometry":{"type":"Polygon","coordinates":[[[36.918818,48.669255],[36.91881947933884,48.669255],[36.918813,48.669263],[36.919438,48.669426],[36.91947,48.66943230541872],[36.91947,48.669433],[36.919774,48.669492],[36.919931,48.669275],[36.919843923076925,48.669255],[36.919845,48.669255],[36.919648,48.66921],[36.91961755263002,48.669205210526066],[36.918948,48.669097],[36.918818,48.669255]]]}},{"type":"Feature","properties":{"cadnum":"1420383305:00:000:0049"},"geometry":{"type":"Polygon","coordinates":[[[36.922147,48.665256],[36.922015,48.665396],[36.922579,48.665628],[36.92258045585214,48.665628],[36.923485,48.666001],[36.923629,48.665852],[36.922789,48.665514],[36.92278783870969,48.665514],[36.922147,48.665256]]]}},{"type":"Feature","properties":{"cadnum":"1420383305:00:000:0083"},"geometry":{"type":"Polygon","coordinates":[[[36.922654,48.666504],[36.92277,48.666359],[36.921545,48.665873],[36.921401,48.666042],[36.921958,48.666247],[36.922654,48.666504]]]}},{"type":"Feature","properties":{"cadnum":"1420383305:00:000:0097"},"geometry":{"type":"Polygon","coordinates":[[[36.921145,48.665517],[36.919967,48.665155],[36.919806,48.665365],[36.92069,48.665628],[36.9206931044776,48.665628],[36.920987,48.665715],[36.921015,48.665724],[36.921166,48.665523],[36.921145,48.665517]]]}},{"type":"Feature","properties":{"cadnum":"1420383305:00:000:0081"},"geometry":{"type":"Polygon","coordinates":[[[36.919641,48.66913875],[36.91965534193548,48.669142],[36.919655,48.669142],[36.920372,48.669305],[36.920879,48.669385],[36.921005,48.669204],[36.920493,48.669133],[36.919641,48.66899474780059],[36.919641,48.668994],[36.919096,48.668905],[36.919029,48.669],[36.919641,48.669139],[36.919641,48.66913875]]]}},{"type":"Feature","properties":{"cadnum":"1420383305:00:000:0093"},"geometry":{"type":"Polygon","coordinates":[[[36.91841257832745,48.669142],[36.918412,48.669142],[36.91783,48.669895],[36.916715,48.671434],[36.91568418702553,48.67277],[36.915684,48.67277],[36.91564585698102,48.67281967820617],[36.915597,48.672883],[36.91559723839009,48.672883],[36.915436,48.673093],[36.914344,48.674531],[36.914148,48.67479322343325],[36.914148,48.674792],[36.91294471711292,48.676397],[36.912944,48.676397],[36.912098,48.677527],[36.910383,48.679825],[36.910146,48.680137],[36.910147225751075,48.680137],[36.908655,48.68212606521739],[36.908655,48.682125],[36.907859,48.683185],[36.907669,48.683526],[36.90761,48.683764],[36.90761122558923,48.683764],[36.907566,48.683948],[36.907459,48.684466],[36.907629,48.684469],[36.907786,48.683761],[36.907922,48.683405],[36.908484,48.682645188267394],[36.908484,48.682646],[36.910339435164,48.680137],[36.91034,48.680137],[36.91058,48.679813],[36.913157,48.676397],[36.91315634431977,48.676397],[36.913977,48.67531041225626],[36.913977,48.675311],[36.91487,48.674127],[36.915896,48.67277],[36.915895408083074,48.67277],[36.918503,48.66932],[36.918636,48.669142],[36.91863588628532,48.669142],[36.91947,48.668031633944956],[36.91947,48.668033],[36.919797,48.667597],[36.92138813523063,48.66554985071933],[36.921539,48.665357],[36.924051,48.66239],[36.92441933333333,48.662],[36.92442,48.662],[36.925135,48.661246],[36.925135,48.661245131147545],[36.925573,48.660782],[36.927765,48.658551],[36.927937627986346,48.658371],[36.927938,48.658371],[36.930456,48.65575377769517],[36.930456,48.655754],[36.93139,48.654783],[36.93146751249922,48.65470792500076],[36.931812,48.654377],[36.932208,48.654195],[36.935086,48.653394],[36.93545,48.653196],[36.935288,48.653119],[36.934889,48.653308],[36.932112,48.654062],[36.931695,48.654264],[36.93132838137472,48.654629],[36.931328,48.654629],[36.931242,48.654715],[36.931215,48.654743],[36.93121509535452,48.654743],[36.93062565399896,48.655356438968],[36.927834692741136,48.658258],[36.927834,48.658258],[36.926651,48.659488],[36.92525,48.660874],[36.924963,48.661185],[36.924963,48.66118553521127],[36.92431711688311,48.661886],[36.924317,48.661886],[36.923866,48.662375],[36.92124325115278,48.665514],[36.921241,48.665514],[36.920983,48.665825],[36.919641,48.667557270984794],[36.919641,48.667557],[36.91841257832745,48.669142]]]}},{"type":"Feature","properties":{"cadnum":"1420383305:00:000:0121"},"geometry":{"type":"Polygon","coordinates":[[[36.936121,48.654581],[36.936121,48.65458091536339],[36.937036,48.65424],[36.93634,48.653712],[36.935949,48.65347],[36.935949,48.65347021192053],[36.935517,48.653202],[36.935141,48.653391],[36.934372,48.653632],[36.933694,48.653821],[36.93559025225226,48.654629],[36.93559,48.654629],[36.935778,48.654709],[36.936121,48.654581]]]}},{"type":"Feature","properties":{"cadnum":"1420383305:00:000:0060"},"geometry":{"type":"Polygon","coordinates":[[[36.934489,48.655587],[36.934655,48.655406],[36.93333,48.654836],[36.933146,48.655038],[36.934489,48.655587]]]}},{"type":"Feature","properties":{"cadnum":"1420383305:00:000:0059"},"geometry":{"type":"Polygon","coordinates":[[[36.932342,48.654412],[36.932139662162164,48.654629],[36.932139,48.654629],[36.932135,48.654634],[36.932354,48.654743],[36.93235589015152,48.654743],[36.93267,48.654898],[36.932711,48.65486],[36.933146,48.655038],[36.93333,48.654836],[36.932846,48.654629],[36.93284549244712,48.654629],[36.932342,48.654412]]]}},{"type":"Feature","properties":{"cadnum":"1420383305:00:000:0122"},"geometry":{"type":"Polygon","coordinates":[[[36.933694,48.653821],[36.932112,48.654261],[36.933238,48.654743],[36.93323883516484,48.654743],[36.933824,48.654993],[36.934399,48.655243],[36.935095,48.654964],[36.935778,48.654709],[36.933694,48.653821]]]}},{"type":"Feature","properties":{"cadnum":"1420383305:00:000:0099"},"geometry":{"type":"Polygon","coordinates":[[[36.932234,48.656575],[36.932369,48.656453],[36.930837,48.655759],[36.930698,48.65591],[36.932234,48.656575]]]}},{"type":"Feature","properties":{"cadnum":"1420383305:00:000:0107"},"geometry":{"type":"Polygon","coordinates":[[[36.914148,48.676981],[36.913828,48.676927],[36.913199,48.676811],[36.913086,48.676975],[36.913486,48.677064],[36.913977,48.67714201727115],[36.913977,48.677143],[36.914065,48.677156],[36.914726,48.67726],[36.914784,48.677088],[36.914148,48.67698160594795],[36.914148,48.676981]]]}},{"type":"Feature","properties":{"cadnum":"1420383305:00:000:0096"},"geometry":{"type":"Polygon","coordinates":[[[36.914148,48.677388686274504],[36.914555,48.677446],[36.914569,48.677402],[36.915715,48.677569],[36.915772,48.677426],[36.914148,48.67716912829525],[36.914148,48.677169],[36.914065,48.677156],[36.913994,48.677367],[36.914148,48.677389],[36.914148,48.677388686274504]]]}},{"type":"Feature","properties":{"cadnum":"1420383305:00:000:0052"},"geometry":{"type":"Polygon","coordinates":[[[36.91266,48.680018],[36.912759,48.679888],[36.911235,48.679341],[36.911138,48.679481],[36.91266,48.680018]]]}},{"type":"Feature","properties":{"cadnum":"1420383305:00:000:0128"},"geometry":{"type":"Polygon","coordinates":[[[36.910608,48.683633],[36.910468,48.683606],[36.909373,48.683375],[36.908595,48.683212],[36.908335,48.683155],[36.908056,48.683585],[36.90803424581006,48.683651],[36.908033,48.683651],[36.907922,48.683994],[36.907863,48.684478],[36.908164,48.684487],[36.908484,48.68449564864865],[36.908484,48.684496],[36.908608,48.684499],[36.908655,48.684501],[36.908655,48.68450053594771],[36.908761,48.684504],[36.909713,48.684481],[36.909956,48.68454],[36.910243,48.684445],[36.9106,48.683651],[36.91059989312978,48.683651],[36.910608,48.683633]],[[36.908484,48.683714],[36.908484,48.683715],[36.908513,48.683651],[36.90851257731959,48.683651],[36.908572,48.68352],[36.908492,48.683499],[36.908545,48.68339],[36.90864,48.683407],[36.908595,48.683508],[36.908655,48.68352],[36.908655,48.6835190880829],[36.909174,48.683615],[36.90915802816902,48.683651],[36.909158,48.683651],[36.909111,48.683757],[36.908954,48.683731],[36.908937,48.683764],[36.90893737593985,48.683764],[36.908887,48.683864],[36.908648,48.683805],[36.908622,48.683876],[36.908455,48.683843],[36.908388,48.684007],[36.908484,48.68402461797753],[36.908484,48.684025],[36.908675,48.68406],[36.908551,48.684374],[36.908245,48.684315],[36.908375,48.683956],[36.908209,48.683929],[36.908249,48.683829],[36.908415,48.683864],[36.908484,48.68371248453608],[36.908484,48.683714]],[[36.908406,48.683214],[36.908434,48.683221],[36.908411,48.683256],[36.908388,48.683247],[36.908406,48.683214]],[[36.908191,48.683482],[36.908222,48.683487],[36.908209,48.683529],[36.908172,48.683523],[36.908191,48.683482]],[[36.908074,48.683939],[36.908074,48.683956],[36.908048,48.683953],[36.908052,48.683935],[36.908074,48.683939]],[[36.907993,48.684368],[36.907989,48.684386],[36.907962,48.684383],[36.907966,48.684365],[36.907993,48.684368]]]}},{"type":"Feature","properties":{"cadnum":"1420383305:00:000:0127"},"geometry":{"type":"Polygon","coordinates":[[[36.908545,48.68339],[36.908492,48.683499],[36.908572,48.68352],[36.908459,48.683764],[36.9084605399061,48.683764],[36.908415,48.683864],[36.908249,48.683829],[36.908209,48.683929],[36.908375,48.683956],[36.908245,48.684315],[36.908484,48.68436108169934],[36.908484,48.684362],[36.908551,48.684374],[36.908655,48.684111],[36.908655,48.68411064516129],[36.908675,48.68406],[36.908655,48.68405633507854],[36.908655,48.684056],[36.908388,48.684007],[36.908455,48.683843],[36.908484,48.68384873053893],[36.908484,48.683849],[36.908622,48.683876],[36.908648,48.683805],[36.908655,48.683807],[36.908655,48.683806728033474],[36.908887,48.683864],[36.908954,48.683731],[36.909111,48.683757],[36.909174,48.683615],[36.908595,48.683508],[36.90864,48.683407],[36.908545,48.68339]]]}},{"type":"Feature","properties":{"cadnum":"1420383305:00:000:0085"},"geometry":{"type":"Polygon","coordinates":[[[36.916797,48.669133],[36.916927,48.668931],[36.916522,48.66883],[36.916375,48.669026],[36.916784,48.66913],[36.916797,48.669133]]]}},{"type":"Feature","properties":{"cadnum":"1420383305:00:000:0084"},"geometry":{"type":"Polygon","coordinates":[[[36.917696,48.669118],[36.916927,48.668931],[36.916797,48.669133],[36.916833,48.669142],[36.916832,48.669142],[36.91747,48.669302],[36.918076,48.669438],[36.918229,48.66924],[36.917696,48.669118]]]}},{"type":"Feature","properties":{"cadnum":"1420383305:00:000:0014"},"geometry":{"type":"Polygon","coordinates":[[[36.919254,48.667804],[36.919411,48.667623],[36.919298,48.667582],[36.919141,48.66776],[36.919254,48.667804]]]}},{"type":"Feature","properties":{"cadnum":"1420383305:00:000:0082"},"geometry":{"type":"Polygon","coordinates":[[[36.921243,48.669441],[36.921346,48.669251],[36.921005,48.669204],[36.920879,48.669385],[36.921243,48.669441]]]}},{"type":"Feature","properties":{"cadnum":"1420383305:00:000:0034"},"geometry":{"type":"Polygon","coordinates":[[[36.92034,48.669598],[36.920443,48.669397],[36.919931,48.669275],[36.919774,48.669492],[36.92034,48.669598]]]}},{"type":"Feature","properties":{"cadnum":"1420383305:00:000:0078"},"geometry":{"type":"Polygon","coordinates":[[[36.921801,48.664719],[36.921944,48.664517],[36.921113,48.664256],[36.921032,48.664369],[36.920969,48.664458],[36.921801,48.664719]]]}},{"type":"Feature","properties":{"cadnum":"1420383305:00:000:0073"},"geometry":{"type":"Polygon","coordinates":[[[36.923902,48.662206],[36.923116,48.661904],[36.922927,48.662129],[36.923736,48.662388],[36.923902,48.662206]]]}},{"type":"Feature","properties":{"cadnum":"1420383305:00:000:0074"},"geometry":{"type":"Polygon","coordinates":[[[36.925135,48.663722],[36.92499,48.663675],[36.924963,48.663708],[36.924954,48.663719],[36.924414,48.66352],[36.924258,48.663707],[36.924963,48.663967456100345],[36.924963,48.663968],[36.925344,48.664108],[36.92556,48.663861],[36.925135,48.66372231578947],[36.925135,48.663722]]]}},{"type":"Feature","properties":{"cadnum":"1420383305:00:000:0079"},"geometry":{"type":"Polygon","coordinates":[[[36.925135,48.664029],[36.924258,48.663707],[36.924091,48.663897],[36.924598,48.664084],[36.924621,48.66406],[36.924963,48.66418775097276],[36.924963,48.664188],[36.925424,48.66436],[36.925577,48.664191],[36.925135,48.66402902931596],[36.925135,48.664029]]]}},{"type":"Feature","properties":{"cadnum":"1420383305:00:000:0062"},"geometry":{"type":"Polygon","coordinates":[[[36.925135,48.66456968502994],[36.925829,48.664829],[36.925919,48.664728],[36.925093,48.664407],[36.924994,48.664517],[36.925135,48.66457],[36.925135,48.66456968502994]]]}},{"type":"Feature","properties":{"cadnum":"1420383305:00:000:0054"},"geometry":{"type":"Polygon","coordinates":[[[36.92357,48.66258],[36.923736,48.662388],[36.922927,48.662129],[36.922761,48.662322],[36.92357,48.66258]]]}},{"type":"Feature","properties":{"cadnum":"1420383305:00:000:0102"},"geometry":{"type":"Polygon","coordinates":[[[36.924235,48.665354],[36.92441,48.665125],[36.923292,48.664737],[36.92313,48.664923],[36.923516,48.665084],[36.924235,48.665354]]]}},{"type":"Feature","properties":{"cadnum":"1420383305:00:000:0056"},"geometry":{"type":"Polygon","coordinates":[[[36.923399,48.662767],[36.923566,48.662568],[36.922774,48.662287],[36.922604,48.662476],[36.923399,48.662767]]]}},{"type":"Feature","properties":{"cadnum":"1420383305:00:000:0092"},"geometry":{"type":"Polygon","coordinates":[[[36.923839,48.661883],[36.923287,48.661658],[36.923107,48.661859],[36.92344,48.661984],[36.923478,48.662],[36.92347995767196,48.662],[36.923912,48.662173],[36.924099,48.661975],[36.923849,48.661886],[36.92384747826087,48.661886],[36.923839,48.661883]]]}},{"type":"Feature","properties":{"cadnum":"1420383305:00:000:0053"},"geometry":{"type":"Polygon","coordinates":[[[36.922263,48.664101],[36.922434,48.6639],[36.921665,48.66363],[36.921567,48.663743],[36.921504,48.663814],[36.922263,48.664101]]]}},{"type":"Feature","properties":{"cadnum":"1420383305:00:000:0115"},"geometry":{"type":"Polygon","coordinates":[[[36.924541,48.663259],[36.9245,48.663307],[36.924355,48.663499],[36.924414,48.66352],[36.924954,48.663719],[36.92499,48.663675],[36.925403,48.663811],[36.925573,48.663595],[36.92505014286001,48.66342528571522],[36.924541,48.663259]]]}},{"type":"Feature","properties":{"cadnum":"1420383305:00:000:0017"},"geometry":{"type":"Polygon","coordinates":[[[36.921032,48.664369],[36.921113,48.664256],[36.921158,48.664194],[36.920502,48.66396],[36.920372,48.664123],[36.921032,48.664369]]]}},{"type":"Feature","properties":{"cadnum":"1420383305:00:000:0061"},"geometry":{"type":"Polygon","coordinates":[[[36.925093,48.664407],[36.923879,48.663938],[36.923862,48.663956],[36.923781,48.66393],[36.923812,48.663885],[36.923292,48.663722],[36.923179,48.663859],[36.924963,48.6645057614325],[36.924963,48.664506],[36.924994,48.664517],[36.925093,48.664407]]]}},{"type":"Feature","properties":{"cadnum":"1420383305:00:000:0091"},"geometry":{"type":"Polygon","coordinates":[[[36.915746,48.678879],[36.915975,48.678452],[36.914434,48.678123],[36.914218,48.678552],[36.915746,48.678879]]]}},{"type":"Feature","properties":{"cadnum":"1420383305:00:000:0095"},"geometry":{"type":"Polygon","coordinates":[[[36.915459,48.67621],[36.91535,48.676379],[36.915425709923674,48.676397],[36.915424,48.676397],[36.916222,48.676587],[36.916329,48.676415],[36.916253,48.676397],[36.91625260975611,48.676397],[36.915459,48.67621]]]}},{"type":"Feature","properties":{"cadnum":"1420383305:00:000:0108"},"geometry":{"type":"Polygon","coordinates":[[[36.916105,48.677473],[36.916168,48.677319],[36.914784,48.677088],[36.914726,48.67726],[36.915772,48.677426],[36.916105,48.677473]]]}},{"type":"Feature","properties":{"cadnum":"1420383305:00:000:0126"},"geometry":{"type":"Polygon","coordinates":[[[36.911505,48.682829],[36.909251,48.682352],[36.90899,48.682295],[36.908655,48.68273526679842],[36.908655,48.682735],[36.908335,48.683155],[36.908484,48.683187665384615],[36.908484,48.683188],[36.908595,48.683212],[36.908655,48.683225],[36.908655,48.68322462146289],[36.910468,48.683606],[36.911505,48.682829]],[[36.908897,48.682595],[36.90891,48.68258],[36.908931,48.682586],[36.908923,48.682603],[36.908897,48.682595]],[[36.908675,48.682886],[36.908689,48.682867],[36.908711,48.682877],[36.908703,48.682891],[36.908675,48.682886]]]}},{"type":"Feature","properties":{"cadnum":"1420383305:00:000:0124"},"geometry":{"type":"Polygon","coordinates":[[[36.911505,48.682829],[36.912396,48.682162],[36.911079,48.68188],[36.909786,48.681605],[36.909511,48.681545],[36.90899,48.682295],[36.909251,48.682352],[36.911505,48.682829]],[[36.909484,48.681838],[36.909457,48.681833],[36.909471,48.681815],[36.909497,48.681824],[36.909484,48.681838]],[[36.909197,48.682245],[36.909174,48.682236],[36.909184,48.682218],[36.90921,48.682227],[36.909197,48.682245]]]}},{"type":"Feature","properties":{"cadnum":"1420383305:00:000:0090"},"geometry":{"type":"Polygon","coordinates":[[[36.91239,48.680887],[36.912476,48.680774],[36.910621,48.680273],[36.910518,48.680412],[36.911631,48.680715],[36.91169,48.680658],[36.91239,48.680887]]]}},{"type":"Feature","properties":{"cadnum":"1420383305:00:000:0123"},"geometry":{"type":"Polygon","coordinates":[[[36.911927,48.681898],[36.91213,48.681397],[36.912216,48.681183],[36.911685,48.681049],[36.911111,48.680904],[36.910423,48.680724],[36.910172,48.680658],[36.910073,48.680792],[36.909952,48.680961],[36.909633,48.681394],[36.90992,48.681456],[36.911927,48.681898]],[[36.910126,48.681],[36.910096,48.680941],[36.910185,48.680919],[36.910216,48.680979],[36.910126,48.681]],[[36.912084,48.681236],[36.912067,48.681222],[36.912084,48.68121],[36.912103,48.681222],[36.912084,48.681236]]]}},{"type":"Feature","properties":{"cadnum":"1420383305:00:000:0065"},"geometry":{"type":"Polygon","coordinates":[[[36.926225,48.661402],[36.925929,48.661744],[36.926607,48.662],[36.92660974999999,48.662],[36.927518,48.662342],[36.927846,48.662001],[36.927534,48.661886],[36.92753293311038,48.661886],[36.926225,48.661402]]]}},{"type":"Feature","properties":{"cadnum":"1420383305:00:000:0080"},"geometry":{"type":"Polygon","coordinates":[[[36.926143,48.664624],[36.926287,48.664455],[36.925577,48.664191],[36.925424,48.66436],[36.926143,48.664624]]]}},{"type":"Feature","properties":{"cadnum":"1420383305:00:000:0114"},"geometry":{"type":"Polygon","coordinates":[[[36.926283,48.664099],[36.926449,48.663879],[36.925573,48.663595],[36.925403,48.663811],[36.92556,48.663861],[36.926283,48.664099]]]}},{"type":"Feature","properties":{"cadnum":"1420383305:00:000:0075"},"geometry":{"type":"Polygon","coordinates":[[[36.926112,48.664389],[36.926283,48.664099],[36.92556,48.663861],[36.925344,48.664108],[36.925577,48.664191],[36.926112,48.664389]]]}},{"type":"Feature","properties":{"cadnum":"1420383305:00:000:0101"},"geometry":{"type":"Polygon","coordinates":[[[36.91818,48.673499],[36.918329,48.673324],[36.917659,48.673125],[36.91752,48.673303],[36.91818,48.673499]]]}},{"type":"Feature","properties":{"cadnum":"1420383305:00:000:0100"},"geometry":{"type":"Polygon","coordinates":[[[36.916222,48.672702],[36.91617388304093,48.67277],[36.916173,48.67277],[36.916101,48.672873],[36.916132,48.672883],[36.916133999999985,48.672883],[36.91752,48.673303],[36.917659,48.673125],[36.9168362,48.672883],[36.916837,48.672883],[36.916222,48.672702]]]}},{"type":"Feature","properties":{"cadnum":"1420383305:00:000:0119"},"geometry":{"type":"Polygon","coordinates":[[[36.917053,48.674727],[36.917187,48.674522],[36.916432,48.674329],[36.916294,48.674546],[36.917053,48.674727]]]}},{"type":"Feature","properties":{"cadnum":"1420383305:00:000:0087"},"geometry":{"type":"Polygon","coordinates":[[[36.916792,48.67567],[36.916832,48.67554],[36.916222,48.6754],[36.916136,48.675534],[36.916792,48.67567]]]}},{"type":"Feature","properties":{"cadnum":"1420383305:00:000:0117"},"geometry":{"type":"Polygon","coordinates":[[[36.916298,48.67478],[36.916419,48.674575],[36.916294,48.674546],[36.915705,48.674406],[36.915113,48.674234],[36.914982,48.674415],[36.915562,48.674606],[36.916298,48.67478]]]}},{"type":"Feature","properties":{"cadnum":"1420383305:00:000:0118"},"geometry":{"type":"Polygon","coordinates":[[[36.916294,48.674546],[36.916432,48.674329],[36.916002,48.674219],[36.915274,48.674018],[36.915113,48.674234],[36.915705,48.674406],[36.916294,48.674546]]]}},{"type":"Feature","properties":{"cadnum":"1420383305:00:000:0086"},"geometry":{"type":"Polygon","coordinates":[[[36.916136,48.675534],[36.916222,48.6754],[36.915493,48.675234],[36.915507,48.675213],[36.914528,48.674997],[36.914417,48.675171],[36.916136,48.675534]]]}},{"type":"Feature","properties":{"cadnum":"1420383305:00:000:0063"},"geometry":{"type":"Polygon","coordinates":[[[36.914148,48.67570224657534],[36.914403,48.675777],[36.914767,48.675863],[36.915597,48.676044],[36.915715,48.675878],[36.914838,48.675688],[36.914164,48.675498],[36.914038,48.67567],[36.914148,48.675703],[36.914148,48.67570224657534]]]}},{"type":"Feature","properties":{"cadnum":"1420383305:00:000:0111"},"geometry":{"type":"Polygon","coordinates":[[[36.916348,48.672538],[36.916222,48.672702],[36.916453049723756,48.67277],[36.916452,48.67277],[36.917659,48.673125],[36.917681,48.673131],[36.917812,48.672953],[36.91756489617486,48.672883],[36.917565,48.672883],[36.916348,48.672538]]]}},{"type":"Feature","properties":{"cadnum":"1420383305:00:000:0064"},"geometry":{"type":"Polygon","coordinates":[[[36.916572,48.676254],[36.916667,48.676085],[36.915715,48.675878],[36.915597,48.676044],[36.916572,48.676254]]]}},{"type":"Feature","properties":{"cadnum":"1420383305:00:000:0116"},"geometry":{"type":"Polygon","coordinates":[[[36.916222,48.6754],[36.916329,48.675237],[36.914654,48.674845],[36.914528,48.674997],[36.915507,48.675213],[36.915493,48.675234],[36.916222,48.6754]]]}},{"type":"Feature","properties":{"cadnum":"1420383305:00:000:0094"},"geometry":{"type":"Polygon","coordinates":[[[36.914148,48.676095352512746],[36.91535,48.676379],[36.915459,48.67621],[36.913977,48.67586],[36.913977,48.675860481927714],[36.913899,48.675842],[36.913778,48.676008],[36.914148,48.676096],[36.914148,48.676095352512746]]]}},{"type":"Feature","properties":{"cadnum":"1420383305:00:000:0120"},"geometry":{"type":"Polygon","coordinates":[[[36.925135,48.659621],[36.92506850000461,48.65959860000156],[36.924963,48.659563],[36.924963,48.6595630631579],[36.92485,48.659525],[36.924684,48.659732],[36.924963,48.65982603104213],[36.924963,48.659827],[36.925839,48.660121],[36.926018,48.659919],[36.925135,48.659621039810425],[36.925135,48.659621]]]}},{"type":"Feature","properties":{"cadnum":"1420383305:00:000:0076"},"geometry":{"type":"Polygon","coordinates":[[[36.927684,48.660192],[36.927927,48.659916],[36.927087,48.659602],[36.926849,48.659871],[36.927684,48.660192]]]}},{"type":"Feature","properties":{"cadnum":"1420383305:00:000:0110"},"geometry":{"type":"Polygon","coordinates":[[[36.928915,48.659296],[36.929099,48.659094],[36.928007,48.658622],[36.927824,48.658818],[36.928915,48.659296]]]}},{"type":"Feature","properties":{"cadnum":"1420383305:00:000:0041"},"geometry":{"type":"Polygon","coordinates":[[[36.925933,48.661203],[36.925946,48.661183],[36.926009,48.661111],[36.926045,48.661064],[36.925829,48.660987],[36.925717,48.661126],[36.925933,48.661203]]]}},{"type":"Feature","properties":{"cadnum":"1420383305:00:000:0113"},"geometry":{"type":"Polygon","coordinates":[[[36.929193,48.659693],[36.929373,48.659503],[36.928937,48.659307],[36.928758,48.659501],[36.929193,48.659693]]]}},{"type":"Feature","properties":{"cadnum":"1420383305:00:000:0088"},"geometry":{"type":"Polygon","coordinates":[[[36.92587,48.661788],[36.926252,48.66137],[36.925866,48.661295],[36.925514,48.661247],[36.925344,48.661426],[36.925447,48.661467],[36.92538,48.661542],[36.925277,48.661503],[36.925227,48.661559],[36.92587,48.661788]]]}},{"type":"Feature","properties":{"cadnum":"1420383305:00:000:0089"},"geometry":{"type":"Polygon","coordinates":[[[36.926135,48.66188],[36.926548,48.661426],[36.926252,48.66137],[36.92587,48.661788],[36.926135,48.66188]]]}},{"type":"Feature","properties":{"cadnum":"1420383305:00:000:0112"},"geometry":{"type":"Polygon","coordinates":[[[36.928758,48.659501],[36.928937,48.659307],[36.928915,48.659296],[36.927824,48.658818],[36.92764,48.659011],[36.928758,48.659501]]]}},{"type":"Feature","properties":{"cadnum":"1420383305:00:000:0109"},"geometry":{"type":"Polygon","coordinates":[[[36.925135,48.660365],[36.924113,48.660046],[36.923983,48.660215],[36.924963,48.66053911458333],[36.924963,48.66054],[36.92534,48.660664],[36.92551,48.660482],[36.925135,48.66036545521023],[36.925135,48.660365]]]}},{"type":"Feature","properties":{"cadnum":"1420383305:00:000:0077"},"geometry":{"type":"Polygon","coordinates":[[[36.928367,48.660459],[36.928623,48.660171],[36.927927,48.659916],[36.927684,48.660192],[36.928304,48.660435],[36.928367,48.660459]]]}},{"type":"Feature","properties":{"cadnum":"1420383305:00:000:0012"},"geometry":{"type":"Polygon","coordinates":[[[36.925416,48.661571],[36.925483,48.661494],[36.925474,48.661491],[36.92538,48.661456],[36.925367,48.661449],[36.9253,48.661527],[36.925416,48.661571]]]}},{"type":"Feature","properties":{"cadnum":"1420383305:00:000:0069"},"geometry":{"type":"Polygon","coordinates":[[[36.918858,48.672502],[36.918889,48.672437],[36.916868,48.671826],[36.916828,48.671888],[36.918858,48.672502]]]}},{"type":"Feature","properties":{"cadnum":"1420383305:00:000:0071"},"geometry":{"type":"Polygon","coordinates":[[[36.917421,48.670284],[36.917583,48.670088],[36.916312,48.669791],[36.916235,48.669774],[36.916092,48.669958],[36.917421,48.670284]]]}},{"type":"Feature","properties":{"cadnum":"1420383305:00:000:0072"},"geometry":{"type":"Polygon","coordinates":[[[36.916092,48.669958],[36.916235,48.669774],[36.915898,48.669693],[36.915872,48.669688],[36.915715,48.669866],[36.916092,48.669958]]]}},{"type":"Feature","properties":{"cadnum":"1420383305:00:000:0070"},"geometry":{"type":"Polygon","coordinates":[[[36.918889,48.672437],[36.918925,48.672369],[36.916914,48.671764],[36.916868,48.671826],[36.918889,48.672437]]]}}]}