{"type":"FeatureCollection","features":[{"type":"Feature","properties":{"cadnum":"1420387306:00:000:0009"},"geometry":{"type":"Polygon","coordinates":[[[36.921715,48.53443],[36.9207,48.534246],[36.920614,48.534239],[36.92056,48.534391],[36.920655,48.534406],[36.9205,48.534851],[36.920501034482754,48.534851],[36.92048,48.534912],[36.921581,48.535064],[36.921642696629306,48.53476821910068],[36.921715,48.53443]]]}},{"type":"Feature","properties":{"cadnum":"1420387306:00:000:0001"},"geometry":{"type":"Polygon","coordinates":[[[36.919641,48.53655156088561],[36.920283,48.536625],[36.920399,48.536182],[36.919641,48.53609551130248],[36.919641,48.536095],[36.919275,48.536054],[36.919159,48.536497],[36.919641,48.536552],[36.919641,48.53655156088561]]]}},{"type":"Feature","properties":{"cadnum":"1420387306:00:000:0004"},"geometry":{"type":"Polygon","coordinates":[[[36.915176,48.534719],[36.914704,48.534677],[36.91468962643678,48.534738],[36.914689,48.534738],[36.91467348911362,48.53480648522515],[36.914663,48.534851],[36.91466340717822,48.534851],[36.914506,48.535546],[36.914996,48.53559],[36.915172,48.534738],[36.915171825757575,48.534738],[36.915176,48.534719]]]}},{"type":"Feature","properties":{"cadnum":"1420387306:00:000:0002"},"geometry":{"type":"Polygon","coordinates":[[[36.916743,48.534823],[36.915566,48.534704],[36.91555628571428,48.534738],[36.915556,48.534738],[36.91554978082199,48.53476076712302],[36.915524,48.534851],[36.91552513237064,48.534851],[36.915329,48.535569],[36.916985,48.535718],[36.917556,48.535802],[36.917596,48.535727],[36.917696,48.535742],[36.91795,48.535141],[36.917992,48.535048],[36.917367,48.534894],[36.91698908450705,48.534851],[36.916993,48.534851],[36.916743,48.534823]]]}},{"type":"Feature","properties":{"cadnum":"1420387306:00:000:0006"},"geometry":{"type":"Polygon","coordinates":[[[36.917426,48.53628],[36.917453,48.536232],[36.917883,48.536108],[36.917937,48.536126],[36.918076,48.53595],[36.918207,48.535697],[36.917753,48.535605],[36.917696,48.535742],[36.917596,48.535727],[36.917556,48.535802],[36.917317,48.536259],[36.917426,48.53628]]]}},{"type":"Feature","properties":{"cadnum":"1420387306:00:000:0005"},"geometry":{"type":"Polygon","coordinates":[[[36.917413,48.536468],[36.917633,48.536461],[36.917785,48.536327],[36.918143,48.536155],[36.918418,48.536087],[36.918472,48.536042],[36.918606,48.535793],[36.918207,48.535697],[36.918076,48.53595],[36.917937,48.536126],[36.917883,48.536108],[36.917453,48.536232],[36.917426,48.53628],[36.917407,48.536387],[36.917413,48.536468]]]}},{"type":"Feature","properties":{"cadnum":"1420387306:00:000:0007"},"geometry":{"type":"Polygon","coordinates":[[[36.918207,48.535697],[36.918499,48.535132],[36.917992,48.535048],[36.91795,48.535141],[36.917753,48.535605],[36.918207,48.535697]]]}},{"type":"Feature","properties":{"cadnum":"1420387306:00:000:0003"},"geometry":{"type":"Polygon","coordinates":[[[36.91487,48.536194],[36.914996,48.53559],[36.914506,48.535546],[36.914371,48.536158],[36.91487,48.536194]]]}}]}