{"type":"FeatureCollection","features":[{"type":"Feature","properties":{"cadnum":"1420383501:00:000:0139"},"geometry":{"type":"Polygon","coordinates":[[[37.024796,48.725478],[37.025515,48.724912],[37.025637,48.724862],[37.025035,48.724213],[37.023853,48.724684],[37.022672,48.725155],[37.023058,48.725428],[37.02384,48.72589137142857],[37.02384,48.725892],[37.023863,48.725905],[37.024012,48.725838],[37.024012,48.725836808145765],[37.024796,48.725478]]]}},{"type":"Feature","properties":{"cadnum":"1420383501:00:000:0127"},"geometry":{"type":"Polygon","coordinates":[[[37.018518,48.73629444427935],[37.01902,48.736695],[37.019249,48.736561],[37.01838976724107,48.73587609051699],[37.01828,48.735788],[37.01805,48.735921],[37.018518,48.736295],[37.018518,48.73629444427935]]]}},{"type":"Feature","properties":{"cadnum":"1420383501:00:000:0068"},"geometry":{"type":"Polygon","coordinates":[[[37.014982,48.735569],[37.015454,48.735288],[37.015037,48.734884],[37.014569,48.735163],[37.014982,48.735569]]]}},{"type":"Feature","properties":{"cadnum":"1420383501:00:000:0048"},"geometry":{"type":"Polygon","coordinates":[[[37.018926,48.735652],[37.018687,48.735474],[37.018396,48.735649],[37.018518,48.735736],[37.018518,48.73573511764706],[37.018634,48.735817],[37.018926,48.735652]]]}},{"type":"Feature","properties":{"cadnum":"1420383501:00:000:0143"},"geometry":{"type":"MultiPolygon","coordinates":[[[[37.035891,48.726856],[37.036088,48.726513],[37.034826,48.727035],[37.034826,48.727035697508896],[37.03454304761905,48.727152],[37.034542,48.727152],[37.034436,48.727196],[37.03426,48.727265],[37.03426134738616,48.727265],[37.032935,48.727789],[37.033402,48.728193],[37.033165,48.72829],[37.033415,48.728566],[37.033601,48.728734],[37.034998,48.72798],[37.034998,48.72797906451613],[37.035322,48.727804],[37.035312,48.727807],[37.035306,48.727801],[37.035316,48.727795],[37.035324,48.727803],[37.035526,48.727694],[37.035455,48.727623],[37.035087245231615,48.727265],[37.035088,48.727265],[37.035078,48.727256],[37.035891,48.726856]],[[37.03462,48.728133],[37.03461,48.728139],[37.034602,48.72813],[37.034616,48.728127],[37.03462,48.728133]],[[37.033947,48.728441],[37.033932,48.728447],[37.033928,48.728438],[37.033937,48.728435],[37.033947,48.728441]]],[[[37.035322,48.727804],[37.035325,48.727804],[37.035324,48.727803],[37.035322,48.727804]]]]}},{"type":"Feature","properties":{"cadnum":"1420383501:00:000:0117"},"geometry":{"type":"Polygon","coordinates":[[[37.029037,48.729955],[37.029333,48.73025669230769],[37.029333,48.730257],[37.029652,48.730583],[37.029998,48.730431],[37.02936,48.729807],[37.029333,48.729819],[37.029333,48.729819371517024],[37.029037,48.729955]]]}},{"type":"Feature","properties":{"cadnum":"1420383501:00:000:0056"},"geometry":{"type":"Polygon","coordinates":[[[37.033272,48.726782],[37.032886,48.726948],[37.033107375394316,48.727152],[37.033107,48.727152],[37.03322726259881,48.72726247745297],[37.03323,48.727265],[37.03323000857144,48.727265],[37.033488,48.727502],[37.033843,48.727312],[37.03374999442739,48.72722598328544],[37.033272,48.726782]]]}},{"type":"Feature","properties":{"cadnum":"1420383501:00:000:0088"},"geometry":{"type":"Polygon","coordinates":[[[37.030425,48.726959],[37.030065,48.726598],[37.029499,48.72688],[37.029773260387806,48.727152],[37.029773,48.727152],[37.029863,48.727241],[37.030425,48.726959]]]}},{"type":"Feature","properties":{"cadnum":"1420383501:00:000:0115"},"geometry":{"type":"Polygon","coordinates":[[[37.033654,48.72645],[37.033132,48.726649],[37.033272,48.726782],[37.033670343685294,48.727152],[37.03367,48.727152],[37.03374999442739,48.72722598328544],[37.033792,48.727265],[37.03379218125001,48.727265],[37.033843,48.727312],[37.033892,48.727359],[37.034394,48.727161],[37.034385,48.727152],[37.03438463291138,48.727152],[37.033654,48.72645]]]}},{"type":"Feature","properties":{"cadnum":"1420383501:00:000:0152"},"geometry":{"type":"Polygon","coordinates":[[[37.00723,48.730728],[37.00710060869565,48.730776],[37.0071,48.730776],[37.006039,48.731169],[37.00736,48.73231569524447],[37.00736,48.732317],[37.00759,48.732515],[37.008856,48.732179],[37.008039,48.731448],[37.007532,48.73099700147275],[37.007532,48.730997],[37.007284,48.730776],[37.00728366459627,48.730776],[37.00723,48.730728]]]}},{"type":"Feature","properties":{"cadnum":"1420383501:00:000:0148"},"geometry":{"type":"Polygon","coordinates":[[[37.029505,48.72329928571428],[37.029505,48.723299],[37.0291,48.723472],[37.02915854054054,48.723529],[37.029157,48.723529],[37.029176,48.723546],[37.029271,48.723642],[37.029272587155965,48.723642],[37.029505,48.723873],[37.029505,48.72387240445269],[37.029872,48.724236],[37.030362,48.724041],[37.029862,48.723529],[37.02986124543081,48.723529],[37.029599,48.723259],[37.029505,48.72329928571428]]]}},{"type":"Feature","properties":{"cadnum":"1420383501:00:000:0072"},"geometry":{"type":"Polygon","coordinates":[[[37.027815,48.726909],[37.027169,48.72715],[37.02717106956521,48.727152],[37.027171,48.727152],[37.02718134073963,48.727161925924854],[37.027288,48.727265],[37.027288722388064,48.727265],[37.027869,48.727822],[37.028457,48.727519],[37.028146797663275,48.72722482879178],[37.027815,48.726909]]]}},{"type":"Feature","properties":{"cadnum":"1420383501:00:000:0124"},"geometry":{"type":"Polygon","coordinates":[[[37.028929,48.72461],[37.029387,48.724405],[37.028758,48.723766],[37.028268,48.723961],[37.028929,48.72461]]]}},{"type":"Feature","properties":{"cadnum":"1420383501:00:000:0123"},"geometry":{"type":"Polygon","coordinates":[[[37.029505,48.725018],[37.029505,48.72501797457627],[37.029863,48.724886],[37.029387,48.724405],[37.028929,48.72461],[37.029333,48.72500350649351],[37.029333,48.725004],[37.029391,48.72506],[37.029505,48.725018]]]}},{"type":"Feature","properties":{"cadnum":"1420383501:00:000:0138"},"geometry":{"type":"Polygon","coordinates":[[[37.027716,48.723144],[37.026471,48.723642],[37.02647187417219,48.723642],[37.026377,48.72368],[37.025035,48.724213],[37.025637,48.724862],[37.027052,48.724328],[37.028322,48.72384],[37.028148829581994,48.723642],[37.028149,48.723642],[37.027716,48.723144]]]}},{"type":"Feature","properties":{"cadnum":"1420383501:00:000:0150"},"geometry":{"type":"Polygon","coordinates":[[[37.03024,48.722945],[37.029702,48.722352],[37.029505,48.722431013550136],[37.029505,48.722431],[37.027716,48.723144],[37.02805074899598,48.723529],[37.02805,48.723529],[37.028322,48.72384],[37.028825,48.723582],[37.029077,48.723443],[37.029505,48.72326],[37.029505,48.723259421168684],[37.03024,48.722945]]]}},{"type":"Feature","properties":{"cadnum":"1420383501:00:000:0076"},"geometry":{"type":"Polygon","coordinates":[[[37.027043,48.725161],[37.027492,48.725025],[37.027411,48.724945],[37.027595,48.724892],[37.027092,48.72437],[37.026513,48.724595],[37.027043,48.725161]]]}},{"type":"Feature","properties":{"cadnum":"1420383501:00:000:0075"},"geometry":{"type":"Polygon","coordinates":[[[37.027528,48.725679],[37.027995,48.725538],[37.027492,48.725025],[37.027043,48.725161],[37.027528,48.725679]]]}},{"type":"Feature","properties":{"cadnum":"1420383501:00:000:0089"},"geometry":{"type":"Polygon","coordinates":[[[37.030065,48.726598],[37.029593,48.726121],[37.02941451351362,48.72617935135131],[37.028947,48.726331],[37.029333,48.72671490217392],[37.029333,48.726715],[37.029499,48.72688],[37.030065,48.726598]]]}},{"type":"Feature","properties":{"cadnum":"1420383501:00:000:0133"},"geometry":{"type":"Polygon","coordinates":[[[37.007532,48.736207111111106],[37.007747,48.736351],[37.008892,48.737121],[37.009412,48.736718],[37.009557,48.73644],[37.00886,48.73599],[37.008116,48.73543],[37.007804,48.735196],[37.007576,48.735021],[37.00749083871099,48.73506318637928],[37.00701,48.735299],[37.006951,48.735329],[37.006785,48.735415],[37.006691,48.735521],[37.006638,48.735607],[37.006745,48.735679],[37.007532,48.736208],[37.007532,48.736207111111106]]]}},{"type":"Feature","properties":{"cadnum":"1420383501:00:000:0147"},"geometry":{"type":"Polygon","coordinates":[[[37.030322,48.724684],[37.030806,48.724495],[37.030362,48.724041],[37.029872,48.724236],[37.030322,48.724684]]]}},{"type":"Feature","properties":{"cadnum":"1420383501:00:000:0036"},"geometry":{"type":"Polygon","coordinates":[[[37.032985,48.72357],[37.032455,48.723081],[37.032019,48.723252],[37.03231233589744,48.723529],[37.032312,48.723529],[37.03234340694031,48.72355834069425],[37.032432,48.723642],[37.03243295774647,48.723642],[37.03254,48.723742],[37.03279872093024,48.723642],[37.032799,48.723642],[37.032985,48.72357]]]}},{"type":"Feature","properties":{"cadnum":"1420383501:00:000:0081"},"geometry":{"type":"Polygon","coordinates":[[[37.030448,48.72695],[37.031027,48.726687],[37.030662,48.726316],[37.030096,48.726577],[37.030448,48.72695]]]}},{"type":"Feature","properties":{"cadnum":"1420383501:00:000:0134"},"geometry":{"type":"Polygon","coordinates":[[[37.03483361268807,48.72507878130206],[37.034998,48.72501],[37.034998,48.72500927719298],[37.035396,48.724841],[37.035042,48.72451],[37.034998,48.72452812962963],[37.034998,48.724528],[37.03491886956539,48.724560734299445],[37.034826,48.724599],[37.034826,48.724599152136754],[37.034413,48.72477],[37.034759,48.72511],[37.034826,48.7250819665272],[37.034826,48.725082],[37.03483361268807,48.72507878130206]]]}},{"type":"Feature","properties":{"cadnum":"1420383501:00:000:0057"},"geometry":{"type":"Polygon","coordinates":[[[37.032886,48.726948],[37.033272,48.726782],[37.032693,48.726243],[37.032306,48.726412],[37.032886,48.726948]]]}},{"type":"Feature","properties":{"cadnum":"1420383501:00:000:0050"},"geometry":{"type":"Polygon","coordinates":[[[37.032689,48.725336],[37.033155,48.725134],[37.033119,48.725096],[37.032845,48.724963],[37.032473,48.725125],[37.032689,48.725336]]]}},{"type":"Feature","properties":{"cadnum":"1420383501:00:000:0074"},"geometry":{"type":"Polygon","coordinates":[[[37.031938,48.725531],[37.032333,48.725365],[37.03219,48.725229],[37.031844,48.725448],[37.031938,48.725531]]]}},{"type":"Feature","properties":{"cadnum":"1420383501:00:000:0113"},"geometry":{"type":"Polygon","coordinates":[[[37.031027,48.726687],[37.031601,48.726432],[37.031251,48.726059],[37.030668,48.72632],[37.031027,48.726687]]]}},{"type":"Feature","properties":{"cadnum":"1420383501:00:000:0049"},"geometry":{"type":"Polygon","coordinates":[[[37.033159,48.725798],[37.033609,48.725611],[37.033155,48.725134],[37.032689,48.725336],[37.033159,48.725798]]]}},{"type":"Feature","properties":{"cadnum":"1420383501:00:000:0135"},"geometry":{"type":"Polygon","coordinates":[[[37.03491886956539,48.724560734299445],[37.035042,48.72451],[37.034998,48.72446844444445],[37.034998,48.724468],[37.034314,48.723821],[37.033731,48.7241],[37.034413,48.72477],[37.03491886956539,48.724560734299445]]]}},{"type":"Feature","properties":{"cadnum":"1420383501:00:000:0114"},"geometry":{"type":"Polygon","coordinates":[[[37.033132,48.726649],[37.033654,48.72645],[37.033218,48.726035],[37.032693,48.726243],[37.033132,48.726649]]]}},{"type":"Feature","properties":{"cadnum":"1420383501:00:000:0073"},"geometry":{"type":"Polygon","coordinates":[[[37.032532,48.726071],[37.032913,48.725911],[37.032333,48.725365],[37.031938,48.725531],[37.032532,48.726071]]]}},{"type":"Feature","properties":{"cadnum":"1420383501:00:000:0102"},"geometry":{"type":"Polygon","coordinates":[[[37.017309,48.734168],[37.017399,48.73412],[37.017301,48.734043],[37.017211,48.734091],[37.017309,48.734168]]]}},{"type":"Feature","properties":{"cadnum":"1420383501:00:000:0125"},"geometry":{"type":"Polygon","coordinates":[[[37.017475,48.734124],[37.017907,48.733863],[37.017628,48.733575],[37.017507,48.733468],[37.017008,48.733744],[37.017179,48.733913],[37.017475,48.734124]]]}},{"type":"Feature","properties":{"cadnum":"1420383501:00:000:0126"},"geometry":{"type":"Polygon","coordinates":[[[37.017008,48.733744],[37.017507,48.733468],[37.01655,48.732615],[37.0162,48.73295],[37.017008,48.733744]]]}},{"type":"Feature","properties":{"cadnum":"1420383501:00:000:0044"},"geometry":{"type":"Polygon","coordinates":[[[37.012705,48.732517],[37.012351,48.732692],[37.012854,48.73317275039494],[37.012854,48.733173],[37.012984,48.733297],[37.013104,48.732953],[37.012854,48.73268],[37.012854,48.732680434375],[37.012705,48.732517]]]}},{"type":"Feature","properties":{"cadnum":"1420383501:00:000:0116"},"geometry":{"type":"Polygon","coordinates":[[[37.016725,48.730562],[37.01642,48.730707],[37.016480280219774,48.730776],[37.016479,48.730776],[37.016976,48.731338],[37.017358,48.73119],[37.01702795416768,48.730863112501005],[37.016725,48.730562]]]}},{"type":"Feature","properties":{"cadnum":"1420383501:00:000:0006"},"geometry":{"type":"Polygon","coordinates":[[[37.016986,48.734304],[37.017142,48.734221],[37.017012,48.734111],[37.016855,48.734194],[37.016986,48.734304]]]}},{"type":"Feature","properties":{"cadnum":"1420383501:00:000:0060"},"geometry":{"type":"Polygon","coordinates":[[[37.014112,48.731614],[37.014498,48.731424],[37.013905,48.730936],[37.013505,48.731125],[37.014112,48.731614]]]}},{"type":"Feature","properties":{"cadnum":"1420383501:00:000:0151"},"geometry":{"type":"Polygon","coordinates":[[[37.017786,48.730677],[37.017589,48.730463],[37.017379,48.730501],[37.017226,48.73038],[37.016813,48.730591],[37.017117,48.730889],[37.017117825,48.730889],[37.017207,48.730976],[37.017506014084596,48.730821070422486],[37.017786,48.730677]]]}},{"type":"Feature","properties":{"cadnum":"1420383501:00:000:0153"},"geometry":{"type":"Polygon","coordinates":[[[37.017786,48.730677],[37.017593603773584,48.730776],[37.017593,48.730776],[37.017506014084596,48.730821070422486],[37.017374,48.730889],[37.01737491,48.730889],[37.017207,48.730976],[37.01745,48.731216],[37.017979,48.73089],[37.01796600000086,48.73087575000095],[37.017786,48.730677]]]}},{"type":"Feature","properties":{"cadnum":"1420383501:00:000:0059"},"geometry":{"type":"Polygon","coordinates":[[[37.015953,48.730657],[37.015368,48.730112],[37.015001,48.73029],[37.01552602189781,48.730776],[37.015526,48.730776],[37.015593,48.730838],[37.015953,48.730657]]]}},{"type":"Feature","properties":{"cadnum":"1420383501:00:000:0141"},"geometry":{"type":"Polygon","coordinates":[[[37.014169,48.73069],[37.01399601149426,48.730776],[37.013996,48.730776],[37.013819,48.730864],[37.013905,48.730936],[37.014498,48.731424],[37.014825,48.731261],[37.0143950259757,48.73088727705773],[37.014169,48.73069]]]}},{"type":"Feature","properties":{"cadnum":"1420383501:00:000:0061"},"geometry":{"type":"Polygon","coordinates":[[[37.013025,48.73073751955307],[37.01307250344828,48.730776],[37.013072,48.730776],[37.01317266560554,48.73085713694303],[37.013212,48.730889],[37.01321219770774,48.730889],[37.013505,48.731125],[37.013905,48.730936],[37.013712,48.730776],[37.01371112688822,48.730776],[37.013051,48.730227],[37.013025,48.730240593908626],[37.013025,48.73024],[37.012651,48.730435],[37.013025,48.730738],[37.013025,48.73073751955307]]]}},{"type":"Feature","properties":{"cadnum":"1420383501:00:000:0142"},"geometry":{"type":"Polygon","coordinates":[[[37.014169,48.73069],[37.013424,48.73004],[37.013051,48.730227],[37.01371290266876,48.730776],[37.013712,48.730776],[37.013819,48.730864],[37.014169,48.73069]]]}},{"type":"Feature","properties":{"cadnum":"1420383501:00:000:0085"},"geometry":{"type":"Polygon","coordinates":[[[37.008479,48.734375],[37.007863,48.733878],[37.007491,48.734076],[37.00788141513762,48.734399],[37.007881,48.734399],[37.00791322551957,48.73442531750765],[37.008018,48.734512],[37.00801936734694,48.734512],[37.008061,48.734546],[37.008079,48.734559],[37.008427,48.734399],[37.00842662043795,48.734399],[37.008479,48.734375]]]}},{"type":"Feature","properties":{"cadnum":"1420383501:00:000:0132"},"geometry":{"type":"Polygon","coordinates":[[[37.010424,48.737056],[37.009997,48.736792],[37.009382,48.737275],[37.008846939534884,48.738022],[37.008846,48.738022],[37.008582,48.738392],[37.007971,48.738742],[37.007854,48.73881],[37.008303,48.739005],[37.00933260864237,48.7380582223616],[37.010424,48.737056]]]}},{"type":"Feature","properties":{"cadnum":"1420383501:00:000:0119"},"geometry":{"type":"Polygon","coordinates":[[[37.009265,48.734209],[37.008869,48.734396],[37.00887205172414,48.734399],[37.008872,48.734399],[37.00887694230834,48.73440380769294],[37.008987,48.734512],[37.008988163999994,48.734512],[37.009386,48.734899],[37.009808,48.734698],[37.00948407356938,48.734407147138874],[37.009265,48.734209]]]}},{"type":"Feature","properties":{"cadnum":"1420383501:00:000:0120"},"geometry":{"type":"Polygon","coordinates":[[[37.009858,48.735365],[37.010374,48.735207],[37.009808,48.734698],[37.009386,48.734899],[37.009858,48.735365]]]}},{"type":"Feature","properties":{"cadnum":"1420383501:00:000:0086"},"geometry":{"type":"Polygon","coordinates":[[[37.007532,48.734055],[37.007532,48.73405417741936],[37.007863,48.733878],[37.00746415058681,48.733553687057665],[37.006731,48.732956],[37.006596,48.733341],[37.006929,48.733613],[37.00736,48.733968076512454],[37.00736,48.733969],[37.007491,48.734076],[37.007532,48.734055]]]}},{"type":"Feature","properties":{"cadnum":"1420383501:00:000:0003"},"geometry":{"type":"Polygon","coordinates":[[[37.005887,48.733738],[37.006651,48.733564],[37.006225,48.73271],[37.005456,48.732885],[37.005887,48.733738]]]}},{"type":"Feature","properties":{"cadnum":"1420383501:00:000:0097"},"geometry":{"type":"Polygon","coordinates":[[[37.024012,48.732563],[37.024012,48.732562186528504],[37.024033,48.73255],[37.024012,48.73252812953368],[37.024012,48.732528],[37.023297,48.731783],[37.022802,48.732052],[37.023593,48.732805],[37.024012,48.732563]]]}},{"type":"Feature","properties":{"cadnum":"1420383501:00:000:0128"},"geometry":{"type":"Polygon","coordinates":[[[37.022282,48.734289],[37.02185,48.733892],[37.021324,48.734117],[37.021752,48.734512],[37.021752741379316,48.734512],[37.021756,48.734515],[37.021958,48.734429],[37.022282,48.734289]]]}},{"type":"Feature","properties":{"cadnum":"1420383501:00:000:0129"},"geometry":{"type":"Polygon","coordinates":[[[37.021324,48.734117],[37.02185,48.733892],[37.021612,48.733673],[37.02092,48.734032],[37.021485,48.734512],[37.021485545454546,48.734512],[37.021586,48.734597],[37.021679,48.734546],[37.021756,48.734515],[37.02163,48.734399],[37.021629559493675,48.734399],[37.021324,48.734117]]]}},{"type":"Feature","properties":{"cadnum":"1420383501:00:000:0084"},"geometry":{"type":"Polygon","coordinates":[[[37.020974,48.732814],[37.02105,48.732772],[37.021077,48.732707],[37.02106,48.732692],[37.020916,48.732574],[37.020772,48.732648],[37.020974,48.732814]]]}},{"type":"Feature","properties":{"cadnum":"1420383501:00:000:0062"},"geometry":{"type":"Polygon","coordinates":[[[37.022452,48.734449],[37.022282,48.734289],[37.02202742857141,48.734399],[37.022027,48.734399],[37.021958,48.734429],[37.022059,48.734512],[37.02205950154799,48.734512],[37.022353,48.734752],[37.022591,48.734618],[37.022443,48.734467],[37.022452,48.734449]]]}},{"type":"Feature","properties":{"cadnum":"1420383501:00:000:0096"},"geometry":{"type":"Polygon","coordinates":[[[37.022802,48.732052],[37.023297,48.731783],[37.022905,48.731377],[37.022408,48.73167],[37.022802,48.732052]]]}},{"type":"Feature","properties":{"cadnum":"1420383501:00:000:0092"},"geometry":{"type":"Polygon","coordinates":[[[37.024159,48.733878],[37.024012,48.73396417241379],[37.024012,48.733964],[37.023588,48.734212],[37.023829230000004,48.734399],[37.023829,48.734399],[37.02384,48.73440750666667],[37.02384,48.734408],[37.023975,48.734512],[37.02397510280374,48.734512],[37.023979,48.734515],[37.024012,48.734497],[37.024012,48.734496049504955],[37.024181,48.734399],[37.02418057668711,48.734399],[37.024553,48.734186],[37.024159,48.733878]]]}},{"type":"Feature","properties":{"cadnum":"1420383501:00:000:0111"},"geometry":{"type":"Polygon","coordinates":[[[37.020062,48.731377],[37.020332,48.73125],[37.020071,48.731015],[37.019888,48.731211],[37.020062,48.731377]]]}},{"type":"Feature","properties":{"cadnum":"1420383501:00:000:0131"},"geometry":{"type":"Polygon","coordinates":[[[37.019559,48.734254],[37.019676,48.734201],[37.020282,48.73391],[37.020498,48.733806],[37.019752,48.733122],[37.018886,48.733599],[37.019559,48.734254]]]}},{"type":"Feature","properties":{"cadnum":"1420383501:00:000:0005"},"geometry":{"type":"Polygon","coordinates":[[[37.021172,48.732699],[37.021276,48.732631],[37.021307,48.732607],[37.021127,48.732462],[37.021064,48.732497],[37.021037,48.732508],[37.020979,48.732544],[37.021172,48.732699]]]}},{"type":"Feature","properties":{"cadnum":"1420383501:00:000:0122"},"geometry":{"type":"Polygon","coordinates":[[[37.020637,48.734239],[37.020282,48.73391],[37.019676,48.734201],[37.020012,48.734512],[37.020012561538465,48.734512],[37.020031,48.734529],[37.02019776923161,48.7344489999996],[37.020637,48.734239]]]}},{"type":"Feature","properties":{"cadnum":"1420383501:00:000:0110"},"geometry":{"type":"Polygon","coordinates":[[[37.020875,48.732126],[37.021131,48.731975],[37.02075,48.731626],[37.020332,48.73125],[37.020062,48.731377],[37.020875,48.732126]]]}},{"type":"Feature","properties":{"cadnum":"1420383501:00:000:0094"},"geometry":{"type":"Polygon","coordinates":[[[37.021666,48.731682],[37.021945,48.73152],[37.021823,48.731404],[37.021733,48.731318],[37.02181,48.731265],[37.021396,48.730885],[37.02106,48.731078],[37.021307,48.731321],[37.021666,48.731682]]]}},{"type":"Feature","properties":{"cadnum":"1420383501:00:000:0109"},"geometry":{"type":"Polygon","coordinates":[[[37.024012,48.731685],[37.024012,48.73168405471125],[37.024303,48.731516],[37.024012,48.73125705399568],[37.024012,48.731257],[37.023664,48.730947],[37.023341,48.731134],[37.02384,48.731584913112165],[37.02384,48.731585],[37.023974,48.731706],[37.024012,48.731685]]]}},{"type":"Feature","properties":{"cadnum":"1420383501:00:000:0080"},"geometry":{"type":"Polygon","coordinates":[[[37.020561,48.730577],[37.02033840064102,48.730776],[37.020338,48.730776],[37.020071,48.731015],[37.02075,48.731626],[37.021307,48.731321],[37.02080081228912,48.73081758338972],[37.020561,48.730577]]]}},{"type":"Feature","properties":{"cadnum":"1420383501:00:000:0095"},"geometry":{"type":"Polygon","coordinates":[[[37.021396,48.730885],[37.020831,48.730355],[37.020601,48.730527],[37.020561,48.730577],[37.02075872435898,48.730776],[37.020758,48.730776],[37.020871,48.730889],[37.02106,48.731078],[37.02138903626944,48.730889],[37.02139,48.730889],[37.021396,48.730885]]]}},{"type":"Feature","properties":{"cadnum":"1420383501:00:000:0144"},"geometry":{"type":"Polygon","coordinates":[[[37.0211,48.73018],[37.020983,48.730272],[37.021658,48.730889],[37.021658857651246,48.730889],[37.022151,48.731338],[37.022119,48.731356],[37.022173,48.731397],[37.022223,48.731371],[37.022362,48.7313],[37.021771,48.730776],[37.02177081523272,48.730776],[37.0211,48.73018]]]}},{"type":"Feature","properties":{"cadnum":"1420383501:00:000:0079"},"geometry":{"type":"Polygon","coordinates":[[[37.021131,48.731975],[37.021666,48.731682],[37.021307,48.731321],[37.02075,48.731626],[37.021131,48.731975]]]}},{"type":"Feature","properties":{"cadnum":"1420383501:00:000:0030"},"geometry":{"type":"Polygon","coordinates":[[[37.020067,48.736025],[37.020278,48.735901],[37.019308,48.735145],[37.019074,48.735281],[37.020067,48.736025]]]}},{"type":"Feature","properties":{"cadnum":"1420383501:00:000:0047"},"geometry":{"type":"Polygon","coordinates":[[[37.019496,48.736434],[37.019752,48.736274],[37.018926,48.735652],[37.018634,48.735817],[37.019496,48.736434]]]}},{"type":"Feature","properties":{"cadnum":"1420383501:00:000:0082"},"geometry":{"type":"Polygon","coordinates":[[[37.019752,48.736274],[37.020018,48.736126],[37.019236,48.735489],[37.018936,48.735657],[37.019752,48.736274]]]}},{"type":"Feature","properties":{"cadnum":"1420383501:00:000:0083"},"geometry":{"type":"Polygon","coordinates":[[[37.018936,48.735657],[37.019236,48.735489],[37.018993,48.73529],[37.018687,48.735474],[37.018936,48.735657]]]}},{"type":"Feature","properties":{"cadnum":"1420383501:00:000:0064"},"geometry":{"type":"Polygon","coordinates":[[[37.02998,48.732209],[37.030232,48.732079],[37.029949,48.731801],[37.029689,48.731946],[37.02998,48.732209]]]}},{"type":"Feature","properties":{"cadnum":"1420383501:00:000:0063"},"geometry":{"type":"Polygon","coordinates":[[[37.029505,48.731397],[37.029153,48.731083],[37.028893,48.731229],[37.029333,48.73162514379085],[37.029333,48.731626],[37.029689,48.731946],[37.029949,48.731801],[37.029832,48.731688],[37.029505,48.73139704208417],[37.029505,48.731397]]]}},{"type":"Feature","properties":{"cadnum":"1420383501:00:000:0140"},"geometry":{"type":"Polygon","coordinates":[[[37.013025,48.730189],[37.013025,48.730188978369384],[37.013464,48.729964],[37.012854,48.729289],[37.012854,48.729289575757576],[37.012431,48.728821],[37.011766,48.729067],[37.012854,48.73026211394712],[37.012854,48.730263],[37.012863,48.730272],[37.013025,48.730189]]]}},{"type":"Feature","properties":{"cadnum":"1420383501:00:000:0058"},"geometry":{"type":"Polygon","coordinates":[[[37.015001,48.73029],[37.015368,48.730112],[37.01505,48.72981],[37.014659,48.729404],[37.01425,48.729596],[37.015001,48.73029]]]}},{"type":"Feature","properties":{"cadnum":"1420383501:00:000:0054"},"geometry":{"type":"Polygon","coordinates":[[[37.017314,48.729961],[37.017565,48.729833],[37.016762,48.729116],[37.016465,48.729262],[37.017314,48.729961]]]}},{"type":"Feature","properties":{"cadnum":"1420383501:00:000:0055"},"geometry":{"type":"Polygon","coordinates":[[[37.016465,48.729262],[37.016762,48.729116],[37.016263,48.728669],[37.015944,48.728832],[37.016465,48.729262]]]}},{"type":"Feature","properties":{"cadnum":"1420383501:00:000:0070"},"geometry":{"type":"Polygon","coordinates":[[[37.017412,48.730299],[37.017525,48.730245],[37.017452,48.730171],[37.017341,48.730222],[37.017412,48.730299]]]}},{"type":"Feature","properties":{"cadnum":"1420383501:00:000:0037"},"geometry":{"type":"Polygon","coordinates":[[[37.032019,48.723252],[37.032455,48.723081],[37.031813,48.722488],[37.031377,48.722657],[37.032019,48.723252]]]}},{"type":"Feature","properties":{"cadnum":"1420383501:00:000:0149"},"geometry":{"type":"Polygon","coordinates":[[[37.03024,48.722945],[37.030981,48.722669],[37.031282,48.722624],[37.032746,48.72202],[37.032221,48.721418],[37.031089,48.721798],[37.029702,48.722352],[37.03024,48.722945]]]}},{"type":"Feature","properties":{"cadnum":"1420383501:00:000:0101"},"geometry":{"type":"Polygon","coordinates":[[[37.02848,48.733004],[37.028991,48.732737],[37.028924,48.73268],[37.028278,48.732139],[37.027765,48.732411],[37.028425,48.732959],[37.02848,48.733004]]]}},{"type":"Feature","properties":{"cadnum":"1420383501:00:000:0093"},"geometry":{"type":"Polygon","coordinates":[[[37.024553,48.734186],[37.023983,48.734512],[37.023984224137926,48.734512],[37.023979,48.734515],[37.024442,48.73487],[37.024733,48.734825],[37.024954,48.734967],[37.025308,48.734761],[37.025089,48.734594],[37.024832,48.734399],[37.024831990797544,48.734399],[37.024553,48.734186]]]}},{"type":"Feature","properties":{"cadnum":"1420383501:00:000:0136"},"geometry":{"type":"Polygon","coordinates":[[[37.029064,48.732038],[37.029369,48.731878],[37.028708,48.731279],[37.028377,48.731463],[37.029064,48.732038]]]}},{"type":"Feature","properties":{"cadnum":"1420383501:00:000:0121"},"geometry":{"type":"Polygon","coordinates":[[[37.024559,48.732233],[37.024913,48.732071],[37.024303,48.731516],[37.023974,48.731706],[37.024559,48.732233]]]}},{"type":"Feature","properties":{"cadnum":"1420383501:00:000:0043"},"geometry":{"type":"Polygon","coordinates":[[[37.02848,48.733051],[37.028673,48.732938],[37.027515,48.731993],[37.027335,48.732094],[37.02848,48.733051]]]}},{"type":"Feature","properties":{"cadnum":"1420383501:00:000:0042"},"geometry":{"type":"Polygon","coordinates":[[[37.027316,48.730696],[37.027083,48.730835],[37.027148,48.730889],[37.02714941921397,48.730889],[37.027928,48.731522],[37.028148,48.731386],[37.027547526229505,48.730889],[37.027548,48.730889],[37.027316,48.730696]]]}},{"type":"Feature","properties":{"cadnum":"1420383501:00:000:0112"},"geometry":{"type":"Polygon","coordinates":[[[37.02618,48.732517],[37.026454,48.732355],[37.026167,48.732115],[37.025569,48.731614],[37.025345,48.731711],[37.025907,48.732257],[37.02618,48.732517]]]}},{"type":"Feature","properties":{"cadnum":"1420383501:00:000:0100"},"geometry":{"type":"Polygon","coordinates":[[[37.027765,48.732411],[37.028278,48.732139],[37.027842,48.731771],[37.027335,48.732052],[37.027765,48.732411]]]}},{"type":"Feature","properties":{"cadnum":"1420383501:00:000:0090"},"geometry":{"type":"Polygon","coordinates":[[[37.024976,48.730723],[37.024612,48.730387],[37.024051,48.730716],[37.02411550867052,48.730776],[37.024114,48.730776],[37.02441,48.731048],[37.024794149171925,48.73082709392228],[37.024976,48.730723]]]}},{"type":"Feature","properties":{"cadnum":"1420383501:00:000:0091"},"geometry":{"type":"Polygon","coordinates":[[[37.024976,48.730723],[37.024883409638555,48.730776],[37.024883,48.730776],[37.024794149171925,48.73082709392228],[37.024686,48.730889],[37.02468649632353,48.730889],[37.02441,48.731048],[37.024865,48.731469],[37.025182,48.73152],[37.025465,48.731359],[37.025511,48.731214],[37.025034,48.730776],[37.025033469879524,48.730776],[37.024976,48.730723]]]}},{"type":"Feature","properties":{"cadnum":"1420383501:00:000:0137"},"geometry":{"type":"Polygon","coordinates":[[[37.027528,48.730622],[37.027343,48.730716],[37.027414445086706,48.730776],[37.027414,48.730776],[37.027456751891116,48.730811529500784],[37.027549,48.730889],[37.027549970491805,48.730889],[37.028148,48.731386],[37.028398,48.731252],[37.028111,48.73106],[37.02775968949758,48.73079674885834],[37.027528,48.730622]]]}},{"type":"Feature","properties":{"cadnum":"1420383501:00:000:0098"},"geometry":{"type":"Polygon","coordinates":[[[37.012261,48.732512],[37.012552,48.732381],[37.012238,48.732115],[37.011712,48.731703],[37.01142,48.73183],[37.011968,48.732266],[37.012261,48.732512]]]}},{"type":"Feature","properties":{"cadnum":"1420383501:00:000:0154"},"geometry":{"type":"Polygon","coordinates":[[[37.011853,48.734374],[37.012119,48.73422],[37.011813,48.733977],[37.011534,48.734131],[37.011853,48.734374]]]}},{"type":"Feature","properties":{"cadnum":"1420383501:00:000:0155"},"geometry":{"type":"Polygon","coordinates":[[[37.011534,48.734131],[37.011813,48.733977],[37.011314,48.73358],[37.011085,48.733346],[37.010761,48.733494],[37.010991,48.733722],[37.011534,48.734131]]]}},{"type":"Feature","properties":{"cadnum":"1420383501:00:000:0066"},"geometry":{"type":"Polygon","coordinates":[[[37.008322,48.73306],[37.008479,48.733006],[37.0078,48.7325],[37.007647,48.732553],[37.008322,48.73306]]]}},{"type":"Feature","properties":{"cadnum":"1420383501:00:000:0067"},"geometry":{"type":"Polygon","coordinates":[[[37.009296,48.733955],[37.009687,48.733732],[37.009445,48.733545],[37.008896,48.733359],[37.008779,48.733305],[37.008582,48.733418],[37.009296,48.733955]]]}},{"type":"Feature","properties":{"cadnum":"1420383501:00:000:0065"},"geometry":{"type":"Polygon","coordinates":[[[37.008582,48.733418],[37.008779,48.733305],[37.008487,48.733175],[37.00833,48.733228],[37.008582,48.733418]]]}},{"type":"Feature","properties":{"cadnum":"1420383501:00:000:0099"},"geometry":{"type":"Polygon","coordinates":[[[37.01142,48.73183],[37.011712,48.731703],[37.01112,48.731237],[37.010846,48.731374],[37.01142,48.73183]]]}},{"type":"Feature","properties":{"cadnum":"1420383501:00:000:0145"},"geometry":{"type":"Polygon","coordinates":[[[37.02565,48.729489],[37.026104,48.729235],[37.025699,48.728835],[37.025182,48.729063],[37.02565,48.729489]]]}},{"type":"Feature","properties":{"cadnum":"1420383501:00:000:0071"},"geometry":{"type":"Polygon","coordinates":[[[37.028219,48.72816],[37.028807,48.727855],[37.028457,48.727519],[37.027869,48.727822],[37.028219,48.72816]]]}},{"type":"Feature","properties":{"cadnum":"1420383501:00:000:0108"},"geometry":{"type":"Polygon","coordinates":[[[37.027146,48.73018],[37.027725,48.729902],[37.027832,48.729851],[37.027285,48.729366],[37.027209,48.729404],[37.026597,48.729688],[37.027146,48.73018]]]}},{"type":"Feature","properties":{"cadnum":"1420383501:00:000:0118"},"geometry":{"type":"Polygon","coordinates":[[[37.029037,48.729955],[37.02936,48.729807],[37.029086,48.72954],[37.028763,48.729682],[37.029037,48.729955]]]}},{"type":"Feature","properties":{"cadnum":"1420383501:00:000:0146"},"geometry":{"type":"Polygon","coordinates":[[[37.025182,48.729063],[37.025699,48.728835],[37.024968,48.728115],[37.024415,48.728367],[37.025182,48.729063]]]}},{"type":"Feature","properties":{"cadnum":"1420383501:00:000:0107"},"geometry":{"type":"Polygon","coordinates":[[[37.026597,48.729688],[37.027209,48.729404],[37.027285,48.729366],[37.026979,48.72909],[37.02689,48.729096],[37.026845,48.729098],[37.026297,48.729419],[37.026597,48.729688]]]}},{"type":"Feature","properties":{"cadnum":"1420383501:00:000:0052"},"geometry":{"type":"Polygon","coordinates":[[[37.028736,48.729695],[37.029123,48.729526],[37.028601,48.729045],[37.028228,48.729229],[37.028736,48.729695]]]}},{"type":"Feature","properties":{"cadnum":"1420383501:00:000:0051"},"geometry":{"type":"Polygon","coordinates":[[[37.028228,48.729229],[37.028601,48.729045],[37.028026,48.728515],[37.027649,48.728696],[37.028228,48.729229]]]}},{"type":"Feature","properties":{"cadnum":"1420383501:00:000:0103"},"geometry":{"type":"Polygon","coordinates":[[[37.020826,48.728711],[37.02119,48.728542],[37.020624,48.727976],[37.020247,48.728127],[37.020826,48.728711]]]}},{"type":"Feature","properties":{"cadnum":"1420383501:00:000:0077"},"geometry":{"type":"Polygon","coordinates":[[[37.019565,48.729253],[37.019941,48.729084],[37.019385,48.728533],[37.018999,48.728707],[37.019565,48.729253]]]}},{"type":"Feature","properties":{"cadnum":"1420383501:00:000:0105"},"geometry":{"type":"Polygon","coordinates":[[[37.019941,48.729084],[37.02044,48.72888],[37.019937,48.728382],[37.019869,48.728415],[37.019865,48.728521],[37.019532,48.728678],[37.019941,48.729084]]]}},{"type":"Feature","properties":{"cadnum":"1420383501:00:000:0104"},"geometry":{"type":"Polygon","coordinates":[[[37.020647,48.728797],[37.020826,48.728711],[37.020247,48.728127],[37.020624,48.727976],[37.02119,48.728542],[37.021379,48.728453],[37.020785,48.727795],[37.020247,48.727214],[37.019371,48.72746],[37.019613,48.72771],[37.020184,48.728292],[37.020647,48.728797]]]}},{"type":"Feature","properties":{"cadnum":"1420383501:00:000:0078"},"geometry":{"type":"Polygon","coordinates":[[[37.018999,48.728707],[37.019385,48.728533],[37.018854,48.728006],[37.019155,48.72789],[37.019133,48.727869],[37.018553,48.728101],[37.018446,48.728177],[37.018467,48.728201],[37.018999,48.728707]]]}},{"type":"Feature","properties":{"cadnum":"1420383501:00:000:0106"},"geometry":{"type":"Polygon","coordinates":[[[37.02044,48.72888],[37.020647,48.728797],[37.020184,48.728292],[37.019613,48.72771],[37.019155,48.72789],[37.018854,48.728006],[37.019385,48.728533],[37.019532,48.728678],[37.019865,48.728521],[37.019869,48.728415],[37.019937,48.728382],[37.02044,48.72888]]]}},{"type":"Feature","properties":{"cadnum":"1420383501:00:000:0130"},"geometry":{"type":"Polygon","coordinates":[[[37.036933,48.727049],[37.038343,48.726399],[37.038298,48.726302],[37.037643,48.725694],[37.036088,48.726513],[37.035891,48.726856],[37.03528938,48.727152],[37.035288,48.727152],[37.035078,48.727256],[37.035526,48.727694],[37.03661679763583,48.72719339685129],[37.036933,48.727049]]]}}]}