{"type":"FeatureCollection","features":[{"type":"Feature","properties":{"cadnum":"1420381011:00:000:0004"},"geometry":{"type":"Polygon","coordinates":[[[36.980478,48.69144],[36.9809,48.691363],[36.980788,48.691078],[36.980357,48.691152],[36.980478,48.69144]]]}},{"type":"Feature","properties":{"cadnum":"1420381011:00:000:0005"},"geometry":{"type":"Polygon","coordinates":[[[36.980757,48.692117],[36.981174,48.692042],[36.9809,48.691363],[36.980478,48.69144],[36.980757,48.692117]]]}},{"type":"Feature","properties":{"cadnum":"1420381011:00:000:0010"},"geometry":{"type":"Polygon","coordinates":[[[36.97374,48.693791],[36.974033,48.69377],[36.973956,48.69284],[36.973956,48.692825],[36.973606,48.692851],[36.973606,48.692869],[36.97374,48.693791]]]}},{"type":"Feature","properties":{"cadnum":"1420381011:00:000:0011"},"geometry":{"type":"Polygon","coordinates":[[[36.973759,48.693925],[36.974042,48.693898],[36.974033,48.69377],[36.97374,48.693791],[36.973759,48.693925]]]}},{"type":"Feature","properties":{"cadnum":"1420381011:00:000:0008"},"geometry":{"type":"Polygon","coordinates":[[[36.971863,48.693607],[36.972524,48.693563],[36.972407,48.692964],[36.971985,48.692994],[36.972034,48.693405],[36.971836,48.693418],[36.971863,48.693607]]]}},{"type":"Feature","properties":{"cadnum":"1420381011:00:000:0014"},"geometry":{"type":"Polygon","coordinates":[[[36.972627,48.694097],[36.972928,48.694073],[36.972891,48.693756],[36.972564,48.693776],[36.972627,48.694097]]]}},{"type":"Feature","properties":{"cadnum":"1420381011:00:000:0013"},"geometry":{"type":"Polygon","coordinates":[[[36.972564,48.693776],[36.972891,48.693756],[36.972834,48.693157],[36.972767,48.692913],[36.972402,48.692955],[36.972407,48.692964],[36.972524,48.693563],[36.972564,48.693776]]]}},{"type":"Feature","properties":{"cadnum":"1420381011:00:000:0009"},"geometry":{"type":"Polygon","coordinates":[[[36.972627,48.694115],[36.972627,48.694097],[36.972524,48.693563],[36.971863,48.693607],[36.971918,48.693996],[36.972304,48.694043],[36.972627,48.694115]]]}},{"type":"Feature","properties":{"cadnum":"1420381011:00:000:0012"},"geometry":{"type":"Polygon","coordinates":[[[36.974891,48.694005],[36.974796,48.693065],[36.974832,48.693062],[36.974801,48.69281],[36.974572,48.692813],[36.974738,48.694005],[36.974891,48.694005]]]}}]}