{"type":"FeatureCollection","features":[{"type":"Feature","properties":{"cadnum":"1420386605:00:000:0017"},"geometry":{"type":"Polygon","coordinates":[[[36.727381,48.669093],[36.727381,48.66909169863013],[36.727432,48.668887],[36.727209,48.668862],[36.727209,48.668862191011236],[36.726313,48.668759],[36.726282,48.668818],[36.726197,48.669046],[36.727209,48.66916270223752],[36.727209,48.669163],[36.727359,48.66918],[36.727381,48.669093]]]}},{"type":"Feature","properties":{"cadnum":"1420386605:00:000:0019"},"geometry":{"type":"Polygon","coordinates":[[[36.727381,48.66888128251121],[36.727432,48.668887],[36.727477,48.668892],[36.727552,48.668584],[36.727209,48.668544],[36.727209,48.6685447867247],[36.726462,48.668457],[36.726313,48.668759],[36.727381,48.668882],[36.727381,48.66888128251121]]]}},{"type":"Feature","properties":{"cadnum":"1420386605:00:000:0028"},"geometry":{"type":"Polygon","coordinates":[[[36.732485,48.657364],[36.732399,48.657359],[36.732386,48.657423],[36.732221,48.658371],[36.73222154304636,48.658371],[36.732189,48.65856],[36.732287,48.65867],[36.732874,48.658696],[36.732874,48.658695422138834],[36.733235,48.658711],[36.733491,48.658762],[36.733598,48.658782],[36.733716,48.658934],[36.733688,48.659014],[36.733491,48.659646],[36.733114,48.660381],[36.733204,48.660536],[36.734587,48.660559],[36.734605,48.660159],[36.734613,48.659987],[36.733734,48.658927],[36.733202568180914,48.65826370170341],[36.732952,48.657949],[36.732874,48.657851656000005],[36.732874,48.657851],[36.732485,48.657364]]]}},{"type":"Feature","properties":{"cadnum":"1420386605:00:000:0023"},"geometry":{"type":"Polygon","coordinates":[[[36.730827,48.658257],[36.73082606140351,48.658258],[36.730826,48.658258],[36.73081584628972,48.65826888339226],[36.73072,48.658371],[36.730720576136356,48.658371],[36.730005,48.659138],[36.730396,48.659901],[36.731051,48.660005],[36.731334,48.65921],[36.73169,48.658358],[36.730827,48.658257]]]}},{"type":"Feature","properties":{"cadnum":"1420386605:00:000:0021"},"geometry":{"type":"Polygon","coordinates":[[[36.73359,48.661649],[36.73451,48.661589],[36.734816,48.661571],[36.735498,48.661527],[36.735193,48.6611],[36.734996,48.660886],[36.734829,48.660711],[36.734739,48.660711],[36.73376,48.660714],[36.73359,48.661649]],[[36.734839,48.660877],[36.734865,48.660877],[36.734865,48.660895],[36.734833,48.660895],[36.734839,48.660877]],[[36.734739,48.661357],[36.734713,48.661355],[36.734713,48.661337],[36.734739,48.661337],[36.734739,48.661357]]]}},{"type":"Feature","properties":{"cadnum":"1420386605:00:000:0011"},"geometry":{"type":"Polygon","coordinates":[[[36.732508,48.662458],[36.732579,48.662269],[36.731093,48.662031],[36.731007,48.662224],[36.732508,48.662458]]]}},{"type":"Feature","properties":{"cadnum":"1420386605:00:000:0007"},"geometry":{"type":"Polygon","coordinates":[[[36.730271,48.662948],[36.730382,48.66258],[36.729596,48.662452],[36.729485,48.662823],[36.730271,48.662948]]]}},{"type":"Feature","properties":{"cadnum":"1420386605:00:000:0027"},"geometry":{"type":"Polygon","coordinates":[[[36.727381,48.663721],[36.727298,48.663707],[36.727229,48.663915],[36.728388,48.664108],[36.72847,48.663906],[36.727381,48.66372109300342],[36.727381,48.663721]]]}},{"type":"Feature","properties":{"cadnum":"1420386605:00:000:0024"},"geometry":{"type":"Polygon","coordinates":[[[36.728856,48.662966],[36.728932,48.662746],[36.727621,48.662559],[36.727552,48.662782],[36.728856,48.662966]]]}},{"type":"Feature","properties":{"cadnum":"1420386605:00:000:0008"},"geometry":{"type":"Polygon","coordinates":[[[36.729485,48.662823],[36.729596,48.662452],[36.727732,48.662188],[36.727621,48.662559],[36.729485,48.662823]]]}},{"type":"Feature","properties":{"cadnum":"1420386605:00:000:0026"},"geometry":{"type":"Polygon","coordinates":[[[36.729816,48.664345],[36.729885,48.664143],[36.72847,48.663906],[36.728388,48.664108],[36.729816,48.664345]]]}},{"type":"Feature","properties":{"cadnum":"1420386605:00:000:0025"},"geometry":{"type":"Polygon","coordinates":[[[36.730208,48.663155],[36.730271,48.662948],[36.729485,48.662823],[36.728932,48.662746],[36.728856,48.662966],[36.730208,48.663155]]]}},{"type":"Feature","properties":{"cadnum":"1420386605:00:000:0020"},"geometry":{"type":"Polygon","coordinates":[[[36.729885,48.664143],[36.729948,48.663951],[36.727373,48.663518],[36.727298,48.663707],[36.729885,48.664143]]]}},{"type":"Feature","properties":{"cadnum":"1420386605:00:000:0022"},"geometry":{"type":"Polygon","coordinates":[[[36.727381,48.67018930379747],[36.728078,48.670304],[36.728141,48.670088],[36.728061,48.670076],[36.727967,48.670061],[36.727381,48.66996822955145],[36.727381,48.669968],[36.726758,48.669868],[36.726695,48.670076],[36.727381,48.67019],[36.727381,48.67018930379747]]]}},{"type":"Feature","properties":{"cadnum":"1420386605:00:000:0031"},"geometry":{"type":"Polygon","coordinates":[[[36.727381,48.670633321899736],[36.727967,48.670723],[36.728029,48.670518],[36.727381,48.6704200097561],[36.727381,48.670419],[36.726614,48.670301],[36.726539,48.670503],[36.727381,48.670634],[36.727381,48.670633321899736]]]}},{"type":"Feature","properties":{"cadnum":"1420386605:00:000:0032"},"geometry":{"type":"Polygon","coordinates":[[[36.726539,48.670503],[36.726614,48.670301],[36.725779,48.670171],[36.725711,48.670376],[36.726539,48.670503]]]}},{"type":"Feature","properties":{"cadnum":"1420386605:00:000:0009"},"geometry":{"type":"Polygon","coordinates":[[[36.727351,48.672295],[36.727209,48.672279],[36.727209,48.67227902360346],[36.72608,48.672152],[36.726021,48.67239],[36.727209,48.67251843243243],[36.727209,48.672519],[36.727279,48.672526],[36.727351,48.672295]]]}},{"type":"Feature","properties":{"cadnum":"1420386605:00:000:0010"},"geometry":{"type":"Polygon","coordinates":[[[36.726021,48.67239],[36.72608,48.672152],[36.725051,48.67204],[36.724975,48.672277],[36.726021,48.67239]]]}},{"type":"Feature","properties":{"cadnum":"1420386605:00:000:0013"},"geometry":{"type":"Polygon","coordinates":[[[36.727381,48.672216550724634],[36.727485,48.672232],[36.727562,48.672016],[36.727209,48.671962],[36.727209,48.67196209497207],[36.727023,48.671933],[36.726187,48.671832],[36.726111,48.672028],[36.726227,48.672045],[36.727381,48.672217],[36.727381,48.672216550724634]]]}},{"type":"Feature","properties":{"cadnum":"1420386605:00:000:0015"},"geometry":{"type":"Polygon","coordinates":[[[36.729934,48.671485],[36.730001,48.671269],[36.729596,48.671207],[36.729533,48.671429],[36.729934,48.671485]]]}},{"type":"Feature","properties":{"cadnum":"1420386605:00:000:0014"},"geometry":{"type":"Polygon","coordinates":[[[36.729533,48.671429],[36.729596,48.671207],[36.728326,48.671013],[36.728254,48.671227],[36.728424,48.671251],[36.728411,48.671277],[36.729533,48.671429]]]}},{"type":"Feature","properties":{"cadnum":"1420386605:00:000:0016"},"geometry":{"type":"Polygon","coordinates":[[[36.728443,48.669005],[36.727477,48.668892],[36.727432,48.668887],[36.727359,48.66918],[36.72837,48.669299],[36.728396434782624,48.66918978260865],[36.728443,48.669005]]]}},{"type":"Feature","properties":{"cadnum":"1420386605:00:000:0029"},"geometry":{"type":"Polygon","coordinates":[[[36.729736,48.67099],[36.729812,48.67077],[36.728464,48.670595],[36.728393,48.670805],[36.729736,48.67099]]]}},{"type":"Feature","properties":{"cadnum":"1420386605:00:000:0030"},"geometry":{"type":"Polygon","coordinates":[[[36.730141,48.671046],[36.730217,48.670824],[36.729812,48.67077],[36.729736,48.67099],[36.730141,48.671046]]]}},{"type":"Feature","properties":{"cadnum":"1420386605:00:000:0018"},"geometry":{"type":"Polygon","coordinates":[[[36.728443,48.669005],[36.728519,48.6687],[36.727552,48.668584],[36.727477,48.668892],[36.728443,48.669005]]]}}]}