{"type":"FeatureCollection","features":[{"type":"Feature","properties":{"cadnum":"1420386901:00:000:0064"},"geometry":{"type":"Polygon","coordinates":[[[37.129707,48.741624],[37.12969241353384,48.741644],[37.129692,48.741644],[37.129671969481016,48.741672031536346],[37.12961,48.741757],[37.12961125349301,48.741757],[37.129334,48.742145],[37.129638,48.742237],[37.130017,48.741719],[37.129707,48.741624]]]}},{"type":"Feature","properties":{"cadnum":"1420386901:00:000:0128"},"geometry":{"type":"Polygon","coordinates":[[[37.116897,48.741283],[37.116461,48.741209],[37.116324467153284,48.741644],[37.116324,48.741644],[37.116297978021855,48.74172839560479],[37.116289,48.741757],[37.11628915833333,48.741757],[37.11625,48.741884],[37.116685,48.741947],[37.116744570957096,48.741757],[37.116745,48.741757],[37.116897,48.741283]]]}},{"type":"Feature","properties":{"cadnum":"1420386901:00:000:0123"},"geometry":{"type":"Polygon","coordinates":[[[37.116015,48.741146],[37.115567,48.741084],[37.11538755727554,48.741644],[37.115386,48.741644],[37.11536,48.74173],[37.115814,48.741793],[37.11584083333314,48.741706083333966],[37.116015,48.741146]]]}},{"type":"Feature","properties":{"cadnum":"1420386901:00:000:0058"},"geometry":{"type":"Polygon","coordinates":[[[37.114484,48.741666],[37.114453,48.741757],[37.1144545839416,48.741757],[37.114174,48.742625],[37.114606,48.742657],[37.114912,48.741715],[37.114484,48.741666]]]}},{"type":"Feature","properties":{"cadnum":"1420386901:00:000:0124"},"geometry":{"type":"Polygon","coordinates":[[[37.115522,48.742737],[37.115814,48.741793],[37.11536,48.74173],[37.11505,48.742698],[37.115522,48.742737]]]}},{"type":"Feature","properties":{"cadnum":"1420386901:00:000:0129"},"geometry":{"type":"Polygon","coordinates":[[[37.116402,48.742823],[37.116685,48.741947],[37.11625,48.741884],[37.115962,48.74279],[37.116402,48.742823]]]}},{"type":"Feature","properties":{"cadnum":"1420386901:00:000:0200"},"geometry":{"type":"Polygon","coordinates":[[[37.1136,48.741497],[37.113164,48.741451],[37.113057,48.741757],[37.11305788461539,48.741757],[37.112818,48.74245],[37.113249,48.7425],[37.113548,48.741644],[37.11354798461539,48.741644],[37.1136,48.741497]]]}},{"type":"Feature","properties":{"cadnum":"1420386901:00:000:0069"},"geometry":{"type":"Polygon","coordinates":[[[37.11723037761194,48.741757],[37.11704,48.742314],[37.117224,48.742358296296295],[37.117224,48.742359],[37.11731,48.742379],[37.117575,48.741765],[37.11760473279355,48.74165918623472],[37.117623,48.741597],[37.117583,48.741588],[37.117642,48.741425],[37.117369,48.741357],[37.1172692675,48.741644],[37.117269,48.741644],[37.117252984967436,48.741690856208805],[37.11723,48.741757],[37.11723037761194,48.741757]]]}},{"type":"Feature","properties":{"cadnum":"1420386901:00:000:0050"},"geometry":{"type":"Polygon","coordinates":[[[37.115136,48.741019],[37.114704,48.740977],[37.11449102467344,48.741644],[37.114491,48.741644],[37.114484,48.741666],[37.114912,48.741715],[37.115136,48.741019]]]}},{"type":"Feature","properties":{"cadnum":"1420386901:00:000:0099"},"geometry":{"type":"Polygon","coordinates":[[[37.11439,48.741579],[37.113945,48.741523],[37.113910354700856,48.741644],[37.11391,48.741644],[37.11389176793609,48.74170891496947],[37.113878,48.741757],[37.113878262740656,48.741757],[37.113662,48.742527],[37.114107,48.742571],[37.11433881877023,48.741757],[37.114339,48.741757],[37.11439,48.741579]]]}},{"type":"Feature","properties":{"cadnum":"1420386901:00:000:0150"},"geometry":{"type":"Polygon","coordinates":[[[37.108017,48.73926],[37.108021,48.739233],[37.108169,48.738673],[37.108052,48.738667],[37.107734,48.738643],[37.107581,48.739212],[37.108017,48.73926]]]}},{"type":"Feature","properties":{"cadnum":"1420386901:00:000:0189"},"geometry":{"type":"Polygon","coordinates":[[[37.109583,48.737912],[37.109243,48.737894],[37.109224410788386,48.738022],[37.109224,48.738022],[37.10921350925916,48.7380970648155],[37.109208,48.738135],[37.10920820759837,48.738135],[37.109121,48.738759],[37.10948,48.738783],[37.10955663600525,48.738135],[37.109557,48.738135],[37.109583,48.737912]]]}},{"type":"Feature","properties":{"cadnum":"1420386901:00:000:0149"},"geometry":{"type":"Polygon","coordinates":[[[37.107841,48.739938],[37.107931,48.739583],[37.108017,48.73926],[37.107581,48.739212],[37.107396,48.73989],[37.107841,48.739938]]]}},{"type":"Feature","properties":{"cadnum":"1420386901:00:000:0146"},"geometry":{"type":"Polygon","coordinates":[[[37.108461,48.73928],[37.108641,48.738729],[37.10843,48.738697],[37.108169,48.738673],[37.108021,48.739233],[37.108461,48.73928]]]}},{"type":"Feature","properties":{"cadnum":"1420386901:00:000:0094"},"geometry":{"type":"Polygon","coordinates":[[[37.110446,48.738015],[37.110101,48.738001],[37.11009864925373,48.738022],[37.110098,48.738022],[37.110006,48.738884],[37.110348,48.738902],[37.11043167272727,48.738135],[37.110432,48.738135],[37.110446,48.738015]]]}},{"type":"Feature","properties":{"cadnum":"1420386901:00:000:0162"},"geometry":{"type":"Polygon","coordinates":[[[37.111281,48.738013],[37.11128004098361,48.738022],[37.11128,48.738022],[37.11127204918017,48.738097000001446],[37.111268,48.738135],[37.111268020765024,48.738135],[37.111183,48.738937],[37.111507,48.738955],[37.111614,48.73803],[37.111281,48.738013]]]}},{"type":"Feature","properties":{"cadnum":"1420386901:00:000:0095"},"geometry":{"type":"Polygon","coordinates":[[[37.110348,48.738922],[37.110348,48.738902],[37.110006,48.738884],[37.110002,48.738893],[37.110348,48.738922]]]}},{"type":"Feature","properties":{"cadnum":"1420386901:00:000:0114"},"geometry":{"type":"Polygon","coordinates":[[[37.10891,48.737877],[37.10857,48.737865],[37.108546159259255,48.738022],[37.108545,48.738022],[37.108448,48.738694],[37.108677,48.738712],[37.108784,48.73872],[37.1088703252149,48.738135],[37.108871,48.738135],[37.10891,48.737877]]]}},{"type":"Feature","properties":{"cadnum":"1420386901:00:000:0080"},"geometry":{"type":"Polygon","coordinates":[[[37.110654,48.739571],[37.110788,48.739109],[37.110667,48.7391],[37.11068,48.738979],[37.110438,48.738961],[37.110258,48.739526],[37.110654,48.739571]]]}},{"type":"Feature","properties":{"cadnum":"1420386901:00:000:0145"},"geometry":{"type":"Polygon","coordinates":[[[37.108237,48.739986],[37.108461,48.73928],[37.108021,48.739233],[37.107931,48.739583],[37.107841,48.739938],[37.108237,48.739986]]]}},{"type":"Feature","properties":{"cadnum":"1420386901:00:000:0016"},"geometry":{"type":"Polygon","coordinates":[[[37.110275,48.737965],[37.109939,48.737947],[37.10992942553192,48.738022],[37.109929,48.738022],[37.10992150965253,48.73808400772185],[37.109915,48.738135],[37.10991534993774,48.738135],[37.109832,48.738825],[37.110056,48.738845],[37.110172,48.738857],[37.110269,48.738022],[37.110268294117645,48.738022],[37.110275,48.737965]]]}},{"type":"Feature","properties":{"cadnum":"1420386901:00:000:0177"},"geometry":{"type":"Polygon","coordinates":[[[37.107891,48.737835],[37.107176,48.737829],[37.10681830666667,48.738022],[37.106818,48.738022],[37.10662,48.738129],[37.107788,48.738167],[37.10781951627915,48.73806313953463],[37.107891,48.737835]]]}},{"type":"Feature","properties":{"cadnum":"1420386901:00:000:0086"},"geometry":{"type":"Polygon","coordinates":[[[37.109243,48.740975],[37.109476,48.740318],[37.109036,48.740276],[37.10878,48.740931],[37.109243,48.740975]]]}},{"type":"Feature","properties":{"cadnum":"1420386901:00:000:0148"},"geometry":{"type":"Polygon","coordinates":[[[37.10838,48.740963],[37.107945,48.740913],[37.10768343364929,48.741644],[37.107683,48.741644],[37.107621,48.741819],[37.108075,48.74187],[37.10814174852674,48.741668864439426],[37.10838,48.740963]]]}},{"type":"Feature","properties":{"cadnum":"1420386901:00:000:0184"},"geometry":{"type":"Polygon","coordinates":[[[37.110954,48.737992],[37.110608,48.737977],[37.110603158227846,48.738022],[37.110603,48.738022],[37.110509,48.738875],[37.110847,48.738889],[37.11093657554787,48.738135],[37.110937,48.738135],[37.110954,48.737992]]]}},{"type":"Feature","properties":{"cadnum":"1420386901:00:000:0101"},"geometry":{"type":"Polygon","coordinates":[[[37.109243,48.740975],[37.10878,48.740931],[37.108458,48.741757],[37.10845949765258,48.741757],[37.108421,48.741857],[37.108906,48.741929],[37.10896574736842,48.741757],[37.108967,48.741757],[37.109243,48.740975]]]}},{"type":"Feature","properties":{"cadnum":"1420386901:00:000:0085"},"geometry":{"type":"Polygon","coordinates":[[[37.109243,48.740975],[37.10878,48.740931],[37.108458,48.741757],[37.10845949765258,48.741757],[37.108421,48.741857],[37.108906,48.741929],[37.10896574736842,48.741757],[37.108967,48.741757],[37.109243,48.740975]]]}},{"type":"Feature","properties":{"cadnum":"1420386901:00:000:0178"},"geometry":{"type":"Polygon","coordinates":[[[37.107788,48.738167],[37.10662,48.738129],[37.106543,48.738167],[37.106323,48.738439],[37.106409,48.738449],[37.106409,48.73844856982823],[37.107662,48.738588],[37.107788,48.738167]]]}},{"type":"Feature","properties":{"cadnum":"1420386901:00:000:0014"},"geometry":{"type":"Polygon","coordinates":[[[37.109243,48.737894],[37.10891,48.737877],[37.10888808139535,48.738022],[37.108887,48.738022],[37.108784,48.73872],[37.109121,48.738759],[37.10921350925916,48.7380970648155],[37.109243,48.737894]]]}},{"type":"Feature","properties":{"cadnum":"1420386901:00:000:0091"},"geometry":{"type":"Polygon","coordinates":[[[37.109144,48.739545],[37.109386,48.738863],[37.109247,48.738848],[37.10887,48.738812],[37.108654,48.739467],[37.109144,48.739545]]]}},{"type":"Feature","properties":{"cadnum":"1420386901:00:000:0090"},"geometry":{"type":"Polygon","coordinates":[[[37.108933,48.740131],[37.109144,48.739545],[37.108654,48.739467],[37.108448,48.740083],[37.108933,48.740131]]]}},{"type":"Feature","properties":{"cadnum":"1420386901:00:000:0163"},"geometry":{"type":"Polygon","coordinates":[[[37.111497,48.739062],[37.111507,48.738955],[37.111183,48.738937],[37.111174,48.739014],[37.111358,48.739041],[37.111497,48.739062]]]}},{"type":"Feature","properties":{"cadnum":"1420386901:00:000:0185"},"geometry":{"type":"Polygon","coordinates":[[[37.110847,48.738902],[37.110847,48.738889],[37.110509,48.738875],[37.110509,48.738887],[37.110847,48.738902]]]}},{"type":"Feature","properties":{"cadnum":"1420386901:00:000:0010"},"geometry":{"type":"Polygon","coordinates":[[[37.10857,48.737865],[37.108232,48.73785],[37.10819518596491,48.738022],[37.108195,48.738022],[37.10818599873271,48.73806492395374],[37.108171,48.738135],[37.10817130359938,48.738135],[37.108061,48.738661],[37.108169,48.738673],[37.108448,48.738691],[37.10852861584454,48.738135],[37.108529,48.738135],[37.10857,48.737865]]]}},{"type":"Feature","properties":{"cadnum":"1420386901:00:000:0147"},"geometry":{"type":"Polygon","coordinates":[[[37.10838,48.740963],[37.10861,48.740281],[37.108191,48.740222],[37.107945,48.740913],[37.10838,48.740963]]]}},{"type":"Feature","properties":{"cadnum":"1420386901:00:000:0079"},"geometry":{"type":"Polygon","coordinates":[[[37.110438,48.740309],[37.110654,48.739571],[37.110258,48.739526],[37.110025,48.740261],[37.110438,48.740309]]]}},{"type":"Feature","properties":{"cadnum":"1420386901:00:000:0048"},"geometry":{"type":"Polygon","coordinates":[[[37.120273,48.741398],[37.119843,48.741262],[37.11949804242424,48.741644],[37.119498,48.741644],[37.1194949541984,48.74164741984741],[37.119396,48.741757],[37.11939735937499,48.741757],[37.119384,48.741772],[37.119879,48.741934],[37.12001183870676,48.74175313978892],[37.120273,48.741398]]]}},{"type":"Feature","properties":{"cadnum":"1420386901:00:000:0077"},"geometry":{"type":"Polygon","coordinates":[[[37.121657,48.74168],[37.121605,48.741757],[37.12160566666667,48.741757],[37.121185,48.742388],[37.121527,48.742507],[37.122021,48.741787],[37.12191894392522,48.741757],[37.121922,48.741757],[37.121657,48.74168]]]}},{"type":"Feature","properties":{"cadnum":"1420386901:00:000:0203"},"geometry":{"type":"Polygon","coordinates":[[[37.121208,48.741642],[37.121206539130434,48.741644],[37.121205,48.741644],[37.120772,48.742246],[37.121185,48.742388],[37.121604,48.741757],[37.121216,48.741644],[37.12121488695653,48.741644],[37.121208,48.741642]]]}},{"type":"Feature","properties":{"cadnum":"1420386901:00:000:0108"},"geometry":{"type":"Polygon","coordinates":[[[37.122785,48.74104],[37.122476,48.740939],[37.121977,48.741624],[37.122037,48.741644],[37.122286,48.741727],[37.122347,48.741644],[37.122346286754,48.741644],[37.122785,48.74104]]]}},{"type":"Feature","properties":{"cadnum":"1420386901:00:000:0007"},"geometry":{"type":"Polygon","coordinates":[[[37.122066,48.738268],[37.122129,48.738193],[37.12207,48.738179],[37.12204,48.73822],[37.121994,48.738202],[37.121963,48.738235],[37.122066,48.738268]]]}},{"type":"Feature","properties":{"cadnum":"1420386901:00:000:0179"},"geometry":{"type":"Polygon","coordinates":[[[37.117678,48.741197],[37.118141,48.740522],[37.117741,48.740412],[37.117314,48.74115],[37.117678,48.741197]]]}},{"type":"Feature","properties":{"cadnum":"1420386901:00:000:0151"},"geometry":{"type":"Polygon","coordinates":[[[37.1189,48.739855],[37.118958,48.73971],[37.118755,48.739677],[37.118702,48.73982],[37.1189,48.739855]]]}},{"type":"Feature","properties":{"cadnum":"1420386901:00:000:0008"},"geometry":{"type":"Polygon","coordinates":[[[37.118837,48.738223],[37.118841,48.738202],[37.11881,48.738199],[37.118805,48.73822],[37.118837,48.738223]]]}},{"type":"Feature","properties":{"cadnum":"1420386901:00:000:0204"},"geometry":{"type":"Polygon","coordinates":[[[37.121657,48.74168],[37.121707,48.741603],[37.121289,48.741528],[37.121208,48.741642],[37.121604,48.741757],[37.121657,48.74168]]]}},{"type":"Feature","properties":{"cadnum":"1420386901:00:000:0166"},"geometry":{"type":"Polygon","coordinates":[[[37.119632,48.738685],[37.119776,48.738333],[37.118715,48.738217],[37.118635,48.738466],[37.119632,48.738685]]]}},{"type":"Feature","properties":{"cadnum":"1420386901:00:000:0006"},"geometry":{"type":"Polygon","coordinates":[[[37.121716,48.738445],[37.121738,48.738421],[37.121661,48.738395],[37.12164,48.738419],[37.121716,48.738445]]]}},{"type":"Feature","properties":{"cadnum":"1420386901:00:000:0056"},"geometry":{"type":"Polygon","coordinates":[[[37.120273,48.741398],[37.120373,48.741253],[37.11995,48.741135],[37.119843,48.741262],[37.120273,48.741398]]]}},{"type":"Feature","properties":{"cadnum":"1420386901:00:000:0180"},"geometry":{"type":"Polygon","coordinates":[[[37.118141,48.740522],[37.118248,48.740368],[37.118411,48.740127],[37.117988,48.739991],[37.117741,48.740412],[37.118141,48.740522]]]}},{"type":"Feature","properties":{"cadnum":"1420386901:00:000:0117"},"geometry":{"type":"Polygon","coordinates":[[[37.122254,48.741686],[37.122529,48.741315],[37.122776,48.741034],[37.12247,48.740931],[37.122233,48.741265],[37.12199,48.741606],[37.122254,48.741686]]]}},{"type":"Feature","properties":{"cadnum":"1420386901:00:000:0132"},"geometry":{"type":"Polygon","coordinates":[[[37.122812,48.741443],[37.122889,48.741363],[37.122889,48.741362780487805],[37.123099,48.741144],[37.122776,48.741034],[37.122529,48.741315],[37.12228513207547,48.741644],[37.122284,48.741644],[37.122254,48.741686],[37.122547,48.741778],[37.122577028168834,48.741739309859376],[37.122717,48.741562799196785],[37.122717,48.741563],[37.122812,48.741443]]]}},{"type":"Feature","properties":{"cadnum":"1420386901:00:000:0102"},"geometry":{"type":"Polygon","coordinates":[[[37.120382,48.740095],[37.120575,48.739793],[37.120229,48.739695],[37.120036,48.739997],[37.120382,48.740095]]]}},{"type":"Feature","properties":{"cadnum":"1420386901:00:000:0031"},"geometry":{"type":"Polygon","coordinates":[[[37.118374,48.739962],[37.118415,48.739852],[37.118437,48.739787],[37.118518,48.739802],[37.118549,48.739719],[37.117979,48.739627],[37.117956,48.739686],[37.117889,48.73987],[37.118374,48.739962]]]}},{"type":"Feature","properties":{"cadnum":"1420386901:00:000:0126"},"geometry":{"type":"Polygon","coordinates":[[[37.118824,48.740382],[37.119003,48.740119],[37.118724,48.740039],[37.118549,48.740303],[37.118824,48.740382]]]}},{"type":"Feature","properties":{"cadnum":"1420386901:00:000:0078"},"geometry":{"type":"Polygon","coordinates":[[[37.121944,48.741647],[37.12193,48.741644],[37.121927840909095,48.741644],[37.121707,48.741603],[37.121680376623374,48.741644],[37.12168,48.741644],[37.121657,48.74168],[37.122021,48.741787],[37.122093,48.741674],[37.121944,48.741647]]]}},{"type":"Feature","properties":{"cadnum":"1420386901:00:000:0135"},"geometry":{"type":"Polygon","coordinates":[[[37.122889,48.740928131212726],[37.12322,48.74104],[37.123499,48.740605],[37.123562,48.740623],[37.123575,48.74061],[37.123669,48.740465],[37.123575,48.740439],[37.122889,48.740239116550114],[37.122889,48.740239],[37.122663,48.740173],[37.122367,48.740605],[37.122349,48.740599],[37.122367,48.740575],[37.122282,48.740551],[37.122241,48.74061],[37.122327,48.740634],[37.122336,48.740619],[37.122349,48.740625],[37.122282,48.740723],[37.122889,48.740929],[37.122889,48.740928131212726]]]}},{"type":"Feature","properties":{"cadnum":"1420386901:00:000:0154"},"geometry":{"type":"Polygon","coordinates":[[[37.121275,48.741502],[37.121841,48.740729],[37.121545,48.740628],[37.120935,48.74142],[37.121275,48.741502]]]}},{"type":"Feature","properties":{"cadnum":"1420386901:00:000:0127"},"geometry":{"type":"Polygon","coordinates":[[[37.121208,48.740359],[37.121541,48.740059],[37.121275,48.739932],[37.121212,48.739991],[37.121061,48.739914],[37.120728,48.740211],[37.121208,48.740359]]]}},{"type":"Feature","properties":{"cadnum":"1420386901:00:000:0125"},"geometry":{"type":"Polygon","coordinates":[[[37.11925,48.739749],[37.119376,48.739571],[37.119155,48.739503],[37.119025,48.739681],[37.11925,48.739749]]]}},{"type":"Feature","properties":{"cadnum":"1420386901:00:000:0173"},"geometry":{"type":"Polygon","coordinates":[[[37.121977,48.741624],[37.122476,48.740939],[37.122174,48.740836],[37.121621,48.741585],[37.121977,48.741624]]]}},{"type":"Feature","properties":{"cadnum":"1420386901:00:000:0174"},"geometry":{"type":"Polygon","coordinates":[[[37.10556,48.740702],[37.105824,48.739936],[37.105438,48.73989],[37.105178,48.740655],[37.10556,48.740702]]]}},{"type":"Feature","properties":{"cadnum":"1420386901:00:000:0009"},"geometry":{"type":"Polygon","coordinates":[[[37.103884,48.740788],[37.104033,48.740711],[37.103983,48.740617],[37.10384,48.740196],[37.103211,48.740518],[37.103358,48.740623],[37.10374,48.74072],[37.103884,48.740788]]]}},{"type":"Feature","properties":{"cadnum":"1420386901:00:000:0175"},"geometry":{"type":"Polygon","coordinates":[[[37.105268,48.741541],[37.10556,48.740702],[37.105178,48.740655],[37.104886,48.741497],[37.105268,48.741541]]]}},{"type":"Feature","properties":{"cadnum":"1420386901:00:000:0121"},"geometry":{"type":"Polygon","coordinates":[[[37.130129,48.742346],[37.130506,48.741846],[37.130191,48.741748],[37.129823,48.742257],[37.130124,48.742343],[37.130129,48.742346]]]}},{"type":"Feature","properties":{"cadnum":"1420386901:00:000:0206"},"geometry":{"type":"Polygon","coordinates":[[[37.128382,48.74192939897698],[37.128606,48.741997],[37.128673,48.741899],[37.128596,48.741875],[37.128382,48.74181106918239],[37.128382,48.741811],[37.128278,48.74178],[37.128215,48.741879],[37.128382,48.74193],[37.128382,48.74192939897698]]]}},{"type":"Feature","properties":{"cadnum":"1420386901:00:000:0205"},"geometry":{"type":"Polygon","coordinates":[[[37.128606,48.741997],[37.128215,48.741879],[37.127784,48.742539],[37.128162,48.742657],[37.128382,48.742331],[37.128382,48.7423296060606],[37.128606,48.741997]]]}},{"type":"Feature","properties":{"cadnum":"1420386901:00:000:0040"},"geometry":{"type":"Polygon","coordinates":[[[37.129158,48.744259],[37.129347,48.743975],[37.129266,48.743949],[37.129172,48.743919],[37.129162,48.743931],[37.129145,48.743925],[37.129154,48.743914],[37.128969,48.743857],[37.128789,48.744132],[37.129158,48.744259]]]}},{"type":"Feature","properties":{"cadnum":"1420386901:00:000:0188"},"geometry":{"type":"Polygon","coordinates":[[[37.12989,48.744147],[37.130357,48.743558],[37.130025,48.743448],[37.129585,48.744044],[37.12989,48.744147]]]}},{"type":"Feature","properties":{"cadnum":"1420386901:00:000:0122"},"geometry":{"type":"Polygon","coordinates":[[[37.128808,48.743049],[37.128449,48.742924],[37.12831547704084,48.743170374999956],[37.128089,48.743587],[37.128346,48.743668],[37.128382,48.74362],[37.128382,48.74361976623376],[37.128808,48.743049]]]}},{"type":"Feature","properties":{"cadnum":"1420386901:00:000:0155"},"geometry":{"type":"Polygon","coordinates":[[[37.130804,48.742567],[37.130961,48.74238],[37.130987,48.742342],[37.131181,48.74207],[37.130861,48.741974],[37.130511,48.742466],[37.130804,48.742567]]]}},{"type":"Feature","properties":{"cadnum":"1420386901:00:000:0159"},"geometry":{"type":"Polygon","coordinates":[[[37.128431,48.742921],[37.12821,48.742845],[37.12821,48.742845573033705],[37.128026,48.742782],[37.127613,48.743324],[37.128099,48.743493],[37.128382,48.743007],[37.128382,48.74300547511312],[37.128431,48.742921]]]}},{"type":"Feature","properties":{"cadnum":"1420386901:00:000:0118"},"geometry":{"type":"Polygon","coordinates":[[[37.128678,48.743762],[37.129118,48.743146],[37.128818,48.743045],[37.128368,48.74367],[37.128548,48.74373],[37.128678,48.743762]]]}},{"type":"Feature","properties":{"cadnum":"1420386901:00:000:0005"},"geometry":{"type":"Polygon","coordinates":[[[37.131588,48.74282],[37.131655,48.742619],[37.131764,48.742284],[37.131728,48.742257],[37.131539,48.742195],[37.131122,48.742053],[37.130928,48.742325],[37.130902,48.742364],[37.130743,48.742551],[37.131095,48.74266],[37.131588,48.74282]]]}},{"type":"Feature","properties":{"cadnum":"1420386901:00:000:0161"},"geometry":{"type":"Polygon","coordinates":[[[37.129266,48.743949],[37.129715,48.743335],[37.12941,48.743241],[37.128969,48.743857],[37.129154,48.743914],[37.129266,48.743949]]]}},{"type":"Feature","properties":{"cadnum":"1420386901:00:000:0029"},"geometry":{"type":"Polygon","coordinates":[[[37.128741,48.744953],[37.128952,48.744591],[37.129158,48.744259],[37.128789,48.744132],[37.128556,48.744511],[37.128382,48.744828],[37.128741,48.744953]]]}},{"type":"Feature","properties":{"cadnum":"1420386901:00:000:0107"},"geometry":{"type":"Polygon","coordinates":[[[37.128969,48.743857],[37.12941,48.743241],[37.129118,48.743146],[37.128678,48.743762],[37.128969,48.743857]]]}},{"type":"Feature","properties":{"cadnum":"1420386901:00:000:0061"},"geometry":{"type":"Polygon","coordinates":[[[37.131053,48.744479],[37.131135,48.744316],[37.130519,48.7441],[37.130411,48.744274],[37.130483,48.744296],[37.130497,48.744274],[37.130556,48.744292],[37.130542,48.744313],[37.131053,48.744479]]]}},{"type":"Feature","properties":{"cadnum":"1420386901:00:000:0062"},"geometry":{"type":"Polygon","coordinates":[[[37.131135,48.744316],[37.13135,48.743872],[37.130784,48.743677],[37.130519,48.7441],[37.131135,48.744316]]]}},{"type":"Feature","properties":{"cadnum":"1420386901:00:000:0195"},"geometry":{"type":"Polygon","coordinates":[[[37.119573,48.742684],[37.119623,48.742601],[37.119897,48.742107],[37.11947,48.741967],[37.119277,48.742252],[37.11916,48.742553],[37.119147,48.742571],[37.119573,48.742684]]]}},{"type":"Feature","properties":{"cadnum":"1420386901:00:000:0158"},"geometry":{"type":"Polygon","coordinates":[[[37.119964,48.743363],[37.120302,48.742782],[37.119623,48.742601],[37.119304,48.743172],[37.119964,48.743363]]]}},{"type":"Feature","properties":{"cadnum":"1420386901:00:000:0141"},"geometry":{"type":"Polygon","coordinates":[[[37.122889,48.74216],[37.122889,48.742158821917805],[37.123045,48.741938],[37.122906,48.741893],[37.122889,48.74188769312169],[37.122889,48.741887],[37.122619,48.741802],[37.12239,48.742112],[37.122717,48.742214],[37.122717,48.742215],[37.122826,48.742248],[37.122889,48.74216]]]}},{"type":"Feature","properties":{"cadnum":"1420386901:00:000:0131"},"geometry":{"type":"Polygon","coordinates":[[[37.118742,48.74481],[37.118935,48.74468],[37.119084,48.744689],[37.119264,48.743741],[37.118572,48.743685],[37.118352,48.744645],[37.118742,48.74481]]]}},{"type":"Feature","properties":{"cadnum":"1420386901:00:000:0136"},"geometry":{"type":"Polygon","coordinates":[[[37.119753,48.743993],[37.119937,48.743519],[37.11934,48.743354],[37.119231,48.743907],[37.119753,48.743993]]]}},{"type":"Feature","properties":{"cadnum":"1420386901:00:000:0140"},"geometry":{"type":"Polygon","coordinates":[[[37.122826,48.742248],[37.12239,48.742112],[37.122156,48.742397],[37.121999,48.74266],[37.122447,48.742814],[37.122619,48.742539],[37.122717,48.74240123188406],[37.122717,48.742402],[37.122826,48.742248]]]}},{"type":"Feature","properties":{"cadnum":"1420386901:00:000:0157"},"geometry":{"type":"Polygon","coordinates":[[[37.120302,48.742782],[37.120405,48.742601],[37.120184,48.742545],[37.120369,48.742257],[37.119897,48.742107],[37.119623,48.742601],[37.120302,48.742782]]]}},{"type":"Feature","properties":{"cadnum":"1420386901:00:000:0137"},"geometry":{"type":"Polygon","coordinates":[[[37.119416,48.744855],[37.119753,48.743993],[37.119231,48.743907],[37.119084,48.744689],[37.119074,48.74474],[37.119416,48.744855]]]}},{"type":"Feature","properties":{"cadnum":"1420386901:00:000:0152"},"geometry":{"type":"Polygon","coordinates":[[[37.122376,48.744695],[37.122565,48.744307],[37.121923,48.744109],[37.121724,48.744571],[37.122376,48.744695]]]}},{"type":"Feature","properties":{"cadnum":"1420386901:00:000:0153"},"geometry":{"type":"Polygon","coordinates":[[[37.122376,48.744695],[37.121724,48.744571],[37.121383,48.74538],[37.121383767195766,48.74538],[37.121352,48.745456],[37.121954,48.745574],[37.122101,48.745267],[37.1221004379562,48.745267],[37.122376,48.744695]]]}},{"type":"Feature","properties":{"cadnum":"1420386901:00:000:0112"},"geometry":{"type":"Polygon","coordinates":[[[37.120705,48.744349],[37.120939,48.743815],[37.120418,48.743662],[37.120206,48.744195],[37.120705,48.744349]]]}},{"type":"Feature","properties":{"cadnum":"1420386901:00:000:0092"},"geometry":{"type":"Polygon","coordinates":[[[37.122066,48.743596],[37.122466,48.742966],[37.122066,48.742835],[37.121661,48.743471],[37.122066,48.743596]]]}},{"type":"Feature","properties":{"cadnum":"1420386901:00:000:0130"},"geometry":{"type":"Polygon","coordinates":[[[37.119264,48.743741],[37.11934,48.743354],[37.118684,48.743199],[37.118572,48.743685],[37.119264,48.743741]]]}},{"type":"Feature","properties":{"cadnum":"1420386901:00:000:0113"},"geometry":{"type":"Polygon","coordinates":[[[37.120705,48.744349],[37.120206,48.744195],[37.119834,48.745139],[37.120063855319145,48.745267],[37.120063,48.745267],[37.120256,48.745374],[37.120705,48.744349]]]}},{"type":"Feature","properties":{"cadnum":"1420386901:00:000:0093"},"geometry":{"type":"Polygon","coordinates":[[[37.119021,48.742287],[37.119048,48.742246],[37.118977,48.742224],[37.118948,48.742263],[37.119021,48.742287]]]}},{"type":"Feature","properties":{"cadnum":"1420386901:00:000:0196"},"geometry":{"type":"Polygon","coordinates":[[[37.119273,48.743229],[37.119304,48.743172],[37.119573,48.742684],[37.119147,48.742571],[37.118818,48.743108],[37.119273,48.743229]]]}},{"type":"Feature","properties":{"cadnum":"1420386901:00:000:0138"},"geometry":{"type":"Polygon","coordinates":[[[37.112356,48.738072],[37.112343,48.738135],[37.112344492260064,48.738135],[37.112297,48.738395],[37.112225,48.738946],[37.112558,48.738964],[37.112652,48.738415],[37.112706,48.738087],[37.112356,48.738072]]]}},{"type":"Feature","properties":{"cadnum":"1420386901:00:000:0144"},"geometry":{"type":"Polygon","coordinates":[[[37.113461,48.739367],[37.113524,48.739062],[37.1132,48.739053],[37.113151,48.739343],[37.113461,48.739367]]]}},{"type":"Feature","properties":{"cadnum":"1420386901:00:000:0187"},"geometry":{"type":"Polygon","coordinates":[[[37.115553,48.739538],[37.115679,48.738893],[37.115208,48.738863],[37.115086,48.739508],[37.115553,48.739538]]]}},{"type":"Feature","properties":{"cadnum":"1420386901:00:000:0134"},"geometry":{"type":"Polygon","coordinates":[[[37.112841,48.739284],[37.112889,48.739008],[37.112553,48.738987],[37.112516,48.739183],[37.112719,48.73924],[37.11271,48.739263],[37.112841,48.739284]]]}},{"type":"Feature","properties":{"cadnum":"1420386901:00:000:0133"},"geometry":{"type":"Polygon","coordinates":[[[37.112889,48.739008],[37.112989,48.738436],[37.113038,48.738105],[37.112706,48.738087],[37.112652,48.738415],[37.112553,48.738987],[37.112889,48.739008]]]}},{"type":"Feature","properties":{"cadnum":"1420386901:00:000:0143"},"geometry":{"type":"Polygon","coordinates":[[[37.113524,48.739062],[37.113707,48.738152],[37.113365,48.738131],[37.1132,48.739053],[37.113524,48.739062]]]}},{"type":"Feature","properties":{"cadnum":"1420386901:00:000:0098"},"geometry":{"type":"Polygon","coordinates":[[[37.11439,48.741579],[37.114579,48.740916],[37.114138,48.74085],[37.113945,48.741523],[37.11439,48.741579]]]}},{"type":"Feature","properties":{"cadnum":"1420386901:00:000:0199"},"geometry":{"type":"Polygon","coordinates":[[[37.1136,48.741497],[37.113833,48.740827],[37.113394,48.740777],[37.113164,48.741451],[37.1136,48.741497]]]}},{"type":"Feature","properties":{"cadnum":"1420386901:00:000:0139"},"geometry":{"type":"Polygon","coordinates":[[[37.112516,48.739183],[37.112553,48.738987],[37.112558,48.738964],[37.112225,48.738946],[37.112199,48.739139],[37.112516,48.739183]]]}},{"type":"Feature","properties":{"cadnum":"1420386901:00:000:0186"},"geometry":{"type":"Polygon","coordinates":[[[37.115679,48.738893],[37.115805,48.738252],[37.115329,48.738229],[37.115208,48.738863],[37.115679,48.738893]]]}},{"type":"Feature","properties":{"cadnum":"1420386901:00:000:0170"},"geometry":{"type":"Polygon","coordinates":[[[37.11377,48.739337],[37.113833,48.739091],[37.113518,48.739076],[37.113469,48.739319],[37.11377,48.739337]]]}},{"type":"Feature","properties":{"cadnum":"1420386901:00:000:0169"},"geometry":{"type":"Polygon","coordinates":[[[37.113833,48.739091],[37.113977,48.738505],[37.114027,48.738173],[37.113707,48.738152],[37.113524,48.739062],[37.113518,48.739076],[37.113833,48.739091]]]}},{"type":"Feature","properties":{"cadnum":"1420386901:00:000:0097"},"geometry":{"type":"Polygon","coordinates":[[[37.114566,48.740051],[37.114749,48.739521],[37.114556,48.739512],[37.11426,48.7395],[37.114124,48.739986],[37.114566,48.740051]]]}},{"type":"Feature","properties":{"cadnum":"1420386901:00:000:0096"},"geometry":{"type":"Polygon","coordinates":[[[37.114327,48.740744],[37.114566,48.740051],[37.114124,48.739986],[37.113931,48.740687],[37.114327,48.740744]]]}},{"type":"Feature","properties":{"cadnum":"1420386901:00:000:0081"},"geometry":{"type":"Polygon","coordinates":[[[37.125583,48.744725],[37.125965,48.744186],[37.125512,48.744026],[37.125134,48.744586],[37.125583,48.744725]]]}},{"type":"Feature","properties":{"cadnum":"1420386901:00:000:0073"},"geometry":{"type":"Polygon","coordinates":[[[37.127078,48.745249],[37.127348,48.744663],[37.126898,48.744509],[37.126625,48.745095],[37.127078,48.745249]]]}},{"type":"Feature","properties":{"cadnum":"1420386901:00:000:0190"},"geometry":{"type":"Polygon","coordinates":[[[37.124635,48.74165],[37.124549,48.741757],[37.12455043548387,48.741757],[37.124145,48.74227],[37.124338,48.742331],[37.12438,48.74227],[37.124434,48.742287],[37.124491,48.742305],[37.12494,48.741754],[37.124635,48.74165]]]}},{"type":"Feature","properties":{"cadnum":"1420386901:00:000:0194"},"geometry":{"type":"Polygon","coordinates":[[[37.12768,48.741603],[37.127649649350644,48.741644],[37.127649,48.741644],[37.127137,48.74234],[37.127451,48.742444],[37.12799,48.741695],[37.12782,48.741644],[37.127818152173916,48.741644],[37.12768,48.741603]]]}},{"type":"Feature","properties":{"cadnum":"1420386901:00:000:0201"},"geometry":{"type":"Polygon","coordinates":[[[37.124262,48.744242],[37.124407,48.743996],[37.124617,48.7437],[37.124141,48.743543],[37.124118,48.743578],[37.123979,48.7438],[37.123939,48.743881],[37.123795,48.744109],[37.124262,48.744242]]]}},{"type":"Feature","properties":{"cadnum":"1420386901:00:000:0193"},"geometry":{"type":"Polygon","coordinates":[[[37.12433,48.741547],[37.12425009047619,48.741644],[37.12425,48.741644],[37.124242751730655,48.74165290830383],[37.124157,48.741757],[37.12415805719557,48.741757],[37.123809,48.742186],[37.124141,48.742275],[37.124145,48.74227],[37.124635,48.74165],[37.12433,48.741547]]]}},{"type":"Feature","properties":{"cadnum":"1420386901:00:000:0164"},"geometry":{"type":"Polygon","coordinates":[[[37.124105,48.743374],[37.124348,48.743063],[37.12456,48.742782],[37.124128,48.742639],[37.123715,48.743241],[37.124105,48.743374]]]}},{"type":"Feature","properties":{"cadnum":"1420386901:00:000:0183"},"geometry":{"type":"Polygon","coordinates":[[[37.126499,48.743631],[37.126644,48.74344],[37.126841,48.743155],[37.126581,48.743072],[37.126436,48.743025],[37.126257,48.742968],[37.125969,48.743386],[37.125925,48.743454],[37.126086,48.743504],[37.126499,48.743631]],[[37.126015,48.743398],[37.126001,48.743394],[37.126009,48.743386],[37.126019,48.743389],[37.126015,48.743398]]]}},{"type":"Feature","properties":{"cadnum":"1420386901:00:000:0087"},"geometry":{"type":"Polygon","coordinates":[[[37.126558,48.744209],[37.127025,48.743555],[37.126644,48.74344],[37.126338,48.743854],[37.126181,48.744082],[37.126558,48.744209]]]}},{"type":"Feature","properties":{"cadnum":"1420386901:00:000:0076"},"geometry":{"type":"Polygon","coordinates":[[[37.124151,48.74253],[37.12429,48.742343],[37.124124,48.742299],[37.123935,48.742252],[37.12389,48.742311],[37.123818,48.742411],[37.124151,48.74253]]]}},{"type":"Feature","properties":{"cadnum":"1420386901:00:000:0165"},"geometry":{"type":"Polygon","coordinates":[[[37.12456,48.742782],[37.124837,48.742421],[37.124434,48.742287],[37.12438,48.74227],[37.124128,48.742639],[37.12456,48.742782]]]}},{"type":"Feature","properties":{"cadnum":"1420386901:00:000:0082"},"geometry":{"type":"Polygon","coordinates":[[[37.125282,48.745151],[37.125583,48.744725],[37.125134,48.744586],[37.124864,48.744985],[37.125282,48.745151]]]}},{"type":"Feature","properties":{"cadnum":"1420386901:00:000:0160"},"geometry":{"type":"Polygon","coordinates":[[[37.128049,48.743581],[37.128099,48.743493],[37.127613,48.743324],[37.12756,48.743398],[37.127613,48.743418],[37.128049,48.743581]]]}},{"type":"Feature","properties":{"cadnum":"1420386901:00:000:0172"},"geometry":{"type":"Polygon","coordinates":[[[37.125969,48.743386],[37.126257,48.742968],[37.125933,48.742867],[37.125781,48.74282],[37.125476,48.743235],[37.125969,48.743386]]]}},{"type":"Feature","properties":{"cadnum":"1420386901:00:000:0089"},"geometry":{"type":"Polygon","coordinates":[[[37.12596,48.742867],[37.126198,48.742548],[37.126432,48.742254],[37.126131,48.742156],[37.125573,48.742758],[37.12596,48.742867]]]}},{"type":"Feature","properties":{"cadnum":"1420386901:00:000:0103"},"geometry":{"type":"Polygon","coordinates":[[[37.127214,48.743276],[37.127649,48.742652],[37.127344,48.74256],[37.126854,48.743157],[37.127061,48.743226],[37.127214,48.743276]]]}},{"type":"Feature","properties":{"cadnum":"1420386901:00:000:0119"},"geometry":{"type":"Polygon","coordinates":[[[37.124959,48.745089],[37.124814,48.74538],[37.124815114130435,48.74538],[37.12478,48.745451],[37.12547,48.745705],[37.125682,48.745352],[37.124959,48.745089]]]}},{"type":"Feature","properties":{"cadnum":"1420386901:00:000:0202"},"geometry":{"type":"Polygon","coordinates":[[[37.12402,48.744663],[37.124262,48.744242],[37.123795,48.744109],[37.123544,48.74452],[37.12402,48.744663]]]}},{"type":"Feature","properties":{"cadnum":"1420386901:00:000:0063"},"geometry":{"type":"Polygon","coordinates":[[[37.126288,48.742962],[37.126544,48.742625],[37.126747,48.742349],[37.126432,48.742254],[37.126198,48.742548],[37.12596,48.742867],[37.126288,48.742962]]]}},{"type":"Feature","properties":{"cadnum":"1420386901:00:000:0182"},"geometry":{"type":"Polygon","coordinates":[[[37.126181,48.744082],[37.126338,48.743854],[37.126499,48.743631],[37.126086,48.743504],[37.125925,48.743454],[37.125655,48.743845],[37.125718,48.743866],[37.125686,48.743916],[37.125767,48.743943],[37.126181,48.744082]]]}},{"type":"Feature","properties":{"cadnum":"1420386901:00:000:0074"},"geometry":{"type":"Polygon","coordinates":[[[37.127078,48.745249],[37.126625,48.745095],[37.12654412982456,48.745267],[37.126544,48.745267],[37.12652037692351,48.74531751922984],[37.126491,48.74538],[37.12649116056338,48.74538],[37.126378,48.745622],[37.126818,48.745818],[37.12701752450091,48.74538],[37.127018,48.74538],[37.127078,48.745249]]]}},{"type":"Feature","properties":{"cadnum":"1420386901:00:000:0171"},"geometry":{"type":"Polygon","coordinates":[[[37.125623,48.74389],[37.125969,48.743386],[37.125476,48.743235],[37.125116,48.743721],[37.125623,48.74389]]]}},{"type":"Feature","properties":{"cadnum":"1420386901:00:000:0088"},"geometry":{"type":"Polygon","coordinates":[[[37.127025,48.743555],[37.127214,48.743276],[37.127061,48.743226],[37.126854,48.743157],[37.126841,48.743155],[37.126644,48.74344],[37.127025,48.743555]]]}},{"type":"Feature","properties":{"cadnum":"1420386901:00:000:0075"},"geometry":{"type":"Polygon","coordinates":[[[37.123611,48.743253],[37.124151,48.74253],[37.123818,48.742411],[37.123665,48.742616],[37.123275,48.743137],[37.123611,48.743253]]]}},{"type":"Feature","properties":{"cadnum":"1420386901:00:000:0068"},"geometry":{"type":"Polygon","coordinates":[[[37.123665,48.742616],[37.12389,48.742311],[37.123414,48.742142],[37.123193,48.74245],[37.123665,48.742616]]]}},{"type":"Feature","properties":{"cadnum":"1420386901:00:000:0067"},"geometry":{"type":"Polygon","coordinates":[[[37.123275,48.743137],[37.123665,48.742616],[37.123193,48.74245],[37.122816,48.742977],[37.123275,48.743137]]]}},{"type":"Feature","properties":{"cadnum":"1420386901:00:000:0167"},"geometry":{"type":"Polygon","coordinates":[[[37.123669,48.744316],[37.123939,48.743877],[37.123979,48.7438],[37.124118,48.743578],[37.124141,48.743543],[37.123809,48.743433],[37.123791,48.74346],[37.123642,48.743721],[37.123338,48.744209],[37.123669,48.744316]]]}},{"type":"Feature","properties":{"cadnum":"1420386901:00:000:0168"},"geometry":{"type":"Polygon","coordinates":[[[37.123544,48.74452],[37.123669,48.744316],[37.123338,48.744209],[37.123212,48.744414],[37.123544,48.74452]]]}},{"type":"Feature","properties":{"cadnum":"1420386901:00:000:0181"},"geometry":{"type":"Polygon","coordinates":[[[37.128409,48.747453],[37.129397,48.747212],[37.129724,48.747094],[37.129841,48.746987],[37.12941,48.746825],[37.128925,48.74665],[37.128409,48.747453]]]}},{"type":"Feature","properties":{"cadnum":"1420386901:00:000:0084"},"geometry":{"type":"Polygon","coordinates":[[[37.129172,48.746674],[37.129571,48.74607],[37.129118,48.745925],[37.128732,48.746507],[37.129172,48.746674]]]}},{"type":"Feature","properties":{"cadnum":"1420386901:00:000:0207"},"geometry":{"type":"Polygon","coordinates":[[[37.128925,48.74665],[37.128552,48.746516],[37.12837199999972,48.74679652631622],[37.128116,48.747194],[37.12821,48.74722015037594],[37.12821,48.747221],[37.12831720512859,48.74724997435908],[37.128382,48.747268],[37.128382,48.747267486486486],[37.128506,48.747301],[37.128925,48.74665]]]}},{"type":"Feature","properties":{"cadnum":"1420386901:00:000:0083"},"geometry":{"type":"Polygon","coordinates":[[[37.129571,48.74607],[37.129688,48.745892],[37.12994,48.74551],[37.129491,48.745367],[37.129118,48.745925],[37.129571,48.74607]]]}},{"type":"Feature","properties":{"cadnum":"1420386901:00:000:0208"},"geometry":{"type":"Polygon","coordinates":[[[37.128409,48.747453],[37.128506,48.747301],[37.12831720512859,48.74724997435908],[37.128116,48.747194],[37.127927,48.747521],[37.128382,48.747457],[37.128382,48.747456798994975],[37.128409,48.747453]]]}},{"type":"Feature","properties":{"cadnum":"1420386901:00:000:0142"},"geometry":{"type":"Polygon","coordinates":[[[37.130389,48.74609],[37.130613,48.745726],[37.12994,48.74551],[37.129688,48.745892],[37.130389,48.74609]]]}},{"type":"Feature","properties":{"cadnum":"1420386901:00:000:0176"},"geometry":{"type":"Polygon","coordinates":[[[37.126333,48.740169],[37.126495,48.739971],[37.126805,48.740083],[37.126823,48.740059],[37.12685,48.740027],[37.127533,48.739132],[37.126086,48.738673],[37.125435,48.739526],[37.125409,48.739559],[37.125237,48.739781],[37.126333,48.740169]],[[37.126575,48.739947],[37.126602,48.739947],[37.126602,48.739965],[37.126575,48.739965],[37.126575,48.739947]]]}},{"type":"Feature","properties":{"cadnum":"1420386901:00:000:0111"},"geometry":{"type":"Polygon","coordinates":[[[37.127303,48.741464],[37.127326,48.741431],[37.126827,48.741265],[37.126801,48.741301],[37.12707,48.741387],[37.127303,48.741464]]]}},{"type":"Feature","properties":{"cadnum":"1420386901:00:000:0110"},"geometry":{"type":"Polygon","coordinates":[[[37.127326,48.741431],[37.127686,48.740937],[37.127187,48.740773],[37.126827,48.741265],[37.127326,48.741431]]]}},{"type":"Feature","properties":{"cadnum":"1420386901:00:000:0197"},"geometry":{"type":"Polygon","coordinates":[[[37.124411,48.741446],[37.124694,48.741052],[37.124015,48.740832],[37.123925,48.740975],[37.123961,48.740987],[37.123795,48.741221],[37.124411,48.741446]]]}},{"type":"Feature","properties":{"cadnum":"1420386901:00:000:0198"},"geometry":{"type":"Polygon","coordinates":[[[37.124694,48.741052],[37.12495,48.740694],[37.124877,48.74067],[37.125044,48.740421],[37.124434,48.740213],[37.124277,48.740439],[37.124061,48.740768],[37.124015,48.740832],[37.124694,48.741052]]]}},{"type":"Feature","properties":{"cadnum":"1420386901:00:000:0115"},"geometry":{"type":"Polygon","coordinates":[[[37.123795,48.741221],[37.123961,48.740987],[37.123925,48.740975],[37.124061,48.740768],[37.123575,48.74061],[37.123562,48.740623],[37.123499,48.740605],[37.12322,48.74104],[37.123795,48.741221]]]}},{"type":"Feature","properties":{"cadnum":"1420386901:00:000:0116"},"geometry":{"type":"Polygon","coordinates":[[[37.124061,48.740768],[37.124277,48.740439],[37.123711,48.740261],[37.123575,48.740439],[37.123669,48.740465],[37.123575,48.74061],[37.124061,48.740768]]]}},{"type":"Feature","properties":{"cadnum":"1420386901:00:000:0192"},"geometry":{"type":"Polygon","coordinates":[[[37.127128,48.747642],[37.127631,48.746798],[37.127101,48.746659],[37.126512,48.747604],[37.127128,48.747642]]]}},{"type":"Feature","properties":{"cadnum":"1420386901:00:000:0191"},"geometry":{"type":"Polygon","coordinates":[[[37.127631,48.746798],[37.127923,48.746303],[37.127424,48.746147],[37.127101,48.746659],[37.127631,48.746798]]]}},{"type":"Feature","properties":{"cadnum":"1420386901:00:000:0120"},"geometry":{"type":"Polygon","coordinates":[[[37.12478,48.746863],[37.12547,48.745705],[37.12478,48.745451],[37.124214,48.746597],[37.12478,48.746863]]]}},{"type":"Feature","properties":{"cadnum":"1420386901:00:000:0004"},"geometry":{"type":"Polygon","coordinates":[[[37.082433,48.716132],[37.082446,48.716118],[37.082406,48.716094],[37.082393,48.716109],[37.082433,48.716132]]]}},{"type":"Feature","properties":{"cadnum":"1420386901:00:000:0003"},"geometry":{"type":"Polygon","coordinates":[[[37.08462,48.714369],[37.084664,48.714333],[37.084628,48.714315],[37.084584,48.714351],[37.08462,48.714369]]]}}]}