{"type":"FeatureCollection","features":[{"type":"Feature","properties":{"cadnum":"1421588000:01:000:0089"},"geometry":{"type":"Polygon","coordinates":[[[37.387281,47.483463],[37.387549,47.483425],[37.387502,47.483327],[37.38723,47.483366],[37.387281,47.483463]]]}},{"type":"Feature","properties":{"cadnum":"1421588000:01:000:0097"},"geometry":{"type":"Polygon","coordinates":[[[37.39012,47.48153],[37.390326,47.481472],[37.38987,47.480664],[37.389672,47.480735],[37.389767,47.480901],[37.39012,47.48153]]]}},{"type":"Feature","properties":{"cadnum":"1421588000:01:000:0113"},"geometry":{"type":"Polygon","coordinates":[[[37.391422,47.482224],[37.391749,47.482139],[37.391319,47.48134],[37.39099,47.481422],[37.391422,47.482224]]]}},{"type":"Feature","properties":{"cadnum":"1421588000:01:000:0059"},"geometry":{"type":"Polygon","coordinates":[[[37.389359,47.481012],[37.389768,47.480903],[37.389701,47.480785],[37.389306,47.480918],[37.389359,47.481012]]]}},{"type":"Feature","properties":{"cadnum":"1421588000:01:000:0053"},"geometry":{"type":"Polygon","coordinates":[[[37.387627,47.481255],[37.388331,47.48103],[37.387981,47.480548],[37.387231,47.480755],[37.387627,47.481255]]]}},{"type":"Feature","properties":{"cadnum":"1421588000:01:000:0052"},"geometry":{"type":"Polygon","coordinates":[[[37.387944,47.481659],[37.388619,47.481449],[37.388529,47.481313],[37.387851,47.481516],[37.387944,47.481659]]]}},{"type":"Feature","properties":{"cadnum":"1421588000:01:000:0058"},"geometry":{"type":"Polygon","coordinates":[[[37.389705,47.481644],[37.390118,47.481531],[37.389768,47.480903],[37.389359,47.481012],[37.389705,47.481644]]]}},{"type":"Feature","properties":{"cadnum":"1421588000:01:000:0051"},"geometry":{"type":"Polygon","coordinates":[[[37.388179,47.482014],[37.388866,47.481829],[37.388619,47.481449],[37.387944,47.481659],[37.388179,47.482014]]]}},{"type":"Feature","properties":{"cadnum":"1421588000:01:000:0088"},"geometry":{"type":"Polygon","coordinates":[[[37.38723,47.483366],[37.387502,47.483327],[37.3872,47.482706],[37.38726,47.482631],[37.387188,47.482504],[37.38725,47.482484],[37.387203,47.482403],[37.386779,47.482514],[37.38723,47.483366]]]}},{"type":"Feature","properties":{"cadnum":"1421588000:02:000:0038"},"geometry":{"type":"Polygon","coordinates":[[[37.402868,47.457363],[37.402868,47.457363155555555],[37.40151439421339,47.45775],[37.401511,47.45775],[37.399892,47.458213],[37.400975,47.46006],[37.40304,47.45877],[37.40304,47.458769367507],[37.40448201074307,47.457867],[37.404483,47.457867],[37.404653,47.45776],[37.404903,47.457867],[37.404905340036564,47.457867],[37.405943,47.458307],[37.40603463375224,47.457867],[37.406035,47.457867],[37.406347,47.456369],[37.402868,47.457363]]]}},{"type":"Feature","properties":{"cadnum":"1421588000:02:000:0042"},"geometry":{"type":"Polygon","coordinates":[[[37.407393,47.452947],[37.406896,47.453242],[37.406684,47.453615],[37.4065231029703,47.454036],[37.406521,47.454036],[37.406491,47.45412],[37.406479,47.454152],[37.4064802519084,47.454152],[37.406271,47.454775],[37.406707,47.454885],[37.406707,47.455076],[37.406527,47.455502],[37.406437,47.455926],[37.40605923183926,47.45775],[37.406059,47.45775],[37.405875,47.458638],[37.403418,47.459889],[37.40297056270661,47.460068788439706],[37.402013,47.460452],[37.40068278919398,47.461464],[37.400681,47.461464],[37.399372,47.462462],[37.399313,47.463816],[37.40173,47.463961],[37.402646,47.464651],[37.40304,47.464772],[37.40304,47.46477148578017],[37.404169,47.465116],[37.40421219101124,47.465178],[37.404212,47.465178],[37.40425805454594,47.46524383636433],[37.404293,47.465294],[37.40429314553991,47.465294],[37.40451,47.465604],[37.404726,47.465914],[37.404766,47.465953],[37.404757,47.465978],[37.404343,47.466385],[37.404259,47.466531],[37.403997,47.467062],[37.404299,47.467645],[37.40473,47.468413],[37.405003294478526,47.468892],[37.405002,47.468892],[37.405009,47.468902],[37.405066,47.469005],[37.405418,47.469579],[37.405611,47.470058],[37.405894,47.469965],[37.405997,47.469931],[37.406055,47.46991],[37.406078,47.469904],[37.406095,47.469783],[37.406137,47.469448],[37.406145,47.469433],[37.406297,47.469014],[37.406362,47.468892],[37.406361634877385,47.468892],[37.406495,47.468641],[37.406702,47.468525],[37.406904,47.46841],[37.407219,47.468298],[37.407259,47.46844],[37.407322,47.468417],[37.407309,47.468282],[37.408533,47.467961],[37.408533,47.467960895104895],[37.408647,47.467931],[37.408728,47.467991],[37.4088,47.46797],[37.408821,47.467873],[37.41012,47.467499],[37.410156,47.467584],[37.410332,47.467539],[37.410215,47.467456],[37.412568,47.466828],[37.412231,47.466373],[37.412209,47.466288],[37.413498,47.465874],[37.41305348654273,47.46522267080787],[37.4129,47.464997],[37.411863,47.465273],[37.411856,47.465294],[37.41185742957746,47.465294],[37.41175,47.465699],[37.410911,47.465971],[37.410816,47.465823],[37.410668,47.465865],[37.410762,47.466014],[37.410385,47.466124],[37.410336,47.466151],[37.409953,47.465467],[37.4100308200692,47.465294],[37.410031,47.465294],[37.410551,47.464138],[37.411131,47.463464],[37.410915,47.463163],[37.410345,47.463315],[37.40989,47.462723],[37.408947,47.461782],[37.40874,47.461464],[37.40873962266858,47.461464],[37.408533,47.46114748131868],[37.408533,47.461147],[37.406441,47.45794],[37.4064544588441,47.45785182136622],[37.406764,47.455941],[37.406867,47.455374],[37.407007,47.455228],[37.407213,47.455049],[37.407712,47.454806],[37.408166,47.454681],[37.408533,47.45458],[37.408533,47.45457979699248],[37.409159,47.454408],[37.409357,47.454696],[37.409572,47.454642],[37.410268,47.455842],[37.410506,47.455781],[37.410825,47.456376],[37.413855,47.4555075710254],[37.413855,47.455508],[37.414014,47.455462],[37.413855,47.455203],[37.413855,47.45520376082004],[37.413136,47.454036],[37.41313570243902,47.454036],[37.412955,47.453742],[37.412729,47.453357],[37.413855,47.45334870703764],[37.413855,47.453349],[37.413951,47.453348],[37.414026,47.453325],[37.414026,47.453324675977655],[37.415025,47.453014],[37.41524,47.452637],[37.415209,47.45233],[37.415087,47.452103],[37.414917,47.452009],[37.414647,47.452018],[37.414467,47.45209],[37.4144,47.452306],[37.41396983928501,47.45227363928566],[37.413601,47.452245],[37.412666,47.452337],[37.41255,47.452376],[37.411831,47.45251],[37.411817,47.452513],[37.41096,47.452552],[37.410448,47.452603],[37.409213,47.452798],[37.408361,47.45288],[37.408361,47.45288026559356],[37.408036,47.452911],[37.407393,47.452947]],[[37.405328,47.469032],[37.405328,47.469008],[37.405328,47.468975],[37.405412,47.468975],[37.405408,47.469032],[37.405328,47.469032]],[[37.404896,47.468583],[37.404982,47.468586],[37.404982,47.468641],[37.404896,47.468641],[37.404896,47.468583]],[[37.405764,47.469354],[37.405844,47.469354],[37.405844,47.469412],[37.405758,47.469412],[37.405764,47.469354]]]}},{"type":"Feature","properties":{"cadnum":"1421588000:02:000:0037"},"geometry":{"type":"Polygon","coordinates":[[[37.397375,47.458989],[37.397375,47.45898928508385],[37.391882,47.460691],[37.391882,47.460691151193636],[37.3913,47.460871],[37.391965,47.461581],[37.391965413860746,47.461581],[37.394749,47.464551],[37.396274,47.465294],[37.3962745828877,47.465294],[37.39642,47.465365],[37.39673680645204,47.46522625806433],[37.397375,47.4649487826087],[37.397375,47.464949],[37.397471807689314,47.464906692309],[37.397547,47.464874],[37.397547,47.46487383114819],[37.399892,47.463849],[37.399313,47.463816],[37.399317,47.463631],[37.397547,47.46295380638517],[37.397547,47.462953],[37.396875,47.462696],[37.397375,47.462374571428576],[37.397375,47.462375],[37.39860827113062,47.461581],[37.398609,47.461581],[37.400925,47.460093],[37.399829,47.458228],[37.397375,47.458989]]]}},{"type":"Feature","properties":{"cadnum":"1421588000:01:000:0015"},"geometry":{"type":"Polygon","coordinates":[[[37.408361,47.481756],[37.408361,47.48175615789474],[37.408324,47.481762],[37.408234,47.482029],[37.407546,47.482344],[37.407578,47.48287],[37.407385,47.483572],[37.40738261672474,47.483743],[37.407382,47.483743],[37.40738,47.483969],[37.407456,47.484008],[37.407462,47.484042],[37.407506,47.48443],[37.408058,47.484391],[37.408068,47.484457],[37.408332,47.484445],[37.408359,47.484573],[37.408361,47.48457288349514],[37.408361,47.484573],[37.408462,47.484567],[37.408624,47.485001],[37.409343,47.484916],[37.409177,47.4844],[37.409536,47.484339],[37.40937653691275,47.483859],[37.409377,47.483859],[37.408665,47.481707],[37.408361,47.481756]]]}},{"type":"Feature","properties":{"cadnum":"1421588000:01:000:0060"},"geometry":{"type":"Polygon","coordinates":[[[37.409234,47.483307],[37.408993,47.482606],[37.408813,47.482078],[37.408804,47.482053],[37.408737,47.481822],[37.408475,47.481862],[37.408494,47.481935],[37.408489,47.482102],[37.408103,47.482163],[37.408175,47.482382],[37.407636,47.482472],[37.407429,47.482506],[37.407573,47.483116],[37.40735227489481,47.483743],[37.407352,47.483743],[37.407322,47.483829],[37.407329,47.483859],[37.40732912907117,47.483859],[37.407519,47.484658],[37.408211,47.48463],[37.408234,47.484691],[37.408361,47.484691],[37.408498,47.484691],[37.408485,47.484488],[37.408533,47.484487],[37.408533,47.484486857142855],[37.408611,47.484485],[37.408601,47.484348],[37.408728,47.484327],[37.409007,47.485129],[37.409338,47.485073],[37.40915,47.484528],[37.409276,47.484506],[37.409626,47.484452],[37.40954,47.4842],[37.40940860771695,47.483822350482036],[37.409374,47.48372],[37.409234,47.483307]]]}},{"type":"Feature","properties":{"cadnum":"1421588000:02:000:0030"},"geometry":{"type":"Polygon","coordinates":[[[37.410488,47.480469],[37.410488,47.480447],[37.410456,47.480447],[37.410456,47.480469],[37.410488,47.480469]]]}},{"type":"Feature","properties":{"cadnum":"1421588000:02:000:0040"},"geometry":{"type":"Polygon","coordinates":[[[37.405875,47.458638],[37.405943,47.458307],[37.404653,47.45776],[37.402868,47.458877],[37.402868,47.45887744794189],[37.400975,47.46006],[37.400925,47.460093],[37.398791104838715,47.461464],[37.39879,47.461464],[37.397547,47.46226426360424],[37.397547,47.462264],[37.396875,47.462696],[37.397375,47.462887220238095],[37.397375,47.462888],[37.399317,47.463631],[37.399372,47.462462],[37.400527540080155,47.461581],[37.400529,47.461581],[37.402013,47.460452],[37.402868,47.460109833495615],[37.402868,47.46011],[37.40297056270661,47.460068788439706],[37.40304,47.460041],[37.40304,47.460040887272726],[37.403418,47.459889],[37.405875,47.458638]]]}},{"type":"Feature","properties":{"cadnum":"1421588000:03:000:1560"},"geometry":{"type":"Polygon","coordinates":[[[37.802638,47.840964],[37.802904,47.840952],[37.802967,47.840671],[37.802747,47.840683],[37.802697,47.840683],[37.802638,47.840964]]]}},{"type":"Feature","properties":{"cadnum":"1421588000:02:000:0033"},"geometry":{"type":"Polygon","coordinates":[[[37.408166,47.454681],[37.408361,47.45497004632153],[37.408361,47.454971],[37.409523,47.456689],[37.410533,47.456418],[37.409159,47.454408],[37.408361,47.454627],[37.408361,47.454627335149866],[37.408166,47.454681]]]}},{"type":"Feature","properties":{"cadnum":"1421588000:02:000:0035"},"geometry":{"type":"Polygon","coordinates":[[[37.408361,47.45701396612903],[37.408361,47.457014],[37.408508,47.456972],[37.407213,47.455049],[37.407007,47.455228],[37.406711,47.456822],[37.406648,47.457503],[37.408361,47.45701396612903]]]}},{"type":"Feature","properties":{"cadnum":"1421588000:02:000:0034"},"geometry":{"type":"Polygon","coordinates":[[[37.408533,47.456965],[37.408533,47.45696494403893],[37.40933,47.45674],[37.409523,47.456689],[37.408533,47.45522529948365],[37.408533,47.455225],[37.408166,47.454681],[37.407712,47.454806],[37.407213,47.455049],[37.408361,47.456753713513514],[37.408361,47.456755],[37.408508,47.456972],[37.408533,47.456965]]]}},{"type":"Feature","properties":{"cadnum":"1421588000:01:000:0072"},"geometry":{"type":"Polygon","coordinates":[[[37.400871,47.477223],[37.401267,47.477115],[37.40125,47.477084],[37.4012,47.47706],[37.401173,47.477045],[37.401119,47.477038],[37.400894,47.477102],[37.40085,47.477126],[37.400831,47.477153],[37.400871,47.477223]]]}},{"type":"Feature","properties":{"cadnum":"1421588000:01:000:0121"},"geometry":{"type":"Polygon","coordinates":[[[37.400547,47.476434],[37.400547969696966,47.476434],[37.400642,47.476608],[37.40141,47.476449],[37.40138284482764,47.476401568965606],[37.401284,47.476225],[37.400535,47.47641],[37.400547,47.476434]]]}},{"type":"Feature","properties":{"cadnum":"1421588000:01:000:0090"},"geometry":{"type":"Polygon","coordinates":[[[37.402211,47.476434],[37.40221151764706,47.476434],[37.402219,47.476446],[37.40228177685953,47.476434],[37.402285,47.476434],[37.402852,47.476325],[37.402718,47.476028],[37.402043,47.47617],[37.402138308900525,47.476318],[37.402137,47.476318],[37.402166,47.476361],[37.402211,47.476434]]]}},{"type":"Feature","properties":{"cadnum":"1421588000:01:000:0111"},"geometry":{"type":"Polygon","coordinates":[[[37.39912,47.480062],[37.399066,47.479953],[37.398793,47.480013],[37.398801575221235,47.48003],[37.398801,47.48003],[37.39885,47.480126],[37.39912,47.480062]]]}},{"type":"Feature","properties":{"cadnum":"1421588000:01:000:0095"},"geometry":{"type":"Polygon","coordinates":[[[37.40168,47.477657],[37.401892,47.477603],[37.401864,47.477554],[37.401653,47.477606],[37.40168,47.477657]]]}},{"type":"Feature","properties":{"cadnum":"1421588000:01:000:0110"},"geometry":{"type":"Polygon","coordinates":[[[37.398793,47.480013],[37.399066,47.479953],[37.398806,47.479391],[37.398504,47.479452],[37.398793,47.480013]]]}},{"type":"Feature","properties":{"cadnum":"1421588000:01:000:0136"},"geometry":{"type":"Polygon","coordinates":[[[37.399646,47.478035],[37.400175,47.477907],[37.399978,47.477522],[37.399448,47.477646],[37.399646,47.478035]]]}},{"type":"Feature","properties":{"cadnum":"1421588000:01:000:0024"},"geometry":{"type":"Polygon","coordinates":[[[37.402475,47.480026],[37.40245292307694,47.48003],[37.40245,47.48003],[37.402188,47.480078],[37.402215,47.480146],[37.40221530434783,47.480146],[37.402345,47.480469],[37.40252,47.480436],[37.402638,47.480417],[37.402477,47.48003],[37.402476666666665,47.48003],[37.402475,47.480026]]]}},{"type":"Feature","properties":{"cadnum":"1421588000:01:000:0087"},"geometry":{"type":"Polygon","coordinates":[[[37.401128,47.478909],[37.401384,47.478866],[37.401166,47.478304],[37.401067,47.478049],[37.400814,47.478097],[37.401128,47.478909]]]}},{"type":"Feature","properties":{"cadnum":"1421588000:01:000:0128"},"geometry":{"type":"Polygon","coordinates":[[[37.399187,47.478125],[37.399646,47.478035],[37.399623,47.477992],[37.399412,47.477576],[37.398959,47.477679],[37.399187,47.478125]]]}},{"type":"Feature","properties":{"cadnum":"1421588000:01:000:0027"},"geometry":{"type":"Polygon","coordinates":[[[37.400957,47.479761],[37.400647,47.479817],[37.400788,47.480146],[37.400788804347826,47.480146],[37.400818,47.480214],[37.401105,47.480162],[37.40107059561122,47.48007117241362],[37.400957,47.479761]]]}},{"type":"Feature","properties":{"cadnum":"1421588000:01:000:0112"},"geometry":{"type":"Polygon","coordinates":[[[37.398873,47.47907],[37.399255,47.479009],[37.399174,47.478793],[37.39912,47.4788],[37.398873,47.478199],[37.39864,47.478253],[37.398967,47.478832],[37.398756,47.478878],[37.398873,47.47907]]]}},{"type":"Feature","properties":{"cadnum":"1421588000:01:000:0029"},"geometry":{"type":"Polygon","coordinates":[[[37.401739,47.47954],[37.4019,47.479513],[37.401703,47.478951],[37.401527,47.478982],[37.401739,47.47954]]]}},{"type":"Feature","properties":{"cadnum":"1421588000:01:000:0157"},"geometry":{"type":"Polygon","coordinates":[[[37.401347,47.47866],[37.401703,47.478596],[37.401437,47.477952],[37.401074,47.478016],[37.401347,47.47866]]]}},{"type":"Feature","properties":{"cadnum":"1421588000:01:000:0139"},"geometry":{"type":"Polygon","coordinates":[[[37.403077,47.477488],[37.403261,47.477454],[37.403347,47.477439],[37.403189,47.477069],[37.403104,47.47709],[37.402868,47.477141],[37.402868,47.477141054982816],[37.402749,47.477166],[37.402831,47.47733],[37.402868,47.477320901639345],[37.402868,47.477321],[37.402892,47.477315],[37.402951,47.477443],[37.402961,47.477463],[37.403001,47.477454],[37.403018,47.477497],[37.40304,47.477494],[37.40304,47.4774936440678],[37.403077,47.477488]]]}},{"type":"Feature","properties":{"cadnum":"1421588000:01:000:0074"},"geometry":{"type":"Polygon","coordinates":[[[37.403706,47.478347],[37.403544,47.477947],[37.403513,47.477934],[37.403204,47.477992],[37.40304,47.47757168862275],[37.40304,47.477571],[37.403037,47.477564],[37.402868,47.47759],[37.402868,47.477590074285715],[37.402862,47.477591],[37.402143,47.477727],[37.402133,47.477745],[37.402449,47.478344],[37.402556,47.478535],[37.40304,47.478456],[37.40304,47.47845588066826],[37.403706,47.478347]]]}},{"type":"Feature","properties":{"cadnum":"1421588000:01:000:0054"},"geometry":{"type":"Polygon","coordinates":[[[37.400836,47.47896],[37.401128,47.478908],[37.400814,47.478098],[37.400548,47.478147],[37.400836,47.47896]]]}},{"type":"Feature","properties":{"cadnum":"1421588000:01:000:0028"},"geometry":{"type":"Polygon","coordinates":[[[37.400647,47.479817],[37.400355,47.479862],[37.40043130985915,47.48003],[37.400431,47.48003],[37.40045762184882,47.480087927171056],[37.400484,47.480146],[37.4004843106383,47.480146],[37.400539,47.480265],[37.400818,47.480214],[37.400739,47.48003],[37.40073828571428,47.48003],[37.400647,47.479817]]]}},{"type":"Feature","properties":{"cadnum":"1421588000:01:000:0003"},"geometry":{"type":"Polygon","coordinates":[[[37.401187,47.479686],[37.401537,47.479628],[37.401321,47.479079],[37.400993,47.479133],[37.401187,47.479686]]]}},{"type":"Feature","properties":{"cadnum":"1421588000:01:000:0104"},"geometry":{"type":"Polygon","coordinates":[[[37.39984,47.480146],[37.399840814241486,47.480146],[37.399919,47.480353],[37.400221,47.480296],[37.400165736842105,47.480146],[37.400166,47.480146],[37.400068,47.47988],[37.399946,47.479904],[37.399762,47.479938],[37.39984,47.480146]]]}},{"type":"Feature","properties":{"cadnum":"1421588000:01:000:0116"},"geometry":{"type":"Polygon","coordinates":[[[37.402039,47.478538],[37.402363,47.478483],[37.402009,47.477797],[37.40172,47.477858],[37.402039,47.478538]]]}},{"type":"Feature","properties":{"cadnum":"1421588000:01:000:0070"},"geometry":{"type":"Polygon","coordinates":[[[37.399659,47.479953],[37.399735,47.479941],[37.399946,47.479904],[37.399739,47.479346],[37.399422,47.4794],[37.399659,47.479953]]]}},{"type":"Feature","properties":{"cadnum":"1421588000:02:000:0009"},"geometry":{"type":"Polygon","coordinates":[[[37.410456,47.456495],[37.409477,47.456765],[37.41013,47.457867],[37.41013152173914,47.457867],[37.410718,47.458854],[37.411701,47.45859],[37.411202,47.45775],[37.411200584548105,47.45775],[37.410456,47.456495]]]}},{"type":"Feature","properties":{"cadnum":"1421588000:02:000:0010"},"geometry":{"type":"Polygon","coordinates":[[[37.411431,47.456224],[37.410456,47.456495],[37.41127,47.457867],[37.411271503571434,47.457867],[37.411701,47.45859],[37.41268,47.458329],[37.412336,47.45775],[37.41233564029215,47.45775],[37.411431,47.456224]]]}},{"type":"Feature","properties":{"cadnum":"1421588000:02:000:0012"},"geometry":{"type":"Polygon","coordinates":[[[37.412402,47.455954],[37.41347133821223,47.45775],[37.413471,47.45775],[37.41353187887874,47.45785168068044],[37.413541,47.457867],[37.413541050955416,47.457867],[37.413659,47.458064],[37.413855,47.45801219618529],[37.413855,47.458013],[37.41463,47.457807],[37.413855,47.456501],[37.413855,47.45650160091743],[37.413372,47.455687],[37.412402,47.455954]]]}},{"type":"Feature","properties":{"cadnum":"1421588000:02:000:0011"},"geometry":{"type":"Polygon","coordinates":[[[37.412402,47.455954],[37.411431,47.456224],[37.412405,47.457867],[37.41240551295337,47.457867],[37.41268,47.458329],[37.413659,47.458064],[37.41353187887874,47.45785168068044],[37.412402,47.455954]]]}},{"type":"Feature","properties":{"cadnum":"1421588000:02:000:0013"},"geometry":{"type":"Polygon","coordinates":[[[37.414026,47.45678916258065],[37.41463,47.457807],[37.415599,47.457546],[37.414337,47.455416],[37.413919658536386,47.455533756097616],[37.413372,47.455687],[37.414026,47.45679],[37.414026,47.45678916258065]]]}},{"type":"Feature","properties":{"cadnum":"1421588000:02:000:0027"},"geometry":{"type":"Polygon","coordinates":[[[37.409644,47.477843],[37.409644,47.477819],[37.409607,47.477819],[37.409607,47.477843],[37.409644,47.477843]]]}},{"type":"Feature","properties":{"cadnum":"1421588000:02:000:0026"},"geometry":{"type":"Polygon","coordinates":[[[37.409204,47.476741],[37.409204,47.476719],[37.409167,47.476719],[37.409167,47.476741],[37.409204,47.476741]]]}},{"type":"Feature","properties":{"cadnum":"1421588000:02:000:0029"},"geometry":{"type":"Polygon","coordinates":[[[37.410201,47.479919],[37.410201,47.479898],[37.410169,47.479898],[37.410165,47.479919],[37.410201,47.479919]]]}},{"type":"Feature","properties":{"cadnum":"1421588000:02:000:0028"},"geometry":{"type":"Polygon","coordinates":[[[37.410093,47.478945],[37.410093,47.478887],[37.410007,47.478887],[37.410007,47.478945],[37.410093,47.478945]]]}},{"type":"Feature","properties":{"cadnum":"1421588000:02:000:0039"},"geometry":{"type":"Polygon","coordinates":[[[37.402781,47.464688],[37.402646,47.464651],[37.40173,47.463961],[37.399892,47.463849],[37.402013,47.46466],[37.402781,47.464688]]]}},{"type":"Feature","properties":{"cadnum":"1421588000:01:000:0096"},"geometry":{"type":"Polygon","coordinates":[[[37.402328,47.483545],[37.402613,47.483504],[37.402462,47.483021],[37.402206,47.483059],[37.402328,47.483545]]]}},{"type":"Feature","properties":{"cadnum":"1421588000:01:000:0147"},"geometry":{"type":"Polygon","coordinates":[[[37.401123,47.482029],[37.401374,47.48199],[37.401213,47.481525],[37.400967,47.481568],[37.401123,47.482029]]]}},{"type":"Feature","properties":{"cadnum":"1421588000:01:000:0124"},"geometry":{"type":"Polygon","coordinates":[[[37.399982,47.481149],[37.400378,47.481076],[37.400265,47.480775],[37.400139,47.480796],[37.399839,47.480854],[37.399982,47.481149]]]}},{"type":"Feature","properties":{"cadnum":"1421588000:01:000:0114"},"geometry":{"type":"Polygon","coordinates":[[[37.401554,47.482442],[37.401793,47.4824],[37.401636,47.481947],[37.401374,47.48199],[37.401554,47.482442]]]}},{"type":"Feature","properties":{"cadnum":"1421588000:01:000:0012"},"geometry":{"type":"Polygon","coordinates":[[[37.399124,47.481959],[37.399573,47.481847],[37.399399,47.481501],[37.398917,47.481626],[37.399124,47.481959]]]}},{"type":"Feature","properties":{"cadnum":"1421588000:01:000:0106"},"geometry":{"type":"Polygon","coordinates":[[[37.399619,47.481725],[37.400104,47.481613],[37.399933,47.481279],[37.399452,47.481392],[37.399619,47.481725]]]}},{"type":"Feature","properties":{"cadnum":"1421588000:01:000:0133"},"geometry":{"type":"Polygon","coordinates":[[[37.403217,47.481095],[37.403104,47.480739],[37.402969611110514,47.48075950000009],[37.402678,47.480803],[37.402795,47.481158],[37.40304,47.481122],[37.40304,47.48112137249284],[37.403217,47.481095]]]}},{"type":"Feature","properties":{"cadnum":"1421588000:01:000:0008"},"geometry":{"type":"Polygon","coordinates":[[[37.398001,47.480818],[37.397835,47.480484],[37.397584,47.480539],[37.397462999997785,47.48056505263206],[37.397319,47.480596],[37.397375,47.48069465284973],[37.397375,47.480696],[37.397512,47.480936],[37.397547,47.480928],[37.397547,47.48092755419223],[37.398001,47.480818]]]}},{"type":"Feature","properties":{"cadnum":"1421588000:01:000:0107"},"geometry":{"type":"Polygon","coordinates":[[[37.400139,47.480796],[37.400265,47.480775],[37.400431,47.480745],[37.400288,47.480335],[37.399965,47.48039],[37.400139,47.480796]]]}},{"type":"Feature","properties":{"cadnum":"1421588000:01:000:0117"},"geometry":{"type":"Polygon","coordinates":[[[37.40128,47.482488],[37.401554,47.482442],[37.401374,47.48199],[37.401123,47.482029],[37.40128,47.482488]]]}},{"type":"Feature","properties":{"cadnum":"1421588000:01:000:0101"},"geometry":{"type":"Polygon","coordinates":[[[37.400584,47.48151],[37.40098,47.481437],[37.400841,47.481091],[37.400449,47.481164],[37.400584,47.48151]]]}},{"type":"Feature","properties":{"cadnum":"1421588000:01:000:0154"},"geometry":{"type":"Polygon","coordinates":[[[37.40304,47.482844],[37.40304,47.482843413533836],[37.403158,47.482827],[37.40304,47.482440530201345],[37.40304,47.48244],[37.403009,47.482339],[37.402754,47.482375],[37.402868,47.48277895652173],[37.402868,47.482779],[37.402892,47.482864],[37.40304,47.482844]]]}},{"type":"Feature","properties":{"cadnum":"1421588000:01:000:0146"},"geometry":{"type":"Polygon","coordinates":[[[37.402156,47.481874],[37.402435,47.481838],[37.402242,47.48134],[37.401963,47.481385],[37.402156,47.481874]]]}},{"type":"Feature","properties":{"cadnum":"1421588000:01:000:0026"},"geometry":{"type":"Polygon","coordinates":[[[37.401596,47.48094],[37.402003,47.48087],[37.401883,47.480557],[37.401491,47.480633],[37.401596,47.48094]]]}},{"type":"Feature","properties":{"cadnum":"1421588000:01:000:0020"},"geometry":{"type":"Polygon","coordinates":[[[37.408764,47.488725],[37.408678,47.488443],[37.40848739228123,47.48846524758863],[37.407942,47.488528],[37.408013,47.488713],[37.408049,47.488792],[37.408361,47.48876234710744],[37.408361,47.488763],[37.408764,47.488725]]]}},{"type":"Feature","properties":{"cadnum":"1421588000:01:000:0148"},"geometry":{"type":"Polygon","coordinates":[[[37.408876,47.489035],[37.409491,47.48891],[37.409437,47.488746],[37.408804,47.488877],[37.408876,47.489035]]]}},{"type":"Feature","properties":{"cadnum":"1421588000:01:000:0123"},"geometry":{"type":"Polygon","coordinates":[[[37.403131,47.479765],[37.403491,47.479701],[37.40336,47.479388],[37.403009,47.479446],[37.403131,47.479765]]]}},{"type":"Feature","properties":{"cadnum":"1421588000:01:000:0131"},"geometry":{"type":"Polygon","coordinates":[[[37.403513,47.479819],[37.403181,47.479868],[37.40322703597122,47.48003],[37.403226,47.48003],[37.403364,47.480512],[37.403657,47.480472],[37.40372,47.480466],[37.403591238532016,47.48006499999971],[37.403513,47.479819]]]}},{"type":"Feature","properties":{"cadnum":"1421588000:01:000:0145"},"geometry":{"type":"Polygon","coordinates":[[[37.404061,47.477688],[37.40438,47.477625],[37.40415,47.477117],[37.403858,47.477184],[37.404061,47.477688]]]}},{"type":"Feature","properties":{"cadnum":"1421588000:01:000:0006"},"geometry":{"type":"Polygon","coordinates":[[[37.405282,47.4775],[37.405336,47.477488],[37.405516,47.477445],[37.405255,47.476939],[37.405022,47.476993],[37.405282,47.4775]]]}},{"type":"Feature","properties":{"cadnum":"1421588000:01:000:0062"},"geometry":{"type":"Polygon","coordinates":[[[37.404816,47.478814],[37.405233,47.47876],[37.405095,47.478399],[37.404689,47.47846],[37.404816,47.478814]]]}},{"type":"Feature","properties":{"cadnum":"1421588000:01:000:0084"},"geometry":{"type":"Polygon","coordinates":[[[37.405632,47.478732],[37.40615,47.478654],[37.406001,47.478244],[37.405481,47.478335],[37.405632,47.478732]]]}},{"type":"Feature","properties":{"cadnum":"1421588000:01:000:0001"},"geometry":{"type":"Polygon","coordinates":[[[37.405282,47.4775],[37.405336,47.477488],[37.405516,47.477445],[37.405255,47.476939],[37.405022,47.476993],[37.405282,47.4775]]]}},{"type":"Feature","properties":{"cadnum":"1421588000:01:000:0158"},"geometry":{"type":"Polygon","coordinates":[[[37.404376,47.477621],[37.404689,47.477549],[37.40446,47.477045],[37.40415,47.477117],[37.404376,47.477621]]]}},{"type":"Feature","properties":{"cadnum":"1421588000:01:000:0077"},"geometry":{"type":"Polygon","coordinates":[[[37.40667735555545,47.48003515555517],[37.406676,47.48003],[37.40667597674418,47.48003],[37.406661,47.479974],[37.40631315384615,47.48003],[37.406308,47.48003],[37.406015,47.480078],[37.406033,47.480146],[37.406033595918366,47.480146],[37.406082,47.480323],[37.406737,47.480262],[37.4067065,47.480146],[37.406707,47.480146],[37.40667735555545,47.48003515555517]]]}},{"type":"Feature","properties":{"cadnum":"1421588000:01:000:0034"},"geometry":{"type":"Polygon","coordinates":[[[37.405646,47.479412],[37.40645,47.479294],[37.406365,47.479112],[37.405579,47.479212],[37.405646,47.479412]]]}},{"type":"Feature","properties":{"cadnum":"1421588000:01:000:0115"},"geometry":{"type":"Polygon","coordinates":[[[37.406661,47.479974],[37.406571,47.479713],[37.405764,47.47984],[37.40582422641509,47.48003],[37.405824,47.48003],[37.405848,47.480105],[37.406661,47.479974]]]}},{"type":"Feature","properties":{"cadnum":"1421588000:01:000:0019"},"geometry":{"type":"Polygon","coordinates":[[[37.405785,47.479938],[37.405728,47.479734],[37.405674,47.479534],[37.405615,47.479331],[37.405556,47.479139],[37.405502,47.478936],[37.405439,47.478735],[37.405129,47.478775],[37.404816,47.478814],[37.404689,47.47846],[37.404043,47.478566],[37.403989,47.478575],[37.403989,47.478571],[37.4039,47.478587],[37.403904,47.47859],[37.403701,47.478623],[37.403854,47.479218],[37.40358,47.479245],[37.40332,47.479275],[37.403513,47.479786],[37.403603144444446,47.48003],[37.403603,47.48003],[37.403617606741996,47.48006914606856],[37.403646,47.480146],[37.403646283582084,47.480146],[37.403778,47.480499],[37.404313,47.480445],[37.404632,47.480411],[37.404748,47.480399],[37.404829,47.48039],[37.405156,47.480357],[37.405418,47.480332],[37.405682,47.480305],[37.405768,47.480296],[37.405839,47.480138],[37.405785,47.479938]]]}},{"type":"Feature","properties":{"cadnum":"1421588000:01:000:0143"},"geometry":{"type":"Polygon","coordinates":[[[37.403724,47.47777],[37.404061,47.477688],[37.403858,47.477184],[37.403513,47.477266],[37.403724,47.47777]]]}},{"type":"Feature","properties":{"cadnum":"1421588000:01:000:0063"},"geometry":{"type":"Polygon","coordinates":[[[37.405718,47.479788],[37.406527,47.479686],[37.406464,47.479482],[37.405655,47.479583],[37.405718,47.479788]]]}},{"type":"Feature","properties":{"cadnum":"1421588000:01:000:0100"},"geometry":{"type":"Polygon","coordinates":[[[37.405821,47.47804],[37.406114,47.47788],[37.405795,47.477405],[37.405571,47.477551],[37.405821,47.47804]]]}},{"type":"Feature","properties":{"cadnum":"1421588000:00:000:0063"},"geometry":{"type":"Polygon","coordinates":[[[37.405709,47.479619],[37.406508,47.479497],[37.406441,47.479294],[37.405638,47.479412],[37.405709,47.479619]]]}},{"type":"Feature","properties":{"cadnum":"1421588000:01:000:0138"},"geometry":{"type":"Polygon","coordinates":[[[37.404079,47.477014],[37.40437,47.476948],[37.40416,47.476474],[37.403841,47.476556],[37.404079,47.477014]]]}},{"type":"Feature","properties":{"cadnum":"1421588000:01:000:0129"},"geometry":{"type":"Polygon","coordinates":[[[37.404496,47.476255],[37.40423736842105,47.476318],[37.404236,47.476318],[37.404106,47.47635],[37.404142,47.476434],[37.40414308361204,47.476434],[37.40437,47.476948],[37.404766,47.47685],[37.404525,47.476318],[37.40452450837989,47.476318],[37.404496,47.476255]]]}},{"type":"Feature","properties":{"cadnum":"1421588000:02:000:0014"},"geometry":{"type":"Polygon","coordinates":[[[37.415599,47.457546],[37.416565,47.457287],[37.415294,47.455152],[37.414337,47.455416],[37.415599,47.457546]]]}},{"type":"Feature","properties":{"cadnum":"1421588000:02:000:0015"},"geometry":{"type":"Polygon","coordinates":[[[37.416647,47.457369],[37.417603,47.457089],[37.416224,47.454978],[37.415286,47.455261],[37.416647,47.457369]]]}},{"type":"Feature","properties":{"cadnum":"1421588000:01:000:0005"},"geometry":{"type":"Polygon","coordinates":[[[37.392881,47.479844],[37.392617,47.479916],[37.392684904347824,47.48003],[37.392684,47.48003],[37.393097,47.480724],[37.393357,47.480651],[37.392991,47.48003],[37.39299062913908,47.48003],[37.392881,47.479844]]]}},{"type":"Feature","properties":{"cadnum":"1421588000:01:000:0098"},"geometry":{"type":"Polygon","coordinates":[[[37.392303,47.480048],[37.391979,47.480133],[37.391985,47.480146],[37.39198625386597,47.480146],[37.392412,47.480909],[37.392756,47.480815],[37.39236088005215,47.480146],[37.392361,47.480146],[37.392303,47.480048]]]}},{"type":"Feature","properties":{"cadnum":"1421588000:01:000:0099"},"geometry":{"type":"Polygon","coordinates":[[[37.392292,47.481671],[37.392742,47.481552],[37.392459,47.481018],[37.392005,47.481137],[37.392292,47.481671]]]}},{"type":"Feature","properties":{"cadnum":"1421588000:01:000:0049"},"geometry":{"type":"Polygon","coordinates":[[[37.396263,47.480022],[37.396232837837836,47.48003],[37.396231,47.48003],[37.395984,47.480096],[37.396014,47.480146],[37.39601408915304,47.480146],[37.396389,47.480769],[37.396619,47.48066],[37.39633181269841,47.480146],[37.396332,47.480146],[37.396263,47.480022]]]}},{"type":"Feature","properties":{"cadnum":"1421588000:01:000:0033"},"geometry":{"type":"Polygon","coordinates":[[[37.394265,47.48087],[37.394493,47.480812],[37.394382,47.480618],[37.394152,47.480675],[37.394265,47.48087]]]}},{"type":"Feature","properties":{"cadnum":"1421588000:01:000:0031"},"geometry":{"type":"Polygon","coordinates":[[[37.395787,47.481401],[37.396034,47.48134],[37.395774,47.480827],[37.395531,47.480894],[37.395787,47.481401]]]}},{"type":"Feature","properties":{"cadnum":"1421588000:01:000:0127"},"geometry":{"type":"Polygon","coordinates":[[[37.395046,47.481468],[37.395284,47.48141],[37.395015,47.480912],[37.394781,47.480969],[37.395046,47.481468]]]}},{"type":"Feature","properties":{"cadnum":"1421588000:01:000:0036"},"geometry":{"type":"Polygon","coordinates":[[[37.394439,47.478474],[37.394759,47.47838],[37.394309,47.477579],[37.39399,47.47767],[37.394439,47.478474]]]}},{"type":"Feature","properties":{"cadnum":"1421588000:01:000:0011"},"geometry":{"type":"Polygon","coordinates":[[[37.392414,47.479576],[37.392684,47.479497],[37.392518,47.479221],[37.392248,47.479294],[37.392414,47.479576]]]}},{"type":"Feature","properties":{"cadnum":"1421588000:01:000:0091"},"geometry":{"type":"Polygon","coordinates":[[[37.395908,47.47817],[37.396232,47.478092],[37.395791,47.477272],[37.395473,47.477351],[37.395908,47.47817]]]}},{"type":"Feature","properties":{"cadnum":"1421588000:01:000:0079"},"geometry":{"type":"Polygon","coordinates":[[[37.396152,47.479248],[37.39643,47.479173],[37.39632,47.478987],[37.396043,47.479062],[37.396152,47.479248]]]}},{"type":"Feature","properties":{"cadnum":"1421588000:01:000:0134"},"geometry":{"type":"Polygon","coordinates":[[[37.396443,47.478566],[37.396619,47.47851],[37.39647,47.478186],[37.396416,47.478098],[37.39642,47.478098],[37.396393,47.478055],[37.396389,47.478046],[37.396344,47.478058],[37.396349,47.478068],[37.39616,47.478116],[37.396443,47.478566]]]}},{"type":"Feature","properties":{"cadnum":"1421588000:01:000:0037"},"geometry":{"type":"Polygon","coordinates":[[[37.39399,47.47767],[37.394309,47.477579],[37.394278,47.477524],[37.393959,47.477618],[37.39399,47.47767]]]}},{"type":"Feature","properties":{"cadnum":"1421588000:01:000:0010"},"geometry":{"type":"Polygon","coordinates":[[[37.392508,47.479734],[37.392778,47.479658],[37.392684,47.479497],[37.392414,47.479576],[37.392508,47.479734]]]}},{"type":"Feature","properties":{"cadnum":"1421588000:01:000:0122"},"geometry":{"type":"Polygon","coordinates":[[[37.394911,47.47835],[37.395258,47.478259],[37.394808,47.477479],[37.394493,47.47756],[37.394911,47.47835]]]}},{"type":"Feature","properties":{"cadnum":"1421588000:01:000:0078"},"geometry":{"type":"Polygon","coordinates":[[[37.396481,47.479805],[37.396758,47.47973],[37.39643,47.479173],[37.396152,47.479248],[37.396481,47.479805]]]}},{"type":"Feature","properties":{"cadnum":"1421588000:01:000:0092"},"geometry":{"type":"Polygon","coordinates":[[[37.407039,47.485869],[37.407578,47.485775],[37.407542,47.485687],[37.407569,47.485656],[37.407502,47.485474],[37.406913,47.485577],[37.407039,47.485869]]]}},{"type":"Feature","properties":{"cadnum":"1421588000:01:000:0014"},"geometry":{"type":"Polygon","coordinates":[[[37.408399400000036,47.486243599999995],[37.408533,47.486222],[37.408533,47.48622133333333],[37.408571,47.486215],[37.408458,47.485917],[37.407758,47.486051],[37.407865,47.48633],[37.408361,47.486249808383235],[37.408361,47.48625],[37.408399400000036,47.486243599999995]]]}},{"type":"Feature","properties":{"cadnum":"1421588000:01:000:0142"},"geometry":{"type":"Polygon","coordinates":[[[37.406433,47.484852],[37.406994,47.484789],[37.407272,47.484733],[37.407156,47.484454],[37.406796,47.484521],[37.40632,47.484569],[37.406433,47.484852]]]}},{"type":"Feature","properties":{"cadnum":"1421588000:01:000:0045"},"geometry":{"type":"Polygon","coordinates":[[[37.408314,47.487466],[37.407795,47.487571],[37.40779595364237,47.487571],[37.407569,47.487617],[37.407681,47.487899],[37.408431,47.48776],[37.408355785714285,47.487571],[37.408356,47.487571],[37.408314,47.487466]]]}},{"type":"Feature","properties":{"cadnum":"1421588000:01:000:0152"},"geometry":{"type":"Polygon","coordinates":[[[37.40848560000052,47.4874299999999],[37.408533,47.487421],[37.408533,47.48742086998395],[37.408984,47.487334],[37.408871,47.487055],[37.40851664444422,47.48712517629634],[37.408188,47.487189],[37.408296,47.487466],[37.408361,47.48745365822784],[37.408361,47.487454],[37.40848560000052,47.4874299999999]]]}},{"type":"Feature","properties":{"cadnum":"1421588000:01:000:0093"},"geometry":{"type":"Polygon","coordinates":[[[37.406859,47.485899],[37.407039,47.485869],[37.406913,47.485577],[37.406737,47.485604],[37.406859,47.485899]]]}},{"type":"Feature","properties":{"cadnum":"1421588000:01:000:0149"},"geometry":{"type":"Polygon","coordinates":[[[37.400508,47.473499],[37.400539,47.47349],[37.401609,47.473189],[37.401451,47.472956],[37.400378,47.473267],[37.400508,47.473499]]]}},{"type":"Feature","properties":{"cadnum":"1421588000:01:000:0004"},"geometry":{"type":"Polygon","coordinates":[[[37.40345,47.475891],[37.403355,47.475715],[37.403030709977195,47.475794241299205],[37.402754,47.475861],[37.402844,47.476037],[37.40304,47.47599],[37.40304,47.475989625429555],[37.40345,47.475891]]]}},{"type":"Feature","properties":{"cadnum":"1421588000:01:000:0150"},"geometry":{"type":"Polygon","coordinates":[[[37.401919,47.473301],[37.402426,47.473183],[37.402269,47.472918],[37.401761,47.473046],[37.401919,47.473301]]]}},{"type":"Feature","properties":{"cadnum":"1421588000:01:000:0130"},"geometry":{"type":"Polygon","coordinates":[[[37.400063,47.475047],[37.400076,47.475044],[37.400436,47.47495],[37.400288,47.474698],[37.399929,47.474795],[37.399919,47.474798],[37.400063,47.475047]]]}},{"type":"Feature","properties":{"cadnum":"1421588000:01:000:0065"},"geometry":{"type":"Polygon","coordinates":[[[37.403024,47.47335],[37.402871,47.47308],[37.402408,47.473192],[37.402583,47.473462],[37.402868,47.47338961904762],[37.402868,47.47339],[37.403024,47.47335]]]}},{"type":"Feature","properties":{"cadnum":"1421588000:01:000:0153"},"geometry":{"type":"Polygon","coordinates":[[[37.402548,47.472569],[37.40212,47.472676],[37.402145,47.472721],[37.40214660714285,47.472721],[37.402269,47.472928],[37.402695,47.472822],[37.402635889400926,47.472721],[37.402636,47.472721],[37.402548,47.472569]]]}},{"type":"Feature","properties":{"cadnum":"1421588000:01:000:0135"},"geometry":{"type":"Polygon","coordinates":[[[37.40293820895628,47.47538217910423],[37.40304,47.475358],[37.40304,47.47535779166667],[37.40354,47.475238],[37.403423,47.474999],[37.40293942856997,47.47512359588197],[37.402596,47.475211],[37.402699,47.475439],[37.402868,47.475398856304984],[37.402868,47.475399],[37.40293820895628,47.47538217910423]]]}},{"type":"Feature","properties":{"cadnum":"1421588000:01:000:0066"},"geometry":{"type":"Polygon","coordinates":[[[37.399856,47.472418],[37.39912499999999,47.472605],[37.399124,47.472605],[37.398738,47.472704],[37.398747,47.472721],[37.39874743644068,47.472721],[37.398869,47.47294],[37.399988,47.472652],[37.399856,47.472418]]]}},{"type":"Feature","properties":{"cadnum":"1421588000:01:000:0085"},"geometry":{"type":"Polygon","coordinates":[[[37.402506,47.472576],[37.402372,47.472321],[37.401946,47.472424],[37.402038274509806,47.472605],[37.402037,47.472605],[37.402076,47.472679],[37.402506,47.472576]]]}},{"type":"Feature","properties":{"cadnum":"1421588000:01:000:0151"},"geometry":{"type":"Polygon","coordinates":[[[37.401837,47.475715],[37.402538,47.475594],[37.402403,47.475278],[37.402359,47.47526],[37.401684,47.475445],[37.401837,47.475715]]]}},{"type":"Feature","properties":{"cadnum":"1421588000:01:000:0119"},"geometry":{"type":"Polygon","coordinates":[[[37.400688,47.47373],[37.401752,47.473429],[37.401609,47.473189],[37.400539,47.47349],[37.400688,47.47373]]]}},{"type":"Feature","properties":{"cadnum":"1421588000:01:000:0144"},"geometry":{"type":"Polygon","coordinates":[[[37.403342,47.473912],[37.403221,47.473687],[37.402946851947696,47.47375611948061],[37.402762,47.473802],[37.402868,47.474005846153844],[37.402868,47.474007],[37.402879,47.474027],[37.403342,47.473912]]]}},{"type":"Feature","properties":{"cadnum":"1421588000:01:000:0156"},"geometry":{"type":"Polygon","coordinates":[[[37.403212,47.474658],[37.403684,47.474534],[37.403571,47.474327],[37.403099,47.474452],[37.403212,47.474658]]]}},{"type":"Feature","properties":{"cadnum":"1421588000:01:000:0094"},"geometry":{"type":"Polygon","coordinates":[[[37.403204,47.473356],[37.403611,47.473271],[37.403468,47.472952],[37.403045,47.473049],[37.403204,47.473356]]]}},{"type":"Feature","properties":{"cadnum":"1421588000:01:000:0161"},"geometry":{"type":"Polygon","coordinates":[[[37.405265,47.474765],[37.405292,47.474759],[37.405309,47.474756],[37.405359,47.474747],[37.405422,47.474734],[37.405404,47.474682],[37.405399,47.474671],[37.405345,47.4745],[37.405278,47.474513],[37.405246,47.474518],[37.405229,47.474522],[37.405156,47.474537],[37.405265,47.474765]]]}},{"type":"Feature","properties":{"cadnum":"1421588000:01:000:0160"},"geometry":{"type":"Polygon","coordinates":[[[37.405188,47.47393],[37.40566,47.473854],[37.405592,47.473702],[37.405445,47.473735],[37.405318,47.473762],[37.405175,47.473796],[37.405179,47.473805],[37.405139,47.473814],[37.405188,47.47393]]]}},{"type":"Feature","properties":{"cadnum":"1421588000:01:000:0102"},"geometry":{"type":"Polygon","coordinates":[[[37.404816,47.47328],[37.405188,47.473195],[37.405112,47.47304],[37.404873,47.473095],[37.404883,47.473116],[37.404699,47.473159],[37.404748,47.473253],[37.404797,47.47324],[37.404816,47.47328]]]}},{"type":"Feature","properties":{"cadnum":"1421588000:01:000:0016"},"geometry":{"type":"Polygon","coordinates":[[[37.404259,47.474701],[37.404645,47.474546],[37.404474,47.474331],[37.404187,47.47444],[37.404204,47.474464],[37.404101,47.474504],[37.404259,47.474701]]]}},{"type":"Feature","properties":{"cadnum":"1421588000:01:000:0025"},"geometry":{"type":"Polygon","coordinates":[[[37.404707,47.474309],[37.405072,47.474218],[37.404905,47.473915],[37.404546,47.474005],[37.404707,47.474309]]]}},{"type":"Feature","properties":{"cadnum":"1421588000:02:000:0023"},"geometry":{"type":"Polygon","coordinates":[[[37.407964,47.47345],[37.407964,47.473426],[37.407932,47.473426],[37.407932,47.473447],[37.407964,47.47345]]]}},{"type":"Feature","properties":{"cadnum":"1421588000:01:000:0141"},"geometry":{"type":"Polygon","coordinates":[[[37.405273,47.476183],[37.405682,47.476107],[37.405638,47.475949],[37.405601,47.475782],[37.405175,47.475843],[37.405273,47.476183]]]}},{"type":"Feature","properties":{"cadnum":"1421588000:01:000:0073"},"geometry":{"type":"Polygon","coordinates":[[[37.405229,47.474234],[37.405322,47.474209],[37.405265,47.4741],[37.40517,47.474121],[37.405229,47.474234]]]}},{"type":"Feature","properties":{"cadnum":"1421588000:01:000:0109"},"geometry":{"type":"Polygon","coordinates":[[[37.404443,47.473568],[37.404963,47.473462],[37.404892,47.473296],[37.404321,47.473408],[37.404443,47.473568]]]}},{"type":"Feature","properties":{"cadnum":"1421588000:01:000:0140"},"geometry":{"type":"Polygon","coordinates":[[[37.405709,47.475609],[37.406198,47.475545],[37.406154,47.47538],[37.405938,47.475411],[37.405943,47.475432],[37.405668,47.475475],[37.405709,47.475609]]]}},{"type":"Feature","properties":{"cadnum":"1421588000:01:000:0159"},"geometry":{"type":"Polygon","coordinates":[[[37.405035,47.475357],[37.405143,47.475339],[37.405273,47.475321],[37.405552,47.475278],[37.405597,47.475269],[37.405588,47.475226],[37.405575,47.475177],[37.405485,47.475189],[37.405439,47.475096],[37.404986,47.475193],[37.405035,47.475357]]]}},{"type":"Feature","properties":{"cadnum":"1421588000:02:000:0024"},"geometry":{"type":"Polygon","coordinates":[[[37.408378,47.474543],[37.408378,47.474522],[37.408345,47.474522],[37.408345,47.474543],[37.408378,47.474543]]]}},{"type":"Feature","properties":{"cadnum":"1421588000:02:000:0031"},"geometry":{"type":"Polygon","coordinates":[[[37.404982,47.468641],[37.404982,47.468586],[37.404896,47.468583],[37.404896,47.468641],[37.404982,47.468641]]]}},{"type":"Feature","properties":{"cadnum":"1421588000:01:000:0013"},"geometry":{"type":"Polygon","coordinates":[[[37.403158,47.482827],[37.403437,47.482785],[37.403275,47.482299],[37.403009,47.482339],[37.403158,47.482827]]]}},{"type":"Feature","properties":{"cadnum":"1421588000:01:000:0061"},"geometry":{"type":"Polygon","coordinates":[[[37.403701,47.48107],[37.404156,47.481009],[37.404146,47.480978],[37.404187,47.480976],[37.404196,47.481003],[37.404217,47.481],[37.404393,47.480978],[37.404487,47.480967],[37.404555,47.480958],[37.404596,47.480951],[37.404559,47.480818],[37.404537,47.480821],[37.404519,47.480766],[37.404542,47.480764],[37.404456,47.480463],[37.404452,47.48046],[37.40425,47.480484],[37.403715,47.480542],[37.403621,47.480553],[37.403701,47.480946],[37.40367,47.480949],[37.403701,47.48107]]]}},{"type":"Feature","properties":{"cadnum":"1421588000:01:000:0009"},"geometry":{"type":"Polygon","coordinates":[[[37.407146,47.481771],[37.407012,47.481304],[37.406917,47.481352],[37.40685,47.481286],[37.406594,47.481398],[37.406657,47.481656],[37.407146,47.481771]]]}},{"type":"Feature","properties":{"cadnum":"1421588000:01:000:0108"},"geometry":{"type":"Polygon","coordinates":[[[37.403504,47.483316],[37.403769,47.48328],[37.403638,47.482803],[37.403382,47.482839],[37.403504,47.483316]]]}},{"type":"Feature","properties":{"cadnum":"1421588000:01:000:0017"},"geometry":{"type":"Polygon","coordinates":[[[37.403755,47.482184],[37.404003,47.482153],[37.403877,47.481692],[37.403858,47.481695],[37.403617,47.481725],[37.403755,47.482184]]]}},{"type":"Feature","properties":{"cadnum":"1421588000:01:000:0076"},"geometry":{"type":"Polygon","coordinates":[[[37.405178,47.480911],[37.4055,47.480868],[37.405382,47.480437],[37.405046,47.480481],[37.405178,47.480911]]]}},{"type":"Feature","properties":{"cadnum":"1421588000:01:000:0055"},"geometry":{"type":"Polygon","coordinates":[[[37.40486,47.48314],[37.405108,47.4831],[37.40495,47.482643],[37.404699,47.482682],[37.40486,47.48314]]]}},{"type":"Feature","properties":{"cadnum":"1421588000:01:000:0105"},"geometry":{"type":"Polygon","coordinates":[[[37.404187,47.48267],[37.404447,47.48263],[37.404286,47.482144],[37.40403,47.482184],[37.404187,47.48267]]]}},{"type":"Feature","properties":{"cadnum":"1421588000:01:000:0086"},"geometry":{"type":"Polygon","coordinates":[[[37.403764,47.483268],[37.404038,47.483231],[37.40389,47.482769],[37.403881,47.482769],[37.403638,47.482803],[37.403764,47.483268]]]}},{"type":"Feature","properties":{"cadnum":"1421588000:01:000:0002"},"geometry":{"type":"Polygon","coordinates":[[[37.406639,47.481188],[37.406976,47.481149],[37.406877,47.480745],[37.40685,47.480708],[37.406531,47.480742],[37.406639,47.481188]]]}},{"type":"Feature","properties":{"cadnum":"1421588000:01:000:0162"},"geometry":{"type":"Polygon","coordinates":[[[37.406032,47.480717],[37.406387,47.480666],[37.406383,47.480654],[37.40628,47.480305],[37.405929,47.480353],[37.406028,47.480703],[37.406032,47.480717]]]}},{"type":"Feature","properties":{"cadnum":"1421588000:01:000:0018"},"geometry":{"type":"Polygon","coordinates":[[[37.403638,47.482803],[37.403881,47.482769],[37.403733,47.482281],[37.403495,47.482314],[37.403638,47.482803]]]}},{"type":"Feature","properties":{"cadnum":"1421588000:01:000:0030"},"geometry":{"type":"Polygon","coordinates":[[[37.404357,47.481592],[37.404626,47.481552],[37.404474,47.481079],[37.404217,47.481118],[37.404357,47.481592]]]}},{"type":"Feature","properties":{"cadnum":"1421588000:01:000:0120"},"geometry":{"type":"Polygon","coordinates":[[[37.405915,47.481273],[37.406275,47.481216],[37.406154,47.480794],[37.405791,47.480845],[37.405915,47.481273]]]}},{"type":"Feature","properties":{"cadnum":"1421588000:01:000:0021"},"geometry":{"type":"Polygon","coordinates":[[[37.406275,47.481216],[37.406634,47.481161],[37.406531,47.480742],[37.406154,47.480794],[37.406275,47.481216]]]}},{"type":"Feature","properties":{"cadnum":"1421588000:01:000:0103"},"geometry":{"type":"Polygon","coordinates":[[[37.40495,47.482643],[37.405211,47.482609],[37.40508,47.482108],[37.40482,47.482141],[37.40495,47.482643]]]}},{"type":"Feature","properties":{"cadnum":"1421588000:01:000:0155"},"geometry":{"type":"Polygon","coordinates":[[[37.398594,47.469806],[37.398468,47.469601],[37.397957,47.469743],[37.397588,47.469849],[37.39739684615367,47.4699028461539],[37.397242,47.469946],[37.397372,47.470153],[37.397375,47.470152160000005],[37.397375,47.470153],[37.398594,47.469806]]]}},{"type":"Feature","properties":{"cadnum":"1421588000:01:000:0046"},"geometry":{"type":"Polygon","coordinates":[[[37.399255,47.471647],[37.400374,47.471361],[37.400229,47.471127],[37.399116,47.471413],[37.399255,47.471647]]]}},{"type":"Feature","properties":{"cadnum":"1421588000:01:000:0137"},"geometry":{"type":"Polygon","coordinates":[[[37.398334,47.472056],[37.399452,47.471771],[37.399322,47.471537],[37.398204,47.47182],[37.398334,47.472056]]]}},{"type":"Feature","properties":{"cadnum":"1421588000:01:000:0007"},"geometry":{"type":"Polygon","coordinates":[[[37.399731,47.472448],[37.40085,47.472162],[37.400705,47.471929],[37.399592,47.472218],[37.399731,47.472448]]]}},{"type":"Feature","properties":{"cadnum":"1421588000:01:000:0067"},"geometry":{"type":"Polygon","coordinates":[[[37.402112,47.471707],[37.402237,47.471677],[37.402229,47.471662],[37.402385,47.471626],[37.402395,47.47164],[37.402781,47.471547],[37.402583,47.471367],[37.402026,47.471501],[37.402062,47.471561],[37.402035,47.471568],[37.402112,47.471707]]]}},{"type":"Feature","properties":{"cadnum":"1421588000:01:000:0071"},"geometry":{"type":"Polygon","coordinates":[[[37.402093,47.471318],[37.402313,47.471201],[37.401613,47.470772],[37.40146,47.470863],[37.402093,47.471318]]]}},{"type":"Feature","properties":{"cadnum":"1421588000:01:000:0126"},"geometry":{"type":"Polygon","coordinates":[[[37.399655,47.472111],[37.399713,47.472093],[37.399569,47.47185],[37.399511,47.471865],[37.399655,47.472111]]]}},{"type":"Feature","properties":{"cadnum":"1421588000:01:000:0125"},"geometry":{"type":"Polygon","coordinates":[[[37.399713,47.472093],[37.400764,47.471811],[37.400621,47.471565],[37.400068,47.471716],[37.399569,47.47185],[37.399713,47.472093]]]}},{"type":"Feature","properties":{"cadnum":"1421588000:02:000:0019"},"geometry":{"type":"Polygon","coordinates":[[[37.406315,47.469743],[37.406315,47.469685],[37.406234,47.469685],[37.406234,47.469743],[37.406315,47.469743]]]}},{"type":"Feature","properties":{"cadnum":"1421588000:02:000:0018"},"geometry":{"type":"Polygon","coordinates":[[[37.405844,47.469412],[37.405844,47.469354],[37.405764,47.469354],[37.405758,47.469412],[37.405844,47.469412]]]}},{"type":"Feature","properties":{"cadnum":"1421588000:02:000:0032"},"geometry":{"type":"Polygon","coordinates":[[[37.405408,47.469032],[37.405412,47.468975],[37.405328,47.468975],[37.405328,47.469032],[37.405408,47.469032]]]}},{"type":"Feature","properties":{"cadnum":"1421588000:02:000:0016"},"geometry":{"type":"Polygon","coordinates":[[[37.406504,47.471009],[37.406909,47.470918],[37.406904,47.470909],[37.407299,47.470809],[37.407213,47.470663],[37.406666,47.470805],[37.406747,47.47018],[37.407173,47.470193],[37.407179,47.470105],[37.407169,47.470105],[37.406697,47.470092],[37.406468,47.470086],[37.40645,47.470301],[37.406477,47.470305],[37.406437,47.470575],[37.406383,47.470954],[37.406437,47.470988],[37.406504,47.471009]]]}},{"type":"Feature","properties":{"cadnum":"1421588000:02:000:0021"},"geometry":{"type":"Polygon","coordinates":[[[37.407681,47.471307],[37.407686,47.471252],[37.4076,47.471249],[37.4076,47.471307],[37.407681,47.471307]]]}},{"type":"Feature","properties":{"cadnum":"1421588000:02:000:0022"},"geometry":{"type":"Polygon","coordinates":[[[37.407578,47.472336],[37.407578,47.472357],[37.407609,47.472357],[37.407609,47.472336],[37.407578,47.472336]]]}},{"type":"Feature","properties":{"cadnum":"1421588000:02:000:0020"},"geometry":{"type":"Polygon","coordinates":[[[37.40677,47.470086],[37.40677,47.470028],[37.406684,47.470028],[37.406684,47.470086],[37.40677,47.470086]]]}},{"type":"Feature","properties":{"cadnum":"1421588000:02:000:0025"},"geometry":{"type":"Polygon","coordinates":[[[37.408718,47.475652],[37.408718,47.47563],[37.408687,47.47563],[37.408687,47.475652],[37.408718,47.475652]]]}}]}