{"type":"FeatureCollection","features":[{"type":"Feature","properties":{"cadnum":"1421587800:01:000:0116"},"geometry":{"type":"Polygon","coordinates":[[[37.131489,47.616209],[37.131952,47.615939],[37.131678,47.615724],[37.131472,47.61583],[37.131198,47.615969],[37.131489,47.616209]]]}},{"type":"Feature","properties":{"cadnum":"1421587800:01:000:0117"},"geometry":{"type":"Polygon","coordinates":[[[37.131952,47.615939],[37.131984,47.615921],[37.131709,47.615709],[37.131678,47.615724],[37.131952,47.615939]]]}}]}