{"type":"FeatureCollection","features":[{"type":"Feature","properties":{"cadnum":"1421587000:05:000:0288"},"geometry":{"type":"Polygon","coordinates":[[[37.573191,47.580289],[37.5731915754717,47.580289],[37.573174,47.580427],[37.573328,47.580438],[37.573328,47.58043697122302],[37.573591,47.580454],[37.573622,47.580242],[37.573201,47.580215],[37.57319,47.580289],[37.573191,47.580289]]]}},{"type":"Feature","properties":{"cadnum":"1421587000:05:000:0287"},"geometry":{"type":"Polygon","coordinates":[[[37.573328,47.58117150318471],[37.57347,47.581181],[37.573591,47.580454],[37.573174,47.580427],[37.573156,47.580555],[37.573156,47.58055918181822],[37.573075,47.581154],[37.573156,47.58115976284585],[37.573156,47.58116],[37.57321157522066,47.58116371681412],[37.573328,47.581172],[37.573328,47.58117150318471]]]}}]}