{"type":"FeatureCollection","features":[{"type":"Feature","properties":{"cadnum":"1421580801:00:001:0142"},"geometry":{"type":"Polygon","coordinates":[[[37.787417,47.856888],[37.78691,47.856837],[37.78679868173913,47.857345],[37.786797,47.857345],[37.786784,47.857412],[37.787291,47.857467],[37.787298973684216,47.85742808842104],[37.787417,47.856888]]]}},{"type":"Feature","properties":{"cadnum":"1421580801:00:001:0143"},"geometry":{"type":"Polygon","coordinates":[[[37.787097,47.858374],[37.787291,47.857467],[37.786784,47.857412],[37.786586,47.858323],[37.787097,47.858374]]]}}]}