{"type":"FeatureCollection","features":[{"type":"Feature","properties":{"cadnum":"1421580500:07:000:0480"},"geometry":{"type":"Polygon","coordinates":[[[38.131638,47.811809],[38.130357,47.811124],[38.128345,47.812768],[38.128498,47.812998],[38.128474,47.813212],[38.128475489539746,47.813212],[38.128462,47.813336],[38.128036,47.813616],[38.127966,47.813632],[38.127966,47.814023],[38.128498,47.814306],[38.128548,47.814333],[38.130061,47.813097],[38.13006081967213,47.813097],[38.131638,47.811809]]]}}]}