{"type":"FeatureCollection","features":[{"type":"Feature","properties":{"cadnum":"1421553000:01:000:0001"},"geometry":{"type":"Polygon","coordinates":[[[37.424475,47.694955],[37.424794,47.694369],[37.424534,47.694305],[37.424201,47.694883],[37.424475,47.694955]]]}},{"type":"Feature","properties":{"cadnum":"1421553000:01:000:0002"},"geometry":{"type":"Polygon","coordinates":[[[37.424201,47.694883],[37.424534,47.694305],[37.424215,47.694227],[37.423882,47.694796],[37.423989,47.694825],[37.424201,47.694883]]]}}]}