{"type":"FeatureCollection","features":[{"type":"Feature","properties":{"cadnum":"1422085001:00:000:0001"},"geometry":{"type":"Polygon","coordinates":[[[37.242629,48.411447],[37.242184,48.411453],[37.242113,48.412198],[37.241843,48.41382],[37.241942,48.413981],[37.242207,48.414214],[37.242642,48.414262],[37.24306,48.414348],[37.243253,48.414539],[37.24325064963504,48.414562],[37.24325,48.414562],[37.243128,48.415818],[37.243738,48.415775],[37.243738,48.415773869031376],[37.2443,48.415734],[37.244457,48.415335],[37.245189,48.4154],[37.245661,48.415278],[37.247008,48.414822],[37.24693251698123,48.414585547170134],[37.246887,48.414441],[37.246837,48.414103],[37.246878,48.41306],[37.24704,48.411838],[37.246528,48.411856],[37.246231,48.411862],[37.245759,48.411826],[37.244973,48.411754],[37.244165,48.41165],[37.243567,48.41157],[37.243567,48.41157011023622],[37.242849,48.411474],[37.242629,48.411447]],[[37.246748,48.41447],[37.24682,48.414569],[37.246825,48.414676],[37.24682563157895,48.414676],[37.246833,48.414816],[37.246164,48.415031],[37.245944,48.414733],[37.2464094146309,48.41458053658643],[37.246748,48.41447]]]}}]}