{"type":"FeatureCollection","features":[{"type":"Feature","properties":{"cadnum":"1422481001:38:000:0044"},"geometry":{"type":"Polygon","coordinates":[[[37.584314,48.44625256135402],[37.58627,48.446442],[37.586479,48.445509],[37.586427,48.445598],[37.584143,48.445663],[37.584143,48.44566388054968],[37.579584,48.445794],[37.584314,48.446253],[37.584314,48.44625256135402]]]}},{"type":"Feature","properties":{"cadnum":"1422481001:38:000:0046"},"geometry":{"type":"Polygon","coordinates":[[[37.58004046698113,48.443721],[37.58004,48.443721],[37.580027142857055,48.44378308163305],[37.580016,48.443835],[37.58001639053254,48.443835],[37.580005,48.44389],[37.579996,48.443919],[37.584314,48.444339],[37.584314,48.44433852888016],[37.586688,48.444568],[37.586814,48.444],[37.586883,48.443721],[37.58688264321608,48.443721],[37.586904,48.443636],[37.584143,48.443369],[37.584143,48.443369423469385],[37.580198,48.442987],[37.58004046698113,48.443721]]]}},{"type":"Feature","properties":{"cadnum":"1422481001:38:000:0045"},"geometry":{"type":"Polygon","coordinates":[[[37.579996,48.443919],[37.579789,48.444861],[37.584143,48.44528341016575],[37.584143,48.445284],[37.586478,48.44551],[37.586688,48.444568],[37.584143,48.444322],[37.584143,48.44432236729968],[37.579996,48.443919]]]}},{"type":"Feature","properties":{"cadnum":"1422481001:36:002:0005"},"geometry":{"type":"Polygon","coordinates":[[[37.606294,48.481772],[37.60629,48.4815],[37.6061807657655,48.48150436936938],[37.605751,48.481518],[37.605733,48.481536],[37.605338,48.481563],[37.605338,48.481626],[37.605305,48.481629],[37.605305,48.481781],[37.606287,48.481773],[37.606287,48.48177203910615],[37.606294,48.481772]]]}},{"type":"Feature","properties":{"cadnum":"1422481001:28:009:0006"},"geometry":{"type":"Polygon","coordinates":[[[37.609942,48.492229],[37.611114,48.492191],[37.6111,48.491986],[37.609923,48.492024],[37.609942,48.492229]]]}}]}