{"type":"FeatureCollection","features":[{"type":"Feature","properties":{"cadnum":"1423682201:00:000:0025"},"geometry":{"type":"Polygon","coordinates":[[[37.677477,47.092409],[37.677171,47.092414],[37.677180742857146,47.092507],[37.67718,47.092507],[37.677244,47.093102],[37.677548,47.093096],[37.67749393548385,47.09258238709658],[37.677477,47.092409]]]}},{"type":"Feature","properties":{"cadnum":"1423682201:00:000:0024"},"geometry":{"type":"Polygon","coordinates":[[[37.662896,47.093662],[37.662839,47.093249],[37.66256,47.09324],[37.662609,47.093662],[37.662896,47.093662]]]}}]}