{"type":"FeatureCollection","features":[{"type":"Feature","properties":{"cadnum":"1423353500:03:000:1107"},"geometry":{"type":"Polygon","coordinates":[[[37.358341,47.897606],[37.358836,47.897988],[37.358836426751594,47.897988],[37.358923,47.898054627450975],[37.358923,47.898055],[37.359931,47.898832],[37.360106,47.89897],[37.360286,47.899106],[37.361098,47.899735],[37.361624,47.899729],[37.361624,47.899687],[37.362276,47.899689],[37.362932,47.899642],[37.361256,47.89835],[37.361077,47.898211],[37.360901,47.898076],[37.36078699014778,47.897988],[37.360787,47.897988],[37.359333,47.896865],[37.358923,47.897172],[37.358923,47.897172201591516],[37.358341,47.897606]]]}},{"type":"Feature","properties":{"cadnum":"1423353500:03:000:1108"},"geometry":{"type":"Polygon","coordinates":[[[37.3645048888882,47.90041014814855],[37.364588,47.900362],[37.364588,47.90036166666667],[37.364692,47.900301],[37.364566,47.900211],[37.36356,47.900108],[37.362339,47.900126],[37.361759,47.899973],[37.361216,47.900021],[37.361863,47.900524],[37.362541,47.901054],[37.362905,47.901337],[37.364416,47.90046164349376],[37.364416,47.900462],[37.3645048888882,47.90041014814855]]]}}]}