{"type":"FeatureCollection","features":[{"type":"Feature","properties":{"cadnum":"1423056601:02:001:0404"},"geometry":{"type":"Polygon","coordinates":[[[37.57877,49.111781],[37.57865,49.111783],[37.57865,49.11178318181818],[37.578495,49.111786],[37.578532,49.112236],[37.578805,49.11223],[37.57877,49.111781]]]}},{"type":"Feature","properties":{"cadnum":"1423056601:02:001:0405"},"geometry":{"type":"Polygon","coordinates":[[[37.577988,49.112251],[37.578262,49.112242],[37.578222,49.111795],[37.577948,49.111801],[37.577988,49.112251]]]}},{"type":"Feature","properties":{"cadnum":"1423056601:02:001:0403"},"geometry":{"type":"Polygon","coordinates":[[[37.577715,49.112256],[37.577988,49.112251],[37.577948,49.111801],[37.577673,49.111807],[37.577715,49.112256]]]}},{"type":"Feature","properties":{"cadnum":"1423056601:02:001:0401"},"geometry":{"type":"Polygon","coordinates":[[[37.578262,49.112242],[37.578532,49.112236],[37.578495,49.111786],[37.578222,49.111795],[37.578262,49.112242]]]}}]}