{"type":"FeatureCollection","features":[{"type":"Feature","properties":{"cadnum":"1423983000:04:000:0316"},"geometry":{"type":"Polygon","coordinates":[[[37.864466,47.18005575510204],[37.864474,47.180056],[37.864479,47.180105],[37.865242,47.180105],[37.865265,47.179858],[37.865225,47.17986],[37.865242,47.179208],[37.8646,47.179201],[37.864479,47.179283],[37.864443,47.179311],[37.864294,47.179311],[37.864204,47.179311],[37.864204,47.179256],[37.864137,47.17925],[37.864137,47.179311],[37.86386,47.179308],[37.863328,47.179305],[37.863328,47.179396],[37.863638,47.179396],[37.863585,47.17991],[37.863581,47.17998],[37.863577,47.180023],[37.863846,47.180035],[37.863927,47.180035],[37.864074,47.180041],[37.864294,47.18004974172185],[37.864294,47.18005],[37.864376,47.180053],[37.864466,47.180056],[37.864466,47.18005575510204]]]}}]}