{"type":"FeatureCollection","features":[{"type":"Feature","properties":{"cadnum":"1423688801:00:000:0019"},"geometry":{"type":"Polygon","coordinates":[[[37.813014,47.09997],[37.81268925925925,47.099986],[37.812684,47.099986],[37.812466,47.099997],[37.812482,47.100103],[37.81248246601942,47.100103],[37.812498,47.100203],[37.812668,47.100203],[37.812674,47.100226],[37.812767,47.100221],[37.812817,47.100221],[37.812839,47.100212],[37.813037,47.100203],[37.813016,47.099986],[37.813015443609025,47.099986],[37.813014,47.09997]]]}},{"type":"Feature","properties":{"cadnum":"1423688801:00:000:0020"},"geometry":{"type":"Polygon","coordinates":[[[37.824239,47.096031],[37.824064,47.09605],[37.82407253666667,47.096247],[37.824072,47.096247],[37.824077,47.09635],[37.823511,47.096362],[37.823511,47.096364],[37.82351108496732,47.096364],[37.823524,47.096668],[37.82427,47.096661],[37.824261,47.096481],[37.824249,47.096247],[37.82424872972973,47.096247],[37.824239,47.096031]]]}},{"type":"Feature","properties":{"cadnum":"1423688801:01:000:1747"},"geometry":{"type":"Polygon","coordinates":[[[37.823251,47.102737],[37.823268,47.102685],[37.823777,47.102734],[37.823807,47.102596],[37.823381,47.102553],[37.823314,47.102556],[37.823094,47.102526],[37.822851,47.102489],[37.822649,47.102462],[37.822599,47.10266],[37.822914,47.102687],[37.823251,47.102737]]]}}]}