{"type":"FeatureCollection","features":[{"type":"Feature","properties":{"cadnum":"1424885600:02:000:0003"},"geometry":{"type":"Polygon","coordinates":[[[37.732831882926824,47.435461],[37.732831,47.435461],[37.732695,47.43682],[37.73263,47.436819177215185],[37.73263,47.436819],[37.731447,47.436802],[37.73019,47.436711],[37.727657,47.43655],[37.726965,47.437039],[37.726965,47.43703955077658],[37.72394040997464,47.439177],[37.723939,47.439177],[37.723789,47.439284],[37.723777,47.439293],[37.72377751692308,47.439293],[37.722545,47.440259],[37.721643,47.44060618173346],[37.721643,47.440606],[37.721212,47.440772],[37.720773,47.443008],[37.72077330989011,47.443008],[37.720618,47.443802],[37.721643,47.444355],[37.721643,47.44435424704078],[37.726034,47.446723],[37.72603517183098,47.446723],[37.726965,47.44722427410782],[37.726965,47.447225],[37.727975,47.447769],[37.728671,47.448015],[37.729852,47.447161],[37.730204,47.446736],[37.7303292838431,47.44665093886442],[37.73155,47.445831],[37.73263,47.445767],[37.73263,47.4457667415507],[37.733967,47.445687],[37.73451,47.445585],[37.735368,47.445131],[37.73654,47.445223],[37.737951,47.44555636323437],[37.737951,47.445557],[37.738198,47.445615],[37.738907,47.445809],[37.739846,47.445745],[37.740611,47.445338],[37.741041,47.444819],[37.74193,47.444291],[37.741944,47.443722],[37.743616,47.44304],[37.743616,47.443039518796986],[37.743976,47.442892],[37.74397512658227,47.442892],[37.748938,47.44086581395349],[37.748938,47.440866],[37.749351,47.440697],[37.749997,47.441022],[37.750505,47.441523],[37.750825,47.441711],[37.751138,47.441784],[37.751521,47.441799],[37.754602,47.441344],[37.754602,47.441343704142014],[37.755276,47.441244],[37.754431,47.440242],[37.754431,47.440244226890755],[37.75362882362205,47.439293],[37.753629,47.439293],[37.752536,47.437996],[37.751018,47.437076],[37.750177,47.435461],[37.7501767264,47.435461],[37.748938,47.433077],[37.748938,47.43307837576688],[37.748457,47.432154],[37.746391,47.432248],[37.74602015705765,47.431861],[37.746021,47.431861],[37.743616,47.42934867559178],[37.743616,47.429347],[37.743161,47.428872],[37.742115,47.428507],[37.740687,47.429437],[37.73981,47.430415],[37.738091,47.431133],[37.738477,47.431658],[37.738693,47.431861],[37.73869394965035,47.431861],[37.739334,47.43246],[37.73924,47.432946],[37.739154,47.434414],[37.739016,47.434411],[37.739024,47.434265],[37.738944,47.433444],[37.738692,47.432357],[37.738244,47.432418],[37.738333,47.432931],[37.738437,47.4335],[37.738414,47.434988],[37.738364,47.43548],[37.738329,47.435577],[37.73832934052757,47.435577],[37.738215,47.435897],[37.738123,47.43626844999999],[37.738123,47.436268],[37.738055,47.436543],[37.738122,47.436766],[37.738123,47.436817],[37.738123,47.43680611111127],[37.738131,47.437127],[37.738045,47.437674],[37.737951,47.437868],[37.737951,47.43786820304568],[37.737848,47.438081],[37.737506,47.438069],[37.737623,47.43645],[37.737754,47.436328],[37.737776,47.436039],[37.737798,47.435693],[37.737806,47.435577],[37.737852,47.434964],[37.736141,47.434985],[37.73609114864865,47.435461],[37.736091,47.435461],[37.73608595609769,47.43551058048656],[37.736079,47.435577],[37.7360791991342,47.435577],[37.735997,47.436385],[37.734762,47.436054],[37.734084,47.436054],[37.732902,47.436322],[37.7329807398374,47.435577],[37.732981,47.435577],[37.733047,47.434964],[37.733078,47.434678],[37.73263,47.434696787096776],[37.73263,47.434696],[37.732013,47.434721],[37.731128,47.434788],[37.728303,47.434815],[37.728303,47.435025],[37.730248,47.435086],[37.731609,47.435128],[37.731676,47.435131],[37.73173,47.435131],[37.732049,47.43514],[37.732372,47.435152],[37.73263,47.435161],[37.73263,47.43516093103448],[37.732661,47.435162],[37.732862,47.435167],[37.732831882926824,47.435461]],[[37.73421,47.436128],[37.734223,47.436115],[37.734246,47.436121],[37.734232,47.436137],[37.73421,47.436128]],[[37.733917,47.43617],[37.733931,47.436155],[37.73399,47.43618],[37.733976,47.436194],[37.733917,47.43617]],[[37.733923,47.436477],[37.733931,47.436462],[37.733953,47.436471],[37.73394,47.436486],[37.733923,47.436477]],[[37.733724,47.436842],[37.733711,47.436854],[37.73363,47.436824],[37.733674,47.436768],[37.733697,47.436777],[37.733661,47.436817],[37.733724,47.436842]],[[37.733491,47.437196],[37.7335,47.437178],[37.733523,47.437182],[37.733518,47.4372],[37.733491,47.437196]],[[37.733351,47.437565],[37.733357,47.437549],[37.733383,47.437552],[37.733374,47.437567],[37.733351,47.437565]],[[37.733275,47.436935],[37.733284,47.436921],[37.733347,47.436944],[37.733334,47.43696],[37.733275,47.436935]],[[37.733213,47.437935],[37.733217,47.437917],[37.733244,47.43792],[37.733235,47.437938],[37.733213,47.437935]],[[37.733105,47.438303],[37.733015,47.438324],[37.733005,47.438309],[37.733074,47.43829],[37.733047,47.438248],[37.733074,47.438242],[37.733105,47.438303]],[[37.732777,47.437528],[37.732791,47.437513],[37.732854,47.437534],[37.73284,47.437549],[37.732777,47.437528]],[[37.732238,47.43813],[37.732319,47.438099],[37.732364,47.438153],[37.732282,47.438184],[37.732238,47.43813]],[[37.732319,47.438504],[37.732229,47.438518],[37.732219,47.4385],[37.732288,47.438491],[37.732274,47.438446],[37.732296,47.438439],[37.732319,47.438504]],[[37.731515,47.438619],[37.731542,47.438616],[37.731546,47.438631],[37.731523,47.438637],[37.731515,47.438619]],[[37.730733,47.438707],[37.73076,47.438704],[37.730774,47.438761],[37.730747,47.438765],[37.730733,47.438707]],[[37.729961,47.438837],[37.729982,47.438835],[37.729988,47.438853],[37.729965,47.438856],[37.729961,47.438837]],[[37.729758,47.43802],[37.729762,47.437957],[37.729858,47.437962],[37.729848,47.438026],[37.729758,47.43802]],[[37.729175,47.438929],[37.729202,47.438925],[37.729206,47.438944],[37.729179,47.438947],[37.729175,47.438929]],[[37.728389,47.438977],[37.728416,47.438977],[37.72842,47.439035],[37.728393,47.439038],[37.728389,47.438977]],[[37.72776,47.439041],[37.72776,47.43906],[37.727737,47.43906],[37.727733,47.439044],[37.72776,47.439041]],[[37.727598,47.437869],[37.727602,47.43785],[37.727634,47.43785],[37.727629,47.437871],[37.727598,47.437869]],[[37.727099,47.439065],[37.727099,47.439083],[37.727078,47.439083],[37.727072,47.439065],[37.727099,47.439065]],[[37.726412,47.43909],[37.726439,47.43909],[37.726439,47.439105],[37.726416,47.439108],[37.726412,47.43909]],[[37.725779,47.43911],[37.725779,47.439129],[37.725757,47.439129],[37.725753,47.439114],[37.725779,47.43911]],[[37.725118,47.439135],[37.725118,47.439153],[37.725097,47.439153],[37.725097,47.439135],[37.725118,47.439135]],[[37.724462,47.439223],[37.724441,47.439223],[37.724436,47.439159],[37.724531,47.439157],[37.724531,47.439171],[37.724462,47.439175],[37.724462,47.439177],[37.724462,47.439223]],[[37.723969,47.439451],[37.723992,47.439448],[37.724013,47.439506],[37.723992,47.439509],[37.723969,47.439451]],[[37.723537,47.439828],[37.723556,47.439815],[37.723573,47.439825],[37.723556,47.439837],[37.723537,47.439828]],[[37.723093,47.440153],[37.723111,47.440141],[37.723129,47.440153],[37.723111,47.440165],[37.723093,47.440153]],[[37.722648,47.440481],[37.722667,47.440469],[37.722684,47.440481],[37.722667,47.440493],[37.722648,47.440481]],[[37.722204,47.440809],[37.722221,47.440797],[37.722239,47.440809],[37.722221,47.440821],[37.722204,47.440809]],[[37.721763,47.441137],[37.721778,47.441125],[37.721795,47.441137],[37.721782,47.441149],[37.721763,47.441137]],[[37.72131,47.441416],[37.721332,47.441413],[37.72135,47.441471],[37.721328,47.441474],[37.72131,47.441416]],[[37.744783,47.435334],[37.74483762365591,47.435461],[37.744837,47.435461],[37.744863,47.43552],[37.744885,47.435577],[37.74488525714286,47.435577],[37.744945,47.43573],[37.744882,47.435797],[37.74432,47.435799],[37.744226,47.435745],[37.744171,47.435507],[37.744136,47.435338],[37.744783,47.435334]],[[37.742873,47.435577],[37.74287416477273,47.435577],[37.742896,47.435638],[37.742901,47.435723],[37.742901,47.435775],[37.742932,47.435778],[37.742932,47.435799],[37.742919,47.435988],[37.742785,47.436036],[37.742473,47.436021],[37.74233,47.43586],[37.74242305882351,47.4355342941177],[37.742447,47.435456],[37.742833,47.435462],[37.742873,47.435577]]]}},{"type":"Feature","properties":{"cadnum":"1424885600:02:000:0005"},"geometry":{"type":"Polygon","coordinates":[[[37.737951,47.428079053140095],[37.737951,47.42808],[37.738085,47.427958],[37.737974,47.427902],[37.737789,47.427641],[37.737808,47.427623],[37.737525,47.427474],[37.737277,47.427687],[37.736923,47.427496],[37.736662,47.427681],[37.737102,47.427836],[37.73716,47.42787],[37.73748330000001,47.428029],[37.737483,47.428029],[37.737709,47.42814],[37.737821,47.428197],[37.73792832044121,47.42809954143716],[37.737951,47.428079053140095]]]}},{"type":"Feature","properties":{"cadnum":"1424885600:02:000:0004"},"geometry":{"type":"Polygon","coordinates":[[[37.738297,47.435192],[37.738324,47.434824],[37.738171,47.434821],[37.738167,47.434863],[37.738144,47.43514],[37.73814,47.435185],[37.738297,47.435192]]]}},{"type":"Feature","properties":{"cadnum":"1424885600:02:000:0007"},"geometry":{"type":"Polygon","coordinates":[[[37.742447,47.435456],[37.74244547107438,47.435461],[37.742444,47.435461],[37.74242305882351,47.4355342941177],[37.74241,47.435577],[37.74241085714286,47.435577],[37.74233,47.43586],[37.742473,47.436021],[37.742785,47.436036],[37.742919,47.435988],[37.742932,47.435799],[37.742932,47.435778],[37.742901,47.435775],[37.742901,47.435723],[37.742896,47.435638],[37.742833,47.435462],[37.742777,47.435461],[37.74276866666636,47.435461],[37.742447,47.435456]]]}},{"type":"Feature","properties":{"cadnum":"1424885600:01:000:0042"},"geometry":{"type":"Polygon","coordinates":[[[37.733801,47.427911],[37.734344,47.42748],[37.734156,47.42737],[37.733607,47.4278],[37.733747,47.427881],[37.733801,47.427911]]]}},{"type":"Feature","properties":{"cadnum":"1424885600:01:000:0008"},"geometry":{"type":"Polygon","coordinates":[[[37.733091,47.425873],[37.732885,47.42576],[37.732569518902245,47.42600972508441],[37.732355,47.426179],[37.732458,47.42623964974619],[37.732458,47.426241],[37.732552,47.426295],[37.73263,47.426235],[37.73263,47.42623393135436],[37.733091,47.425873]]]}},{"type":"Feature","properties":{"cadnum":"1424885600:01:000:0030"},"geometry":{"type":"Polygon","coordinates":[[[37.735414,47.426791],[37.735773,47.426523],[37.735607,47.42642],[37.735248,47.426687],[37.735414,47.426791]]]}},{"type":"Feature","properties":{"cadnum":"1424885600:01:000:0019"},"geometry":{"type":"Polygon","coordinates":[[[37.735288,47.42792],[37.735669,47.427632],[37.735431,47.427489],[37.735238,47.427465],[37.735122,47.42744],[37.73491,47.427331],[37.734645,47.427535],[37.735288,47.42792]]]}},{"type":"Feature","properties":{"cadnum":"1424885600:01:000:0013"},"geometry":{"type":"Polygon","coordinates":[[[37.732745,47.425703],[37.732557,47.425575],[37.732431,47.425663],[37.732422,47.425657],[37.731995,47.425976],[37.732179,47.426095],[37.73263,47.425784],[37.73263,47.425782738675956],[37.732745,47.425703]]]}},{"type":"Feature","properties":{"cadnum":"1424885600:01:000:0018"},"geometry":{"type":"Polygon","coordinates":[[[37.732557,47.425575],[37.732368,47.425451],[37.731806,47.425848],[37.731995,47.425976],[37.732422,47.425657],[37.732431,47.425663],[37.732458,47.425644142857145],[37.732458,47.425645],[37.732557,47.425575]]]}},{"type":"Feature","properties":{"cadnum":"1424885600:01:000:0052"},"geometry":{"type":"Polygon","coordinates":[[[37.733001,47.429571],[37.733563,47.429188],[37.733406,47.429075],[37.732822,47.42944],[37.733001,47.429571]]]}},{"type":"Feature","properties":{"cadnum":"1424885600:01:000:0026"},"geometry":{"type":"Polygon","coordinates":[[[37.732854,47.429607],[37.732588,47.429419],[37.732126,47.429717],[37.732391,47.429904],[37.732458,47.42986110878661],[37.732458,47.429862],[37.732854,47.429607]]]}},{"type":"Feature","properties":{"cadnum":"1424885600:01:000:0023"},"geometry":{"type":"Polygon","coordinates":[[[37.734061,47.430178],[37.734066,47.429947],[37.733383,47.429942],[37.733378,47.430172],[37.734061,47.430178]]]}},{"type":"Feature","properties":{"cadnum":"1424885600:01:000:0051"},"geometry":{"type":"Polygon","coordinates":[[[37.733716,47.4306],[37.733716,47.430391],[37.73332,47.430388],[37.733316,47.430598],[37.733716,47.4306]]]}},{"type":"Feature","properties":{"cadnum":"1424885600:01:000:0015"},"geometry":{"type":"Polygon","coordinates":[[[37.730108,47.42267],[37.730468,47.422378],[37.73019,47.422223],[37.730154,47.422201],[37.729799,47.422494],[37.730108,47.42267]]]}},{"type":"Feature","properties":{"cadnum":"1424885600:01:000:0024"},"geometry":{"type":"Polygon","coordinates":[[[37.730001,47.424122],[37.730221,47.423904],[37.729893,47.423697],[37.729628,47.423888],[37.729817,47.424003],[37.730001,47.424122]]]}},{"type":"Feature","properties":{"cadnum":"1424885600:01:000:0044"},"geometry":{"type":"Polygon","coordinates":[[[37.731973,47.423289],[37.732323,47.423019],[37.732116,47.422888],[37.73177,47.423153],[37.731753,47.423171],[37.731973,47.423289]]]}},{"type":"Feature","properties":{"cadnum":"1424885600:01:000:0006"},"geometry":{"type":"Polygon","coordinates":[[[37.729062,47.423773],[37.729408,47.423499],[37.729265,47.423405],[37.728919,47.423679],[37.729062,47.423773]]]}},{"type":"Feature","properties":{"cadnum":"1424885600:01:000:0010"},"geometry":{"type":"Polygon","coordinates":[[[37.727581,47.42243],[37.727414,47.422327],[37.727045,47.422597],[37.727137,47.422656],[37.727137,47.422655134969325],[37.727208,47.4227],[37.727581,47.42243]]]}},{"type":"Feature","properties":{"cadnum":"1424885600:01:000:0020"},"geometry":{"type":"Polygon","coordinates":[[[37.73177,47.423153],[37.732116,47.422888],[37.731802,47.42271],[37.731466,47.422983],[37.73177,47.423153]]]}},{"type":"Feature","properties":{"cadnum":"1424885600:01:000:0011"},"geometry":{"type":"Polygon","coordinates":[[[37.727678,47.423709],[37.727477,47.423591],[37.7270162,47.4239618],[37.726835,47.424107],[37.727036,47.424223],[37.727137,47.424143],[37.727137,47.42414213707165],[37.727678,47.423709]]]}},{"type":"Feature","properties":{"cadnum":"1424885600:01:000:0031"},"geometry":{"type":"Polygon","coordinates":[[[37.730302,47.423849],[37.730648,47.423582],[37.730342,47.423408],[37.729974,47.423663],[37.730302,47.423849]]]}},{"type":"Feature","properties":{"cadnum":"1424885600:01:000:0022"},"geometry":{"type":"Polygon","coordinates":[[[37.729512,47.428003],[37.72947446478872,47.428029],[37.729473,47.428029],[37.72904,47.428331],[37.729278,47.428492],[37.729749,47.428163],[37.729551,47.428029],[37.72955045070423,47.428029],[37.729512,47.428003]]]}},{"type":"Feature","properties":{"cadnum":"1424885600:01:000:0017"},"geometry":{"type":"Polygon","coordinates":[[[37.730374,47.429868],[37.730837,47.429546],[37.730607,47.429397],[37.730145,47.429717],[37.730374,47.429868]]]}},{"type":"Feature","properties":{"cadnum":"1424885600:01:000:0021"},"geometry":{"type":"Polygon","coordinates":[[[37.731362,47.429179],[37.731793,47.428872],[37.73156,47.428723],[37.731133,47.429033],[37.731362,47.429179]]]}},{"type":"Feature","properties":{"cadnum":"1424885600:01:000:0016"},"geometry":{"type":"Polygon","coordinates":[[[37.730931,47.429503],[37.731389,47.4292],[37.731133,47.429033],[37.730684,47.42934],[37.730931,47.429503]]]}},{"type":"Feature","properties":{"cadnum":"1424885600:02:000:0011"},"geometry":{"type":"Polygon","coordinates":[[[37.724153,47.424372],[37.724162,47.424363],[37.724185,47.424338],[37.724261,47.424244],[37.722751,47.423712],[37.722626,47.423733],[37.722577,47.423721],[37.722604,47.423681],[37.722527,47.423658],[37.7225,47.423697],[37.722338,47.423654],[37.722334,47.42366],[37.722329,47.42367],[37.722321,47.423681],[37.722311,47.423697],[37.722302,47.423709],[37.722275,47.423697],[37.722141,47.423642],[37.722101,47.423685],[37.721952,47.423624],[37.721908,47.423676],[37.721862,47.42373],[37.721736,47.423882],[37.721643,47.42399226136364],[37.721643,47.423992],[37.721466,47.424201],[37.721472,47.42420764406779],[37.721472,47.424208],[37.721559157894234,47.42430415789418],[37.72156714285714,47.424313],[37.721567,47.424313],[37.72159242857125,47.4243409999998],[37.721643,47.424397],[37.721643,47.424396685393255],[37.721656,47.424411],[37.72167,47.424429],[37.72167131914894,47.424429],[37.721736,47.424505],[37.722468,47.424933],[37.723093,47.425413],[37.723376,47.425222],[37.723394,47.425207],[37.723497,47.425091],[37.723587,47.424998],[37.723695,47.424876],[37.723785,47.424778],[37.723915,47.424636],[37.723996,47.424539],[37.724145,47.424381],[37.724153,47.424372]]]}},{"type":"Feature","properties":{"cadnum":"1424885600:01:000:0025"},"geometry":{"type":"Polygon","coordinates":[[[37.726219,47.422737],[37.726673,47.422406],[37.726596,47.42236],[37.72661,47.42235],[37.726426,47.422248],[37.725981,47.422602],[37.726219,47.422737]]]}},{"type":"Feature","properties":{"cadnum":"1424885600:01:000:0012"},"geometry":{"type":"Polygon","coordinates":[[[37.726952,47.424289],[37.727036,47.424223],[37.726835,47.424107],[37.726749,47.424174],[37.726952,47.424289]]]}},{"type":"Feature","properties":{"cadnum":"1424885600:02:000:0006"},"geometry":{"type":"Polygon","coordinates":[[[37.72702144586229,47.4346925987261],[37.727137,47.434692],[37.727137,47.43469177725119],[37.727387,47.43469],[37.728353,47.434681],[37.72846,47.434681],[37.729112,47.434675],[37.729219,47.434675],[37.732032,47.434654],[37.73263,47.434616],[37.73263,47.43461500327869],[37.733068,47.434587],[37.733074,47.434347],[37.733019,47.434107],[37.733064,47.433861],[37.73315,47.433712],[37.733028,47.433658],[37.73263,47.433630768421054],[37.73263,47.43363],[37.732233,47.433602],[37.731636,47.433354],[37.731034,47.432858],[37.729902,47.432654],[37.727137,47.43275285086823],[37.727137,47.432752],[37.726875,47.432761],[37.72568,47.43411],[37.724512,47.434597],[37.723856,47.434709],[37.726965,47.43469289119171],[37.726965,47.434693],[37.72702144586229,47.4346925987261]],[[37.728024,47.433183],[37.729233,47.433034],[37.729206,47.433575],[37.728254,47.433721],[37.728024,47.433183]]]}},{"type":"Feature","properties":{"cadnum":"1424885600:01:000:0027"},"geometry":{"type":"Polygon","coordinates":[[[37.731362,47.424946],[37.731619,47.424737],[37.731397,47.424609],[37.731137,47.424818],[37.731362,47.424946]]]}},{"type":"Feature","properties":{"cadnum":"1424885600:01:000:0029"},"geometry":{"type":"Polygon","coordinates":[[[37.732036,47.425277],[37.73226,47.425107],[37.732049,47.424979],[37.731766,47.425192],[37.731852,47.425246],[37.731906,47.425204],[37.732036,47.425277]]]}},{"type":"Feature","properties":{"cadnum":"1424885600:01:000:0014"},"geometry":{"type":"Polygon","coordinates":[[[37.731582,47.425736],[37.732116,47.42532],[37.731906,47.425204],[37.73138,47.425618],[37.731582,47.425736]]]}},{"type":"Feature","properties":{"cadnum":"1424885600:01:000:0007"},"geometry":{"type":"Polygon","coordinates":[[[37.728483,47.427839],[37.729009,47.427496],[37.72882,47.42738],[37.72829,47.427717],[37.728483,47.427839]]]}}]}