{"type":"FeatureCollection","features":[{"type":"Feature","properties":{"cadnum":"1424857500:09:000:0189"},"geometry":{"type":"Polygon","coordinates":[[[38.147161,47.579209],[38.147165,47.579118],[38.147205,47.579043],[38.147291,47.578982],[38.147376,47.578942],[38.147515,47.578933],[38.147672,47.578954],[38.147767,47.579009],[38.14779,47.579043],[38.148423,47.578879],[38.147686,47.577233],[38.144617,47.578035049676025],[38.144617,47.578035],[38.143173,47.578412],[38.144022,47.580027],[38.144617,47.579872],[38.144617,47.57987122680412],[38.147161,47.579209]]]}}]}