{"type":"FeatureCollection","features":[{"type":"Feature","properties":{"cadnum":"1424855600:01:000:0205"},"geometry":{"type":"Polygon","coordinates":[[[37.73806184720415,47.42572029192613],[37.738123,47.425671],[37.738123,47.42567080128205],[37.738575,47.425305],[37.738557,47.425295],[37.738678,47.425195],[37.738123,47.424864442916096],[37.738123,47.424864],[37.737839,47.424694],[37.73708,47.425274],[37.737749,47.425666],[37.737506,47.425863],[37.737726,47.425991],[37.737951,47.42580963979849],[37.737951,47.42581],[37.73806184720415,47.42572029192613]]]}},{"type":"Feature","properties":{"cadnum":"1424855600:02:000:0010"},"geometry":{"type":"Polygon","coordinates":[[[37.742447,47.435456],[37.74244547107438,47.435461],[37.742444,47.435461],[37.74242305882351,47.4355342941177],[37.74241,47.435577],[37.74241085714286,47.435577],[37.74233,47.43586],[37.742473,47.436021],[37.742785,47.436036],[37.742919,47.435988],[37.742932,47.435799],[37.742932,47.435778],[37.742901,47.435775],[37.742901,47.435723],[37.742896,47.435638],[37.742833,47.435462],[37.742777,47.435461],[37.74276866666636,47.435461],[37.742447,47.435456]]]}},{"type":"Feature","properties":{"cadnum":"1424855600:01:000:0039"},"geometry":{"type":"Polygon","coordinates":[[[37.734282,47.427343],[37.734843,47.42693],[37.734632,47.4268],[37.734075,47.427219],[37.734282,47.427343]]]}},{"type":"Feature","properties":{"cadnum":"1424855600:01:000:0211"},"geometry":{"type":"Polygon","coordinates":[[[37.734924,47.426469],[37.734965,47.426435],[37.735045,47.426371],[37.735175,47.426274],[37.735248,47.426216],[37.735265,47.426204],[37.735085,47.4261],[37.734739,47.426362],[37.734924,47.426469]]]}},{"type":"Feature","properties":{"cadnum":"1424855600:01:000:0216"},"geometry":{"type":"Polygon","coordinates":[[[37.737383,47.424429],[37.73738397959183,47.424429],[37.737089,47.424648],[37.737443,47.42487],[37.737839,47.42456],[37.737485,47.424354],[37.737383,47.424429]]]}},{"type":"Feature","properties":{"cadnum":"1424855600:01:000:0210"},"geometry":{"type":"Polygon","coordinates":[[[37.736657,47.425089],[37.736927,47.424888],[37.736636,47.424706],[37.736366,47.424906],[37.736657,47.425089]]]}},{"type":"Feature","properties":{"cadnum":"1424855600:01:000:0002"},"geometry":{"type":"Polygon","coordinates":[[[37.733468,47.426086],[37.733536,47.42603],[37.733558,47.426012],[37.73372,47.425888],[37.73332,47.42566],[37.733154,47.425785],[37.733131,47.4258],[37.73306,47.425854],[37.733271,47.425976],[37.733468,47.426086]]]}},{"type":"Feature","properties":{"cadnum":"1424855600:01:000:0037"},"geometry":{"type":"Polygon","coordinates":[[[37.735818,47.42635],[37.73593,47.426264],[37.73589,47.42624],[37.735925,47.426213],[37.735665,47.426061],[37.735512,47.42617],[37.735818,47.42635]]]}},{"type":"Feature","properties":{"cadnum":"1424855600:01:000:0213"},"geometry":{"type":"Polygon","coordinates":[[[37.736932,47.427985],[37.737057,47.427872],[37.737102,47.427836],[37.736662,47.427681],[37.73654,47.427784],[37.736932,47.427985]]]}},{"type":"Feature","properties":{"cadnum":"1424855600:01:000:0217"},"geometry":{"type":"Polygon","coordinates":[[[37.737156,47.424156],[37.736774,47.423931],[37.73629,47.424307],[37.73630013114754,47.424313],[37.736298,47.424313],[37.736734,47.424569],[37.73685,47.424475],[37.73689,47.424363],[37.737156,47.424156]]]}},{"type":"Feature","properties":{"cadnum":"1424855600:01:000:0036"},"geometry":{"type":"Polygon","coordinates":[[[37.735014,47.427753],[37.735089,47.427693],[37.735099,47.427687],[37.734938,47.427589],[37.734852,47.427659],[37.734861,47.427665],[37.735014,47.427753]]]}},{"type":"Feature","properties":{"cadnum":"1424855600:01:000:0050"},"geometry":{"type":"Polygon","coordinates":[[[37.734888,47.426958],[37.735144,47.426763],[37.734888,47.426605],[37.734632,47.4268],[37.734843,47.42693],[37.734888,47.426958]]]}},{"type":"Feature","properties":{"cadnum":"1424855600:01:000:0206"},"geometry":{"type":"Polygon","coordinates":[[[37.733357,47.426857],[37.733913,47.426435],[37.733707,47.426313],[37.733158,47.426739],[37.733357,47.426857]]]}},{"type":"Feature","properties":{"cadnum":"1424855600:01:000:0001"},"geometry":{"type":"Polygon","coordinates":[[[37.733468,47.426086],[37.733536,47.42603],[37.733558,47.426012],[37.73372,47.425888],[37.73332,47.42566],[37.733154,47.425785],[37.733131,47.4258],[37.73306,47.425854],[37.733271,47.425976],[37.733468,47.426086]]]}},{"type":"Feature","properties":{"cadnum":"1424855600:01:000:0038"},"geometry":{"type":"Polygon","coordinates":[[[37.732915,47.428766],[37.732754,47.428653],[37.73250353846112,47.4288290000003],[37.732219,47.429027],[37.732382,47.42914],[37.73263,47.428966],[37.73263,47.42896556236324],[37.732915,47.428766]]]}},{"type":"Feature","properties":{"cadnum":"1424855600:01:000:0052"},"geometry":{"type":"Polygon","coordinates":[[[37.733001,47.429571],[37.733563,47.429188],[37.733406,47.429075],[37.732822,47.42944],[37.733001,47.429571]]]}},{"type":"Feature","properties":{"cadnum":"1424855600:01:000:0004"},"geometry":{"type":"Polygon","coordinates":[[[37.73263,47.430463],[37.732508432837264,47.4305147164173],[37.732458,47.430536],[37.732458,47.43053617127072],[37.732449,47.43054],[37.732458,47.4305461160221],[37.732458,47.430547],[37.732902,47.430847],[37.733172,47.43054],[37.732894,47.430352],[37.73263,47.430463412844034],[37.73263,47.430463]]]}},{"type":"Feature","properties":{"cadnum":"1424855600:01:000:0214"},"geometry":{"type":"Polygon","coordinates":[[[37.729193,47.423223],[37.729569,47.422944],[37.729319,47.422794],[37.72894,47.42308],[37.729193,47.423223]]]}},{"type":"Feature","properties":{"cadnum":"1424855600:01:000:0068"},"geometry":{"type":"Polygon","coordinates":[[[37.728209,47.423867],[37.728686,47.423493],[37.728487,47.423375],[37.728007,47.423748],[37.728209,47.423867]]]}},{"type":"Feature","properties":{"cadnum":"1424855600:01:000:0204"},"geometry":{"type":"Polygon","coordinates":[[[37.728155,47.422622],[37.728573,47.422311],[37.728837,47.422113],[37.728671,47.42201],[37.727988,47.422521],[37.728155,47.422622]]]}},{"type":"Feature","properties":{"cadnum":"1424855600:01:000:0040"},"geometry":{"type":"Polygon","coordinates":[[[37.728631,47.424253],[37.728429,47.424138],[37.728210099656366,47.424313],[37.728209,47.424313],[37.727787,47.424651],[37.727988,47.424767],[37.728556,47.424313],[37.72855531818182,47.424313],[37.728631,47.424253]]]}},{"type":"Feature","properties":{"cadnum":"1424855600:01:000:0208"},"geometry":{"type":"Polygon","coordinates":[[[37.727831,47.422435],[37.728653,47.421858],[37.728537,47.4218],[37.728051,47.422089],[37.727638,47.42232],[37.727831,47.422435]]]}},{"type":"Feature","properties":{"cadnum":"1424855600:01:000:0070"},"geometry":{"type":"Polygon","coordinates":[[[37.730715,47.42253],[37.73111,47.422293],[37.73089,47.422171],[37.730787,47.422065],[37.730737,47.422065],[37.730338,47.422305],[37.730468,47.422378],[37.730715,47.42253]]]}},{"type":"Feature","properties":{"cadnum":"1424855600:01:000:0044"},"geometry":{"type":"Polygon","coordinates":[[[37.731973,47.423289],[37.732323,47.423019],[37.732116,47.422888],[37.73177,47.423153],[37.731753,47.423171],[37.731973,47.423289]]]}},{"type":"Feature","properties":{"cadnum":"1424855600:01:000:0074"},"geometry":{"type":"Polygon","coordinates":[[[37.730648,47.423582],[37.731003,47.423323],[37.730701,47.423147],[37.730342,47.423408],[37.730648,47.423582]]]}},{"type":"Feature","properties":{"cadnum":"1424855600:01:000:0209"},"geometry":{"type":"Polygon","coordinates":[[[37.73116,47.422649],[37.731416,47.422463],[37.731124,47.422284],[37.730877,47.422472],[37.73116,47.422649]]]}},{"type":"Feature","properties":{"cadnum":"1424855600:01:000:0218"},"geometry":{"type":"Polygon","coordinates":[[[37.72705559999947,47.423025200000374],[37.727137,47.422968],[37.727137,47.422967878587194],[37.727418,47.42277],[37.727248,47.422672],[37.727208,47.4227],[37.727171,47.422676],[37.726965,47.422817],[37.726965,47.42281752618454],[37.726736,47.422974],[37.726952,47.423098],[37.726965,47.423088864864866],[37.726965,47.423089],[37.72705559999947,47.423025200000374]]]}},{"type":"Feature","properties":{"cadnum":"1424855600:01:000:0060"},"geometry":{"type":"Polygon","coordinates":[[[37.731919,47.422645],[37.732242,47.422417],[37.732026,47.422275],[37.731703,47.422503],[37.731919,47.422645]]]}},{"type":"Feature","properties":{"cadnum":"1424855600:01:000:0069"},"geometry":{"type":"Polygon","coordinates":[[[37.727661,47.422949],[37.727458,47.422831],[37.727005,47.423183],[37.727137,47.423258],[37.727137,47.42325777832512],[37.727208,47.423298],[37.727661,47.422949]]]}},{"type":"Feature","properties":{"cadnum":"1424855600:01:000:0071"},"geometry":{"type":"Polygon","coordinates":[[[37.730338,47.422305],[37.730737,47.422065],[37.730127,47.422077],[37.730154,47.422201],[37.73019,47.422223],[37.730338,47.422305]]]}},{"type":"Feature","properties":{"cadnum":"1424855600:01:000:0005"},"geometry":{"type":"Polygon","coordinates":[[[37.728537,47.422843],[37.728914,47.422545],[37.728747,47.422433],[37.728344,47.422728],[37.728537,47.422843]]]}},{"type":"Feature","properties":{"cadnum":"1424855600:01:000:0077"},"geometry":{"type":"Polygon","coordinates":[[[37.728734,47.422958],[37.72912,47.422672],[37.728982,47.422584],[37.728919,47.422542],[37.728537,47.422843],[37.728734,47.422958]]]}},{"type":"Feature","properties":{"cadnum":"1424855600:01:000:0061"},"geometry":{"type":"Polygon","coordinates":[[[37.728047,47.423171],[37.728357,47.422913],[37.728191,47.422818],[37.727863,47.423065],[37.728047,47.423171]]]}},{"type":"Feature","properties":{"cadnum":"1424855600:01:000:0043"},"geometry":{"type":"Polygon","coordinates":[[[37.729826,47.424013],[37.729628,47.423888],[37.729116,47.424311],[37.72911941592919,47.424313],[37.729119,47.424313],[37.729309,47.424424],[37.729826,47.424013]]]}},{"type":"Feature","properties":{"cadnum":"1424855600:01:000:0200"},"geometry":{"type":"Polygon","coordinates":[[[37.727589,47.422858],[37.727944,47.422615],[37.727764,47.422505],[37.727432,47.422764],[37.727589,47.422858]]]}},{"type":"Feature","properties":{"cadnum":"1424855600:01:000:0201"},"geometry":{"type":"Polygon","coordinates":[[[37.730957,47.422807],[37.73116,47.422649],[37.730868,47.422466],[37.73077,47.422539],[37.730661,47.422618],[37.730957,47.422807]]]}},{"type":"Feature","properties":{"cadnum":"1424855600:01:000:0057"},"geometry":{"type":"Polygon","coordinates":[[[37.729368,47.423946],[37.729714,47.423667],[37.729408,47.423499],[37.729058,47.423773],[37.729368,47.423946]]]}},{"type":"Feature","properties":{"cadnum":"1424855600:01:000:0202"},"geometry":{"type":"Polygon","coordinates":[[[37.731564,47.42366],[37.731011,47.423329],[37.730701,47.423557],[37.730697,47.423651],[37.731564,47.42366]]]}},{"type":"Feature","properties":{"cadnum":"1424855600:01:000:0056"},"geometry":{"type":"Polygon","coordinates":[[[37.727607,47.42353],[37.728047,47.423171],[37.727863,47.423065],[37.727409,47.423415],[37.727422,47.423426],[37.727432,47.423417],[37.727458,47.423433],[37.72745,47.423442],[37.727607,47.42353]]]}},{"type":"Feature","properties":{"cadnum":"1424855600:01:000:0035"},"geometry":{"type":"Polygon","coordinates":[[[37.730176,47.429695],[37.730607,47.429397],[37.730361,47.429233],[37.729929,47.429532],[37.730176,47.429695]]]}},{"type":"Feature","properties":{"cadnum":"1424855600:01:000:0034"},"geometry":{"type":"Polygon","coordinates":[[[37.729799,47.429622],[37.729929,47.429532],[37.730361,47.429233],[37.730127,47.429082],[37.729561,47.429464],[37.729799,47.429622]]]}},{"type":"Feature","properties":{"cadnum":"1424855600:01:000:0059"},"geometry":{"type":"Polygon","coordinates":[[[37.730562,47.429993],[37.731024,47.429671],[37.730837,47.429546],[37.730374,47.429868],[37.730562,47.429993]]]}},{"type":"Feature","properties":{"cadnum":"1424855600:02:000:2006"},"geometry":{"type":"Polygon","coordinates":[[[37.724019,47.439069],[37.723744,47.439069],[37.721556,47.439062],[37.72153558874459,47.439177],[37.721535,47.439177],[37.721265,47.440711],[37.721472,47.440631595238095],[37.721472,47.440632],[37.72163374285844,47.44056955101991],[37.721643,47.440566],[37.721643,47.44056597683398],[37.722508,47.440232],[37.723803,47.43922],[37.724019,47.439069]]]}},{"type":"Feature","properties":{"cadnum":"1424855600:02:000:2007"},"geometry":{"type":"Polygon","coordinates":[[[37.731281,47.435559],[37.731303,47.435162],[37.730239,47.435128],[37.730261,47.435311],[37.730345375,47.435461],[37.730345,47.435461],[37.730351,47.435471],[37.730328,47.435656],[37.730257,47.436155],[37.730783,47.436182],[37.730728,47.436671],[37.732458,47.436752830829164],[37.732458,47.436754],[37.732525,47.436756],[37.73263,47.435676],[37.73263,47.4356753362832],[37.732638,47.435593],[37.73257037569097,47.435591497237574],[37.7319951764708,47.435577],[37.732014,47.435577],[37.731281,47.435559]]]}},{"type":"Feature","properties":{"cadnum":"1424855600:02:000:2002"},"geometry":{"type":"Polygon","coordinates":[[[37.726965,47.436987376936315],[37.726965,47.436988],[37.72707971830998,47.436906422535124],[37.727137,47.436866],[37.727137,47.43686568888889],[37.727145,47.43686],[37.726965,47.436845],[37.726965,47.436845848654144],[37.725168,47.436698],[37.723516,47.436562],[37.723246,47.436541],[37.722024,47.436437],[37.721934,47.436951],[37.723151,47.437039],[37.723416,47.437054],[37.724579,47.437136],[37.726556,47.437276],[37.726965,47.436987376936315]],[[37.72338,47.436622],[37.72338,47.436638],[37.723357,47.436638],[37.723357,47.436622],[37.72338,47.436622]],[[37.723273,47.437039],[37.723273,47.437024],[37.7233,47.437024],[37.7233,47.437042],[37.723273,47.437039]]]}},{"type":"Feature","properties":{"cadnum":"1424855600:02:000:2001"},"geometry":{"type":"Polygon","coordinates":[[[37.727137,47.43685933333334],[37.727145,47.43686],[37.727445,47.436647],[37.727137,47.436541766666664],[37.727137,47.436541],[37.726852,47.436444],[37.725545,47.436295],[37.723614,47.436076],[37.723344,47.436045],[37.722118,47.435906],[37.722024,47.436437],[37.723246,47.436541],[37.723516,47.436562],[37.725168,47.436698],[37.727137,47.43686],[37.727137,47.43685933333334]],[[37.723461,47.436216],[37.723461,47.436234],[37.723434,47.436234],[37.723434,47.436216],[37.723461,47.436216]]]}},{"type":"Feature","properties":{"cadnum":"1424855600:02:000:2005"},"geometry":{"type":"Polygon","coordinates":[[[37.725091,47.438312],[37.723699,47.43827],[37.72342,47.43826],[37.721709,47.438209],[37.721643,47.4385769607843],[37.721643,47.438576],[37.721556,47.439062],[37.721643,47.439063],[37.721643,47.43906227833638],[37.723744,47.439069],[37.724019,47.439069],[37.725091,47.438312]],[[37.723793,47.438801],[37.723793,47.438819],[37.723766,47.438819],[37.723766,47.438801],[37.723793,47.438801]],[[37.723605,47.43833],[37.723605,47.438348],[37.723579,47.438348],[37.723579,47.43833],[37.723605,47.43833]]]}},{"type":"Feature","properties":{"cadnum":"1424855600:01:000:0215"},"geometry":{"type":"Polygon","coordinates":[[[37.738651,47.424335],[37.739003,47.424265],[37.739186,47.424235],[37.739366,47.424195],[37.739253,47.423882],[37.738993,47.423825],[37.73889,47.423836],[37.738854,47.423843],[37.738724,47.423864],[37.738688,47.423879],[37.738414,47.424062],[37.73862,47.424256],[37.738634,47.424298],[37.738651,47.424335]]]}},{"type":"Feature","properties":{"cadnum":"1424855600:01:000:0207"},"geometry":{"type":"Polygon","coordinates":[[[37.738747,47.422232],[37.738966,47.422223],[37.739343,47.422223],[37.739353,47.422083],[37.739276,47.421935],[37.738733,47.42191],[37.738747,47.422232]]]}},{"type":"Feature","properties":{"cadnum":"1424855600:02:000:2003"},"geometry":{"type":"Polygon","coordinates":[[[37.725864,47.437765],[37.725954,47.437701],[37.726556,47.437276],[37.724579,47.437136],[37.723416,47.437054],[37.723151,47.437039],[37.721934,47.436951],[37.721849,47.43743],[37.721831,47.437509],[37.723883,47.43764],[37.725864,47.437765]],[[37.72321,47.437382],[37.723206,47.437364],[37.723286,47.437358],[37.723286,47.437376],[37.72321,47.437382]]]}},{"type":"Feature","properties":{"cadnum":"1424855600:02:000:2000"},"geometry":{"type":"Polygon","coordinates":[[[37.723753,47.435395],[37.723502,47.435311],[37.722868,47.435095],[37.722275,47.435027],[37.722176,47.435577],[37.722176406741575,47.435577],[37.722118,47.435906],[37.723344,47.436045],[37.723614,47.436076],[37.725545,47.436295],[37.726852,47.436444],[37.72428980773145,47.435577],[37.724291,47.435577],[37.723753,47.435395]],[[37.723632,47.435383],[37.723632,47.435401],[37.723605,47.435401],[37.723605,47.435383],[37.723632,47.435383]],[[37.723537,47.43582],[37.723537,47.435836],[37.72351,47.435836],[37.72351,47.435818],[37.723537,47.43582]]]}},{"type":"Feature","properties":{"cadnum":"1424855600:02:000:2004"},"geometry":{"type":"Polygon","coordinates":[[[37.725091,47.438312],[37.72572,47.437869],[37.725864,47.437765],[37.723883,47.43764],[37.721831,47.437509],[37.721818,47.437607],[37.721709,47.438209],[37.72342,47.43826],[37.723699,47.43827],[37.725091,47.438312]],[[37.723178,47.437604],[37.723206,47.437604],[37.723206,47.437622],[37.723178,47.437622],[37.723178,47.437604]],[[37.725433,47.437747],[37.72546,47.437747],[37.72546,47.437765],[37.725433,47.437765],[37.725433,47.437747]],[[37.723403,47.437878],[37.72343,47.437878],[37.72343,47.437896],[37.723403,47.437896],[37.723403,47.437878]]]}},{"type":"Feature","properties":{"cadnum":"1424855600:02:000:0002"},"geometry":{"type":"Polygon","coordinates":[[[37.728254,47.433721],[37.729206,47.433575],[37.729233,47.433034],[37.728024,47.433183],[37.728254,47.433721]]]}},{"type":"Feature","properties":{"cadnum":"1424855600:02:000:0012"},"geometry":{"type":"Polygon","coordinates":[[[37.723986,47.434669],[37.723713,47.433864],[37.721709,47.434429],[37.721705,47.434657],[37.723986,47.434669]]]}},{"type":"Feature","properties":{"cadnum":"1424855600:01:000:0033"},"geometry":{"type":"Polygon","coordinates":[[[37.735831,47.423733],[37.735966,47.423636],[37.736024,47.423593],[37.735952,47.423548],[37.736011,47.423505],[37.736051,47.423475],[37.735997,47.423438],[37.735952,47.423411],[37.735938,47.42342],[37.735655,47.423621],[37.735831,47.423733]]]}},{"type":"Feature","properties":{"cadnum":"1424855600:01:000:0032"},"geometry":{"type":"Polygon","coordinates":[[[37.735952,47.423812],[37.736249,47.423602],[37.736051,47.423475],[37.736011,47.423505],[37.735952,47.423548],[37.736024,47.423593],[37.735966,47.423636],[37.735831,47.423733],[37.735952,47.423812]]]}},{"type":"Feature","properties":{"cadnum":"1424855600:01:000:0075"},"geometry":{"type":"Polygon","coordinates":[[[37.731137,47.424818],[37.731397,47.424609],[37.731403,47.424609],[37.731133,47.424456],[37.730881,47.424672],[37.731137,47.424818]]]}},{"type":"Feature","properties":{"cadnum":"1424855600:01:000:0029"},"geometry":{"type":"Polygon","coordinates":[[[37.732036,47.425277],[37.73226,47.425107],[37.732049,47.424979],[37.731766,47.425192],[37.731852,47.425246],[37.731906,47.425204],[37.732036,47.425277]]]}},{"type":"Feature","properties":{"cadnum":"1424855600:01:000:0212"},"geometry":{"type":"Polygon","coordinates":[[[37.731749,47.426775],[37.732274,47.426365],[37.732072,47.426244],[37.73155,47.42666],[37.731749,47.426775]]]}},{"type":"Feature","properties":{"cadnum":"1424855600:01:000:0046"},"geometry":{"type":"Polygon","coordinates":[[[37.729942,47.427435],[37.730342,47.427145],[37.730104,47.426976],[37.729682,47.427253],[37.729942,47.427435]]]}},{"type":"Feature","properties":{"cadnum":"1424855600:01:000:0058"},"geometry":{"type":"Polygon","coordinates":[[[37.73138,47.425618],[37.731852,47.425246],[37.731766,47.425192],[37.731653,47.425125],[37.731183,47.425499],[37.73138,47.425618]]]}},{"type":"Feature","properties":{"cadnum":"1424855600:01:000:0055"},"geometry":{"type":"Polygon","coordinates":[[[37.729642,47.425334],[37.730045,47.425001],[37.729789,47.424858],[37.729386,47.425192],[37.729642,47.425334]]]}},{"type":"Feature","properties":{"cadnum":"1424855600:01:000:0203"},"geometry":{"type":"Polygon","coordinates":[[[37.730028,47.427584],[37.730603,47.427246],[37.730361,47.427082],[37.729776,47.427419],[37.730028,47.427584]]]}},{"type":"Feature","properties":{"cadnum":"1424855600:01:000:0041"},"geometry":{"type":"Polygon","coordinates":[[[37.727904,47.424836],[37.727988,47.424767],[37.727787,47.424651],[37.727701,47.424721],[37.727904,47.424836]]]}},{"type":"Feature","properties":{"cadnum":"1424855600:01:000:0063"},"geometry":{"type":"Polygon","coordinates":[[[37.729776,47.428057],[37.730239,47.427762],[37.729992,47.427593],[37.729506,47.42787],[37.729583,47.427924],[37.729776,47.428057]]]}},{"type":"Feature","properties":{"cadnum":"1424855600:01:000:0073"},"geometry":{"type":"Polygon","coordinates":[[[37.729036,47.426949],[37.729525,47.426636],[37.729313,47.426487],[37.728816,47.426793],[37.729036,47.426949]]]}},{"type":"Feature","properties":{"cadnum":"1424855600:01:000:0076"},"geometry":{"type":"Polygon","coordinates":[[[37.728653,47.424933],[37.729183,47.424548],[37.728977,47.424435],[37.728451,47.424818],[37.728653,47.424933]]]}}]}