{"type":"FeatureCollection","features":[{"type":"Feature","properties":{"cadnum":"1424880005:03:000:0593"},"geometry":{"type":"Polygon","coordinates":[[[37.758718,47.465294],[37.758719226415096,47.465294],[37.758083,47.46698],[37.75995243721675,47.46730596744316],[37.761962,47.467657],[37.761222,47.465671],[37.761096,47.465413],[37.76104485531915,47.465294],[37.761045,47.465294],[37.760886,47.464918],[37.760796,47.464891],[37.760674,47.464857],[37.759924,47.464739],[37.759924,47.464739752475246],[37.758985,47.464591],[37.758718,47.465294]]]}},{"type":"Feature","properties":{"cadnum":"1424880005:03:000:0592"},"geometry":{"type":"Polygon","coordinates":[[[37.75995243721675,47.46730596744316],[37.759924,47.467301],[37.759924,47.46730100894188],[37.758083,47.46698],[37.757494,47.468534],[37.759550326710816,47.468892],[37.759544,47.468892],[37.760096,47.468988],[37.760096,47.46898790173847],[37.76018353588446,47.4690031196171],[37.760211,47.469008],[37.76021160869567,47.469008],[37.76257,47.469418],[37.762453,47.469009],[37.762412,47.468892],[37.762411211970075,47.468892],[37.76217,47.468206],[37.761962,47.467657],[37.760096,47.467331045142295],[37.760096,47.467331],[37.75995243721675,47.46730596744316]]]}},{"type":"Feature","properties":{"cadnum":"1424880005:03:000:0589"},"geometry":{"type":"Polygon","coordinates":[[[37.75523,47.466844],[37.75523,47.466892],[37.75528,47.467542],[37.755324,47.468037],[37.755289,47.468176],[37.755257,47.468234],[37.755014,47.468298],[37.754602,47.468298],[37.75448,47.468298],[37.754431,47.468283],[37.754431,47.468283125],[37.754368,47.468264],[37.753999,47.468231],[37.753555,47.468188],[37.753348,47.468204],[37.753043,47.468267],[37.751448,47.46875],[37.752248813953464,47.468892],[37.752247,47.468892],[37.752625857138625,47.468958857142106],[37.752903,47.469008],[37.752904333333355,47.469008],[37.753488,47.469111],[37.754431,47.46927522082585],[37.754431,47.469276],[37.756978,47.469718],[37.757245324455205,47.469008],[37.757246,47.469008],[37.757889,47.467305],[37.75523,47.466844]]]}}]}