{"type":"FeatureCollection","features":[{"type":"Feature","properties":{"cadnum":"1424555400:02:000:0079"},"geometry":{"type":"Polygon","coordinates":[[[37.980514,47.807335],[37.97965,47.807598],[37.97965,47.807598168042745],[37.975704,47.808795],[37.974157,47.809329],[37.974157,47.809329205442175],[37.97392809090909,47.809408],[37.973928,47.809408],[37.97390500000016,47.80941594829926],[37.973594,47.809523],[37.97359522440946,47.809523],[37.973193,47.809662],[37.972591,47.810223],[37.970524,47.811516],[37.971231534787734,47.813097],[37.971231,47.813097],[37.971792,47.814346],[37.972317,47.814042],[37.973099,47.813589],[37.973818,47.813097],[37.973817931034475,47.813097],[37.973862,47.813067],[37.974329,47.812618],[37.974329,47.812617370370376],[37.974967,47.812003],[37.97596,47.811465],[37.976912,47.810784],[37.978889,47.811164],[37.97965,47.81086935641026],[37.97965,47.81087],[37.979669,47.810862],[37.979822,47.810841],[37.979822,47.81083993269231],[37.980501,47.810742],[37.982706,47.810735],[37.98417,47.810693],[37.985136,47.810328],[37.985144,47.81032183240223],[37.985144,47.810323],[37.986237,47.809477],[37.988158,47.809477],[37.989276,47.809408],[37.989272939024445,47.809408],[37.990637,47.80932358264151],[37.990637,47.809324],[37.991078,47.809296],[37.992843,47.809146],[37.995376,47.808449],[37.995894,47.808322],[37.99613,47.8082925],[37.99613,47.808293],[37.996563,47.808238],[37.997573,47.808313],[37.996154879314034,47.807002982762036],[37.994765,47.805718],[37.99476365013286,47.805718],[37.992449,47.803576],[37.991478,47.804557],[37.990808,47.80471075743163],[37.990808,47.80471],[37.98639575800711,47.805718],[37.986392,47.805718],[37.98577,47.805861],[37.985144,47.805994],[37.985144,47.80599423275862],[37.983111,47.806425],[37.980514,47.807335]]]}},{"type":"Feature","properties":{"cadnum":"1424555400:02:000:0145"},"geometry":{"type":"Polygon","coordinates":[[[38.002877,47.802889],[38.003116,47.802886],[38.002819,47.802496],[38.002756,47.802514],[38.002747,47.802503],[38.002739,47.802485],[38.002609,47.802324],[38.002532,47.802292],[38.002437,47.802288],[38.001795,47.80239210810811],[38.001795,47.802392],[38.001085,47.802505],[38.001063,47.802509],[38.000932,47.80253],[38.001261,47.802684],[38.001278,47.80269],[38.001588,47.802762],[38.001623,47.802769608695655],[38.001623,47.80277],[38.0016953333333,47.802785333333325],[38.001795,47.802807],[38.001795,47.802806460829494],[38.00184,47.802816],[38.002056,47.802847],[38.002514,47.802898],[38.002877,47.802889]]]}},{"type":"Feature","properties":{"cadnum":"1424555400:02:000:0081"},"geometry":{"type":"Polygon","coordinates":[[[38.00472,47.795889],[38.006031,47.79566],[38.00573,47.795612],[38.005542,47.795404],[38.005182,47.79547],[38.004175,47.795663],[38.004127,47.795552],[38.00211,47.795971],[38.001795,47.79597229363449],[38.001795,47.795972],[38.001611,47.795973],[38.001144,47.796046],[38.001152,47.79608],[38.000422,47.796209],[37.9995,47.796348],[37.999393,47.796369],[37.999563,47.796927],[37.999401,47.79706],[37.998820220229554,47.798339],[37.99882,47.798339],[37.99879099888247,47.79840335159215],[37.998768,47.798454],[37.99876817333333,47.798454],[37.998651,47.798714],[37.999567,47.801103],[37.999496,47.801432],[37.999567,47.801809],[37.9996806119403,47.802029],[37.99968,47.802029],[37.999846,47.802349],[38.000403,47.802732],[38.001152,47.802988],[38.001623,47.80306491290824],[38.001623,47.803065],[38.001664109414484,47.80307162595415],[38.001795,47.803093],[38.001795,47.80309272270364],[38.0022,47.803158],[38.00193,47.80386],[38.002699,47.80405],[38.005743,47.805233],[38.007116,47.805035714563104],[38.007116,47.805036],[38.007693,47.804953],[38.00789,47.804759],[38.007967,47.804681],[38.008785,47.805266],[38.00940065753522,47.805818438357036],[38.009498,47.805906],[38.009723,47.806072],[38.010379,47.806711],[38.010779,47.807133],[38.011205,47.807498],[38.012332,47.808461],[38.012609,47.80831663919822],[38.012609,47.808317],[38.01272648881739,47.808255408945946],[38.012781,47.808227],[38.012781,47.80822683259912],[38.012836,47.808198],[38.012697,47.807836],[38.012292,47.807914],[38.012148,47.807668],[38.011991,47.807713],[38.011672,47.807399],[38.011322,47.806955],[38.011083,47.806615],[38.010913,47.80619],[38.010603,47.806253],[38.010335,47.805718],[38.0103346,47.805718],[38.01032,47.805689],[38.009418,47.803372],[38.011492,47.803015],[38.012609,47.80284775329713],[38.012609,47.802848],[38.0126689130433,47.802838782608724],[38.012781,47.802822],[38.012781,47.80282153846154],[38.012934,47.802798],[38.012988,47.802784],[38.012926,47.802639],[38.012817,47.802663],[38.012609,47.8027],[38.012609,47.80270025407166],[38.011246,47.80294],[38.011048,47.802976],[38.009871,47.803191],[38.009871,47.803178],[38.00975,47.8032],[38.009678,47.803001],[38.009777,47.802979],[38.009597,47.802409],[38.011062,47.802134],[38.009835,47.799094],[38.00953,47.798339],[38.0095296879845,47.798339],[38.008537,47.795874],[38.008515,47.795823],[38.008447,47.795672],[38.008357,47.795445],[38.008349,47.795422],[38.007288,47.79560786861314],[38.007288,47.795607],[38.004777,47.796046],[38.00472,47.795889]],[[38.002829,47.802503],[38.003116,47.802895],[38.00246,47.802898],[38.001854,47.802825],[38.001623,47.802774],[38.001623,47.802774017892645],[38.001292,47.802699],[38.000946,47.802536],[38.001795,47.802402],[38.001795,47.8024017098121],[38.002581,47.802277],[38.00276,47.802521],[38.002829,47.802503]],[[38.008605,47.796994],[38.008565,47.797072],[38.008439,47.797044],[38.008479,47.796963],[38.008605,47.796994]],[[38.008339,47.796758],[38.008299,47.796836],[38.008178,47.796809],[38.008213,47.796731],[38.008339,47.796758]],[[38.008335,47.796442],[38.008326,47.796516],[38.008213,47.796514],[38.008219,47.796438],[38.008335,47.796442]],[[38.008156,47.795563],[38.008106,47.795593],[38.00806,47.795557],[38.00811,47.795527],[38.008156,47.795563]],[[38.007617,47.796363],[38.007544,47.796366],[38.007544,47.796315],[38.007617,47.796315],[38.007617,47.796363]],[[38.007584,47.79623],[38.007504,47.796234],[38.0075,47.796179],[38.00758,47.796176],[38.007584,47.79623]],[[38.007549,47.796089],[38.007473,47.7961],[38.00746,47.796049],[38.007531,47.79604],[38.007549,47.796089]],[[38.007517,47.795937],[38.00746,47.795971],[38.00741,47.795932],[38.007468,47.795898],[38.007517,47.795937]]]}},{"type":"Feature","properties":{"cadnum":"1424555400:01:001:0054"},"geometry":{"type":"Polygon","coordinates":[[[38.023117,47.807303],[38.023211,47.807281],[38.02318,47.807224],[38.02309,47.807245],[38.023117,47.807303]]]}},{"type":"Feature","properties":{"cadnum":"1424555400:01:001:0011"},"geometry":{"type":"Polygon","coordinates":[[[38.02097,47.80765],[38.021262,47.807589],[38.021167,47.807415],[38.020876,47.80748],[38.02097,47.80765]]]}},{"type":"Feature","properties":{"cadnum":"1424555400:01:001:0008"},"geometry":{"type":"Polygon","coordinates":[[[38.018198,47.805628],[38.018253,47.805619],[38.018203,47.805546],[38.018154,47.805559],[38.018087,47.805577],[38.018103,47.805605981132075],[38.018103,47.805607],[38.01814,47.805673],[38.01793989361703,47.805718],[38.017939,47.805718],[38.017722,47.805767],[38.017755,47.805834],[38.01775636531365,47.805834],[38.017861,47.806038],[38.018103,47.80598729523809],[38.018103,47.805989],[38.018176,47.805972],[38.018184,47.80599],[38.018274,47.805972],[38.018274,47.805970598802396],[38.018351,47.805954],[38.018274,47.80579174999999],[38.018274,47.805791],[38.018198,47.805628]]]}},{"type":"Feature","properties":{"cadnum":"1424555400:01:001:0013"},"geometry":{"type":"Polygon","coordinates":[[[38.023763,47.807598],[38.023853,47.807577],[38.023817,47.807511],[38.023727,47.807532],[38.023678,47.807544],[38.02371,47.80761],[38.023763,47.807598]]]}},{"type":"Feature","properties":{"cadnum":"1424555400:01:001:0078"},"geometry":{"type":"Polygon","coordinates":[[[38.019007,47.808211],[38.019083,47.808193],[38.019083,47.808186],[38.019066,47.808153],[38.019062,47.80815],[38.018989,47.808168],[38.019007,47.808211]]]}},{"type":"Feature","properties":{"cadnum":"1424555400:01:001:0012"},"geometry":{"type":"Polygon","coordinates":[[[38.021486,47.807451],[38.021545,47.807435],[38.021616,47.80742],[38.021689,47.807402],[38.021657,47.807344],[38.021616,47.807266],[38.021526,47.807288],[38.021473,47.807299],[38.021419,47.807312],[38.021455,47.807381],[38.021486,47.807451]]]}},{"type":"Feature","properties":{"cadnum":"1424555400:01:001:0009"},"geometry":{"type":"Polygon","coordinates":[[[38.019249,47.808569],[38.019469,47.808515],[38.019509,47.808485],[38.019515,47.808464],[38.019572,47.808449],[38.019654,47.808431],[38.019609,47.80834],[38.019568,47.808267],[38.019546,47.808225],[38.019613,47.808211],[38.019578,47.80815],[38.019375,47.808171],[38.019088,47.808247],[38.019249,47.808569]]]}},{"type":"Feature","properties":{"cadnum":"1424555400:01:000:0042"},"geometry":{"type":"Polygon","coordinates":[[[38.021846,47.806449],[38.021899,47.806436],[38.021872,47.806391],[38.021819,47.806404],[38.021846,47.806449]]]}},{"type":"Feature","properties":{"cadnum":"1424555400:01:001:0053"},"geometry":{"type":"Polygon","coordinates":[[[38.019744,47.808687],[38.019834,47.808663],[38.019802,47.808605],[38.019712,47.80863],[38.019744,47.808687]]]}},{"type":"Feature","properties":{"cadnum":"1424555400:01:001:0056"},"geometry":{"type":"Polygon","coordinates":[[[38.02083,47.802775],[38.020911,47.802756],[38.020884,47.802695],[38.0208,47.802714],[38.02083,47.802775]]]}},{"type":"Feature","properties":{"cadnum":"1424555400:01:002:0056"},"geometry":{"type":"Polygon","coordinates":[[[38.023813,47.80323],[38.02375,47.8031],[38.023714,47.803031],[38.023341,47.803115],[38.02344,47.803317],[38.023596,47.80328026605505],[38.023596,47.803281],[38.023813,47.80323]]]}},{"type":"Feature","properties":{"cadnum":"1424555400:01:001:0058"},"geometry":{"type":"Polygon","coordinates":[[[38.022919,47.804171],[38.022995,47.80415],[38.02296,47.804093],[38.022951,47.804095],[38.022892,47.804111],[38.022884,47.804114],[38.022919,47.804171]]]}},{"type":"Feature","properties":{"cadnum":"1424555400:01:002:0115"},"geometry":{"type":"Polygon","coordinates":[[[38.023071,47.802608],[38.023341,47.802545],[38.02313,47.802125],[38.022865,47.802186],[38.023071,47.802608]]]}},{"type":"Feature","properties":{"cadnum":"1424555400:01:001:0006"},"geometry":{"type":"Polygon","coordinates":[[[38.019151,47.802916],[38.019398,47.802858],[38.019425,47.802853],[38.019303,47.802617],[38.019226,47.802469],[38.018949,47.802536],[38.019029,47.80269],[38.019039,47.802702],[38.019151,47.802916]]]}},{"type":"Feature","properties":{"cadnum":"1424555400:01:002:0091"},"geometry":{"type":"Polygon","coordinates":[[[38.023953,47.80304],[38.02415,47.802995],[38.024073,47.802856],[38.024056,47.802822],[38.02405,47.802813],[38.023817,47.802871],[38.023674,47.802904],[38.023737,47.803015],[38.023767,47.803082],[38.023953,47.80304]]]}},{"type":"Feature","properties":{"cadnum":"1424555400:01:001:0081"},"geometry":{"type":"Polygon","coordinates":[[[38.022272,47.804059],[38.022385,47.804032],[38.022429,47.804021],[38.022542,47.803993],[38.022519,47.803951],[38.022456,47.803839],[38.022367,47.803674],[38.022331,47.803683],[38.022249,47.803701],[38.022209,47.803712],[38.022129,47.80373],[38.022098,47.803739],[38.022188,47.803905],[38.022249,47.804017],[38.022272,47.804059]]]}},{"type":"Feature","properties":{"cadnum":"1424555400:01:001:0103"},"geometry":{"type":"Polygon","coordinates":[[[38.019731,47.805501],[38.020085,47.80542],[38.019972,47.805206],[38.019951,47.805157],[38.019874,47.805013],[38.019838,47.80494],[38.019771,47.804958],[38.019488,47.805025],[38.019505,47.805067],[38.019523,47.805101],[38.019685,47.80542],[38.019695,47.805438],[38.019731,47.805501]]]}},{"type":"Feature","properties":{"cadnum":"1424555400:01:001:0007"},"geometry":{"type":"Polygon","coordinates":[[[38.018392,47.804865],[38.018827,47.804759],[38.01884,47.804756],[38.018989,47.80472],[38.018957,47.804663],[38.018957,47.80466],[38.018886,47.804674],[38.0188,47.804503],[38.018769,47.804443],[38.018337,47.804542],[38.018302,47.804551],[38.018351,47.804681],[38.018364,47.80481],[38.018364,47.804817],[38.018392,47.804865]]]}},{"type":"Feature","properties":{"cadnum":"1424555400:01:001:0017"},"geometry":{"type":"Polygon","coordinates":[[[38.024092,47.80583],[38.023989,47.805649],[38.023947,47.805658],[38.023912,47.805571],[38.023643,47.805637],[38.02368327624309,47.805718],[38.023683,47.805718],[38.023733,47.805818],[38.023739,47.805834],[38.02374086885246,47.805834],[38.023763,47.805879],[38.023781,47.805912],[38.023979,47.805861],[38.024016,47.805852],[38.02405,47.805843],[38.024079076923094,47.805834],[38.02408,47.805834],[38.024092,47.80583]]]}},{"type":"Feature","properties":{"cadnum":"1424555400:01:002:0125"},"geometry":{"type":"Polygon","coordinates":[[[38.023377,47.802069],[38.02313,47.802125],[38.023346,47.802554],[38.023484,47.802521],[38.023593,47.802496],[38.02341493911007,47.802144],[38.023415,47.802144],[38.023377,47.802069]]]}},{"type":"Feature","properties":{"cadnum":"1424555400:02:000:0139"},"geometry":{"type":"Polygon","coordinates":[[[38.018103,47.801637],[38.018103,47.80163703448276],[38.017956,47.80161],[38.017911,47.801624],[38.017871,47.801637],[38.01784,47.801592],[38.017737,47.801574],[38.017264,47.801655],[38.017228,47.801679],[38.017341,47.801926],[38.01739675229358,47.802029],[38.017396,47.802029],[38.017597,47.802397],[38.017601,47.802404],[38.017834,47.802834],[38.018103,47.80276063636364],[38.018103,47.802761],[38.018311,47.802704],[38.018343,47.802695],[38.018571,47.802644],[38.018724,47.802608],[38.018607,47.802385],[38.018593,47.802364],[38.018414,47.802029],[38.01841366666667,47.802029],[38.018243,47.801709],[38.018217,47.801658],[38.018103,47.801637]]]}},{"type":"Feature","properties":{"cadnum":"1424555400:01:001:0061"},"geometry":{"type":"Polygon","coordinates":[[[38.018274,47.805429],[38.018239,47.805363],[38.018123,47.80539],[38.018158,47.805459],[38.018274,47.805429]]]}},{"type":"Feature","properties":{"cadnum":"1424555400:01:000:0119"},"geometry":{"type":"Polygon","coordinates":[[[38.023997,47.802822],[38.024064,47.802811],[38.023966,47.802623],[38.023767,47.80267032972973],[38.023767,47.80267],[38.023593,47.802711],[38.023664,47.802844],[38.023692,47.802901],[38.023767,47.802882],[38.023767,47.80288157377049],[38.023997,47.802822]]]}},{"type":"Feature","properties":{"cadnum":"1424555400:01:001:0055"},"geometry":{"type":"Polygon","coordinates":[[[38.021949,47.805438],[38.021958,47.805435],[38.022021,47.80542],[38.021999,47.805372],[38.021995,47.805365],[38.021918,47.805384],[38.021949,47.805438]]]}},{"type":"Feature","properties":{"cadnum":"1424555400:01:002:0050"},"geometry":{"type":"Polygon","coordinates":[[[38.02265,47.80462],[38.023305,47.804452],[38.023211,47.804262],[38.022546,47.804428],[38.02265,47.80462]]]}},{"type":"Feature","properties":{"cadnum":"1424555400:01:002:0075"},"geometry":{"type":"Polygon","coordinates":[[[38.022919,47.805227],[38.023171,47.805166],[38.023193,47.8052],[38.023517,47.805119],[38.023381,47.80488],[38.022762,47.805013],[38.022847,47.805188],[38.022892,47.805175],[38.022919,47.805227]]]}},{"type":"Feature","properties":{"cadnum":"1424555400:01:000:0026"},"geometry":{"type":"Polygon","coordinates":[[[38.024096,47.803692],[38.023934,47.803411],[38.02375067796503,47.80345927118672],[38.023553,47.803511],[38.023596,47.80359053594771],[38.023596,47.803591],[38.023706,47.803794],[38.024096,47.803692]]]}},{"type":"Feature","properties":{"cadnum":"1424555400:01:002:0097"},"geometry":{"type":"Polygon","coordinates":[[[38.022461,47.804455],[38.023117,47.804276],[38.023014,47.804081],[38.02296,47.804095],[38.022995,47.80415],[38.022919,47.804171],[38.022884,47.804117],[38.022353,47.804262],[38.022461,47.804455]]]}},{"type":"Feature","properties":{"cadnum":"1424555400:01:001:0066"},"geometry":{"type":"Polygon","coordinates":[[[38.022438,47.803085],[38.022591,47.803052],[38.02256,47.802988],[38.022408,47.803024],[38.022438,47.803085]]]}},{"type":"Feature","properties":{"cadnum":"1424555400:01:001:0076"},"geometry":{"type":"Polygon","coordinates":[[[38.019599,47.804292],[38.019658,47.804274],[38.019636,47.804238],[38.019578,47.804256],[38.019599,47.804292]]]}},{"type":"Feature","properties":{"cadnum":"1424555400:02:000:0225"},"geometry":{"type":"Polygon","coordinates":[[[38.027626,47.818743],[38.028134,47.819072],[38.028498,47.819374],[38.02914708963687,47.820481002802865],[38.029216,47.820599],[38.02927,47.821392],[38.029247,47.821804],[38.028929,47.822513],[38.028516,47.823095],[38.027871,47.824278],[38.027871708333336,47.824278],[38.027869,47.824283],[38.027249,47.825098],[38.025834,47.8273],[38.025575873873876,47.827851],[38.025575,47.827851],[38.025434,47.828152],[38.023747271648276,47.82942484669414],[38.023278,47.829778],[38.022771,47.830034],[38.022834,47.830037],[38.023417,47.830061],[38.023436,47.830061],[38.023596,47.82997495770393],[38.023596,47.829975],[38.02360774057197,47.82996864404287],[38.023767,47.829883],[38.023767,47.82988242625899],[38.025264,47.829072],[38.026194,47.828041],[38.026312,47.827851],[38.02631076788375,47.827851],[38.027914,47.825282],[38.028593,47.824163],[38.02859290939045,47.824163],[38.029089,47.82334693766938],[38.029089,47.823347],[38.0291190769219,47.8232974615404],[38.029261,47.823064],[38.029261,47.823063705882355],[38.029769,47.822227],[38.02974845579008,47.82059],[38.029749,47.82059],[38.029746,47.820306],[38.029261,47.81965785692542],[38.029261,47.819657],[38.028853,47.819112],[38.028322,47.818598],[38.024945,47.817275],[38.024842,47.817395],[38.023643,47.816928],[38.023557,47.817027],[38.023767,47.817104],[38.023767,47.81710374789916],[38.023953,47.817172],[38.027626,47.818743]]]}},{"type":"Feature","properties":{"cadnum":"1424555400:02:000:0159"},"geometry":{"type":"Polygon","coordinates":[[[38.007823,47.794154],[38.00824,47.794013],[38.00824,47.793952],[38.008246,47.793888],[38.007989,47.793807],[38.007806,47.793807],[38.007473,47.79385],[38.007167,47.793934],[38.007018,47.793976],[38.006632,47.794085],[38.006332,47.793828],[38.006188,47.793852],[38.006183,47.793964],[38.006431,47.794139],[38.005946,47.794534],[38.005007,47.794649],[38.005043,47.794754],[38.005046,47.794764],[38.00504630882353,47.794764],[38.005133,47.795026],[38.004997,47.795056],[38.005182,47.79547],[38.005542,47.795404],[38.00559,47.795304],[38.005942,47.795264],[38.006498,47.795214],[38.007047,47.795065],[38.007068,47.795047],[38.007087,47.794942],[38.007116,47.79495298058252],[38.007116,47.794953],[38.00719,47.794981],[38.007288,47.794925],[38.007288,47.79492401926445],[38.007761,47.794649],[38.007760575187966,47.794649],[38.00802,47.794498],[38.007823,47.794154]]]}},{"type":"Feature","properties":{"cadnum":"1424555400:02:000:0235"},"geometry":{"type":"Polygon","coordinates":[[[38.043652,47.772404],[38.042799,47.772397],[38.04281915950921,47.772503],[38.042818,47.772503],[38.04283,47.77256],[38.043185,47.772669],[38.043602,47.772675],[38.043765,47.772603],[38.04574,47.772682],[38.04574,47.772681669800235],[38.046419,47.772708],[38.046661,47.772717],[38.047618,47.772756],[38.04721,47.772572],[38.046891,47.77256],[38.046661,47.772554],[38.045568,47.772514],[38.045568,47.77251460330579],[38.045256,47.772503],[38.04524950000004,47.772503],[38.043778,47.772449],[38.043652,47.772404]]]}},{"type":"Feature","properties":{"cadnum":"1424555400:02:000:0236"},"geometry":{"type":"Polygon","coordinates":[[[38.048233,47.773339],[38.048602,47.773209],[38.048593,47.773197],[38.04805,47.77295],[38.04805,47.772955],[38.047996,47.772986],[38.048054,47.773055],[38.048099,47.773127],[38.04813,47.773188],[38.048157,47.773243],[38.048113,47.773294],[38.048233,47.773339]]]}},{"type":"Feature","properties":{"cadnum":"1424555400:02:000:0143"},"geometry":{"type":"Polygon","coordinates":[[[38.009288725352114,47.805718],[38.008785,47.805266],[38.007967,47.804681],[38.00789,47.804759],[38.008848,47.80542],[38.009229,47.805834],[38.00922993333334,47.805834],[38.009925,47.806588],[38.011766,47.808639],[38.012569,47.809523],[38.01256942528735,47.809523],[38.012609,47.80956658227848],[38.012609,47.809567],[38.014071,47.811176],[38.014219,47.811384],[38.014618,47.811761],[38.014817,47.811887],[38.015045,47.812147],[38.014897,47.812262],[38.015023,47.812343],[38.015207,47.812283],[38.015930750269106,47.813097],[38.01593,47.813097],[38.01600628855736,47.8131819577116],[38.016033,47.813212],[38.01603326530612,47.813212],[38.016106,47.813293],[38.016473,47.813664],[38.016959,47.814071],[38.017368,47.814379],[38.017911,47.814693],[38.018274,47.814879],[38.018274,47.814878332142854],[38.018383,47.814934],[38.022173,47.816517],[38.022902242187506,47.816786],[38.022901,47.816786],[38.023206876834465,47.816898372434615],[38.023214,47.816901],[38.02321402904564,47.816901],[38.023557,47.817027],[38.023643,47.816928],[38.02341875449106,47.81683489221559],[38.022811,47.816581],[38.021643,47.816123],[38.020211,47.815562],[38.019389,47.815238],[38.01845,47.814862],[38.018103,47.814679],[38.018103,47.814679828978626],[38.017853,47.814548],[38.017488,47.814328],[38.016968,47.813942],[38.016662,47.813689],[38.016307,47.813384],[38.01637,47.813347],[38.01748,47.814123],[38.017911,47.814367],[38.018274,47.81453],[38.018274,47.81452923119469],[38.019007,47.814856],[38.018999,47.814829],[38.019066,47.814744],[38.018274,47.81444134579439],[38.018274,47.814441],[38.018091,47.81437],[38.018014,47.814328],[38.018014,47.814286],[38.017767,47.814134],[38.017425,47.813921],[38.017322,47.813852],[38.016819,47.813399],[38.016662,47.813314],[38.016559,47.813351],[38.01641124409449,47.813212],[38.016412,47.813212],[38.015957,47.812783],[38.015616,47.812337],[38.015423,47.812066],[38.015207,47.811822],[38.014582,47.811122],[38.014521,47.811149],[38.014458,47.811173],[38.013878,47.810416],[38.013603,47.809982],[38.013315925087106,47.809523],[38.013316,47.809523],[38.013204,47.809342],[38.01276055660384,47.80886800000007],[38.012584,47.808678],[38.012561,47.808657],[38.011205,47.807498],[38.010779,47.807133],[38.010379,47.806711],[38.009723,47.806072],[38.009498,47.805906],[38.00941795744681,47.805834],[38.009418,47.805834],[38.00940065753522,47.805818438357036],[38.009289,47.805718],[38.009288725352114,47.805718]]]}},{"type":"Feature","properties":{"cadnum":"1424555400:02:000:0234"},"geometry":{"type":"Polygon","coordinates":[[[38.026333,47.812998],[38.026306,47.812967],[38.024555,47.812276],[38.023767,47.813097],[38.024058,47.813212],[38.02405910801394,47.813212],[38.024496,47.813384],[38.024586,47.81342],[38.024612,47.813432],[38.024679,47.813456],[38.025071,47.81361],[38.025142,47.81364],[38.025937,47.813957],[38.026104,47.813764],[38.0264,47.813426],[38.026366176291795,47.813212],[38.026367,47.813212],[38.026333,47.812998]]]}},{"type":"Feature","properties":{"cadnum":"1424555400:02:000:0087"},"geometry":{"type":"Polygon","coordinates":[[[38.023767,47.81662133333333],[38.023813,47.816629],[38.023831,47.816611],[38.023885,47.816557],[38.023934,47.816506],[38.024136,47.8163],[38.023961,47.816228],[38.024339,47.815791],[38.023596,47.815502],[38.023596,47.815502535849056],[38.019792,47.814024],[38.019685,47.814129],[38.019645,47.814171],[38.019456,47.814355],[38.019066,47.814741],[38.018993,47.814825],[38.019003,47.814853],[38.019609,47.815052],[38.023596,47.81658477559642],[38.023596,47.816585],[38.023633,47.816599],[38.023767,47.816622],[38.023767,47.81662133333333]]]}},{"type":"Feature","properties":{"cadnum":"1424555400:02:000:0080"},"geometry":{"type":"Polygon","coordinates":[[[38.021113,47.812292],[38.021221,47.812334],[38.021239,47.81234],[38.023202685779815,47.813097],[38.023202,47.813097],[38.023767,47.813315],[38.023767,47.81331490197021],[38.025677,47.814051],[38.025574,47.814141],[38.025115,47.814668],[38.024339,47.815791],[38.023961,47.816228],[38.024136,47.8163],[38.023934,47.816506],[38.023885,47.816557],[38.023831,47.816611],[38.023813,47.816629],[38.023633,47.816599],[38.019609,47.815052],[38.019007,47.814856],[38.018103,47.814453],[38.018103,47.81445321487603],[38.017911,47.814367],[38.01748,47.814123],[38.01637,47.813347],[38.016307,47.813384],[38.016662,47.813689],[38.016968,47.813942],[38.017488,47.814328],[38.017853,47.814548],[38.018274,47.81477],[38.018274,47.814769181556194],[38.01845,47.814862],[38.019389,47.815238],[38.020211,47.815562],[38.021643,47.816123],[38.022811,47.816581],[38.02330171875,47.816786],[38.023301,47.816786],[38.02341875449059,47.81683489221539],[38.023577,47.816901],[38.023577971831,47.816901],[38.023596,47.81690848538011],[38.023596,47.816909],[38.023643,47.816928],[38.023767,47.816977],[38.023767,47.81697629691409],[38.024842,47.817395],[38.024945,47.817275],[38.028322,47.818598],[38.028215,47.818499],[38.028754,47.81814],[38.027797,47.817416],[38.027802,47.817142],[38.027519,47.816864],[38.027469,47.816569],[38.028987,47.814865],[38.027402,47.814268],[38.027586,47.81415],[38.027838,47.81389],[38.027964,47.8137],[38.027878,47.813523],[38.027639,47.813381],[38.027253,47.813327],[38.027029,47.813414],[38.026832,47.813541],[38.026387,47.813435],[38.025937,47.813957],[38.025825,47.813917],[38.025717,47.814017],[38.023731382976564,47.813251212765124],[38.02363008333333,47.813212],[38.023631,47.813212],[38.021194,47.812271],[38.021113,47.812292]]]}},{"type":"Feature","properties":{"cadnum":"1424555400:01:001:0015"},"geometry":{"type":"Polygon","coordinates":[[[38.028314,47.810292],[38.028358,47.81028],[38.02853,47.810241],[38.028614,47.810223],[38.028687,47.810208],[38.028668,47.810168],[38.028601,47.810038],[38.028524,47.809884],[38.028197,47.809951],[38.028228,47.810014],[38.028205,47.810069],[38.028224,47.810108],[38.028241,47.810145],[38.028314,47.810292]]]}},{"type":"Feature","properties":{"cadnum":"1424555400:02:000:0233"},"geometry":{"type":"Polygon","coordinates":[[[38.012584,47.805562],[38.012567,47.805564],[38.012355,47.805589],[38.012305,47.805598],[38.012188,47.805622],[38.012171,47.805625],[38.012099,47.805463],[38.012368,47.805411],[38.012391,47.805405],[38.012387,47.80539],[38.011794,47.803902],[38.011816,47.803896],[38.011483,47.803006],[38.011012,47.803088],[38.011048,47.803185],[38.010989,47.803194],[38.010953,47.8031],[38.009418,47.803368],[38.009898,47.804609],[38.01032,47.805689],[38.010393,47.805834],[38.010393108411215,47.805834],[38.010603,47.806253],[38.010913,47.80619],[38.011079,47.806612],[38.011318,47.806955],[38.011421,47.807082],[38.011592,47.807028],[38.011672,47.807143],[38.011511,47.807194],[38.011672,47.807396],[38.011991,47.80771],[38.012112,47.807677],[38.012215,47.807849],[38.012261,47.807921],[38.012697,47.807836],[38.012781,47.807819],[38.012781,47.807818211764705],[38.013037,47.807764],[38.013271,47.807722],[38.012957,47.806943],[38.012939,47.806892],[38.012894,47.806787],[38.013033,47.806769],[38.012746,47.806056],[38.012781,47.80605],[38.012781,47.806049],[38.012791,47.806047],[38.012733,47.805912],[38.012651,47.805718],[38.01265,47.805718],[38.01264995588235,47.805718],[38.012584,47.805562]]]}},{"type":"Feature","properties":{"cadnum":"1424555400:02:000:0086"},"geometry":{"type":"Polygon","coordinates":[[[38.033478,47.79448],[38.032498,47.794764],[38.03249877292576,47.794764],[38.031314,47.795107],[38.031237,47.795125],[38.031323,47.795271],[38.031449,47.795325],[38.031813,47.796031],[38.031781,47.79604],[38.032033,47.796456],[38.033151,47.796122],[38.034436,47.795738],[38.033693649219465,47.794764],[38.033694,47.794764],[38.033478,47.79448]]]}},{"type":"Feature","properties":{"cadnum":"1424555400:02:000:0125"},"geometry":{"type":"Polygon","coordinates":[[[38.008447,47.795672],[38.008919,47.795593],[38.00979,47.795431],[38.009764,47.795358],[38.009664,47.795331],[38.009508,47.795313],[38.009399,47.795307],[38.009341,47.79531],[38.009081,47.795325],[38.008771,47.79538],[38.008681,47.795394],[38.008357,47.795445],[38.008447,47.795672]]]}},{"type":"Feature","properties":{"cadnum":"1424555400:02:000:0077"},"geometry":{"type":"Polygon","coordinates":[[[38.010733,47.797035],[38.010257,47.795802],[38.009951,47.795515],[38.008793,47.795762],[38.008771,47.795714],[38.008569,47.79576],[38.008592,47.795807],[38.008515,47.795823],[38.008537,47.795874],[38.00993,47.795572],[38.010186,47.795823],[38.01063,47.796952],[38.010554,47.796963],[38.010599,47.797084],[38.01067,47.797075],[38.011083,47.798083],[38.010993,47.798101],[38.011043,47.798222],[38.011138,47.798209],[38.01118946938776,47.798339],[38.011189,47.798339],[38.011546,47.799238],[38.011479,47.799253],[38.011529,47.799374],[38.011596,47.799359],[38.011995,47.800379],[38.011924,47.800394],[38.011978,47.800515],[38.012045,47.800506],[38.012215,47.80091],[38.012377,47.801523],[38.012278,47.801537],[38.012324,47.801658],[38.012395,47.801649],[38.012485,47.801941],[38.012528349753694,47.802029],[38.012528,47.802029],[38.012551666666496,47.80207633333299],[38.012585,47.802144],[38.0125855,47.802144],[38.012609,47.80219099999999],[38.012609,47.802191],[38.01260900000086,47.80219100000171],[38.012781,47.802535],[38.012781,47.80253306741572],[38.012787,47.802545],[38.012854,47.802533],[38.01268200731265,47.802181292504635],[38.012608,47.802029],[38.01260784162896,47.802029],[38.012557,47.801923],[38.012454,47.801606],[38.01245,47.801541],[38.012284,47.800897],[38.012108,47.800463],[38.011659,47.799316],[38.01131402354145,47.798454],[38.011315,47.798454],[38.0112,47.798164],[38.010733,47.797035]]]}},{"type":"Feature","properties":{"cadnum":"1424555400:02:000:0074"},"geometry":{"type":"Polygon","coordinates":[[[38.009498,47.795134],[38.010226,47.795389],[38.011133,47.79528],[38.012609,47.79598844417475],[38.012609,47.795989],[38.014704,47.796994],[38.016515,47.797283],[38.018274,47.797204],[38.018274,47.79720321804511],[38.023157,47.796981],[38.023167,47.797207],[38.023171,47.797259],[38.023171,47.797289],[38.02358,47.797292],[38.023561,47.797377],[38.023643,47.797471],[38.023767,47.797598],[38.023767,47.79759654037267],[38.023804,47.797634],[38.023907,47.797648],[38.024426,47.798454],[38.02442609451659,47.798454],[38.025245,47.799725],[38.026446,47.799978],[38.02644,47.799857],[38.025493,47.799654],[38.02473102281369,47.798454],[38.024732,47.798454],[38.024217,47.797643],[38.024222,47.79744],[38.024576,47.79741],[38.024541,47.796728],[38.026417,47.796707],[38.026417,47.796641],[38.024199,47.796662],[38.023596,47.796685],[38.023596,47.79668548224568],[38.021683,47.796758],[38.019083,47.796825],[38.018274,47.79685306734694],[38.018274,47.796853],[38.017075,47.796894],[38.016375,47.796873],[38.015903,47.796816],[38.015211,47.796619],[38.012609,47.795511],[38.012609,47.795511671497586],[38.011125,47.794879],[38.009498,47.795134]]]}},{"type":"Feature","properties":{"cadnum":"1424555400:02:000:0123"},"geometry":{"type":"Polygon","coordinates":[[[38.012781,47.800908560747665],[38.012823,47.801022],[38.012831,47.801049],[38.012854,47.8011],[38.012854,47.801109],[38.012858,47.801118],[38.012876,47.801112],[38.013572,47.800985],[38.013725,47.801369],[38.013985,47.801315],[38.016066,47.800928],[38.01606,47.800915],[38.017507,47.80066],[38.017322,47.800016],[38.015324,47.799824],[38.01277354545692,47.80025424242385],[38.012571,47.800288],[38.012553,47.800291],[38.012557,47.8003],[38.012561,47.800313],[38.012609,47.80044303636364],[38.012609,47.800444],[38.01272714583354,47.80076310416723],[38.012781,47.800909],[38.012781,47.800908560747665]],[[38.017484,47.800647],[38.017494,47.800644],[38.017498,47.800653],[38.017484,47.800656],[38.017484,47.800647]],[[38.016882,47.800759],[38.016892,47.800756],[38.016896,47.800765],[38.016882,47.800768],[38.016882,47.800759]],[[38.016245,47.80087],[38.016259,47.800868],[38.016259,47.800877],[38.016245,47.800879],[38.016245,47.80087]],[[38.015589,47.800988],[38.015603,47.800985],[38.015607,47.800994],[38.015593,47.800997],[38.015589,47.800988]],[[38.015005,47.801091],[38.015018,47.801087],[38.015018,47.801097],[38.01501,47.8011],[38.015005,47.801091]],[[38.014408,47.801196],[38.014421,47.801194],[38.014425,47.801203],[38.014412,47.801206],[38.014408,47.801196]],[[38.013733,47.801257],[38.013733,47.801266],[38.013725,47.801266],[38.01372,47.80126],[38.013733,47.801257]],[[38.0131,47.80087],[38.013123,47.800868],[38.013127,47.800883],[38.013106,47.800886],[38.0131,47.80087]],[[38.012871,47.800852],[38.01293,47.800825],[38.01297,47.800864],[38.012913,47.800892],[38.012871,47.800852]],[[38.012894,47.800267],[38.012913,47.800264],[38.012917,47.800276],[38.012898,47.800279],[38.012894,47.800267]]]}},{"type":"Feature","properties":{"cadnum":"1424555400:02:000:0148"},"geometry":{"type":"Polygon","coordinates":[[[38.017785,47.813854],[38.017687,47.813872],[38.017425,47.813924],[38.017767,47.814134],[38.018014,47.814286],[38.018014,47.814328],[38.018091,47.81437],[38.018103,47.8143746557377],[38.018103,47.814376],[38.019062,47.814744],[38.019066,47.814741],[38.019456,47.814355],[38.019501,47.814313],[38.019416,47.814297],[38.019452,47.814228],[38.019442,47.814192],[38.01942,47.814162],[38.018813,47.81377],[38.018396,47.813504],[38.01821287499871,47.81360900000074],[38.017785,47.813854]]]}},{"type":"Feature","properties":{"cadnum":"1424555400:02:000:0232"},"geometry":{"type":"Polygon","coordinates":[[[38.012171,47.805625],[38.012188,47.805622],[38.012305,47.805598],[38.012355,47.805589],[38.012567,47.805564],[38.012485,47.805387],[38.012368,47.805411],[38.012099,47.805463],[38.012171,47.805625]]]}},{"type":"Feature","properties":{"cadnum":"1424555400:02:000:0082"},"geometry":{"type":"Polygon","coordinates":[[[38.012913,47.802575],[38.01289,47.802527],[38.012854,47.802533],[38.012787,47.802545],[38.012609,47.802579],[38.012609,47.802579311195444],[38.0112,47.802844],[38.011215,47.802892],[38.012781,47.8026],[38.012781,47.80259931578947],[38.012913,47.802575]]]}},{"type":"Feature","properties":{"cadnum":"1424555400:01:001:0059"},"geometry":{"type":"Polygon","coordinates":[[[38.020655,47.809969],[38.02075,47.809948],[38.020723,47.809891],[38.020628,47.809912],[38.020655,47.809969]]]}},{"type":"Feature","properties":{"cadnum":"1424555400:01:001:0020"},"geometry":{"type":"Polygon","coordinates":[[[38.02136,47.811912],[38.021387,47.811903],[38.02145,47.811885],[38.021392,47.811815],[38.021333,47.811833],[38.021307,47.811845],[38.02136,47.811912]]]}},{"type":"Feature","properties":{"cadnum":"1424555400:01:001:0062"},"geometry":{"type":"Polygon","coordinates":[[[38.018657,47.811284],[38.018764,47.811254],[38.018729,47.811191],[38.01862,47.811221],[38.018657,47.811284]]]}},{"type":"Feature","properties":{"cadnum":"1424555400:01:001:0010"},"geometry":{"type":"Polygon","coordinates":[[[38.018186740909194,47.81043698636361],[38.018274,47.810416],[38.018274,47.81041508988764],[38.01837,47.810391],[38.018333,47.810331],[38.018311,47.810289],[38.018103,47.810341],[38.018103,47.81034156808511],[38.017804,47.810416],[38.017794,47.810391],[38.017637,47.810431],[38.017597,47.81044],[38.017777,47.810765],[38.017794,47.81076],[38.018103,47.81069133333333],[38.018103,47.810692],[38.018136,47.810684],[38.018136,47.810654],[38.018037,47.810473],[38.018103,47.81045712658228],[38.018103,47.810458],[38.018186740909194,47.81043698636361]]]}},{"type":"Feature","properties":{"cadnum":"1424555400:01:001:0046"},"geometry":{"type":"Polygon","coordinates":[[[38.020997,47.812629],[38.021159,47.812446],[38.021239,47.81234],[38.021221,47.812334],[38.021033,47.812262],[38.020983,47.812244],[38.020957,47.812244],[38.02071,47.812294],[38.020687,47.812301],[38.020674,47.812307],[38.020417,47.812355],[38.020404,47.812355],[38.0204,47.812385],[38.020647,47.812419],[38.020664,47.812503],[38.020947,47.81262],[38.020997,47.812629]]]}},{"type":"Feature","properties":{"cadnum":"1424555400:01:001:0060"},"geometry":{"type":"Polygon","coordinates":[[[38.023471,47.809797],[38.023566,47.80977],[38.023526,47.809698],[38.023431,47.809722],[38.023471,47.809797]]]}},{"type":"Feature","properties":{"cadnum":"1424555400:01:002:0111"},"geometry":{"type":"Polygon","coordinates":[[[38.023054,47.801996],[38.023324,47.801939],[38.02318,47.801688],[38.023058,47.801715],[38.022928,47.80174],[38.023054,47.801996]]]}},{"type":"Feature","properties":{"cadnum":"1424555400:01:000:0001"},"geometry":{"type":"Polygon","coordinates":[[[38.020417,47.800512],[38.020674,47.800461],[38.020547,47.800197],[38.020301,47.800246],[38.020337,47.800331],[38.020368,47.800397],[38.020417,47.800512]]]}},{"type":"Feature","properties":{"cadnum":"1424555400:01:002:0110"},"geometry":{"type":"Polygon","coordinates":[[[38.022412,47.801302],[38.022798,47.801212],[38.022704,47.80104],[38.022322,47.801118],[38.022412,47.801302]]]}},{"type":"Feature","properties":{"cadnum":"1424555400:01:002:0074"},"geometry":{"type":"Polygon","coordinates":[[[38.021163,47.800734],[38.021387,47.80068],[38.021226,47.800418],[38.021006,47.80047],[38.021163,47.800734]]]}},{"type":"Feature","properties":{"cadnum":"1424555400:01:001:0108"},"geometry":{"type":"Polygon","coordinates":[[[38.020031,47.800304],[38.02026,47.800252],[38.020138,47.79998],[38.019901,47.800029],[38.019964,47.800168],[38.019991,47.800219],[38.020031,47.800304]]]}},{"type":"Feature","properties":{"cadnum":"1424555400:01:001:0074"},"geometry":{"type":"Polygon","coordinates":[[[38.018356,47.801031],[38.018459,47.801],[38.018446,47.801018],[38.018593,47.800979],[38.018467,47.800725],[38.018221,47.800792],[38.018356,47.801031]]]}},{"type":"Feature","properties":{"cadnum":"1424555400:01:002:0089"},"geometry":{"type":"Polygon","coordinates":[[[38.020647,47.800874],[38.02088,47.800819],[38.020745,47.800548],[38.020507,47.800599],[38.020647,47.800874]]]}},{"type":"Feature","properties":{"cadnum":"1424555400:01:000:0032"},"geometry":{"type":"Polygon","coordinates":[[[38.02101,47.800481],[38.021249,47.800427],[38.021203,47.800331],[38.021176,47.800264],[38.021127,47.800159],[38.020884,47.800215],[38.02101,47.800481]]]}},{"type":"Feature","properties":{"cadnum":"1424555400:01:000:0010"},"geometry":{"type":"Polygon","coordinates":[[[38.019385,47.800765],[38.019641,47.800705],[38.019501,47.800451],[38.01924,47.800512],[38.019385,47.800765]]]}},{"type":"Feature","properties":{"cadnum":"1424555400:01:002:0068"},"geometry":{"type":"Polygon","coordinates":[[[38.022672,47.801796],[38.022928,47.80174],[38.022802,47.80148],[38.022546,47.801543],[38.022672,47.801796]]]}},{"type":"Feature","properties":{"cadnum":"1424555400:01:001:0005"},"geometry":{"type":"Polygon","coordinates":[[[38.018274,47.801547666666664],[38.01841,47.801559],[38.018423,47.801561],[38.018454,47.801552],[38.018549,47.801528],[38.018459,47.80136],[38.018433,47.801308],[38.018356,47.801166],[38.018311,47.801082],[38.018203,47.801112],[38.018198,47.801103],[38.018176,47.801058],[38.018117,47.801069],[38.018109,47.801073],[38.018073,47.801076],[38.018081,47.801097],[38.017911,47.801142],[38.018117,47.801534],[38.018194,47.801541],[38.018274,47.801548],[38.018274,47.801547666666664]]]}},{"type":"Feature","properties":{"cadnum":"1424555400:01:002:0073"},"geometry":{"type":"Polygon","coordinates":[[[38.022672,47.801796],[38.022928,47.80174],[38.022802,47.80148],[38.022546,47.801543],[38.022672,47.801796]]]}},{"type":"Feature","properties":{"cadnum":"1424555400:02:000:0083"},"geometry":{"type":"Polygon","coordinates":[[[38.023171,47.797259],[38.023167,47.797207],[38.022618,47.797295],[38.021229,47.798454],[38.02122942990654,47.798454],[38.020471,47.799088],[38.018274,47.8003655629223],[38.018274,47.800365],[38.017498,47.800816],[38.016825,47.801718],[38.015017,47.802144],[38.01501782119206,47.802144],[38.014865,47.80218],[38.013429,47.802436],[38.013433,47.802451],[38.01328,47.802478],[38.013271,47.802464],[38.013141,47.802487],[38.013167,47.80253],[38.013442,47.802487],[38.014938,47.802216],[38.015732,47.802029],[38.015730601036275,47.802029],[38.016882,47.801758],[38.017557,47.800843],[38.018103,47.80052849790795],[38.018103,47.800529],[38.02053,47.799126],[38.021465,47.798339],[38.021463620411815,47.798339],[38.022654,47.797337],[38.023171,47.797259]]]}},{"type":"Feature","properties":{"cadnum":"1424555400:01:001:0077"},"geometry":{"type":"Polygon","coordinates":[[[38.019595,47.801115],[38.019825,47.801064],[38.019672,47.800795],[38.019442,47.80085],[38.019595,47.801115]]]}},{"type":"Feature","properties":{"cadnum":"1424555400:02:000:0135"},"geometry":{"type":"Polygon","coordinates":[[[38.02327,47.800433],[38.023291,47.80043],[38.023346,47.800415],[38.023364,47.800412],[38.02309,47.799917],[38.023395,47.799803],[38.023041,47.79938],[38.022691,47.79951],[38.022775,47.799613],[38.022641,47.799664],[38.022794,47.799844],[38.022892,47.799806],[38.023008,47.799947],[38.02327,47.800433]]]}},{"type":"Feature","properties":{"cadnum":"1424555400:00:000:0001"},"geometry":{"type":"Polygon","coordinates":[[[38.019385,47.800765],[38.019641,47.800705],[38.019501,47.800451],[38.01924,47.800512],[38.019385,47.800765]]]}},{"type":"Feature","properties":{"cadnum":"1424555400:01:001:0109"},"geometry":{"type":"Polygon","coordinates":[[[38.01933,47.801169],[38.019564,47.801118],[38.019461,47.800915],[38.019406,47.800915],[38.019379,47.800859],[38.019192,47.800897],[38.019259,47.801018],[38.01929,47.801085],[38.01933,47.801169]]]}},{"type":"Feature","properties":{"cadnum":"1424555400:01:001:0071"},"geometry":{"type":"Polygon","coordinates":[[[38.018742,47.800973],[38.018926,47.800928],[38.018854,47.800807],[38.01876,47.80066],[38.018513,47.800714],[38.018661,47.800952],[38.01872,47.800934],[38.018733,47.800952],[38.018742,47.800973]]]}},{"type":"Feature","properties":{"cadnum":"1424555400:01:001:0075"},"geometry":{"type":"Polygon","coordinates":[[[38.018553,47.801365],[38.018868,47.801296],[38.018716,47.801013],[38.018563,47.801045],[38.018593,47.801064],[38.01849,47.801087],[38.018459,47.801166],[38.018553,47.801365]]]}},{"type":"Feature","properties":{"cadnum":"1424555400:01:001:0070"},"geometry":{"type":"Polygon","coordinates":[[[38.018293,47.801033],[38.018302,47.801031],[38.018378,47.801013],[38.018392,47.801009],[38.018364,47.800958],[38.018261,47.800982],[38.018293,47.801033]]]}},{"type":"Feature","properties":{"cadnum":"1424555400:01:000:0037"},"geometry":{"type":"Polygon","coordinates":[[[38.020161,47.800994],[38.020387,47.800946],[38.020341,47.800861],[38.020301,47.800795],[38.020238,47.800671],[38.020018,47.800723],[38.020161,47.800994]]]}},{"type":"Feature","properties":{"cadnum":"1424555400:01:000:0015"},"geometry":{"type":"Polygon","coordinates":[[[38.022888,47.80138],[38.02327,47.801293],[38.02318,47.801121],[38.022798,47.801212],[38.022888,47.80138]]]}},{"type":"Feature","properties":{"cadnum":"1424555400:01:000:0043"},"geometry":{"type":"Polygon","coordinates":[[[38.022721,47.801042],[38.023104,47.800952],[38.023008,47.800786],[38.022628,47.800877],[38.022721,47.801042]]]}},{"type":"Feature","properties":{"cadnum":"1424555400:01:001:0073"},"geometry":{"type":"Polygon","coordinates":[[[38.020157,47.800569],[38.020417,47.800512],[38.020301,47.800243],[38.020031,47.800304],[38.020157,47.800569]]]}},{"type":"Feature","properties":{"cadnum":"1424555400:01:000:0021"},"geometry":{"type":"Polygon","coordinates":[[[38.019133,47.800825],[38.019385,47.800765],[38.01924,47.800512],[38.018993,47.800572],[38.019047,47.800674],[38.019088,47.800741],[38.019133,47.800825]]]}},{"type":"Feature","properties":{"cadnum":"1424555400:03:000:0017"},"geometry":{"type":"Polygon","coordinates":[[[38.034858,47.815164],[38.034795,47.814802],[38.034675760766376,47.81481263636356],[38.03453,47.814825],[38.03457,47.815066],[38.034582,47.81512756521739],[38.034582,47.81513],[38.034593,47.815184],[38.034754,47.815173],[38.034754,47.815171849056604],[38.034858,47.815164]]]}},{"type":"Feature","properties":{"cadnum":"1424555400:03:000:0023"},"geometry":{"type":"Polygon","coordinates":[[[38.034889,47.814232],[38.034844,47.813834],[38.034754,47.81383815966387],[38.034754,47.813838],[38.034606,47.813845],[38.034647,47.814246],[38.034754,47.81424],[38.034754,47.81423980991735],[38.034889,47.814232]]]}},{"type":"Feature","properties":{"cadnum":"1424555400:01:002:0022"},"geometry":{"type":"Polygon","coordinates":[[[38.015091,47.801546],[38.015341,47.801495],[38.01531,47.801407],[38.015234,47.801221],[38.014987,47.801266],[38.015054,47.80145],[38.015091,47.801546]]]}},{"type":"Feature","properties":{"cadnum":"1424555400:01:001:0072"},"geometry":{"type":"Polygon","coordinates":[[[38.015341,47.801495],[38.015584,47.80145],[38.015477,47.801175],[38.015234,47.801221],[38.015341,47.801495]]]}},{"type":"Feature","properties":{"cadnum":"1424555400:01:001:0101"},"geometry":{"type":"Polygon","coordinates":[[[38.015674,47.801796],[38.015903,47.801751],[38.015796,47.801489],[38.015741,47.801498],[38.015724,47.801438],[38.01554,47.801471],[38.015674,47.801796]]]}},{"type":"Feature","properties":{"cadnum":"1424555400:01:001:0086"},"geometry":{"type":"Polygon","coordinates":[[[38.01659,47.801266],[38.016699,47.801248],[38.016685,47.801221],[38.016582,47.801242],[38.01659,47.801266]]]}},{"type":"Feature","properties":{"cadnum":"1424555400:01:002:0058"},"geometry":{"type":"Polygon","coordinates":[[[38.016582,47.801242],[38.016685,47.801221],[38.016676,47.801194],[38.016859,47.80116],[38.016735,47.800868],[38.016505,47.80091],[38.016519,47.80094],[38.016492,47.800943],[38.016546,47.801067],[38.016605,47.801206],[38.016572,47.801212],[38.016582,47.801242]]]}},{"type":"Feature","properties":{"cadnum":"1424555400:01:001:0102"},"geometry":{"type":"Polygon","coordinates":[[[38.01619,47.801697],[38.01642,47.801655],[38.016312,47.801398],[38.016293,47.801371],[38.016276,47.801369],[38.016263,47.801335],[38.016056,47.801374],[38.01619,47.801697]]]}},{"type":"Feature","properties":{"cadnum":"1424555400:01:000:0035"},"geometry":{"type":"Polygon","coordinates":[[[38.013603,47.801695],[38.013729,47.80167],[38.013707,47.801606],[38.013576,47.801628],[38.013582,47.801637],[38.013599,47.801679],[38.013603,47.801695]]]}},{"type":"Feature","properties":{"cadnum":"1424555400:01:001:0085"},"geometry":{"type":"Polygon","coordinates":[[[38.016326,47.801248],[38.016389,47.801244],[38.016572,47.801212],[38.016605,47.801206],[38.016546,47.801067],[38.016492,47.800943],[38.016519,47.80094],[38.016505,47.80091],[38.016483,47.800841],[38.016169,47.800897],[38.016232,47.801031],[38.016326,47.801248]]]}},{"type":"Feature","properties":{"cadnum":"1424555400:01:001:0088"},"geometry":{"type":"Polygon","coordinates":[[[38.017349,47.805685],[38.01721736263737,47.805718],[38.017215,47.805718],[38.016986,47.805776],[38.016963,47.805782],[38.016622,47.805866],[38.016662,47.805945],[38.016599,47.805963],[38.016743,47.806346],[38.016756,47.806344],[38.016806,47.806425],[38.016959,47.806431],[38.017341,47.806337],[38.017368,47.806331],[38.017655,47.806259],[38.017427966728285,47.805834],[38.017428,47.805834],[38.017349,47.805685]]]}},{"type":"Feature","properties":{"cadnum":"1424555400:02:000:0226"},"geometry":{"type":"Polygon","coordinates":[[[38.013855,47.809224],[38.013985,47.809155],[38.014156,47.809065],[38.014066,47.808974],[38.013949,47.809037],[38.013886,47.80907],[38.013761,47.809139],[38.013855,47.809224]]]}},{"type":"Feature","properties":{"cadnum":"1424555400:01:001:0052"},"geometry":{"type":"Polygon","coordinates":[[[38.017714,47.808086],[38.017794,47.808066],[38.017763,47.808005],[38.017678,47.808026],[38.017714,47.808086]]]}},{"type":"Feature","properties":{"cadnum":"1424555400:02:000:0075"},"geometry":{"type":"Polygon","coordinates":[[[38.016119,47.808886],[38.016092,47.808823],[38.015638,47.807945],[38.015563,47.807963],[38.016011,47.808804],[38.015939,47.808826],[38.016016,47.808944],[38.016079,47.808929],[38.016391,47.809523],[38.016392688741725,47.809523],[38.016412,47.809559],[38.016106,47.809649],[38.016425,47.810283],[38.016496,47.810434],[38.016303,47.810491],[38.016563,47.810986],[38.017295,47.811583],[38.0177,47.811978],[38.017763,47.811948],[38.017454,47.811641],[38.017507,47.81161],[38.017377,47.811493],[38.017322,47.81152],[38.016622,47.810952],[38.016402,47.810521],[38.01659,47.810467],[38.016442,47.810174],[38.016357,47.810005],[38.016177,47.809664],[38.016473,47.809577],[38.01641089538462,47.809456360000006],[38.016119,47.808886]]]}},{"type":"Feature","properties":{"cadnum":"1424555400:02:000:0076"},"geometry":{"type":"Polygon","coordinates":[[[38.014452,47.805613],[38.014421,47.805544],[38.013959,47.804645],[38.013326,47.803426],[38.012993,47.802789],[38.012988,47.802784],[38.012934,47.802798],[38.013222,47.803341],[38.013159,47.803363],[38.013226,47.803468],[38.013285,47.803462],[38.013859,47.80456],[38.013792,47.804582],[38.013855,47.804696],[38.013922,47.804684],[38.014354,47.805528],[38.014282,47.80555],[38.014354,47.805671],[38.014416,47.805655],[38.01444802793296,47.805718],[38.014448,47.805718],[38.01445000838746,47.8057218956193],[38.014507,47.805834],[38.014507803827755,47.805834],[38.014879,47.806554],[38.014812,47.806572],[38.014884,47.806693],[38.014942,47.806684],[38.015521,47.807797],[38.0155,47.807842],[38.015571,47.80786],[38.015589,47.807824],[38.014968,47.806635],[38.014942,47.806572],[38.014506,47.805718],[38.014504737556564,47.805718],[38.014452,47.805613]]]}},{"type":"Feature","properties":{"cadnum":"1424555400:02:000:0122"},"geometry":{"type":"Polygon","coordinates":[[[38.014561,47.809092],[38.01461,47.809074],[38.014601,47.809061],[38.014578,47.808983],[38.014938,47.808871],[38.015045,47.808811],[38.014578,47.808415],[38.014291,47.808576],[38.014268,47.808609],[38.014169,47.808645],[38.014129,47.808669],[38.014089,47.80882],[38.014372,47.809061],[38.014471,47.809022],[38.014551,47.809079],[38.014561,47.809092]]]}},{"type":"Feature","properties":{"cadnum":"1424555400:02:000:0227"},"geometry":{"type":"Polygon","coordinates":[[[38.013532,47.809333],[38.013617,47.809287],[38.013716,47.809236],[38.013662,47.809191],[38.013563,47.809242],[38.013479,47.809287],[38.013532,47.809333]]]}},{"type":"Feature","properties":{"cadnum":"1424555400:02:000:0222"},"geometry":{"type":"Polygon","coordinates":[[[38.014592,47.80932],[38.014372,47.809061],[38.014089,47.80882],[38.014044,47.808841],[38.013955,47.808766],[38.013689,47.808911],[38.013747,47.808958],[38.013343,47.809173],[38.01324,47.80923],[38.01344837542662,47.809408],[38.013448,47.809408],[38.013823,47.809728],[38.013949,47.809837],[38.014309,47.810147],[38.014425,47.810038],[38.014789,47.80971],[38.01461,47.809553],[38.014771,47.809465],[38.014592,47.80932]]]}},{"type":"Feature","properties":{"cadnum":"1424555400:01:002:0094"},"geometry":{"type":"Polygon","coordinates":[[[38.024563,47.803522],[38.02481,47.803465],[38.024698,47.803209],[38.024446,47.803272],[38.024532,47.803453],[38.024563,47.803522]]]}},{"type":"Feature","properties":{"cadnum":"1424555400:01:002:0223"},"geometry":{"type":"Polygon","coordinates":[[[38.023947,47.805282],[38.024289,47.805203],[38.024132,47.804919],[38.023831,47.804989],[38.023836,47.805001],[38.023763,47.805019],[38.023947,47.805282]]]}},{"type":"Feature","properties":{"cadnum":"1424555400:01:000:0027"},"geometry":{"type":"Polygon","coordinates":[[[38.026157,47.804627],[38.026472,47.804551],[38.026383,47.804358],[38.026041,47.804434],[38.026157,47.804627]]]}},{"type":"Feature","properties":{"cadnum":"1424555400:01:000:0023"},"geometry":{"type":"Polygon","coordinates":[[[38.0261,47.805067],[38.026387,47.805001],[38.026261,47.804745],[38.025978,47.80481],[38.0261,47.805067]]]}},{"type":"Feature","properties":{"cadnum":"1424555400:01:002:0082"},"geometry":{"type":"Polygon","coordinates":[[[38.025111,47.802838],[38.025569,47.802735],[38.025448,47.8025],[38.024989,47.802596],[38.025111,47.802838]]]}},{"type":"Feature","properties":{"cadnum":"1424555400:01:002:0114"},"geometry":{"type":"Polygon","coordinates":[[[38.025322,47.804207],[38.025677,47.804138],[38.025574,47.803945],[38.025205,47.804014],[38.025245,47.804068],[38.025322,47.804207]]]}},{"type":"Feature","properties":{"cadnum":"1424555400:01:002:0051"},"geometry":{"type":"Polygon","coordinates":[[[38.025784,47.805221],[38.026081,47.805188],[38.026018,47.804922],[38.025727,47.804956],[38.025784,47.805221]]]}},{"type":"Feature","properties":{"cadnum":"1424555400:01:002:0039"},"geometry":{"type":"Polygon","coordinates":[[[38.025286,47.804835],[38.025538,47.804777],[38.025412,47.804521],[38.025161,47.804578],[38.025286,47.804835]]]}},{"type":"Feature","properties":{"cadnum":"1424555400:01:002:0106"},"geometry":{"type":"Polygon","coordinates":[[[38.024549,47.802708],[38.024895,47.802639],[38.024801,47.802451],[38.024442,47.802514],[38.0245,47.80263],[38.024545,47.802708],[38.024549,47.802708]]]}},{"type":"Feature","properties":{"cadnum":"1424555400:01:002:0037"},"geometry":{"type":"Polygon","coordinates":[[[38.026054,47.805764],[38.026104,47.805755],[38.026396,47.805694],[38.026283,47.805465],[38.025951,47.805537],[38.026054,47.805764]]]}},{"type":"Feature","properties":{"cadnum":"1424555400:01:000:0012"},"geometry":{"type":"Polygon","coordinates":[[[38.02635,47.805704],[38.026282470588235,47.805718],[38.026279,47.805718],[38.026104,47.805755],[38.026145,47.805834],[38.02614629076086,47.805834],[38.026301,47.806123],[38.026536,47.806074],[38.02635700000063,47.805718000001264],[38.02635,47.805704]]]}},{"type":"Feature","properties":{"cadnum":"1424555400:01:000:0045"},"geometry":{"type":"Polygon","coordinates":[[[38.024582,47.802047],[38.024459,47.801821],[38.024119,47.801903],[38.02418517647059,47.802029],[38.024185,47.802029],[38.024244,47.802141],[38.024582,47.802047]]]}},{"type":"Feature","properties":{"cadnum":"1424555400:01:000:0020"},"geometry":{"type":"Polygon","coordinates":[[[38.024496,47.805718],[38.024333,47.805441],[38.024087,47.805508],[38.023961,47.805541],[38.02402,47.80564],[38.023989,47.805649],[38.02402738410596,47.805718],[38.024026,47.805718],[38.024073,47.8058],[38.024109,47.805821],[38.024496,47.805718]]]}},{"type":"Feature","properties":{"cadnum":"1424555400:01:000:0029"},"geometry":{"type":"Polygon","coordinates":[[[38.025641,47.802889],[38.02609,47.802793],[38.026023,47.802605],[38.025561,47.802704],[38.025641,47.802889]]]}},{"type":"Feature","properties":{"cadnum":"1424555400:01:002:0086"},"geometry":{"type":"Polygon","coordinates":[[[38.024775,47.805333],[38.025035,47.805282],[38.024824,47.804874],[38.024698,47.804901],[38.024563,47.804928],[38.024775,47.805333]]]}},{"type":"Feature","properties":{"cadnum":"1424555400:01:000:0002"},"geometry":{"type":"Polygon","coordinates":[[[38.024989,47.802596],[38.025438,47.8025],[38.025335,47.802313],[38.024913,47.8024],[38.024989,47.802596]]]}},{"type":"Feature","properties":{"cadnum":"1424555400:01:000:0033"},"geometry":{"type":"Polygon","coordinates":[[[38.025031,47.805275],[38.025304,47.805209],[38.025295,47.805188],[38.025245,47.805106],[38.025241,47.805094],[38.025161,47.805112],[38.025039,47.805143],[38.024972,47.805161],[38.025031,47.805275]]]}},{"type":"Feature","properties":{"cadnum":"1424555400:01:002:0061"},"geometry":{"type":"Polygon","coordinates":[[[38.026163,47.804039],[38.02653,47.803975],[38.02645,47.80377],[38.026077,47.803833],[38.026163,47.804039]]]}},{"type":"Feature","properties":{"cadnum":"1424555400:01:002:0147"},"geometry":{"type":"Polygon","coordinates":[[[38.025893,47.803456],[38.026293,47.803377],[38.02627,47.803308],[38.02623,47.803191],[38.025807,47.803269],[38.025861,47.803384],[38.025893,47.803456]]]}},{"type":"Feature","properties":{"cadnum":"1424555400:01:001:0092"},"geometry":{"type":"Polygon","coordinates":[[[38.02423,47.804804],[38.024603,47.80472],[38.024492,47.8045],[38.024123,47.804587],[38.02423,47.804804]]]}},{"type":"Feature","properties":{"cadnum":"1424555400:01:002:0081"},"geometry":{"type":"Polygon","coordinates":[[[38.024761,47.803082],[38.025092,47.803001],[38.024995,47.802822],[38.024662,47.802895],[38.024761,47.803082]]]}},{"type":"Feature","properties":{"cadnum":"1424555400:01:002:0038"},"geometry":{"type":"Polygon","coordinates":[[[38.024446,47.803272],[38.024698,47.803209],[38.024658,47.803118],[38.024582,47.802955],[38.024329,47.80301],[38.024446,47.803272]]]}},{"type":"Feature","properties":{"cadnum":"1424555400:01:000:0030"},"geometry":{"type":"Polygon","coordinates":[[[38.025161,47.804578],[38.025318,47.804542],[38.025425,47.804518],[38.025358,47.804388],[38.025286,47.804247],[38.025174,47.804274],[38.025017,47.80431],[38.025161,47.804578]]]}},{"type":"Feature","properties":{"cadnum":"1424555400:01:002:0030"},"geometry":{"type":"Polygon","coordinates":[[[38.02578,47.801972],[38.025654,47.801999],[38.02550741772154,47.802029],[38.025507,47.802029],[38.025268,47.802078],[38.025385,47.802306],[38.025748,47.802246],[38.025784,47.802241],[38.02578,47.802228],[38.025866,47.802216],[38.02584020320855,47.802144],[38.025841,47.802144],[38.02578,47.801972]]]}},{"type":"Feature","properties":{"cadnum":"1424555400:01:002:0087"},"geometry":{"type":"Polygon","coordinates":[[[38.024941,47.803447],[38.025286,47.803368],[38.025182,47.803185],[38.024838,47.80326],[38.024941,47.803447]]]}},{"type":"Feature","properties":{"cadnum":"1424555400:01:002:0120"},"geometry":{"type":"Polygon","coordinates":[[[38.02632,47.802069],[38.026261,47.801917],[38.02587,47.80199],[38.025929,47.802144],[38.02593041401274,47.802144],[38.025947,47.802186],[38.026337,47.802116],[38.02632,47.802069]]]}},{"type":"Feature","properties":{"cadnum":"1424555400:01:001:0091"},"geometry":{"type":"Polygon","coordinates":[[[38.024989,47.80574],[38.024775,47.80536],[38.02441,47.805454],[38.02456006315789,47.805718],[38.02456,47.805718],[38.02457505660359,47.80574437735816],[38.024626,47.805834],[38.024626214592274,47.805834],[38.024693,47.805951],[38.024932,47.805897],[38.024869,47.80577],[38.024989,47.80574]]]}},{"type":"Feature","properties":{"cadnum":"1424555400:01:000:0003"},"geometry":{"type":"Polygon","coordinates":[[[38.025493,47.803522],[38.025695,47.803489],[38.025893,47.803456],[38.025807,47.803269],[38.02561,47.803308],[38.025412,47.803348],[38.025493,47.803522]]]}},{"type":"Feature","properties":{"cadnum":"1424555400:01:002:0100"},"geometry":{"type":"Polygon","coordinates":[[[38.024226,47.802695],[38.024478,47.802635],[38.024419,47.802518],[38.024356,47.8024],[38.024105,47.80246],[38.024226,47.802695]]]}},{"type":"Feature","properties":{"cadnum":"1424555400:01:000:0006"},"geometry":{"type":"Polygon","coordinates":[[[38.026356,47.803127],[38.02671,47.803064],[38.026683,47.802997],[38.026633,47.802871],[38.026287,47.802946],[38.026356,47.803127]]]}},{"type":"Feature","properties":{"cadnum":"1424555400:01:000:0028"},"geometry":{"type":"Polygon","coordinates":[[[38.026287,47.802946],[38.026633,47.802871],[38.026607,47.802804],[38.026562,47.802677],[38.026207,47.802744],[38.026287,47.802946]]]}},{"type":"Feature","properties":{"cadnum":"1424555400:01:000:0024"},"geometry":{"type":"Polygon","coordinates":[[[38.024123,47.804587],[38.024492,47.8045],[38.024486,47.804488],[38.024388,47.804292],[38.02401,47.804379],[38.024123,47.804587]]]}},{"type":"Feature","properties":{"cadnum":"1424555400:01:001:0080"},"geometry":{"type":"Polygon","coordinates":[[[38.025744,47.803076],[38.026198,47.802976],[38.026117,47.802786],[38.025641,47.802889],[38.025744,47.803076]]]}},{"type":"Feature","properties":{"cadnum":"1424555400:01:002:0072"},"geometry":{"type":"Polygon","coordinates":[[[38.025412,47.803348],[38.025807,47.803269],[38.025721,47.803076],[38.025318,47.803158],[38.025412,47.803348]]]}},{"type":"Feature","properties":{"cadnum":"1424555400:01:002:0116"},"geometry":{"type":"Polygon","coordinates":[[[38.026081,47.803833],[38.02645,47.80377],[38.026373,47.80358],[38.025983,47.803652],[38.026081,47.803833]]]}},{"type":"Feature","properties":{"cadnum":"1424555400:01:002:0065"},"geometry":{"type":"Polygon","coordinates":[[[38.024603,47.80472],[38.025003,47.804636],[38.024895,47.80441],[38.024486,47.804488],[38.024603,47.80472]]]}},{"type":"Feature","properties":{"cadnum":"1424555400:01:000:0014"},"geometry":{"type":"Polygon","coordinates":[[[38.02706,47.805134],[38.027343,47.805065],[38.027262,47.804925],[38.027213,47.804817],[38.027132,47.804835],[38.027006,47.804868],[38.026939,47.804886],[38.026983,47.804976],[38.02706,47.805134]]]}},{"type":"Feature","properties":{"cadnum":"1424555400:01:002:0098"},"geometry":{"type":"Polygon","coordinates":[[[38.026054,47.805764],[38.025947,47.805526],[38.025735,47.805571],[38.02579538589212,47.805718],[38.025795,47.805718],[38.025834,47.805812],[38.026054,47.805764]]]}},{"type":"Feature","properties":{"cadnum":"1424555400:01:002:0158"},"geometry":{"type":"Polygon","coordinates":[[[38.024653,47.802898],[38.024662,47.802895],[38.024995,47.802822],[38.024895,47.802639],[38.024549,47.802708],[38.024649,47.802889],[38.024653,47.802898]]]}},{"type":"Feature","properties":{"cadnum":"1424555400:01:000:0016"},"geometry":{"type":"Polygon","coordinates":[[[38.026364,47.804956],[38.026647,47.804892],[38.026517,47.804636],[38.026238,47.804699],[38.026364,47.804956]]]}},{"type":"Feature","properties":{"cadnum":"1424555400:01:002:0096"},"geometry":{"type":"Polygon","coordinates":[[[38.027631,47.805001],[38.027958,47.804925],[38.027828,47.804678],[38.027492,47.804754],[38.027631,47.805001]]]}},{"type":"Feature","properties":{"cadnum":"1424555400:01:002:0105"},"geometry":{"type":"Polygon","coordinates":[[[38.026611,47.802807],[38.026997,47.802747],[38.026926,47.802554],[38.02654,47.802608],[38.026566,47.802681],[38.026611,47.802807]]]}},{"type":"Feature","properties":{"cadnum":"1424555400:01:000:0018"},"geometry":{"type":"Polygon","coordinates":[[[38.024972,47.805161],[38.025241,47.805094],[38.02521,47.805034],[38.025017,47.805085],[38.024886,47.804859],[38.024824,47.804874],[38.024972,47.805161]]]}},{"type":"Feature","properties":{"cadnum":"1424555400:01:002:0080"},"geometry":{"type":"Polygon","coordinates":[[[38.024329,47.80301],[38.024582,47.802955],[38.0245,47.802777],[38.024455,47.802681],[38.024203,47.802735],[38.024329,47.80301]]]}},{"type":"Feature","properties":{"cadnum":"1424555400:01:002:0079"},"geometry":{"type":"Polygon","coordinates":[[[38.027213,47.804817],[38.027492,47.804754],[38.02737,47.804494],[38.027092,47.804557],[38.027213,47.804817]]]}},{"type":"Feature","properties":{"cadnum":"1424555400:01:002:0093"},"geometry":{"type":"Polygon","coordinates":[[[38.02737,47.803109],[38.027757,47.803034],[38.027675,47.802856],[38.027289,47.802931],[38.02737,47.803109]]]}},{"type":"Feature","properties":{"cadnum":"1424555400:01:002:0095"},"geometry":{"type":"Polygon","coordinates":[[[38.02693,47.803477],[38.027348,47.803399],[38.027266,47.803209],[38.026849,47.803275],[38.026894,47.803377],[38.02693,47.803477]]]}},{"type":"Feature","properties":{"cadnum":"1424555400:01:002:0088"},"geometry":{"type":"Polygon","coordinates":[[[38.027541,47.805423],[38.027572,47.805411],[38.027761,47.805369],[38.027819,47.805356],[38.027694,47.805125],[38.027411,47.805182],[38.027541,47.805423]]]}},{"type":"Feature","properties":{"cadnum":"1424555400:01:000:0047"},"geometry":{"type":"Polygon","coordinates":[[[38.02657,47.803719],[38.026733,47.803683],[38.026916,47.803643],[38.02688,47.803556],[38.02684,47.803459],[38.026494,47.803525],[38.02657,47.803719]]]}},{"type":"Feature","properties":{"cadnum":"1424555400:01:002:0126"},"geometry":{"type":"Polygon","coordinates":[[[38.026813,47.804304],[38.027169,47.804234],[38.027079,47.804026],[38.026733,47.804111],[38.026813,47.804304]]]}},{"type":"Feature","properties":{"cadnum":"1424555400:01:000:0036"},"geometry":{"type":"Polygon","coordinates":[[[38.026957,47.805574],[38.026742,47.805631],[38.026787,47.805718],[38.026786,47.805718],[38.026922,47.805978],[38.027132,47.805924],[38.027087,47.805834],[38.026957,47.805574]]]}},{"type":"Feature","properties":{"cadnum":"1424555400:01:000:0004"},"geometry":{"type":"Polygon","coordinates":[[[38.026513,47.802608],[38.026899,47.802554],[38.02684,47.802358],[38.02645,47.802406],[38.026472,47.802482],[38.026513,47.802608]]]}},{"type":"Feature","properties":{"cadnum":"1424555400:01:000:0034"},"geometry":{"type":"Polygon","coordinates":[[[38.027599,47.803665],[38.027985,47.803594],[38.027918,47.803414],[38.027532,47.80348],[38.027599,47.803665]]]}},{"type":"Feature","properties":{"cadnum":"1424555400:01:000:0044"},"geometry":{"type":"Polygon","coordinates":[[[38.027815,47.805351],[38.028143,47.805266],[38.028035,47.805037],[38.027689,47.805119],[38.027815,47.805351]]]}},{"type":"Feature","properties":{"cadnum":"1424555400:01:002:0048"},"geometry":{"type":"Polygon","coordinates":[[[38.027316,47.805465],[38.027379,47.805454],[38.027541,47.805423],[38.027411,47.805182],[38.027128,47.805251],[38.027316,47.805465]]]}},{"type":"Feature","properties":{"cadnum":"1424555400:01:001:0110"},"geometry":{"type":"Polygon","coordinates":[[[38.027169,47.804234],[38.027612,47.80415],[38.027515,47.803936],[38.027073,47.804017],[38.027073,47.804023],[38.027079,47.804026],[38.027169,47.804234]]]}},{"type":"Feature","properties":{"cadnum":"1424555400:01:000:0022"},"geometry":{"type":"Polygon","coordinates":[[[38.026666,47.805604],[38.026723,47.805589],[38.02689,47.805553],[38.026939,47.805537],[38.02684,47.805302],[38.026562,47.805369],[38.026666,47.805604]]]}},{"type":"Feature","properties":{"cadnum":"1424555400:01:002:0059"},"geometry":{"type":"Polygon","coordinates":[[[38.0283,47.805731],[38.027964,47.805812],[38.027973,47.805834],[38.02797462068965,47.805834],[38.028062,47.806015],[38.028398,47.805933],[38.02834997029703,47.805834],[38.02835,47.805834],[38.0283,47.805731]]]}},{"type":"Feature","properties":{"cadnum":"1424555400:01:002:0063"},"geometry":{"type":"Polygon","coordinates":[[[38.026723,47.805589],[38.02653,47.805637],[38.026631,47.805834],[38.02663178156997,47.805834],[38.026723,47.806011],[38.026916,47.805969],[38.026789,47.805718],[38.02678828979592,47.805718],[38.026723,47.805589]]]}},{"type":"Feature","properties":{"cadnum":"1424555400:01:002:0103"},"geometry":{"type":"Polygon","coordinates":[[[38.028062,47.80377],[38.028152,47.803755],[38.028075,47.80358],[38.027985,47.803594],[38.028062,47.80377]]]}},{"type":"Feature","properties":{"cadnum":"1424555400:01:002:0077"},"geometry":{"type":"Polygon","coordinates":[[[38.027536,47.803462],[38.027922,47.803386],[38.027838,47.803209],[38.027456,47.803285],[38.027536,47.803462]]]}},{"type":"Feature","properties":{"cadnum":"1424555400:01:002:0109"},"geometry":{"type":"Polygon","coordinates":[[[38.027675,47.803839],[38.028062,47.80377],[38.027985,47.803594],[38.027599,47.803665],[38.027675,47.803839]]]}},{"type":"Feature","properties":{"cadnum":"1424555400:01:001:0089"},"geometry":{"type":"Polygon","coordinates":[[[38.028524,47.80558],[38.028844,47.805537],[38.028813,47.8053],[38.028435,47.805369],[38.028524,47.80558]]]}},{"type":"Feature","properties":{"cadnum":"1424555400:01:002:0153"},"geometry":{"type":"Polygon","coordinates":[[[38.028035,47.805369],[38.028197,47.805333],[38.028165,47.805269],[38.028004,47.805305],[38.028035,47.805369]]]}},{"type":"Feature","properties":{"cadnum":"1424555400:01:002:0041"},"geometry":{"type":"Polygon","coordinates":[[[38.027941,47.805736],[38.028318,47.805653],[38.028228,47.805459],[38.027851,47.805546],[38.027941,47.805736]]]}},{"type":"Feature","properties":{"cadnum":"1424555400:01:000:0040"},"geometry":{"type":"Polygon","coordinates":[[[38.026966,47.805546],[38.027191,47.805492],[38.027245,47.805481],[38.027128,47.805251],[38.026845,47.805318],[38.026962,47.805546],[38.026966,47.805546]]]}},{"type":"Feature","properties":{"cadnum":"1424555400:01:000:0011"},"geometry":{"type":"Polygon","coordinates":[[[38.026652,47.803912],[38.026813,47.803875],[38.026997,47.803836],[38.026983,47.8038],[38.026916,47.803643],[38.026733,47.803683],[38.02657,47.803719],[38.026652,47.803912]]]}},{"type":"Feature","properties":{"cadnum":"1424555400:01:000:0031"},"geometry":{"type":"Polygon","coordinates":[[[38.02645,47.802406],[38.026836,47.802358],[38.026769,47.802162],[38.026423,47.802214],[38.026436,47.802304],[38.02645,47.802406]]]}},{"type":"Feature","properties":{"cadnum":"1424555400:01:002:0062"},"geometry":{"type":"Polygon","coordinates":[[[38.023916,47.804247],[38.024312,47.804168],[38.024289,47.80409],[38.024285,47.804072],[38.023997,47.804035],[38.02384,47.804081],[38.023916,47.804247]]]}},{"type":"Feature","properties":{"cadnum":"1424555400:01:000:0007"},"geometry":{"type":"Polygon","coordinates":[[[38.026383,47.805671],[38.02653,47.805637],[38.026666,47.805604],[38.026562,47.805369],[38.02627,47.805438],[38.026383,47.805671]]]}},{"type":"Feature","properties":{"cadnum":"1424555400:01:002:0069"},"geometry":{"type":"Polygon","coordinates":[[[38.024698,47.804901],[38.024824,47.804874],[38.024886,47.804859],[38.025088,47.804814],[38.025003,47.804636],[38.024603,47.80472],[38.024698,47.804901]]]}},{"type":"Feature","properties":{"cadnum":"1424555400:01:002:0122"},"geometry":{"type":"Polygon","coordinates":[[[38.026733,47.804111],[38.027079,47.804026],[38.026997,47.803836],[38.026652,47.803912],[38.026733,47.804111]]]}},{"type":"Feature","properties":{"cadnum":"1424555400:01:002:0108"},"geometry":{"type":"Polygon","coordinates":[[[38.028035,47.80453],[38.028417,47.804455],[38.028341,47.804285],[38.027954,47.804361],[38.028035,47.80453]]]}},{"type":"Feature","properties":{"cadnum":"1424555400:01:002:0129"},"geometry":{"type":"Polygon","coordinates":[[[38.026373,47.805682],[38.026521,47.805646],[38.026656,47.805616],[38.026544,47.805384],[38.026253,47.805454],[38.026373,47.805682]]]}},{"type":"Feature","properties":{"cadnum":"1424555400:02:000:0128"},"geometry":{"type":"Polygon","coordinates":[[[38.017081,47.81177],[38.017152,47.81174],[38.017165,47.811734],[38.017066,47.811628],[38.017053,47.811632],[38.016981,47.811661],[38.017081,47.81177]]]}},{"type":"Feature","properties":{"cadnum":"1424555400:02:000:0091"},"geometry":{"type":"Polygon","coordinates":[[[38.016546,47.809955],[38.01664,47.80993],[38.016595,47.809846],[38.016501,47.80987],[38.016546,47.809955]]]}},{"type":"Feature","properties":{"cadnum":"1424555400:02:000:0124"},"geometry":{"type":"Polygon","coordinates":[[[38.016605,47.811788],[38.016932,47.811607],[38.016918,47.811595],[38.016748,47.81142],[38.01677,47.811411],[38.016546,47.811173],[38.016169,47.81133],[38.016605,47.811788]]]}},{"type":"Feature","properties":{"cadnum":"1424555400:02:000:0221"},"geometry":{"type":"Polygon","coordinates":[[[38.017295,47.812953],[38.017314,47.812946],[38.017391,47.812913],[38.017372,47.812898],[38.017377,47.812895],[38.017358,47.812877],[38.017282,47.812907],[38.017264,47.812916],[38.017295,47.812953]]]}},{"type":"Feature","properties":{"cadnum":"1424555400:02:000:0149"},"geometry":{"type":"Polygon","coordinates":[[[38.016846,47.811061],[38.016955,47.811022],[38.016888,47.810904],[38.016855,47.81085],[38.01677,47.810696],[38.016725,47.810612],[38.016703,47.810575],[38.016501,47.81066],[38.016563,47.810753],[38.016653,47.810895],[38.016676,47.810928],[38.016846,47.811061]]]}},{"type":"Feature","properties":{"cadnum":"1424555400:01:002:0054"},"geometry":{"type":"Polygon","coordinates":[[[38.029643,47.806174],[38.02954,47.806009],[38.02915279276472,47.80610172368384],[38.028874,47.806168],[38.028956,47.80634],[38.029261,47.806267],[38.029261,47.80626639711191],[38.029643,47.806174]]]}},{"type":"Feature","properties":{"cadnum":"1424555400:01:001:0064"},"geometry":{"type":"Polygon","coordinates":[[[38.029392,47.809112],[38.029477,47.809092],[38.029427,47.808994],[38.029342,47.809016],[38.029392,47.809112]]]}},{"type":"Feature","properties":{"cadnum":"1424555400:01:001:0016"},"geometry":{"type":"Polygon","coordinates":[[[38.029128275362204,47.80788043478264],[38.029261,47.807849],[38.029261,47.8078481107011],[38.02936,47.807824],[38.029234,47.807586],[38.028903,47.807661],[38.029033,47.807903],[38.029089,47.80788973684211],[38.029089,47.80789],[38.029128275362204,47.80788043478264]]]}},{"type":"Feature","properties":{"cadnum":"1424555400:01:002:0145"},"geometry":{"type":"Polygon","coordinates":[[[38.029662,47.807133],[38.029719,47.807122],[38.029643,47.80695],[38.029585,47.806961],[38.029662,47.807133]]]}},{"type":"Feature","properties":{"cadnum":"1424555400:03:000:0026"},"geometry":{"type":"Polygon","coordinates":[[[38.035168,47.814084],[38.035819,47.814056],[38.035949,47.81383],[38.035123,47.813903],[38.035168,47.814084]]]}},{"type":"Feature","properties":{"cadnum":"1424555400:03:000:0019"},"geometry":{"type":"Polygon","coordinates":[[[38.036987,47.813658],[38.037073,47.813417],[38.036587,47.813311],[38.036501,47.813517],[38.036987,47.813658]]]}},{"type":"Feature","properties":{"cadnum":"1424555400:03:000:0018"},"geometry":{"type":"Polygon","coordinates":[[[38.035356,47.814943],[38.035886,47.814894],[38.035855,47.814711],[38.035325,47.814756],[38.035356,47.814943]]]}},{"type":"Feature","properties":{"cadnum":"1424555400:01:002:0045"},"geometry":{"type":"Polygon","coordinates":[[[38.037329,47.815359],[38.037584,47.815341],[38.03753,47.814784],[38.037229,47.814741],[38.037279,47.815046],[38.037329,47.815359]]]}},{"type":"Feature","properties":{"cadnum":"1424555400:01:002:0046"},"geometry":{"type":"Polygon","coordinates":[[[38.03701,47.815381],[38.037329,47.815359],[38.037279,47.815046],[38.036956,47.815039],[38.03701,47.815381]]]}},{"type":"Feature","properties":{"cadnum":"1424555400:01:002:0060"},"geometry":{"type":"Polygon","coordinates":[[[38.026198,47.801718],[38.02657,47.80164],[38.026477,47.801351],[38.026108,47.801438],[38.026198,47.801718]]]}},{"type":"Feature","properties":{"cadnum":"1424555400:01:002:0052"},"geometry":{"type":"Polygon","coordinates":[[[38.026261,47.801917],[38.026639,47.801842],[38.02657,47.80164],[38.026198,47.801718],[38.026261,47.801917]]]}},{"type":"Feature","properties":{"cadnum":"1424555400:01:002:0107"},"geometry":{"type":"Polygon","coordinates":[[[38.026714,47.801586],[38.027105,47.801523],[38.027046,47.801347],[38.026656,47.801407],[38.026714,47.801586]]]}},{"type":"Feature","properties":{"cadnum":"1424555400:01:001:0087"},"geometry":{"type":"Polygon","coordinates":[[[38.016762,47.804765],[38.017215,47.804638],[38.016865,47.804068],[38.016412,47.804195],[38.016762,47.804765]]]}},{"type":"Feature","properties":{"cadnum":"1424555400:02:000:0084"},"geometry":{"type":"Polygon","coordinates":[[[38.01359,47.802793],[38.013672,47.802777],[38.013442,47.802487],[38.013167,47.80253],[38.01319,47.802581],[38.013397,47.802545],[38.01359,47.802793]]]}},{"type":"Feature","properties":{"cadnum":"1424555400:02:000:0078"},"geometry":{"type":"Polygon","coordinates":[[[38.012817,47.802663],[38.012926,47.802639],[38.012903,47.802594],[38.012795,47.802617],[38.012817,47.802663]]]}},{"type":"Feature","properties":{"cadnum":"1424555400:01:001:0068"},"geometry":{"type":"Polygon","coordinates":[[[38.01328,47.802478],[38.013433,47.802451],[38.013393,47.80234],[38.013236,47.802367],[38.01328,47.802478]]]}},{"type":"Feature","properties":{"cadnum":"1424555400:01:001:0057"},"geometry":{"type":"Polygon","coordinates":[[[38.016213,47.805432],[38.016299,47.805414],[38.016267,47.805351],[38.016182,47.805372],[38.016213,47.805432]]]}},{"type":"Feature","properties":{"cadnum":"1424555400:01:001:0104"},"geometry":{"type":"Polygon","coordinates":[[[38.015823,47.80244],[38.015957,47.802395],[38.016232,47.802301],[38.016142,47.802177],[38.015728,47.802315],[38.015823,47.80244]]]}},{"type":"Feature","properties":{"cadnum":"1424555400:01:001:0004"},"geometry":{"type":"Polygon","coordinates":[[[38.014651,47.805255],[38.014714,47.805239],[38.014808,47.805218],[38.015058,47.805161],[38.015238,47.805119],[38.015127,47.80491],[38.015001,47.804895],[38.014582,47.804994],[38.014525,47.805007],[38.014651,47.805255]]]}},{"type":"Feature","properties":{"cadnum":"1424555400:01:001:0069"},"geometry":{"type":"Polygon","coordinates":[[[38.013963,47.802491],[38.014012,47.802482],[38.013999,47.802449],[38.013949,47.802458],[38.013963,47.802491]]]}},{"type":"Feature","properties":{"cadnum":"1424555400:01:001:0065"},"geometry":{"type":"Polygon","coordinates":[[[38.016106,47.804663],[38.016213,47.804638],[38.016182,47.804575],[38.016074,47.8046],[38.016106,47.804663]]]}},{"type":"Feature","properties":{"cadnum":"1424555400:01:001:0090"},"geometry":{"type":"Polygon","coordinates":[[[38.015571,47.805694],[38.015693,47.805671],[38.01572,47.80568],[38.015989,47.805616],[38.0161,47.805589],[38.015859,47.805119],[38.0158,47.80513],[38.015787,47.805134],[38.015733,47.805146],[38.015328,47.805242],[38.01531,47.805245],[38.015534,47.805685],[38.015563,47.805691],[38.015571,47.805694]]]}},{"type":"Feature","properties":{"cadnum":"1424555400:02:000:0020"},"geometry":{"type":"Polygon","coordinates":[[[38.190005,47.819542],[38.190122,47.819539],[38.190118,47.819461],[38.190005,47.819464],[38.190005,47.819542]]]}},{"type":"Feature","properties":{"cadnum":"1424555400:02:000:0092"},"geometry":{"type":"Polygon","coordinates":[[[38.022056,47.815148],[38.022106,47.815091],[38.022008,47.815052],[38.021958,47.815109],[38.022056,47.815148]]]}},{"type":"Feature","properties":{"cadnum":"1424555400:01:000:0046"},"geometry":{"type":"Polygon","coordinates":[[[38.024549,47.806784],[38.024995,47.806684],[38.024891,47.806485],[38.024446,47.806584],[38.024549,47.806784]]]}},{"type":"Feature","properties":{"cadnum":"1424555400:01:002:0123"},"geometry":{"type":"Polygon","coordinates":[[[38.025955,47.807424],[38.026324,47.807324],[38.02623,47.807158],[38.025857,47.807257],[38.025955,47.807424]]]}},{"type":"Feature","properties":{"cadnum":"1424555400:01:002:0117"},"geometry":{"type":"Polygon","coordinates":[[[38.025754,47.807849],[38.02614,47.807758],[38.02605,47.807592],[38.025664,47.807686],[38.025754,47.807849]]]}},{"type":"Feature","properties":{"cadnum":"1424555400:01:002:0099"},"geometry":{"type":"Polygon","coordinates":[[[38.025345,47.806425],[38.025465,47.806394],[38.025597,47.806364],[38.025412,47.805993],[38.025156,47.806047],[38.025345,47.806425]]]}},{"type":"Feature","properties":{"cadnum":"1424555400:01:002:0118"},"geometry":{"type":"Polygon","coordinates":[[[38.02605,47.807592],[38.026417,47.807493],[38.026324,47.807324],[38.025955,47.807424],[38.02605,47.807592]]]}},{"type":"Feature","properties":{"cadnum":"1424555400:01:002:0055"},"geometry":{"type":"Polygon","coordinates":[[[38.025941,47.808186],[38.02632,47.808099],[38.02623,47.807933],[38.025857,47.808014],[38.025941,47.808186]]]}},{"type":"Feature","properties":{"cadnum":"1424555400:01:002:0049"},"geometry":{"type":"Polygon","coordinates":[[[38.025628,47.806747],[38.02601,47.806657],[38.025928,47.806488],[38.025547,47.806572],[38.025628,47.806747]]]}},{"type":"Feature","properties":{"cadnum":"1424555400:01:001:0067"},"geometry":{"type":"Polygon","coordinates":[[[38.0245,47.806877],[38.024612,47.80685],[38.024576,47.806787],[38.024469,47.806814],[38.0245,47.806877]]]}},{"type":"Feature","properties":{"cadnum":"1424555400:01:001:0096"},"geometry":{"type":"Polygon","coordinates":[[[38.02614,47.807758],[38.026513,47.807661],[38.026417,47.807493],[38.02605,47.807592],[38.02614,47.807758]]]}},{"type":"Feature","properties":{"cadnum":"1424555400:01:000:0009"},"geometry":{"type":"Polygon","coordinates":[[[38.026224,47.806672],[38.026589,47.806597],[38.026481,47.806391],[38.026126,47.806467],[38.026224,47.806672]]]}},{"type":"Feature","properties":{"cadnum":"1424555400:01:000:0041"},"geometry":{"type":"Polygon","coordinates":[[[38.02543,47.807158],[38.025807,47.807073],[38.025717,47.806907],[38.025345,47.806988],[38.02543,47.807158]]]}},{"type":"Feature","properties":{"cadnum":"1424555400:01:002:0071"},"geometry":{"type":"Polygon","coordinates":[[[38.025479,47.807351],[38.025857,47.807257],[38.025762,47.807085],[38.025385,47.807176],[38.025479,47.807351]]]}},{"type":"Feature","properties":{"cadnum":"1424555400:01:002:0156"},"geometry":{"type":"Polygon","coordinates":[[[38.02689,47.807212],[38.027245,47.807127],[38.027136,47.806919],[38.026786,47.807006],[38.02689,47.807212]]]}},{"type":"Feature","properties":{"cadnum":"1424555400:01:000:0008"},"geometry":{"type":"Polygon","coordinates":[[[38.028021,47.807692],[38.0283,47.807643],[38.028197,47.807405],[38.028165,47.807411],[38.027922,47.807462],[38.028021,47.807692]]]}},{"type":"Feature","properties":{"cadnum":"1424555400:01:002:0044"},"geometry":{"type":"Polygon","coordinates":[[[38.027608,47.807511],[38.027832,47.807456],[38.027645,47.807085],[38.027429,47.807143],[38.027608,47.807511]]]}},{"type":"Feature","properties":{"cadnum":"1424555400:01:002:0053"},"geometry":{"type":"Polygon","coordinates":[[[38.025182,47.80669],[38.025561,47.806612],[38.025484,47.80644],[38.025102,47.806525],[38.025182,47.80669]]]}},{"type":"Feature","properties":{"cadnum":"1424555400:01:000:0017"},"geometry":{"type":"Polygon","coordinates":[[[38.028121,47.806925],[38.028471,47.80685],[38.028377,47.806635],[38.028035,47.80672],[38.028121,47.806925]]]}},{"type":"Feature","properties":{"cadnum":"1424555400:01:002:0084"},"geometry":{"type":"Polygon","coordinates":[[[38.026521,47.807299],[38.02689,47.807212],[38.026782,47.807004],[38.026413,47.807091],[38.026521,47.807299]]]}},{"type":"Feature","properties":{"cadnum":"1424555400:01:002:0104"},"geometry":{"type":"Polygon","coordinates":[[[38.026696,47.806802],[38.027046,47.806715],[38.026939,47.806509],[38.026589,47.806597],[38.026696,47.806802]]]}},{"type":"Feature","properties":{"cadnum":"1424555400:01:000:0039"},"geometry":{"type":"Polygon","coordinates":[[[38.027321,47.807601],[38.027519,47.807559],[38.027325,47.807182],[38.027136,47.807227],[38.027321,47.807601]]]}},{"type":"Feature","properties":{"cadnum":"1424555400:01:002:0076"},"geometry":{"type":"Polygon","coordinates":[[[38.02817,47.806226],[38.028511,47.806145],[38.028398,47.805933],[38.028062,47.806015],[38.02817,47.806226]]]}},{"type":"Feature","properties":{"cadnum":"1424555400:01:002:0036"},"geometry":{"type":"Polygon","coordinates":[[[38.027325,47.806286],[38.027667,47.806192],[38.027536,47.805978],[38.027191,47.80606],[38.027325,47.806286]]]}},{"type":"Feature","properties":{"cadnum":"1424555400:01:000:0103"},"geometry":{"type":"Polygon","coordinates":[[[38.026589,47.806597],[38.026939,47.806509],[38.026832,47.806301],[38.026481,47.806389],[38.026589,47.806597]]]}},{"type":"Feature","properties":{"cadnum":"1424555400:01:001:0063"},"geometry":{"type":"Polygon","coordinates":[[[38.027402,47.80898],[38.027496,47.808958],[38.02746,47.80888],[38.027362,47.808902],[38.027402,47.80898]]]}},{"type":"Feature","properties":{"cadnum":"1424555400:01:000:0025"},"geometry":{"type":"Polygon","coordinates":[[[38.02839,47.806639],[38.028731,47.806557],[38.028628,47.806349],[38.028291,47.806434],[38.02839,47.806639]]]}},{"type":"Feature","properties":{"cadnum":"1424555400:01:002:0064"},"geometry":{"type":"Polygon","coordinates":[[[38.028687,47.807064],[38.029033,47.806983],[38.028943,47.806798],[38.028597,47.80688],[38.028687,47.807064]]]}},{"type":"Feature","properties":{"cadnum":"1424555400:01:002:0113"},"geometry":{"type":"Polygon","coordinates":[[[38.027716,47.806093],[38.028062,47.806015],[38.027954,47.805794],[38.027612,47.805888],[38.027716,47.806093]]]}},{"type":"Feature","properties":{"cadnum":"1424555400:01:002:0083"},"geometry":{"type":"Polygon","coordinates":[[[38.028161,47.807411],[38.028345,47.807369],[38.028157,47.806997],[38.027968,47.807043],[38.028161,47.807411]]]}},{"type":"Feature","properties":{"cadnum":"1424555400:01:002:0047"},"geometry":{"type":"Polygon","coordinates":[[[38.027177,47.807891],[38.027425,47.807833],[38.027312,47.807601],[38.02715,47.807632],[38.027083,47.807565],[38.026997,47.807586],[38.027177,47.807891]]]}},{"type":"Feature","properties":{"cadnum":"1424555400:01:002:0067"},"geometry":{"type":"Polygon","coordinates":[[[38.027132,47.805918],[38.027356,47.80587],[38.027339,47.805839],[38.027115,47.805888],[38.027132,47.805918]]]}},{"type":"Feature","properties":{"cadnum":"1424555400:01:000:0013"},"geometry":{"type":"Polygon","coordinates":[[[38.027721,47.807534],[38.027914,47.807474],[38.027936,47.807469],[38.027748,47.807097],[38.027519,47.807152],[38.027721,47.807534]]]}},{"type":"Feature","properties":{"cadnum":"1424555400:01:002:0112"},"geometry":{"type":"Polygon","coordinates":[[[38.027855,47.806292],[38.02817,47.806219],[38.028062,47.806015],[38.027716,47.806093],[38.027819,47.806289],[38.027851,47.806283],[38.027855,47.806292]]]}},{"type":"Feature","properties":{"cadnum":"1424555400:01:002:0042"},"geometry":{"type":"Polygon","coordinates":[[[38.025941,47.808186],[38.02632,47.808099],[38.02623,47.807933],[38.025857,47.808014],[38.025941,47.808186]]]}},{"type":"Feature","properties":{"cadnum":"1424555400:01:002:0070"},"geometry":{"type":"Polygon","coordinates":[[[38.025601,47.806373],[38.025861,47.806316],[38.025668,47.805936],[38.025412,47.805993],[38.025597,47.806364],[38.025601,47.806373]]]}},{"type":"Feature","properties":{"cadnum":"1424555400:01:002:0121"},"geometry":{"type":"Polygon","coordinates":[[[38.027312,47.807043],[38.027662,47.806968],[38.027541,47.806742],[38.027199,47.806823],[38.027312,47.807043]]]}},{"type":"Feature","properties":{"cadnum":"1424555400:01:001:0014"},"geometry":{"type":"Polygon","coordinates":[[[38.025318,47.80882],[38.025811,47.808705],[38.025658,47.808413],[38.025165,47.808527],[38.025196,47.808587],[38.025201,47.808603],[38.025318,47.80882]]]}},{"type":"Feature","properties":{"cadnum":"1424555400:01:002:0024"},"geometry":{"type":"Polygon","coordinates":[[[38.025587,47.807525],[38.025771,47.80748],[38.025964,47.807433],[38.025928,47.807333],[38.025901,47.807257],[38.025874,47.807263],[38.025687,47.807308],[38.025497,47.807357],[38.025587,47.807525]]]}}]}