{"type":"FeatureCollection","features":[{"type":"Feature","properties":{"cadnum":"1424881300:04:000:0649"},"geometry":{"type":"Polygon","coordinates":[[[37.736186,47.25158],[37.736567,47.251507],[37.736496,47.251336],[37.736114,47.251407],[37.736186,47.25158]]]}},{"type":"Feature","properties":{"cadnum":"1424881300:04:000:0584"},"geometry":{"type":"Polygon","coordinates":[[[37.735997,47.250123],[37.73638,47.25005],[37.736307,47.249876],[37.735925,47.24995],[37.735997,47.250123]]]}},{"type":"Feature","properties":{"cadnum":"1424881300:04:000:0650"},"geometry":{"type":"Polygon","coordinates":[[[37.745618,47.249312],[37.745398,47.249087],[37.744959,47.249288],[37.74501758757062,47.249349],[37.745016,47.249349],[37.74512129116936,47.24945697374692],[37.745129,47.249465],[37.74512911801242,47.249465],[37.745173,47.24951],[37.745398,47.249412],[37.745538,47.249349],[37.7455366,47.249349],[37.745618,47.249312]]]}},{"type":"Feature","properties":{"cadnum":"1424881300:04:000:0594"},"geometry":{"type":"Polygon","coordinates":[[[37.779939,47.279122],[37.780141,47.278888],[37.779916,47.278796],[37.779713,47.279031],[37.779939,47.279122]]]}},{"type":"Feature","properties":{"cadnum":"1424881300:04:000:0592"},"geometry":{"type":"Polygon","coordinates":[[[37.738441,47.248452],[37.738297,47.248108],[37.73800798823496,47.24816145882359],[37.737915,47.248178],[37.737987,47.248352],[37.738059,47.248526],[37.738123,47.248514],[37.738123,47.24851360209424],[37.738441,47.248452]]]}},{"type":"Feature","properties":{"cadnum":"1424881300:04:000:0589"},"geometry":{"type":"Polygon","coordinates":[[[37.737489,47.247141],[37.737871,47.247068],[37.737802,47.246894],[37.737422,47.246967],[37.737489,47.247141]]]}},{"type":"Feature","properties":{"cadnum":"1424881300:04:000:0588"},"geometry":{"type":"Polygon","coordinates":[[[37.738085,47.247586],[37.738014,47.247412],[37.737632,47.247486],[37.737705,47.247659],[37.737951,47.24761174210526],[37.737951,47.247613],[37.738085,47.247586]]]}},{"type":"Feature","properties":{"cadnum":"1424881300:04:000:0651"},"geometry":{"type":"Polygon","coordinates":[[[37.736693,47.248413],[37.737076,47.248339],[37.737008,47.248165],[37.736626,47.248239],[37.736693,47.248413]]]}},{"type":"Feature","properties":{"cadnum":"1424881300:04:000:0591"},"geometry":{"type":"Polygon","coordinates":[[[37.73872,47.247934],[37.739101,47.24786],[37.738997,47.247602],[37.738616,47.247672],[37.738684,47.247846],[37.73872,47.247934]]]}},{"type":"Feature","properties":{"cadnum":"1424881300:04:000:0585"},"geometry":{"type":"Polygon","coordinates":[[[37.741899,47.24873],[37.74228,47.248657],[37.742209,47.248483],[37.742142,47.248309],[37.74176,47.248382],[37.741827,47.248556],[37.741899,47.24873]]]}},{"type":"Feature","properties":{"cadnum":"1424881300:04:000:0587"},"geometry":{"type":"Polygon","coordinates":[[[37.73981,47.248254],[37.740192,47.248181],[37.740169,47.248122],[37.740098,47.247952],[37.739716,47.248022],[37.739789,47.248196],[37.73981,47.248254]]]}},{"type":"Feature","properties":{"cadnum":"1424881300:04:000:0593"},"geometry":{"type":"Polygon","coordinates":[[[37.738202,47.248873],[37.738584,47.2488],[37.738441,47.248452],[37.738059,47.248526],[37.738131,47.248699],[37.738202,47.248873]]]}},{"type":"Feature","properties":{"cadnum":"1424881300:04:000:0586"},"geometry":{"type":"Polygon","coordinates":[[[37.742353,47.24883],[37.742735,47.248757],[37.742592,47.248409],[37.742209,47.248483],[37.74228,47.248657],[37.742353,47.24883]]]}},{"type":"Feature","properties":{"cadnum":"1424881300:04:000:0507"},"geometry":{"type":"Polygon","coordinates":[[[37.740756472222216,47.249349],[37.740756,47.249349],[37.740780399999956,47.249407399999896],[37.740804,47.249465],[37.74080446575342,47.249465],[37.740817,47.249495],[37.741198,47.249422],[37.741127,47.249251],[37.740745,47.249321],[37.740756472222216,47.249349]]]}},{"type":"Feature","properties":{"cadnum":"1424881300:04:000:0652"},"geometry":{"type":"Polygon","coordinates":[[[37.73103,47.25005],[37.731542,47.249952],[37.731474,47.249787],[37.731246,47.249833],[37.731011,47.250004],[37.73103,47.25005]]]}},{"type":"Feature","properties":{"cadnum":"1424881300:04:000:0590"},"geometry":{"type":"Polygon","coordinates":[[[37.738944,47.250684],[37.739326,47.25061],[37.739182,47.250264],[37.7388,47.250336],[37.738871,47.25051],[37.738944,47.250684]]]}},{"type":"Feature","properties":{"cadnum":"1424881300:04:000:0583"},"geometry":{"type":"Polygon","coordinates":[[[37.740161,47.25144],[37.740489,47.251379],[37.740448,47.251145],[37.740066,47.251218],[37.740139,47.251388],[37.740161,47.25144]]]}}]}