{"type":"FeatureCollection","features":[{"type":"Feature","properties":{"cadnum":"1424587200:02:000:0096"},"geometry":{"type":"Polygon","coordinates":[[[37.59003,47.565306],[37.59003189308176,47.565349],[37.590031,47.565349],[37.590202,47.569172],[37.59020318783542,47.569172],[37.590273,47.570733],[37.591019,47.57077],[37.590941,47.569056],[37.590940834992146,47.569056],[37.590776,47.565354],[37.590705,47.565349],[37.59069829166664,47.565349],[37.59003,47.565306]]]}},{"type":"Feature","properties":{"cadnum":"1424587200:02:000:0095"},"geometry":{"type":"Polygon","coordinates":[[[37.589504,47.565465],[37.58950571726349,47.565465],[37.589032611170495,47.569056],[37.589032,47.569056],[37.589028,47.569091],[37.58928,47.569085],[37.589321,47.569172],[37.58932105093834,47.569172],[37.589795945204465,47.570178452052645],[37.590053,47.570724],[37.590164,47.570731],[37.590273,47.570733],[37.590198,47.569056],[37.59019681140465,47.569056],[37.59003618859535,47.565465],[37.590037,47.565465],[37.59003,47.565306],[37.58964436679529,47.56527859459459],[37.589531,47.56527],[37.589504,47.565465]]]}},{"type":"Feature","properties":{"cadnum":"1424587200:02:000:0099"},"geometry":{"type":"Polygon","coordinates":[[[37.596412,47.551038],[37.595766,47.551014],[37.59544459651756,47.554229],[37.595444,47.554229],[37.595321,47.55548],[37.595969,47.555513],[37.596096,47.554229],[37.5960955052918,47.554229],[37.596412,47.551038]]]}},{"type":"Feature","properties":{"cadnum":"1424587200:02:000:0097"},"geometry":{"type":"Polygon","coordinates":[[[37.599053,47.551141],[37.598393,47.551114],[37.598073,47.554345],[37.59807356690647,47.554345],[37.597948,47.555619],[37.598604,47.555652],[37.5987335059733,47.554345],[37.598734,47.554345],[37.599053,47.551141]]]}},{"type":"Feature","properties":{"cadnum":"1424587200:02:000:0098"},"geometry":{"type":"Polygon","coordinates":[[[37.598393,47.551114],[37.597733,47.55109],[37.59741,47.554345],[37.597410519940915,47.554345],[37.597288,47.555583],[37.597948,47.555619],[37.598085,47.554229],[37.598084488703186,47.554229],[37.598393,47.551114]]]}},{"type":"Feature","properties":{"cadnum":"1424587200:02:000:0101"},"geometry":{"type":"Polygon","coordinates":[[[37.597733,47.55109],[37.597072,47.551065],[37.596746,47.554345],[37.59674657575758,47.554345],[37.596628,47.555549],[37.597288,47.555583],[37.597422,47.554229],[37.5974215109063,47.554229],[37.597733,47.55109]]]}},{"type":"Feature","properties":{"cadnum":"1424587200:02:000:0100"},"geometry":{"type":"Polygon","coordinates":[[[37.59512,47.55099],[37.59479851356185,47.554229],[37.594798,47.554229],[37.594678,47.555446],[37.595129,47.555469889245586],[37.595129,47.55547],[37.59525398113558,47.55547650943414],[37.595301,47.555479],[37.595301,47.55547895833334],[37.595321,47.55548],[37.59543259472422,47.554345],[37.595433,47.554345],[37.595766,47.551014],[37.595301,47.55099721036107],[37.595301,47.550997],[37.59512,47.55099]]]}},{"type":"Feature","properties":{"cadnum":"1424587200:02:000:0102"},"geometry":{"type":"Polygon","coordinates":[[[37.597072,47.551065],[37.596412,47.551038],[37.596084,47.554345],[37.59608452647975,47.554345],[37.595969,47.555513],[37.596628,47.555549],[37.596758,47.554229],[37.596757529268295,47.554229],[37.597072,47.551065]]]}},{"type":"Feature","properties":{"cadnum":"1424587200:02:000:0103"},"geometry":{"type":"Polygon","coordinates":[[[37.589805,47.550863],[37.589636,47.550856],[37.589636,47.55085609499489],[37.588826,47.550823],[37.588474,47.554345],[37.58847545248869,47.554345],[37.588399,47.555113],[37.589378,47.555164],[37.589471,47.554229],[37.58947052670879,47.554229],[37.589636,47.55256374566474],[37.589636,47.552567],[37.589805,47.550863]]]}}]}