{"type":"FeatureCollection","features":[{"type":"Feature","properties":{"cadnum":"1425587607:00:000:0025"},"geometry":{"type":"Polygon","coordinates":[[[37.824086,48.088505],[37.825232,48.088132],[37.825115,48.088003],[37.823964,48.0884],[37.824086,48.088505]]]}},{"type":"Feature","properties":{"cadnum":"1425587607:00:000:0026"},"geometry":{"type":"Polygon","coordinates":[[[37.829067,48.088178],[37.830459,48.08774],[37.83041,48.087629],[37.830213,48.087676],[37.830217,48.08774],[37.829956,48.087805],[37.829926,48.087742],[37.829777,48.087776],[37.829085,48.087847],[37.828987,48.088003],[37.829067,48.088178]]]}}]}