{"type":"FeatureCollection","features":[{"type":"Feature","properties":{"cadnum":"1425582101:00:000:0007"},"geometry":{"type":"Polygon","coordinates":[[[37.735005,48.204862],[37.735059,48.204635],[37.73385,48.204509],[37.733801,48.204748],[37.734084,48.204775],[37.735005,48.204862]]]}},{"type":"Feature","properties":{"cadnum":"1425582101:00:000:0013"},"geometry":{"type":"Polygon","coordinates":[[[37.723623,48.211672],[37.723623,48.211606],[37.723659,48.210909],[37.723426,48.2109],[37.723357,48.211657],[37.723623,48.211672]]]}}]}