{"type":"FeatureCollection","features":[{"type":"Feature","properties":{"cadnum":"1425583400:01:000:0051"},"geometry":{"type":"Polygon","coordinates":[[[37.556677,48.13303665898617],[37.556677,48.133037],[37.55678528399626,48.13298650902477],[37.556849,48.132957],[37.556849,48.132956799342104],[37.557893,48.13247],[37.557838,48.132122],[37.556849,48.13204703703703],[37.556849,48.132047],[37.551987,48.131676],[37.551758,48.133013],[37.55514371112266,48.13312679882077],[37.556393,48.133169],[37.55650860784314,48.13311464705882],[37.556677,48.13303665898617]]]}}]}