{"type":"FeatureCollection","features":[{"type":"Feature","properties":{"cadnum":"1425587303:00:000:0025"},"geometry":{"type":"Polygon","coordinates":[[[37.644221,48.268234],[37.644428,48.268016],[37.64366,48.267687],[37.643453,48.267905],[37.644221,48.268234]]]}},{"type":"Feature","properties":{"cadnum":"1425587303:00:000:0020"},"geometry":{"type":"Polygon","coordinates":[[[37.648088,48.261895],[37.647149,48.26124],[37.646885,48.261378],[37.647818,48.262032],[37.648088,48.261895]]]}},{"type":"Feature","properties":{"cadnum":"1425587303:00:000:0021"},"geometry":{"type":"Polygon","coordinates":[[[37.648241,48.262326],[37.648506,48.262189],[37.648088,48.261895],[37.647818,48.262032],[37.648241,48.262326]]]}}]}