{"type":"FeatureCollection","features":[{"type":"Feature","properties":{"cadnum":"1425582104:00:000:0014"},"geometry":{"type":"Polygon","coordinates":[[[37.803806,48.216078],[37.803869,48.21610588085107],[37.803869,48.216106],[37.804571,48.216418],[37.804875,48.216155],[37.804103,48.21582],[37.803869,48.216023],[37.803869,48.2160233106383],[37.803806,48.216078]]]}},{"type":"Feature","properties":{"cadnum":"1425582104:00:000:0018"},"geometry":{"type":"Polygon","coordinates":[[[37.790759,48.202161],[37.790485,48.202221],[37.790026,48.202745],[37.790417,48.202868],[37.79049581060616,48.20270349242404],[37.790759,48.202161]]]}},{"type":"Feature","properties":{"cadnum":"1425582104:00:000:0017"},"geometry":{"type":"Polygon","coordinates":[[[37.789843,48.20353],[37.790417,48.202868],[37.790026,48.202745],[37.789546,48.203317],[37.789843,48.20353]]]}},{"type":"Feature","properties":{"cadnum":"1425582104:00:000:0022"},"geometry":{"type":"Polygon","coordinates":[[[37.793055,48.21101749777778],[37.793108,48.211046],[37.793292,48.210603],[37.793076,48.210543],[37.79298738993722,48.21064997484264],[37.792797,48.210878],[37.792883,48.21092466666667],[37.792883,48.210925],[37.79295161702153,48.21096190070936],[37.793055,48.211018],[37.793055,48.21101749777778]]]}},{"type":"Feature","properties":{"cadnum":"1425582104:00:000:0021"},"geometry":{"type":"Polygon","coordinates":[[[37.793669,48.210726],[37.793804,48.210543],[37.794001,48.210319],[37.793535,48.210155],[37.793426,48.210118],[37.793148,48.210459],[37.793076,48.210543],[37.793292,48.210603],[37.793669,48.210726]]]}},{"type":"Feature","properties":{"cadnum":"1425582104:00:000:0015"},"geometry":{"type":"Polygon","coordinates":[[[37.803779,48.215931],[37.803932,48.215799],[37.802913,48.215357],[37.80276,48.215482],[37.803779,48.215931]]]}},{"type":"Feature","properties":{"cadnum":"1425582104:00:000:0016"},"geometry":{"type":"Polygon","coordinates":[[[37.801978,48.215961],[37.802051,48.215604],[37.801947,48.215533],[37.801498,48.215485],[37.801328,48.215925],[37.801978,48.215961]]]}},{"type":"Feature","properties":{"cadnum":"1425582104:00:000:0019"},"geometry":{"type":"Polygon","coordinates":[[[37.80377,48.215757],[37.803856,48.215601],[37.802688,48.215386],[37.802598,48.215535],[37.80377,48.215757]]]}}]}