{"type":"FeatureCollection","features":[{"type":"Feature","properties":{"cadnum":"1425555201:00:000:0020"},"geometry":{"type":"Polygon","coordinates":[[[37.85343772413857,48.17786075862029],[37.853479,48.177835],[37.853479,48.17783490909091],[37.853506,48.177818],[37.85339136842238,48.17778731578983],[37.853294,48.177761],[37.852688,48.178],[37.85308,48.178084],[37.853308,48.177941714285716],[37.853308,48.177942],[37.85343772413857,48.17786075862029]]]}},{"type":"Feature","properties":{"cadnum":"1425555201:00:000:0019"},"geometry":{"type":"Polygon","coordinates":[[[37.852688,48.178],[37.853294,48.177761],[37.852921,48.177656],[37.852935,48.177536],[37.852298,48.177575],[37.852217,48.177845],[37.852688,48.178]]]}},{"type":"Feature","properties":{"cadnum":"1425555201:00:000:0031"},"geometry":{"type":"Polygon","coordinates":[[[37.86367,48.175991],[37.863653,48.175619],[37.863487,48.175598],[37.863477,48.175676],[37.863217,48.175967],[37.86367,48.175991]]]}},{"type":"Feature","properties":{"cadnum":"1425555201:00:000:0030"},"geometry":{"type":"Polygon","coordinates":[[[37.864466,48.17600165384615],[37.864502,48.176002],[37.864726,48.175763],[37.864466,48.17572508333333],[37.864466,48.175725],[37.86411,48.175673],[37.863653,48.175619],[37.86367,48.175991],[37.864294,48.17599962311558],[37.864294,48.176],[37.86438365517294,48.17600086206897],[37.864466,48.176002],[37.864466,48.17600165384615]]]}}]}