{"type":"FeatureCollection","features":[{"type":"Feature","properties":{"cadnum":"1425583201:00:000:0032"},"geometry":{"type":"Polygon","coordinates":[[[37.546664,48.192952],[37.546678,48.192097],[37.546341,48.192093],[37.546295,48.192952],[37.546664,48.192952]]]}},{"type":"Feature","properties":{"cadnum":"1425583201:00:000:0033"},"geometry":{"type":"Polygon","coordinates":[[[37.546686,48.191431],[37.546376,48.191429],[37.54636317231638,48.191668],[37.546362,48.191668],[37.546341,48.192093],[37.546678,48.192097],[37.546682,48.191668],[37.546681960227275,48.191668],[37.546686,48.191431]]]}}]}