{"type":"FeatureCollection","features":[{"type":"Feature","properties":{"cadnum":"2320684502:01:011:0020"},"geometry":{"type":"Polygon","coordinates":[[[37.045343,46.878612],[37.045605,46.878416],[37.045338,46.878262],[37.045064,46.878468],[37.045343,46.878612]]]}},{"type":"Feature","properties":{"cadnum":"2320684502:01:011:0024"},"geometry":{"type":"Polygon","coordinates":[[[37.044532,46.878636],[37.044341,46.878834],[37.04451032642487,46.87891],[37.04451,46.87891],[37.04472465268944,46.87900619760247],[37.044771,46.879027],[37.04477107058824,46.879027],[37.045079,46.879165],[37.045202,46.879074],[37.04532,46.878987],[37.044532,46.878636]]]}},{"type":"Feature","properties":{"cadnum":"2320684502:01:011:0009"},"geometry":{"type":"Polygon","coordinates":[[[37.045906,46.878725],[37.045813,46.878681],[37.045813,46.878681013513514],[37.045758,46.878655],[37.045602,46.878773],[37.045468,46.878876],[37.045657,46.878967],[37.045813,46.87881538554217],[37.045813,46.878816],[37.045906,46.878725]]]}},{"type":"Feature","properties":{"cadnum":"2320684502:01:011:0008"},"geometry":{"type":"Polygon","coordinates":[[[37.045783,46.879027],[37.045783885245896,46.879027],[37.045813,46.879040767441865],[37.045813,46.879041],[37.045915,46.879089],[37.045984,46.879124],[37.045984,46.87912258730159],[37.046482,46.879365],[37.046517,46.879344],[37.046641,46.879234],[37.04662,46.879195],[37.046686,46.879144],[37.046472,46.878992],[37.045906,46.878725],[37.045715648760336,46.87891],[37.045715,46.87891],[37.045657,46.878967],[37.045783,46.879027]]]}},{"type":"Feature","properties":{"cadnum":"2320684502:01:011:0011"},"geometry":{"type":"Polygon","coordinates":[[[37.046035,46.878092],[37.045813,46.877964],[37.045813,46.877964041666665],[37.045768,46.877938],[37.045338,46.878262],[37.045064,46.878468],[37.045343,46.878612],[37.045605,46.878416],[37.045813,46.878259039577834],[37.045813,46.87826],[37.046035,46.878092]]]}},{"type":"Feature","properties":{"cadnum":"2320684502:01:011:0014"},"geometry":{"type":"Polygon","coordinates":[[[37.045064,46.878468],[37.045768,46.877938],[37.045496,46.877788],[37.044797,46.878326],[37.045064,46.878468]]]}},{"type":"Feature","properties":{"cadnum":"2320684502:01:011:0013"},"geometry":{"type":"Polygon","coordinates":[[[37.045913,46.878536],[37.045984,46.878483],[37.045984,46.87848285142857],[37.046088,46.878405],[37.046306,46.878242],[37.046035,46.878092],[37.045984,46.8781305945946],[37.045984,46.87813],[37.045343,46.878612],[37.045622,46.878756],[37.045756,46.878654],[37.045813,46.87861115923566],[37.045813,46.878612],[37.045913,46.878536]]]}},{"type":"Feature","properties":{"cadnum":"2320684502:01:011:0003"},"geometry":{"type":"Polygon","coordinates":[[[37.045468,46.878876],[37.04542266666667,46.87891],[37.045422,46.87891],[37.04532,46.878987],[37.045265,46.879027],[37.045265747126436,46.879027],[37.045202,46.879074],[37.045695,46.879315],[37.045813,46.87919350887574],[37.045813,46.879194],[37.045864,46.879141],[37.045915,46.879089],[37.04563538007348,46.8789562361622],[37.045468,46.878876]]]}},{"type":"Feature","properties":{"cadnum":"2320684502:01:011:0019"},"geometry":{"type":"Polygon","coordinates":[[[37.046035,46.878092],[37.045813,46.877964],[37.045813,46.877964041666665],[37.045768,46.877938],[37.045338,46.878262],[37.045603,46.878416],[37.045813,46.87825836220472],[37.045813,46.878259],[37.046035,46.878092]]]}},{"type":"Feature","properties":{"cadnum":"2320684502:01:011:0025"},"geometry":{"type":"Polygon","coordinates":[[[37.044341,46.878834],[37.044305,46.878871],[37.0443915,46.87891],[37.04439,46.87891],[37.0446179727274,46.879012109090965],[37.044651,46.879027],[37.04465121875,46.879027],[37.045033,46.879198],[37.045079,46.879165],[37.04472465268944,46.87900619760247],[37.044341,46.878834]]]}},{"type":"Feature","properties":{"cadnum":"2320684502:01:011:0006"},"geometry":{"type":"Polygon","coordinates":[[[37.047375,46.878636],[37.046856,46.878386],[37.046506,46.878806],[37.04676152941176,46.87891],[37.046759,46.87891],[37.047049,46.879027],[37.047375,46.878636]]]}},{"type":"Feature","properties":{"cadnum":"2320684502:01:011:0005"},"geometry":{"type":"Polygon","coordinates":[[[37.045864,46.879141],[37.046417,46.879414],[37.046482,46.879365],[37.045915,46.879089],[37.045864,46.879141]]]}},{"type":"Feature","properties":{"cadnum":"2320684502:01:011:0023"},"geometry":{"type":"Polygon","coordinates":[[[37.045939,46.880188],[37.045984,46.880188],[37.045984,46.88018730555555],[37.046263,46.880183],[37.046497,46.879983],[37.04647,46.879873],[37.04656,46.879734],[37.046326,46.879618],[37.045813,46.880125],[37.045813,46.880125296442685],[37.045731,46.880206],[37.045798,46.88023],[37.045813,46.88022553191489],[37.045813,46.880226],[37.045939,46.880188]]]}},{"type":"Feature","properties":{"cadnum":"2320684502:01:006:0001"},"geometry":{"type":"Polygon","coordinates":[[[37.045984,46.88271683333334],[37.045991,46.882713],[37.045984,46.88270717977528],[37.045984,46.882707],[37.04594438095321,46.88267423809592],[37.045813,46.882565],[37.045813,46.88256575966851],[37.045622,46.882408],[37.045322,46.882601],[37.045284,46.882607],[37.045223,46.882573],[37.04509995774648,46.882664],[37.045098,46.882664],[37.045031,46.882715],[37.045111,46.882782],[37.04511217307692,46.882782],[37.045409,46.883027],[37.045813,46.88280919130435],[37.045813,46.88281],[37.0458643814433,46.882782],[37.045865,46.882782],[37.04595600000055,46.882732166666365],[37.045984,46.882717],[37.045984,46.88271683333334]]]}},{"type":"Feature","properties":{"cadnum":"2320684502:01:009:0002"},"geometry":{"type":"Polygon","coordinates":[[[37.048308,46.882625],[37.047972,46.882488],[37.047766068027215,46.882664],[37.047765,46.882664],[37.047394,46.882982],[37.047616,46.883099],[37.047746,46.882986],[37.047866,46.883038],[37.04815160746015,46.88277028774412],[37.048308,46.882625]]]}},{"type":"Feature","properties":{"cadnum":"2320684502:01:006:0003"},"geometry":{"type":"Polygon","coordinates":[[[37.045984,46.88266242253521],[37.04598624,46.882664],[37.045986,46.882664],[37.046026,46.882692],[37.046053,46.882674],[37.046216,46.882782],[37.04621745454545,46.882782],[37.046254,46.882806],[37.046296881597954,46.88276953780294],[37.046608,46.882509],[37.046372,46.882367],[37.046094,46.882202],[37.045888697959626,46.88229259591817],[37.045622,46.882409],[37.045984,46.882663],[37.045984,46.88266242253521]]]}},{"type":"Feature","properties":{"cadnum":"2320684502:01:010:0013"},"geometry":{"type":"Polygon","coordinates":[[[37.048308,46.882625],[37.048266019108276,46.882664],[37.048265,46.882664],[37.04815160746015,46.88277028774412],[37.048139,46.882782],[37.04813911229947,46.882782],[37.047866,46.883038],[37.048142,46.883179],[37.048565,46.882784],[37.048371,46.882664],[37.04837035031847,46.882664],[37.048308,46.882625]]]}},{"type":"Feature","properties":{"cadnum":"2320684502:01:010:0018"},"geometry":{"type":"Polygon","coordinates":[[[37.048717,46.882582],[37.048756,46.882545],[37.048782,46.882515],[37.048943,46.882319],[37.049101,46.882129],[37.048679,46.881951],[37.048225,46.88245],[37.048244,46.882457],[37.048447,46.882542],[37.048524,46.882575],[37.048717,46.882582]]]}},{"type":"Feature","properties":{"cadnum":"2320684502:01:009:0005"},"geometry":{"type":"Polygon","coordinates":[[[37.045984,46.88271901612904],[37.045984,46.882719],[37.045979,46.882722],[37.045617,46.88292],[37.04566,46.882952],[37.045813,46.8830608764045],[37.045813,46.883061],[37.045927,46.883142],[37.045984,46.883179],[37.045984,46.88317879090909],[37.046037,46.883213],[37.046354,46.883017],[37.046451,46.882956],[37.046244,46.882817],[37.046041,46.882685],[37.045984,46.88271901612904]]]}},{"type":"Feature","properties":{"cadnum":"2320684502:01:010:0015"},"geometry":{"type":"Polygon","coordinates":[[[37.047415,46.881804],[37.047689,46.881523],[37.047662,46.881511],[37.047819,46.881345],[37.047675,46.881281],[37.04723,46.881721],[37.047415,46.881804]]]}},{"type":"Feature","properties":{"cadnum":"2320684502:01:010:0010"},"geometry":{"type":"Polygon","coordinates":[[[37.047563,46.882026],[37.047678,46.881921],[37.04723,46.881721],[37.047123,46.881827],[37.047563,46.882026]]]}},{"type":"Feature","properties":{"cadnum":"2320684502:01:010:0011"},"geometry":{"type":"Polygon","coordinates":[[[37.048515,46.881526],[37.04859,46.881163],[37.048386,46.881051],[37.04809,46.88139],[37.048445,46.881508],[37.048515,46.881526]]]}},{"type":"Feature","properties":{"cadnum":"2320684502:01:010:0014"},"geometry":{"type":"Polygon","coordinates":[[[37.047678,46.881921],[37.048151,46.881493],[37.047819,46.881345],[37.047662,46.881511],[37.047689,46.881523],[37.047415,46.881804],[37.047678,46.881921]]]}},{"type":"Feature","properties":{"cadnum":"2320684502:01:011:0004"},"geometry":{"type":"Polygon","coordinates":[[[37.045984,46.87945818461538],[37.046203,46.879566],[37.046211,46.879564],[37.046417,46.879414],[37.045984,46.87920024050632],[37.045984,46.8792],[37.045864,46.879141],[37.045695,46.879315],[37.045813,46.87937379584775],[37.045813,46.879374],[37.04584724107133,46.8793908571428],[37.045984,46.879459],[37.045984,46.87945818461538]]]}},{"type":"Feature","properties":{"cadnum":"2320684502:01:011:0021"},"geometry":{"type":"Polygon","coordinates":[[[37.046981,46.879317],[37.047269,46.879258],[37.047325,46.879141],[37.04713,46.87906],[37.046902,46.87927],[37.046981,46.879317]]]}},{"type":"Feature","properties":{"cadnum":"2320684502:01:009:0010"},"geometry":{"type":"Polygon","coordinates":[[[37.047356,46.881111],[37.047478,46.880969],[37.04724,46.88087],[37.047108,46.881016],[37.047356,46.881111]]]}},{"type":"Feature","properties":{"cadnum":"2320684502:01:009:0009"},"geometry":{"type":"Polygon","coordinates":[[[37.047624,46.881213],[37.047978,46.880814],[37.047521,46.88056],[37.04724,46.88087],[37.047478,46.880969],[37.047356,46.881111],[37.047624,46.881213]]]}},{"type":"Feature","properties":{"cadnum":"2320684502:01:010:0001"},"geometry":{"type":"Polygon","coordinates":[[[37.049274,46.880133],[37.049742,46.879761],[37.049518,46.879653],[37.049393,46.87978],[37.049169,46.879731],[37.049045,46.879678],[37.049026,46.879693],[37.048945,46.879652],[37.048865,46.879725],[37.04877,46.879674],[37.048642,46.879718],[37.048561,46.879788],[37.048763,46.879905],[37.049274,46.880133]]]}},{"type":"Feature","properties":{"cadnum":"2320684502:01:010:0002"},"geometry":{"type":"Polygon","coordinates":[[[37.049764,46.881254],[37.050068,46.880888],[37.050509,46.880569],[37.049837,46.879808],[37.049742,46.879761],[37.049274,46.880133],[37.049404,46.880184],[37.04888,46.880883],[37.049764,46.881254]]]}},{"type":"Feature","properties":{"cadnum":"2320684502:01:011:0017"},"geometry":{"type":"Polygon","coordinates":[[[37.04656,46.879734],[37.046637,46.87968],[37.046939,46.87968],[37.046969,46.879633],[37.046553,46.87951],[37.046417,46.879533],[37.046326,46.879617],[37.04656,46.879734]]]}},{"type":"Feature","properties":{"cadnum":"2320684502:01:010:0008"},"geometry":{"type":"Polygon","coordinates":[[[37.048723,46.880871],[37.049063,46.880586],[37.048668,46.880386],[37.048342,46.880658],[37.048723,46.880871]]]}},{"type":"Feature","properties":{"cadnum":"2320684502:01:009:0008"},"geometry":{"type":"Polygon","coordinates":[[[37.047624,46.881213],[37.047978,46.880814],[37.047521,46.88056],[37.047108,46.881016],[37.047624,46.881213]]]}},{"type":"Feature","properties":{"cadnum":"2320684502:01:009:0007"},"geometry":{"type":"Polygon","coordinates":[[[37.04691,46.881728],[37.0473,46.881163],[37.0468,46.881005],[37.04655,46.881597],[37.04691,46.881728]]]}},{"type":"Feature","properties":{"cadnum":"2320684502:01:010:0017"},"geometry":{"type":"Polygon","coordinates":[[[37.04809,46.88139],[37.048386,46.881051],[37.048393,46.881043],[37.048216,46.880945],[37.047893,46.881315],[37.04809,46.88139]]]}},{"type":"Feature","properties":{"cadnum":"2320684502:01:010:0016"},"geometry":{"type":"Polygon","coordinates":[[[37.047893,46.881315],[37.048216,46.880945],[37.047978,46.880814],[37.047624,46.881213],[37.047893,46.881315]]]}},{"type":"Feature","properties":{"cadnum":"2320684502:01:010:0003"},"geometry":{"type":"Polygon","coordinates":[[[37.049065,46.881459],[37.049243,46.881036],[37.048814,46.880856],[37.048721,46.881076],[37.048809,46.881259],[37.049065,46.881459]]]}},{"type":"Feature","properties":{"cadnum":"2320684502:01:010:0004"},"geometry":{"type":"Polygon","coordinates":[[[37.04958,46.881717],[37.049764,46.881254],[37.049243,46.881036],[37.049065,46.881459],[37.049077,46.881467],[37.04958,46.881717]]]}},{"type":"Feature","properties":{"cadnum":"2320684502:01:010:0019"},"geometry":{"type":"Polygon","coordinates":[[[37.049101,46.882129],[37.049171,46.882045],[37.049383,46.881794],[37.04905,46.881582],[37.048976,46.881649],[37.048829,46.881784],[37.048679,46.881951],[37.049101,46.882129]]]}},{"type":"Feature","properties":{"cadnum":"2320684502:01:010:0005"},"geometry":{"type":"Polygon","coordinates":[[[37.048561,46.881064],[37.048723,46.880871],[37.048158,46.880554],[37.048129,46.880558],[37.047905,46.880697],[37.048561,46.881064]]]}},{"type":"Feature","properties":{"cadnum":"2320684502:01:010:0012"},"geometry":{"type":"Polygon","coordinates":[[[37.048342,46.880658],[37.048668,46.880386],[37.048557,46.880331],[37.048401,46.880439],[37.048122,46.8803],[37.047956,46.88044],[37.048158,46.880554],[37.048342,46.880658]]]}},{"type":"Feature","properties":{"cadnum":"2320684502:01:001:0015"},"geometry":{"type":"Polygon","coordinates":[[[37.040848,46.886492],[37.040812,46.886536],[37.04081202702702,46.886536],[37.040727,46.88664],[37.041345,46.886871],[37.041524,46.886652],[37.040907,46.88642],[37.040848,46.886492]]]}},{"type":"Feature","properties":{"cadnum":"2320684502:01:001:0016"},"geometry":{"type":"Polygon","coordinates":[[[37.041087,46.886198],[37.040907810810815,46.886419],[37.040907,46.886419],[37.040907,46.88642],[37.041215,46.886536],[37.0412155,46.886536],[37.041524,46.886652],[37.041701,46.886434],[37.041087,46.886198]]]}},{"type":"Feature","properties":{"cadnum":"2320684502:01:005:0002"},"geometry":{"type":"Polygon","coordinates":[[[37.044528,46.884314],[37.044974,46.883838],[37.044654,46.883577],[37.04415,46.884015],[37.044528,46.884314]]]}},{"type":"Feature","properties":{"cadnum":"2320684502:01:005:0012"},"geometry":{"type":"Polygon","coordinates":[[[37.043187,46.884589],[37.04326,46.88452],[37.043388,46.884397],[37.043344,46.884372],[37.042862,46.884116],[37.042601,46.883974],[37.04259,46.883972],[37.042497,46.884069],[37.042481,46.88406],[37.04245,46.88409],[37.042468,46.884099],[37.042351,46.884216],[37.043187,46.884589]]]}},{"type":"Feature","properties":{"cadnum":"2320684502:01:005:0010"},"geometry":{"type":"Polygon","coordinates":[[[37.043344,46.884372],[37.043613,46.884121],[37.043427,46.884022],[37.043122,46.883856],[37.042872,46.883722],[37.042601,46.883974],[37.042862,46.884116],[37.043344,46.884372]]]}},{"type":"Feature","properties":{"cadnum":"2320684502:01:005:0003"},"geometry":{"type":"Polygon","coordinates":[[[37.044421,46.884427],[37.044528,46.884314],[37.04415,46.884015],[37.044032,46.884117],[37.044085,46.884159],[37.043843,46.884307],[37.044421,46.884427]]]}},{"type":"Feature","properties":{"cadnum":"2320684502:01:004:0005"},"geometry":{"type":"Polygon","coordinates":[[[37.042251,46.883252],[37.042357,46.883234],[37.042505,46.883186],[37.042641,46.883095],[37.042272,46.883046],[37.042201,46.883063],[37.042125,46.883125],[37.042117,46.883122],[37.042083,46.883151],[37.042053,46.88319],[37.042251,46.883252]]]}},{"type":"Feature","properties":{"cadnum":"2320684502:01:004:0009"},"geometry":{"type":"Polygon","coordinates":[[[37.041032,46.882609],[37.040982722543355,46.882664],[37.040982,46.882664],[37.04089452436611,46.882762440546216],[37.040877,46.882782],[37.04087714356436,46.882782],[37.040623,46.883068],[37.040906,46.883091],[37.04126,46.882695],[37.041178,46.882664],[37.04117781395349,46.882664],[37.041032,46.882609]]]}},{"type":"Feature","properties":{"cadnum":"2320684502:01:004:0001"},"geometry":{"type":"Polygon","coordinates":[[[37.042041,46.883891],[37.042369,46.88359],[37.042492,46.883415],[37.042546,46.883351],[37.042068,46.883314],[37.042023,46.883311],[37.041919,46.883392],[37.04173,46.883539],[37.041577,46.883654],[37.042041,46.883891]]]}},{"type":"Feature","properties":{"cadnum":"2320684502:01:004:0002"},"geometry":{"type":"Polygon","coordinates":[[[37.04167,46.884234],[37.042041,46.883891],[37.041577,46.883654],[37.041498,46.883715],[37.041563,46.883763],[37.041585,46.883781],[37.041301,46.884067],[37.04167,46.884234]]]}},{"type":"Feature","properties":{"cadnum":"2320684502:01:008:0010"},"geometry":{"type":"Polygon","coordinates":[[[37.041229,46.884059],[37.041563,46.883763],[37.041498,46.883715],[37.041577,46.883654],[37.04173,46.883539],[37.041749,46.883524],[37.041345,46.883393],[37.040808,46.883841],[37.041229,46.884059]]]}},{"type":"Feature","properties":{"cadnum":"2320684502:01:006:0002"},"geometry":{"type":"Polygon","coordinates":[[[37.044942,46.882782],[37.04494215217391,46.882782],[37.044909,46.882807],[37.045103,46.883106],[37.045383,46.883041],[37.045409,46.883027],[37.045031,46.882715],[37.044942,46.882782]]]}},{"type":"Feature","properties":{"cadnum":"2320684502:01:001:0023"},"geometry":{"type":"Polygon","coordinates":[[[37.04591917768638,46.88411298347084],[37.045984,46.884078],[37.045984,46.88407756392295],[37.046384,46.883859],[37.045968,46.883522],[37.045489,46.883799],[37.045668,46.883996],[37.045736,46.884086],[37.045795,46.88418],[37.045813,46.88417028571428],[37.045813,46.884171],[37.04591917768638,46.88411298347084]]]}},{"type":"Feature","properties":{"cadnum":"2320684502:01:009:0006"},"geometry":{"type":"Polygon","coordinates":[[[37.045813,46.88322379661017],[37.045813,46.883224],[37.045927,46.883142],[37.04566,46.882952],[37.045495,46.883057],[37.04575,46.883269],[37.045813,46.88322379661017]]]}},{"type":"Feature","properties":{"cadnum":"2320684502:01:005:0006"},"geometry":{"type":"Polygon","coordinates":[[[37.044073,46.884081],[37.04415,46.884015],[37.044654,46.883577],[37.044372,46.883368],[37.043719,46.883862],[37.043707,46.883879],[37.044073,46.884081]]]}},{"type":"Feature","properties":{"cadnum":"2320684502:01:005:0011"},"geometry":{"type":"Polygon","coordinates":[[[37.043753,46.884202],[37.043824,46.884128],[37.043892,46.884065],[37.043855,46.884043],[37.043263,46.883691],[37.043008,46.883583],[37.04287,46.883721],[37.043122,46.883856],[37.043427,46.884022],[37.043613,46.884121],[37.043657,46.884145],[37.043753,46.884202]]]}},{"type":"Feature","properties":{"cadnum":"2320684502:01:005:0009"},"geometry":{"type":"Polygon","coordinates":[[[37.045105,46.884466],[37.045377,46.884169],[37.044974,46.883838],[37.044528,46.884314],[37.044502,46.884341],[37.045105,46.884466]]]}},{"type":"Feature","properties":{"cadnum":"2320684502:01:005:0013"},"geometry":{"type":"Polygon","coordinates":[[[37.043812,46.883467],[37.044199,46.883217],[37.043834,46.882959],[37.043784,46.88298],[37.043641,46.883069],[37.043436,46.883216],[37.043812,46.883467]]]}},{"type":"Feature","properties":{"cadnum":"2320684502:01:003:0003"},"geometry":{"type":"Polygon","coordinates":[[[37.040514,46.885498],[37.040429782608946,46.88545524347839],[37.040171,46.885321],[37.039568,46.885868],[37.039914,46.886045],[37.040491,46.88552],[37.040491,46.88551899487179],[37.040514,46.885498]]]}},{"type":"Feature","properties":{"cadnum":"2320684502:01:001:0018"},"geometry":{"type":"Polygon","coordinates":[[[37.040184,46.886244],[37.03993608333334,46.886419],[37.039936,46.886419],[37.039878,46.88646],[37.040319,46.88662546492659],[37.040319,46.886626],[37.040641,46.886746],[37.040727,46.88664],[37.040848,46.886492],[37.040491,46.886359052930054],[37.040491,46.886359],[37.040184,46.886244]]]}},{"type":"Feature","properties":{"cadnum":"2320684502:01:001:0019"},"geometry":{"type":"Polygon","coordinates":[[[37.040184,46.886244],[37.040319,46.88629457003257],[37.040319,46.886295],[37.04065197461929,46.886419],[37.040651,46.886419],[37.040848,46.886492],[37.040907,46.88642],[37.041087,46.886198],[37.040514,46.885978],[37.040417,46.886078],[37.040319,46.886147],[37.040319,46.88614781974249],[37.040184,46.886244]]]}},{"type":"Feature","properties":{"cadnum":"2320684502:01:003:0005"},"geometry":{"type":"Polygon","coordinates":[[[37.041772,46.885903],[37.041989,46.885662],[37.04123,46.885323],[37.041038,46.885509],[37.041517,46.885765],[37.041772,46.885903]]]}},{"type":"Feature","properties":{"cadnum":"2320684502:01:005:0001"},"geometry":{"type":"Polygon","coordinates":[[[37.042957,46.884829],[37.043187,46.884589],[37.042351,46.884216],[37.042106,46.884468],[37.042957,46.884829]]]}},{"type":"Feature","properties":{"cadnum":"2320684502:01:004:0004"},"geometry":{"type":"Polygon","coordinates":[[[37.040491,46.884621],[37.040209,46.884477],[37.039995,46.884675],[37.040319,46.88483569354838],[37.040319,46.884837],[37.040991,46.885169],[37.041195,46.884981],[37.040491,46.88462176712329],[37.040491,46.884621]]]}},{"type":"Feature","properties":{"cadnum":"2320684502:01:004:0015"},"geometry":{"type":"Polygon","coordinates":[[[37.040491,46.88462078238342],[37.041091,46.884927],[37.041281,46.884729],[37.040491,46.88434713929314],[37.040491,46.884347],[37.040258,46.884234],[37.040085,46.884413],[37.040319,46.8845328817734],[37.040319,46.884533],[37.040379549018205,46.88456390196007],[37.040491,46.884621],[37.040491,46.88462078238342]]]}},{"type":"Feature","properties":{"cadnum":"2320684502:01:003:0001"},"geometry":{"type":"Polygon","coordinates":[[[37.041107,46.886161],[37.041517,46.885765],[37.041038,46.885509],[37.040628,46.885904],[37.041107,46.886161]]]}},{"type":"Feature","properties":{"cadnum":"2320684502:01:003:0002"},"geometry":{"type":"Polygon","coordinates":[[[37.041361,46.886298],[37.041772,46.885903],[37.041517,46.885765],[37.041107,46.886161],[37.041361,46.886298]]]}},{"type":"Feature","properties":{"cadnum":"2320684502:01:004:0013"},"geometry":{"type":"Polygon","coordinates":[[[37.040491,46.885486323076925],[37.040514,46.885498],[37.040893,46.885119],[37.04038,46.884865],[37.040319,46.88492],[37.040319,46.88492030050505],[37.039984,46.885224],[37.040319,46.88539777712031],[37.040319,46.885399],[37.040429714285914,46.885455208791306],[37.040491,46.885487],[37.040491,46.885486323076925]]]}},{"type":"Feature","properties":{"cadnum":"2320684502:01:002:0001"},"geometry":{"type":"Polygon","coordinates":[[[37.038143,46.885919],[37.038368,46.885752],[37.037861,46.885487],[37.037694,46.88566],[37.038143,46.885919]]]}},{"type":"Feature","properties":{"cadnum":"2320684502:01:002:0002"},"geometry":{"type":"Polygon","coordinates":[[[37.038368,46.885752],[37.038765,46.885427],[37.038215,46.885132],[37.037861,46.885487],[37.038368,46.885752]]]}},{"type":"Feature","properties":{"cadnum":"2320684502:01:004:0007"},"geometry":{"type":"Polygon","coordinates":[[[37.039012,46.885268],[37.039264,46.885052],[37.038642,46.884707],[37.038406,46.884943],[37.038981,46.885252],[37.039012,46.885268]]]}},{"type":"Feature","properties":{"cadnum":"2320684502:01:004:0008"},"geometry":{"type":"Polygon","coordinates":[[[37.038765,46.885427],[37.038981,46.885252],[37.038898,46.885208],[37.038406,46.884943],[37.038215,46.885132],[37.038765,46.885427]]]}},{"type":"Feature","properties":{"cadnum":"2320684502:01:004:0011"},"geometry":{"type":"Polygon","coordinates":[[[37.04004,46.88424],[37.040218,46.884059],[37.039546,46.883746],[37.039369,46.883927],[37.04004,46.88424]]]}},{"type":"Feature","properties":{"cadnum":"2320684502:01:004:0012"},"geometry":{"type":"Polygon","coordinates":[[[37.039861,46.884421],[37.04004,46.88424],[37.039369,46.883927],[37.039189,46.884108],[37.039489,46.884244],[37.039861,46.884421]]]}},{"type":"Feature","properties":{"cadnum":"2320684502:01:002:0003"},"geometry":{"type":"Polygon","coordinates":[[[37.037952,46.886161],[37.038195,46.885949],[37.038143,46.885919],[37.037694,46.88566],[37.037472,46.885883],[37.037952,46.886161]]]}},{"type":"Feature","properties":{"cadnum":"2320684502:01:003:0004"},"geometry":{"type":"Polygon","coordinates":[[[37.039568,46.885868],[37.040171,46.885321],[37.039733,46.885095],[37.039126,46.885641],[37.039568,46.885868]]]}},{"type":"Feature","properties":{"cadnum":"2320684502:01:001:0001"},"geometry":{"type":"Polygon","coordinates":[[[37.039878,46.88646],[37.03977,46.886536],[37.03977044067797,46.886536],[37.039544,46.886696],[37.040319,46.88698540435281],[37.040319,46.886986],[37.040417,46.887022],[37.040491,46.886931],[37.040491,46.88693082142857],[37.040641,46.886746],[37.040491,46.88669009937888],[37.040491,46.88669],[37.04008055652174,46.886536],[37.040081,46.886536],[37.039878,46.88646]]]}},{"type":"Feature","properties":{"cadnum":"2320684502:01:004:0014"},"geometry":{"type":"Polygon","coordinates":[[[37.039984,46.885224],[37.04038,46.884865],[37.040129,46.884741],[37.039739,46.885097],[37.039984,46.885224]]]}},{"type":"Feature","properties":{"cadnum":"2320684502:01:025:0003"},"geometry":{"type":"Polygon","coordinates":[[[36.854878,46.833858],[36.854851,46.83395],[36.85485183945578,46.83395],[36.854669,46.834593],[36.854898,46.834623],[36.855079,46.83408],[36.855089,46.834062],[36.855136,46.833939],[36.854878,46.833858]]]}},{"type":"Feature","properties":{"cadnum":"2320684502:01:041:0019"},"geometry":{"type":"Polygon","coordinates":[[[36.899741,46.817274],[36.899746,46.817156],[36.899294,46.817107],[36.899202,46.817215],[36.899411,46.817247],[36.899738,46.817273],[36.899741,46.817274]]]}},{"type":"Feature","properties":{"cadnum":"2320684502:01:001:0012"},"geometry":{"type":"Polygon","coordinates":[[[37.039739,46.888848],[37.039917,46.888628],[37.0393,46.888397],[37.039253,46.888455],[37.039122,46.888617],[37.039739,46.888848]]]}},{"type":"Feature","properties":{"cadnum":"2320684502:01:001:0002"},"geometry":{"type":"Polygon","coordinates":[[[37.040319,46.88714265326634],[37.040319,46.887143],[37.040417,46.887022],[37.039544,46.886696],[37.039248,46.886905],[37.040218,46.887267],[37.040319,46.88714265326634]]]}},{"type":"Feature","properties":{"cadnum":"2320684502:01:001:0005"},"geometry":{"type":"Polygon","coordinates":[[[37.039917,46.888628],[37.040095,46.888409],[37.039479,46.888178],[37.03937,46.888311],[37.0393,46.888397],[37.039917,46.888628]]]}},{"type":"Feature","properties":{"cadnum":"2320684502:01:001:0004"},"geometry":{"type":"Polygon","coordinates":[[[37.04003,46.887498],[37.040218,46.887267],[37.039248,46.886905],[37.039243,46.886908],[37.039061,46.887143],[37.04003,46.887498]]]}},{"type":"Feature","properties":{"cadnum":"2320684502:01:001:0026"},"geometry":{"type":"Polygon","coordinates":[[[37.04033,46.88735],[37.040192,46.887299],[37.04003,46.887498],[37.040014,46.887518],[37.040319,46.887632454926624],[37.040319,46.887633],[37.040632,46.88775],[37.040657,46.887718],[37.040491,46.887656118343195],[37.040491,46.887656],[37.040177,46.887538],[37.040319,46.88736351633987],[37.040319,46.887364],[37.04033,46.88735]]]}},{"type":"Feature","properties":{"cadnum":"2320684502:01:001:0009"},"geometry":{"type":"Polygon","coordinates":[[[37.040095,46.888409],[37.040275,46.888189],[37.039657,46.887958],[37.039605,46.888022],[37.039488,46.888166],[37.039479,46.888178],[37.040095,46.888409]]]}},{"type":"Feature","properties":{"cadnum":"2320684502:01:001:0013"},"geometry":{"type":"Polygon","coordinates":[[[37.040491,46.88741],[37.04036094951427,46.88736172038824],[37.040319,46.887346],[37.040319,46.88734614715719],[37.040192,46.887299],[37.04003,46.887498],[37.040014,46.887518],[37.040319,46.887632454926624],[37.040319,46.887633],[37.040632,46.88775],[37.04081,46.88753],[37.040491,46.88741045621182],[37.040491,46.88741]]]}},{"type":"Feature","properties":{"cadnum":"2320684502:01:001:0017"},"geometry":{"type":"Polygon","coordinates":[[[37.040491,46.887124155088856],[37.040989,46.88731],[37.041167,46.887091],[37.040549,46.886859],[37.040417,46.887022],[37.04037,46.887079],[37.040491,46.887125],[37.040491,46.887124155088856]]]}},{"type":"Feature","properties":{"cadnum":"2320684502:01:001:0003"},"geometry":{"type":"Polygon","coordinates":[[[37.039838,46.887735],[37.04003,46.887498],[37.039061,46.887143],[37.038879,46.887381],[37.039838,46.887735]]]}},{"type":"Feature","properties":{"cadnum":"2320684502:01:001:0010"},"geometry":{"type":"Polygon","coordinates":[[[37.040319,46.88813492178771],[37.040319,46.888135],[37.040454,46.887969],[37.039835,46.887738],[37.039721,46.887879],[37.039657,46.887958],[37.040275,46.888189],[37.040319,46.88813492178771]]]}},{"type":"Feature","properties":{"cadnum":"2320684502:01:001:0008"},"geometry":{"type":"Polygon","coordinates":[[[37.040218,46.887267],[37.040192,46.887299],[37.04036094951427,46.88736172038824],[37.04081,46.88753],[37.040989,46.88731],[37.04037,46.887079],[37.040319,46.887142],[37.040319,46.88714207894738],[37.040218,46.887267]]]}},{"type":"Feature","properties":{"cadnum":"2320684502:01:001:0011"},"geometry":{"type":"Polygon","coordinates":[[[37.040491,46.887697],[37.040014,46.887518],[37.039838,46.887735],[37.039835,46.887738],[37.040319,46.88791862035541],[37.040319,46.887919],[37.040454,46.887969],[37.040632,46.88775],[37.040491,46.88769729392971],[37.040491,46.887697]]]}},{"type":"Feature","properties":{"cadnum":"2320684502:01:001:0021"},"geometry":{"type":"Polygon","coordinates":[[[37.039721,46.887879],[37.039835,46.887738],[37.039838,46.887735],[37.038879,46.887381],[37.038769,46.887523],[37.039721,46.887879]]]}},{"type":"Feature","properties":{"cadnum":"2320684502:01:001:0006"},"geometry":{"type":"Polygon","coordinates":[[[37.03937,46.888311],[37.039479,46.888178],[37.039488,46.888166],[37.038547,46.887813],[37.038434,46.887959],[37.03937,46.888311]]]}},{"type":"Feature","properties":{"cadnum":"2320684502:01:001:0007"},"geometry":{"type":"Polygon","coordinates":[[[37.039488,46.888166],[37.039605,46.888022],[37.038658,46.887668],[37.038547,46.887813],[37.039488,46.888166]]]}},{"type":"Feature","properties":{"cadnum":"2320684502:01:001:0022"},"geometry":{"type":"Polygon","coordinates":[[[37.039122,46.888617],[37.039253,46.888455],[37.03832,46.888106],[37.038194,46.888269],[37.039122,46.888617]]]}},{"type":"Feature","properties":{"cadnum":"2320684502:01:001:0020"},"geometry":{"type":"Polygon","coordinates":[[[37.039605,46.888022],[37.039657,46.887958],[37.039721,46.887879],[37.038769,46.887523],[37.038658,46.887668],[37.039605,46.888022]]]}},{"type":"Feature","properties":{"cadnum":"2320684502:01:008:0006"},"geometry":{"type":"Polygon","coordinates":[[[37.044206,46.880023],[37.044362,46.879895],[37.044439,46.879832],[37.043767,46.879528],[37.043542,46.879749],[37.043793,46.879853],[37.044206,46.880023]]]}},{"type":"Feature","properties":{"cadnum":"2320684502:01:008:0023"},"geometry":{"type":"Polygon","coordinates":[[[37.043797,46.882197],[37.04404,46.881938],[37.043344,46.881618],[37.043081,46.881881],[37.043797,46.882197]]]}},{"type":"Feature","properties":{"cadnum":"2320684502:01:008:0001"},"geometry":{"type":"Polygon","coordinates":[[[37.043604,46.882436],[37.04382,46.882208],[37.043797,46.882197],[37.042933,46.881814],[37.042707,46.882053],[37.043604,46.882436]]]}},{"type":"Feature","properties":{"cadnum":"2320684502:01:008:0007"},"geometry":{"type":"Polygon","coordinates":[[[37.042426,46.882323],[37.042638,46.882084],[37.042676,46.88204],[37.042404,46.881923],[37.042347,46.881899],[37.04232,46.881931],[37.042204,46.882054],[37.042087,46.882164],[37.042426,46.882323]]]}},{"type":"Feature","properties":{"cadnum":"2320684502:01:008:0004"},"geometry":{"type":"Polygon","coordinates":[[[37.041771,46.882234],[37.041918,46.882091],[37.041477,46.881879],[37.041331,46.882023],[37.041771,46.882234]]]}},{"type":"Feature","properties":{"cadnum":"2320684502:01:008:0008"},"geometry":{"type":"Polygon","coordinates":[[[37.043777,46.882177],[37.04406,46.881893],[37.043374,46.881562],[37.043071,46.88185],[37.043777,46.882177]]]}},{"type":"Feature","properties":{"cadnum":"2320684502:01:008:0009"},"geometry":{"type":"Polygon","coordinates":[[[37.043081,46.881881],[37.043373,46.881588],[37.042929,46.881384],[37.042637,46.881683],[37.042944,46.88182],[37.043081,46.881881]]]}},{"type":"Feature","properties":{"cadnum":"2320684502:01:008:0002"},"geometry":{"type":"Polygon","coordinates":[[[37.042707,46.882053],[37.042933,46.881814],[37.042646,46.881686],[37.042404,46.881924],[37.042676,46.88204],[37.042707,46.882053]]]}},{"type":"Feature","properties":{"cadnum":"2320684502:01:007:0003"},"geometry":{"type":"Polygon","coordinates":[[[37.044355,46.881625],[37.044384,46.881596],[37.043742,46.881299],[37.043711,46.881329],[37.044355,46.881625]]]}},{"type":"Feature","properties":{"cadnum":"2320684502:01:004:0010"},"geometry":{"type":"Polygon","coordinates":[[[37.041918,46.882091],[37.042039,46.881988],[37.041591,46.881769],[37.041477,46.881879],[37.041918,46.882091]]]}},{"type":"Feature","properties":{"cadnum":"2320684502:01:004:0003"},"geometry":{"type":"Polygon","coordinates":[[[37.042172,46.881868],[37.042288,46.881751],[37.041816,46.881527],[37.041703,46.881642],[37.042172,46.881868]]]}},{"type":"Feature","properties":{"cadnum":"2320684502:01:007:0001"},"geometry":{"type":"Polygon","coordinates":[[[37.044069,46.881908],[37.044384,46.881596],[37.043742,46.881299],[37.043425,46.881612],[37.044069,46.881908]]]}},{"type":"Feature","properties":{"cadnum":"2320684502:01:007:0004"},"geometry":{"type":"Polygon","coordinates":[[[37.044069,46.881908],[37.044174,46.881805],[37.044355,46.881625],[37.043711,46.881329],[37.04353,46.881508],[37.043425,46.881612],[37.044069,46.881908]]]}},{"type":"Feature","properties":{"cadnum":"2320684502:01:008:0012"},"geometry":{"type":"Polygon","coordinates":[[[37.044384,46.881596],[37.044531,46.881446],[37.043883,46.881134],[37.043727,46.881293],[37.043742,46.881299],[37.044384,46.881596]]]}},{"type":"Feature","properties":{"cadnum":"2320684502:01:008:0011"},"geometry":{"type":"Polygon","coordinates":[[[37.044531,46.881446],[37.044722,46.881233],[37.043606,46.88076],[37.043456,46.88093],[37.044531,46.881446]]]}},{"type":"Feature","properties":{"cadnum":"2320684502:01:008:0015"},"geometry":{"type":"Polygon","coordinates":[[[37.043024,46.881173],[37.043171,46.881024],[37.042943,46.880901],[37.043104,46.880716],[37.042928,46.880694],[37.042886,46.880697],[37.04267,46.880749],[37.042511,46.880918],[37.043024,46.881173]]]}},{"type":"Feature","properties":{"cadnum":"2320684502:01:008:0014"},"geometry":{"type":"Polygon","coordinates":[[[37.043727,46.881293],[37.043883,46.881134],[37.043738,46.881065],[37.043456,46.88093],[37.043435,46.880919],[37.043274,46.881084],[37.043727,46.881293]]]}},{"type":"Feature","properties":{"cadnum":"2320684502:01:008:0025"},"geometry":{"type":"Polygon","coordinates":[[[37.044531,46.881446],[37.044722,46.881233],[37.0439,46.880884],[37.043738,46.881065],[37.044531,46.881446]]]}},{"type":"Feature","properties":{"cadnum":"2320684502:01:008:0020"},"geometry":{"type":"Polygon","coordinates":[[[37.043505,46.880556],[37.043637,46.880411],[37.043122,46.880162],[37.042976,46.880318],[37.043505,46.880556]]]}},{"type":"Feature","properties":{"cadnum":"2320684502:01:011:0002"},"geometry":{"type":"Polygon","coordinates":[[[37.0455,46.879513],[37.045695,46.879315],[37.045202,46.879074],[37.045033,46.879198],[37.044966,46.879249],[37.0455,46.879513]]]}},{"type":"Feature","properties":{"cadnum":"2320684502:01:011:0015"},"geometry":{"type":"Polygon","coordinates":[[[37.044421,46.879595],[37.044687,46.879385],[37.044022,46.878986],[37.043754,46.879198],[37.044421,46.879595]]]}},{"type":"Feature","properties":{"cadnum":"2320684502:01:008:0005"},"geometry":{"type":"Polygon","coordinates":[[[37.043718,46.880438],[37.043985,46.880221],[37.044206,46.880023],[37.043793,46.879853],[37.043463,46.880201],[37.043201,46.880084],[37.043122,46.880162],[37.043403,46.880287],[37.043557,46.880372],[37.043718,46.880438]]]}},{"type":"Feature","properties":{"cadnum":"2320684502:01:008:0029"},"geometry":{"type":"Polygon","coordinates":[[[37.044545,46.87988],[37.044776,46.87966],[37.044724,46.879638],[37.043989,46.879304],[37.043767,46.879528],[37.044439,46.879832],[37.044545,46.87988]]]}},{"type":"Feature","properties":{"cadnum":"2320684502:01:008:0018"},"geometry":{"type":"Polygon","coordinates":[[[37.044622,46.881166],[37.044789,46.881002],[37.044045,46.880629],[37.044026,46.88062],[37.043802,46.880844],[37.044622,46.881166]]]}},{"type":"Feature","properties":{"cadnum":"2320684502:01:008:0021"},"geometry":{"type":"Polygon","coordinates":[[[37.043463,46.880201],[37.043793,46.879853],[37.043542,46.879749],[37.043201,46.880084],[37.043463,46.880201]]]}},{"type":"Feature","properties":{"cadnum":"2320684502:01:008:0026"},"geometry":{"type":"Polygon","coordinates":[[[37.04399,46.880602],[37.044213,46.880352],[37.044033,46.880259],[37.043782,46.880498],[37.043833,46.880524],[37.04399,46.880602]]]}},{"type":"Feature","properties":{"cadnum":"2320684502:01:008:0024"},"geometry":{"type":"Polygon","coordinates":[[[37.04404,46.881938],[37.044069,46.881908],[37.043373,46.881588],[37.043344,46.881618],[37.04404,46.881938]]]}},{"type":"Feature","properties":{"cadnum":"2320684502:01:008:0017"},"geometry":{"type":"Polygon","coordinates":[[[37.043802,46.880844],[37.044026,46.88062],[37.04399,46.880602],[37.043833,46.880524],[37.043814,46.880514],[37.043564,46.88075],[37.043802,46.880844]]]}},{"type":"Feature","properties":{"cadnum":"2320684502:01:008:0022"},"geometry":{"type":"Polygon","coordinates":[[[37.044789,46.881002],[37.045017,46.880737],[37.044213,46.880352],[37.04399,46.880602],[37.044045,46.880629],[37.044789,46.881002]]]}},{"type":"Feature","properties":{"cadnum":"2320684502:01:008:0016"},"geometry":{"type":"Polygon","coordinates":[[[37.043564,46.88075],[37.043814,46.880514],[37.043644,46.88043],[37.043392,46.880683],[37.043564,46.88075]]]}},{"type":"Feature","properties":{"cadnum":"2320684502:01:008:0019"},"geometry":{"type":"Polygon","coordinates":[[[37.043171,46.881024],[37.043401,46.880783],[37.043281,46.880738],[37.043104,46.880716],[37.042943,46.880901],[37.043171,46.881024]]]}},{"type":"Feature","properties":{"cadnum":"2320684502:01:008:0013"},"geometry":{"type":"Polygon","coordinates":[[[37.043738,46.881065],[37.0439,46.880884],[37.043606,46.88076],[37.043456,46.88093],[37.043738,46.881065]]]}},{"type":"Feature","properties":{"cadnum":"2320684502:01:008:0028"},"geometry":{"type":"Polygon","coordinates":[[[37.043962,46.881173],[37.04413,46.880982],[37.0439,46.880884],[37.043738,46.881065],[37.043883,46.881134],[37.043962,46.881173]]]}},{"type":"Feature","properties":{"cadnum":"2320684502:01:007:0002"},"geometry":{"type":"Polygon","coordinates":[[[37.043425,46.881612],[37.043742,46.881299],[37.043258,46.881077],[37.042943,46.881389],[37.043425,46.881612]]]}},{"type":"Feature","properties":{"cadnum":"2320684502:01:008:0027"},"geometry":{"type":"Polygon","coordinates":[[[37.044531,46.881446],[37.044722,46.881233],[37.04413,46.880982],[37.043962,46.881173],[37.044531,46.881446]]]}},{"type":"Feature","properties":{"cadnum":"2320684502:01:008:0003"},"geometry":{"type":"Polygon","coordinates":[[[37.043407,46.880662],[37.043505,46.880556],[37.042976,46.880318],[37.042853,46.88045],[37.042767,46.880641],[37.043191,46.880578],[37.043407,46.880662]]]}},{"type":"Feature","properties":{"cadnum":"2320684502:01:011:0010"},"geometry":{"type":"Polygon","coordinates":[[[37.046399,46.878724],[37.046729,46.878325],[37.046564,46.878242],[37.046165,46.878624],[37.046399,46.878724]]]}},{"type":"Feature","properties":{"cadnum":"2320684502:01:011:0007"},"geometry":{"type":"Polygon","coordinates":[[[37.046506,46.878806],[37.046856,46.878386],[37.046729,46.878325],[37.046375,46.878752],[37.046506,46.878806]]]}},{"type":"Feature","properties":{"cadnum":"2320684502:01:011:0012"},"geometry":{"type":"Polygon","coordinates":[[[37.046165,46.878624],[37.046564,46.878242],[37.046411,46.878163],[37.045932,46.878525],[37.046165,46.878624]]]}},{"type":"Feature","properties":{"cadnum":"2320684502:01:006:0004"},"geometry":{"type":"Polygon","coordinates":[[[37.047902,46.883496],[37.048025,46.883377],[37.047983,46.883355],[37.047708,46.883212],[37.047645,46.883179],[37.04752,46.883298],[37.047595,46.883337],[37.047642,46.883365],[37.04771,46.883405],[37.047875,46.883481],[37.047902,46.883496]]]}},{"type":"Feature","properties":{"cadnum":"2320684502:01:005:0005"},"geometry":{"type":"Polygon","coordinates":[[[37.047012,46.884305],[37.047178,46.884112],[37.047036,46.884006],[37.046789,46.884154],[37.047012,46.884305]]]}},{"type":"Feature","properties":{"cadnum":"2320684502:01:001:0024"},"geometry":{"type":"Polygon","coordinates":[[[37.046384,46.883859],[37.046675,46.8837],[37.046427,46.883498],[37.046247,46.883361],[37.045968,46.883522],[37.046384,46.883859]]]}},{"type":"Feature","properties":{"cadnum":"2320684502:01:005:0004"},"geometry":{"type":"Polygon","coordinates":[[[37.046421,46.884822],[37.046662,46.884669],[37.046678,46.884682],[37.047012,46.884305],[37.046789,46.884154],[37.04603,46.88461],[37.046421,46.884822]]]}},{"type":"Feature","properties":{"cadnum":"2320684502:01:009:0001"},"geometry":{"type":"Polygon","coordinates":[[[37.047466,46.883886],[37.047881,46.883485],[37.04771,46.883405],[37.047596,46.883338],[37.047372,46.88352],[37.047273,46.883608],[37.047156,46.88371],[37.047466,46.883886]]]}},{"type":"Feature","properties":{"cadnum":"2320684502:01:009:0003"},"geometry":{"type":"Polygon","coordinates":[[[37.04644,46.883506],[37.04679,46.883291],[37.046377,46.883016],[37.046058,46.883212],[37.046261,46.88337],[37.04644,46.883506]]]}},{"type":"Feature","properties":{"cadnum":"2320684502:01:001:0014"},"geometry":{"type":"Polygon","coordinates":[[[37.041167,46.887091],[37.041345,46.886871],[37.040727,46.88664],[37.040641,46.886746],[37.040549,46.886859],[37.041167,46.887091]]]}}]}