{"type":"FeatureCollection","features":[{"type":"Feature","properties":{"cadnum":"2320682502:01:016:0004"},"geometry":{"type":"Polygon","coordinates":[[[36.914661,47.044515],[36.914634,47.044372],[36.914033,47.044419],[36.914111,47.044556],[36.914661,47.044515]]]}},{"type":"Feature","properties":{"cadnum":"2320682502:01:016:0006"},"geometry":{"type":"Polygon","coordinates":[[[36.913328,47.045823],[36.913366,47.045583],[36.91231,47.04556],[36.912334,47.045782],[36.913328,47.045823]]]}},{"type":"Feature","properties":{"cadnum":"2320682502:01:016:0005"},"geometry":{"type":"Polygon","coordinates":[[[36.914148,47.04585420689655],[36.914528,47.045868],[36.914568,47.045618],[36.914148,47.04560662944162],[36.914148,47.045606],[36.913366,47.045583],[36.913328,47.045823],[36.914148,47.045855],[36.914148,47.04585420689655]]]}},{"type":"Feature","properties":{"cadnum":"2320682502:01:016:0003"},"geometry":{"type":"Polygon","coordinates":[[[36.914473,47.045216],[36.914787,47.045188],[36.914726,47.044867],[36.914661,47.044515],[36.914111,47.044556],[36.914473,47.045216]]]}},{"type":"Feature","properties":{"cadnum":"2320682502:01:016:0002"},"geometry":{"type":"Polygon","coordinates":[[[36.91456,47.043975],[36.914561,47.043984],[36.914561677581865,47.043984],[36.914634,47.044372],[36.914661,47.044515],[36.914726,47.044867],[36.915118,47.044833],[36.915379,47.04481],[36.915212,47.043918],[36.91456,47.043975]]]}},{"type":"Feature","properties":{"cadnum":"2320682502:01:016:0001"},"geometry":{"type":"Polygon","coordinates":[[[36.914787,47.045188],[36.915178,47.045154],[36.915118,47.044833],[36.914726,47.044867],[36.914787,47.045188]]]}},{"type":"Feature","properties":{"cadnum":"2320682502:01:012:0003"},"geometry":{"type":"Polygon","coordinates":[[[36.902406,47.058067],[36.902856,47.057768],[36.902383,47.057452],[36.901893,47.057777],[36.902406,47.058067]]]}}]}