{"type":"FeatureCollection","features":[{"type":"Feature","properties":{"cadnum":"2320681501:01:036:0009"},"geometry":{"type":"Polygon","coordinates":[[[36.571589,46.84579],[36.571794,46.845678],[36.57151,46.845431],[36.571304,46.845543],[36.571589,46.84579]]]}},{"type":"Feature","properties":{"cadnum":"2320681501:01:037:0011"},"geometry":{"type":"Polygon","coordinates":[[[36.56822,46.845088],[36.568766,46.844799],[36.56867,46.844715],[36.568013,46.845059],[36.568197,46.845223],[36.56819706393861,46.845223],[36.568504,46.845497],[36.568992,46.84594],[36.5692,46.846124],[36.569362,46.84605],[36.568633,46.845435],[36.5683255725808,46.8451776370969],[36.56822,46.845088]]]}},{"type":"Feature","properties":{"cadnum":"2320681501:01:037:0006"},"geometry":{"type":"Polygon","coordinates":[[[36.571889,46.84514],[36.571831,46.845069],[36.571809,46.84504],[36.571638853211006,46.845106],[36.571638,46.845106],[36.571528,46.845149],[36.571389,46.845203],[36.571341,46.845222],[36.571338,46.845223],[36.57133835294118,46.845223],[36.571251,46.845256],[36.570906,46.845393],[36.570761,46.845452],[36.56944,46.84599],[36.569094,46.846139],[36.568774,46.846298],[36.567907,46.846825],[36.567907,46.846825269430056],[36.5675,46.847072],[36.567528,46.847095],[36.56762,46.847167],[36.567638,46.847181],[36.568079,46.846913],[36.568079,46.846912386773546],[36.568905,46.84641],[36.569211,46.846258],[36.569549,46.846113],[36.571012,46.845518],[36.571241,46.845427],[36.571591,46.84529],[36.571911,46.845166],[36.571889,46.84514]]]}},{"type":"Feature","properties":{"cadnum":"2320681501:01:037:0007"},"geometry":{"type":"Polygon","coordinates":[[[36.570988,46.845007],[36.57077670833333,46.845106],[36.570776,46.845106],[36.570437,46.845265],[36.570598,46.845435],[36.57116,46.845171],[36.570988,46.845007]]]}},{"type":"Feature","properties":{"cadnum":"2320681501:01:036:0010"},"geometry":{"type":"Polygon","coordinates":[[[36.569518,46.848747],[36.5696,46.848709],[36.569864,46.848555],[36.56997,46.848474],[36.570379,46.848239],[36.570142,46.848041],[36.569778,46.848248],[36.569286,46.848553],[36.569518,46.848747]]]}},{"type":"Feature","properties":{"cadnum":"2320681501:01:037:0015"},"geometry":{"type":"Polygon","coordinates":[[[36.568577,46.845686],[36.568401,46.845539],[36.568079,46.84574164358452],[36.568079,46.845741],[36.56791,46.845848],[36.568079,46.845976],[36.568079,46.84597589189189],[36.568095,46.845988],[36.568577,46.845686]]]}},{"type":"Feature","properties":{"cadnum":"2320681501:01:037:0018"},"geometry":{"type":"Polygon","coordinates":[[[36.570815,46.845059],[36.571003,46.844972],[36.570663,46.844667],[36.570647,46.844656],[36.570299,46.844827],[36.570194,46.844739],[36.569986,46.844835],[36.570299546075084,46.845106],[36.570299,46.845106],[36.570325,46.845128],[36.570439,46.845228],[36.57068654807712,46.845116557692215],[36.570815,46.845059]]]}},{"type":"Feature","properties":{"cadnum":"2320681501:01:036:0008"},"geometry":{"type":"Polygon","coordinates":[[[36.57058,46.846914],[36.571692,46.846449],[36.571424,46.84614],[36.571043,46.845914],[36.571155,46.845845],[36.57098,46.845624],[36.570603,46.845787],[36.571109,46.846342],[36.570704,46.846491],[36.570336,46.846626],[36.57058,46.846914]]]}},{"type":"Feature","properties":{"cadnum":"2320681501:01:036:0007"},"geometry":{"type":"Polygon","coordinates":[[[36.570704,46.846491],[36.571109,46.846342],[36.570603,46.845787],[36.570215,46.845956],[36.570704,46.846491]]]}},{"type":"Feature","properties":{"cadnum":"2320681501:01:036:0006"},"geometry":{"type":"Polygon","coordinates":[[[36.570928,46.84898],[36.57092881851852,46.84898],[36.570665,46.849143],[36.570261,46.849376],[36.570442,46.849517],[36.570706,46.849364],[36.571276,46.849005],[36.571102,46.848873],[36.570928,46.84898]]]}},{"type":"Feature","properties":{"cadnum":"2320681501:01:037:0014"},"geometry":{"type":"Polygon","coordinates":[[[36.568095,46.845988],[36.56791,46.845848],[36.566982,46.846433],[36.566749,46.846576],[36.566935,46.846718],[36.567485,46.846368],[36.567907,46.846105138047136],[36.567907,46.846106],[36.568095,46.845988]]]}},{"type":"Feature","properties":{"cadnum":"2320681501:01:036:0005"},"geometry":{"type":"Polygon","coordinates":[[[36.571692,46.846449],[36.572364,46.846194],[36.572223,46.846063],[36.572096,46.846135],[36.571857,46.845934],[36.571747,46.846004],[36.571719,46.845976],[36.571424,46.84614],[36.571692,46.846449]]]}},{"type":"Feature","properties":{"cadnum":"2320681501:01:036:0001"},"geometry":{"type":"Polygon","coordinates":[[[36.571783,46.84595],[36.571982,46.84584],[36.571793,46.845679],[36.571594,46.845788],[36.571783,46.84595]]]}},{"type":"Feature","properties":{"cadnum":"2320681501:01:036:0003"},"geometry":{"type":"Polygon","coordinates":[[[36.572108,46.848383],[36.57243,46.848287],[36.572825,46.848183],[36.5729,46.848163],[36.572751,46.847942],[36.571949,46.848223],[36.572108,46.848383]]]}},{"type":"Feature","properties":{"cadnum":"2320681501:01:036:0004"},"geometry":{"type":"Polygon","coordinates":[[[36.572096,46.846135],[36.572223,46.846063],[36.571986,46.845862],[36.571857,46.845934],[36.572096,46.846135]]]}},{"type":"Feature","properties":{"cadnum":"2320681501:01:036:0002"},"geometry":{"type":"Polygon","coordinates":[[[36.573948,46.847867],[36.573854,46.847656],[36.573768,46.847663],[36.573776,46.847682],[36.573547,46.847723],[36.573543,46.847713],[36.573513,46.847718],[36.57351,46.84771],[36.5734,46.84773],[36.5734,46.84773030769231],[36.573315,46.847746],[36.572751,46.847942],[36.5729,46.848163],[36.57336,46.848043],[36.573414,46.848017],[36.573572,46.847973],[36.573572,46.847972617977526],[36.573948,46.847867]]]}},{"type":"Feature","properties":{"cadnum":"2320681501:01:017:0008"},"geometry":{"type":"Polygon","coordinates":[[[36.573741,46.845774],[36.573705,46.845713],[36.573874,46.845667],[36.573804,46.845546],[36.573572,46.84561040597015],[36.573572,46.84561],[36.573469,46.845639],[36.573549,46.845747],[36.573572,46.84578],[36.573572,46.84577911320755],[36.573602,46.845821],[36.573741,46.845774]]]}},{"type":"Feature","properties":{"cadnum":"2320681501:01:017:0009"},"geometry":{"type":"Polygon","coordinates":[[[36.573718,46.844455],[36.574177,46.844276],[36.574441,46.844183],[36.574754,46.844065],[36.575085,46.843945],[36.575199,46.843921],[36.575239,46.843912],[36.575562,46.843796],[36.575721,46.843648],[36.575717,46.843641],[36.576139,46.843477],[36.576085,46.843414],[36.575666,46.843579],[36.57566,46.843573],[36.575482,46.843589],[36.574641,46.843899],[36.574601,46.843917],[36.574532,46.843947],[36.574137,46.844123],[36.574076,46.844151],[36.574072,46.844152],[36.573614,46.844331],[36.573591,46.844338],[36.573472,46.844379],[36.573372,46.844413],[36.573138,46.84451],[36.573069,46.844542],[36.572942,46.844603],[36.572833,46.844654],[36.572526,46.844783],[36.572455,46.844809],[36.571813,46.845039],[36.571809,46.84504],[36.571831,46.845069],[36.571861225352116,46.845106],[36.571861,46.845106],[36.571889,46.84514],[36.571911,46.845166],[36.571956,46.845149],[36.572071,46.845106],[36.572070907563024,46.845106],[36.572592,46.844911],[36.573013,46.844743],[36.57327,46.844635],[36.5734,46.84458291390728],[36.5734,46.844584],[36.573718,46.844455]]]}},{"type":"Feature","properties":{"cadnum":"2320681501:01:044:0017"},"geometry":{"type":"Polygon","coordinates":[[[36.573801,46.837708],[36.573801499999995,46.837708],[36.573642,46.837773],[36.5734,46.837872],[36.5734,46.83787205853659],[36.573162,46.837969],[36.57312,46.837985],[36.573392,46.838231],[36.5734,46.83822773469388],[36.5734,46.838228],[36.573441,46.838211],[36.573572,46.838156],[36.573572,46.83815583333334],[36.574227,46.83788],[36.573961,46.837643],[36.573801,46.837708]]]}},{"type":"Feature","properties":{"cadnum":"2320681501:01:045:0007"},"geometry":{"type":"Polygon","coordinates":[[[36.574245,46.834381],[36.574944,46.8341],[36.574646,46.833963],[36.574367,46.833994],[36.574007,46.834131],[36.574245,46.834381]]]}},{"type":"Feature","properties":{"cadnum":"2320681501:01:044:0010"},"geometry":{"type":"Polygon","coordinates":[[[36.574998,46.837561],[36.57565,46.837299],[36.575384,46.837065],[36.574935,46.837252],[36.574511,46.83742],[36.57470484913794,46.837591],[36.574704,46.837591],[36.574774,46.837652],[36.574998,46.837561]]]}},{"type":"Feature","properties":{"cadnum":"2320681501:01:044:0016"},"geometry":{"type":"Polygon","coordinates":[[[36.57589,46.837517],[36.57565,46.837299],[36.574998,46.837561],[36.57502371428572,46.837591],[36.575023,46.837591],[36.575198,46.837795],[36.575706,46.837591],[36.57570480628271,46.837591],[36.57589,46.837517]]]}},{"type":"Feature","properties":{"cadnum":"2320681501:01:044:0006"},"geometry":{"type":"Polygon","coordinates":[[[36.574177,46.837239],[36.574507,46.837088],[36.574983,46.836883],[36.574693,46.83664],[36.573976,46.836961],[36.574177,46.837239]]]}},{"type":"Feature","properties":{"cadnum":"2320681501:01:044:0003"},"geometry":{"type":"Polygon","coordinates":[[[36.573533,46.835731],[36.573414,46.835609],[36.571602,46.836302],[36.57174,46.836418],[36.572055,46.836284],[36.572089,46.836275],[36.57227,46.836207],[36.573001,46.835932],[36.5734,46.835781250000004],[36.5734,46.835782],[36.573533,46.835731]]]}},{"type":"Feature","properties":{"cadnum":"2320681501:01:045:0006"},"geometry":{"type":"Polygon","coordinates":[[[36.574245,46.834381],[36.574007,46.834131],[36.573679,46.834257],[36.5734,46.834362],[36.5734,46.83436229126213],[36.57316,46.834452],[36.5734,46.834703474103584],[36.5734,46.834704],[36.573411,46.834715],[36.574245,46.834381]]]}},{"type":"Feature","properties":{"cadnum":"2320681501:01:045:0001"},"geometry":{"type":"Polygon","coordinates":[[[36.574322,46.835711],[36.574671,46.83557],[36.574988,46.835437],[36.574665,46.835128],[36.57435,46.835263],[36.573993,46.835424],[36.574322,46.835711]]]}},{"type":"Feature","properties":{"cadnum":"2320681501:01:045:0004"},"geometry":{"type":"Polygon","coordinates":[[[36.574052,46.834808],[36.57428,46.834702],[36.574488,46.834605],[36.574245,46.834381],[36.573572,46.83465052278178],[36.573572,46.83465],[36.573411,46.834715],[36.573572,46.834872],[36.573572,46.83487143262411],[36.573693,46.834989],[36.574052,46.834808]]]}},{"type":"Feature","properties":{"cadnum":"2320681501:01:044:0008"},"geometry":{"type":"Polygon","coordinates":[[[36.573604,46.835329],[36.573718,46.835285],[36.573426,46.835026],[36.5734,46.835038],[36.5734,46.83503801777778],[36.573201,46.83513],[36.572833,46.835281],[36.572066,46.835589],[36.572313,46.835835],[36.572774,46.835654],[36.572987,46.835571],[36.573572,46.835342],[36.573572,46.83534154901961],[36.573604,46.835329]]]}},{"type":"Feature","properties":{"cadnum":"2320681501:01:045:0002"},"geometry":{"type":"Polygon","coordinates":[[[36.574988,46.835437],[36.575855,46.835077],[36.575522,46.834757],[36.574665,46.835128],[36.574988,46.835437]]]}},{"type":"Feature","properties":{"cadnum":"2320681501:01:044:0004"},"geometry":{"type":"Polygon","coordinates":[[[36.573889,46.835597],[36.573604,46.835329],[36.5734,46.835409],[36.5734,46.835409329914526],[36.572987,46.835571],[36.573144,46.835713],[36.5734,46.83561439259259],[36.5734,46.835615],[36.573414,46.835609],[36.573533,46.835731],[36.573572,46.835717],[36.573572,46.83571632022472],[36.573889,46.835597]]]}},{"type":"Feature","properties":{"cadnum":"2320681501:01:045:0005"},"geometry":{"type":"Polygon","coordinates":[[[36.57465,46.835019],[36.57555,46.834578],[36.575186,46.834282],[36.574944,46.8341],[36.574245,46.834381],[36.574488,46.834605],[36.57428,46.834702],[36.57465,46.835019]],[[36.574687,46.834591],[36.574673,46.834576],[36.574696,46.834566],[36.574709,46.834582],[36.574687,46.834591]]]}},{"type":"Feature","properties":{"cadnum":"2320681501:01:005:0002"},"geometry":{"type":"Polygon","coordinates":[[[36.590266,46.852639],[36.58999764627441,46.852654989988835],[36.589543,46.85268],[36.589606,46.852885],[36.58988,46.85286964125561],[36.58988,46.85287],[36.590667,46.852825],[36.591015,46.852807],[36.590976051094735,46.85268142335717],[36.59095,46.852596],[36.590266,46.852639]]]}},{"type":"Feature","properties":{"cadnum":"2320681501:01:005:0003"},"geometry":{"type":"Polygon","coordinates":[[[36.591493,46.852562],[36.59095,46.852596],[36.590957319148934,46.85262],[36.590957,46.85262],[36.590976051094735,46.85268142335717],[36.590993,46.852737],[36.59099328877005,46.852737],[36.591015,46.852807],[36.591556,46.852777],[36.59154306422026,46.85273378899108],[36.591493,46.852562]]]}},{"type":"Feature","properties":{"cadnum":"2320681501:01:022:0006"},"geometry":{"type":"Polygon","coordinates":[[[36.585897,46.848527],[36.585739,46.848334],[36.584769,46.848718],[36.584563,46.848799],[36.58461497790056,46.848863],[36.584613,46.848863],[36.584714,46.848985],[36.585029,46.848863],[36.585027701986746,46.848863],[36.585897,46.848527]]]}},{"type":"Feature","properties":{"cadnum":"2320681501:01:022:0007"},"geometry":{"type":"Polygon","coordinates":[[[36.585897,46.848527],[36.585989,46.848491],[36.585831,46.848297],[36.585739,46.848334],[36.585897,46.848527]]]}},{"type":"Feature","properties":{"cadnum":"2320681501:01:022:0001"},"geometry":{"type":"Polygon","coordinates":[[[36.584997,46.847893],[36.584795,46.847641],[36.584558,46.84773045588235],[36.584558,46.84773],[36.583899,46.847978],[36.5841,46.84823],[36.584387,46.84812221834061],[36.584387,46.848123],[36.584997,46.847893]]]}},{"type":"Feature","properties":{"cadnum":"2320681501:01:022:0002"},"geometry":{"type":"Polygon","coordinates":[[[36.584997,46.847893],[36.585721,46.847621],[36.58552,46.847369],[36.584795,46.847641],[36.584997,46.847893]]]}},{"type":"Feature","properties":{"cadnum":"2320681501:01:022:0003"},"geometry":{"type":"Polygon","coordinates":[[[36.584757,46.848471],[36.585546,46.848157],[36.585398,46.847988],[36.584607,46.848294],[36.584558,46.84831315454546],[36.584558,46.848313],[36.584265,46.848427],[36.584416,46.848607],[36.584558,46.848551],[36.584558,46.848550366568915],[36.584757,46.848471]]]}},{"type":"Feature","properties":{"cadnum":"2320681501:01:021:0001"},"geometry":{"type":"Polygon","coordinates":[[[36.586394,46.848174],[36.587206,46.847865],[36.587054,46.847604],[36.586405,46.84783],[36.586189,46.84792],[36.586394,46.848174]]]}},{"type":"Feature","properties":{"cadnum":"2320681501:01:005:0005"},"geometry":{"type":"Polygon","coordinates":[[[36.588297,46.848295],[36.588759,46.848246],[36.588654,46.847618],[36.588193,46.847668],[36.588297,46.848295]]]}},{"type":"Feature","properties":{"cadnum":"2320681501:01:031:0004"},"geometry":{"type":"Polygon","coordinates":[[[36.578336,46.845105],[36.5782,46.844898],[36.577793,46.845019],[36.57785044230769,46.845106],[36.577849,46.845106],[36.577896,46.845175],[36.57792,46.845208],[36.577992,46.845225],[36.57831149549792,46.84511350450366],[36.578336,46.845105]]]}},{"type":"Feature","properties":{"cadnum":"2320681501:01:031:0003"},"geometry":{"type":"Polygon","coordinates":[[[36.579989,46.842005],[36.579873,46.841862],[36.578894,46.842235],[36.578894,46.842235104265406],[36.576533,46.843134],[36.57648,46.843154],[36.57628,46.843229],[36.576194,46.843262],[36.576095,46.843358],[36.576077,46.843404],[36.576085,46.843414],[36.576139,46.843477],[36.576147,46.843488],[36.576194,46.843506],[36.576379,46.843479],[36.576427,46.843461],[36.576598,46.843396],[36.576713,46.843353],[36.578894,46.842456304846934],[36.578894,46.842457],[36.579989,46.842005]]]}},{"type":"Feature","properties":{"cadnum":"2320681501:01:031:0007"},"geometry":{"type":"Polygon","coordinates":[[[36.580543,46.842708],[36.580416,46.842551],[36.578974,46.843064],[36.579065,46.843176],[36.579065,46.843174303030295],[36.579106,46.843224],[36.580543,46.842708]]]}},{"type":"Feature","properties":{"cadnum":"2320681501:01:034:0002"},"geometry":{"type":"Polygon","coordinates":[[[36.576851,46.841338],[36.57681990624999,46.841348],[36.576819,46.841348],[36.576273,46.841524],[36.576363,46.841644],[36.576414,46.841625],[36.576482,46.841732],[36.576989,46.841593],[36.576857,46.841348],[36.576856390625,46.841348],[36.576851,46.841338]]]}},{"type":"Feature","properties":{"cadnum":"2320681501:01:034:0004"},"geometry":{"type":"Polygon","coordinates":[[[36.577528,46.842246],[36.578379,46.841999],[36.578739,46.841882],[36.578587,46.841626],[36.578475,46.84166],[36.577339,46.842033],[36.57738,46.842081],[36.577528,46.842246]]]}},{"type":"Feature","properties":{"cadnum":"2320681501:01:028:0001"},"geometry":{"type":"Polygon","coordinates":[[[36.574181,46.841922],[36.573957,46.841758],[36.573407,46.842114],[36.573572,46.842235],[36.573572,46.84223373451327],[36.573633,46.842278],[36.574181,46.841922]]]}},{"type":"Feature","properties":{"cadnum":"2320681501:01:031:0001"},"geometry":{"type":"Polygon","coordinates":[[[36.579065,46.843506467805526],[36.579655,46.844312],[36.579885,46.844637],[36.580042,46.844581],[36.578994,46.84319],[36.578867,46.843236],[36.579065,46.843508],[36.579065,46.843506467805526]]]}},{"type":"Feature","properties":{"cadnum":"2320681501:01:034:0003"},"geometry":{"type":"Polygon","coordinates":[[[36.579556,46.841307],[36.57943841509432,46.841348],[36.579437,46.841348],[36.57925200000156,46.841412999999456],[36.5791,46.841466],[36.57910115384616,46.841466],[36.57903,46.841491],[36.578587,46.841626],[36.578739,46.841882],[36.578894,46.841833027607365],[36.578894,46.841834],[36.5790560573559,46.841781825436634],[36.579065,46.841779],[36.579065,46.84177894634146],[36.579304,46.841702],[36.579709,46.841563],[36.579705,46.841557],[36.57960074235823,46.84138268122297],[36.579556,46.841307]]]}},{"type":"Feature","properties":{"cadnum":"2320681501:01:031:0005"},"geometry":{"type":"Polygon","coordinates":[[[36.577479,46.84474],[36.577618,46.8447],[36.577782,46.844651],[36.577962,46.844606],[36.577805,46.844366],[36.577616,46.844068],[36.577162,46.844194],[36.577479,46.84474]]]}},{"type":"Feature","properties":{"cadnum":"2320681501:01:018:0001"},"geometry":{"type":"Polygon","coordinates":[[[36.580472,46.851391],[36.580562,46.851356],[36.580484,46.851262],[36.580393,46.851298],[36.580472,46.851391]]]}},{"type":"Feature","properties":{"cadnum":"2320681501:01:019:0004"},"geometry":{"type":"Polygon","coordinates":[[[36.585068,46.851122],[36.584878,46.850855],[36.584387,46.85104],[36.584387,46.85104019862228],[36.583687,46.851303],[36.583871,46.85156],[36.584558,46.851309],[36.584558,46.85130847577092],[36.585068,46.851122]]]}},{"type":"Feature","properties":{"cadnum":"2320681501:01:019:0001"},"geometry":{"type":"Polygon","coordinates":[[[36.580889,46.851399],[36.581647,46.851096],[36.581406,46.850805],[36.580644,46.851105],[36.580889,46.851399]]]}},{"type":"Feature","properties":{"cadnum":"2320681501:01:023:0007"},"geometry":{"type":"Polygon","coordinates":[[[36.579493,46.849731],[36.580346,46.849418],[36.580125,46.849149],[36.579283,46.849475],[36.579493,46.849731]]]}},{"type":"Feature","properties":{"cadnum":"2320681501:01:023:0006"},"geometry":{"type":"Polygon","coordinates":[[[36.581305,46.848694],[36.580921,46.84824],[36.578894,46.848978],[36.579065,46.849171],[36.579065,46.84916972727273],[36.579323,46.849459],[36.580608282661444,46.848962546036155],[36.581305,46.848694]]]}},{"type":"Feature","properties":{"cadnum":"2320681501:01:023:0016"},"geometry":{"type":"Polygon","coordinates":[[[36.584282,46.848811],[36.584077,46.848906],[36.583916,46.84898],[36.58391707582939,46.84898],[36.583621,46.849117],[36.583204,46.849309],[36.583357,46.849509],[36.584458,46.849001],[36.58440885714328,46.84894842857189],[36.584282,46.848811]]]}},{"type":"Feature","properties":{"cadnum":"2320681501:01:023:0009"},"geometry":{"type":"Polygon","coordinates":[[[36.584156,46.848669],[36.583967,46.848458],[36.582959,46.848944],[36.582989,46.84898],[36.5829910201005,46.84898],[36.583136,46.849143],[36.58370933333454,46.84887633333277],[36.584156,46.848669]]]}},{"type":"Feature","properties":{"cadnum":"2320681501:01:023:0008"},"geometry":{"type":"Polygon","coordinates":[[[36.581305,46.848694],[36.580562,46.84898],[36.58056286363637,46.84898],[36.580125,46.849149],[36.580346,46.849418],[36.581533,46.848974],[36.581305,46.848694]]]}},{"type":"Feature","properties":{"cadnum":"2320681501:01:019:0008"},"geometry":{"type":"Polygon","coordinates":[[[36.585335,46.851649],[36.585157,46.851415],[36.584558,46.85163670779221],[36.584558,46.851636],[36.584017,46.851836],[36.584068,46.851924],[36.584176,46.852062],[36.584387,46.85198687958115],[36.584387,46.851988],[36.585335,46.851649]]]}},{"type":"Feature","properties":{"cadnum":"2320681501:01:019:0006"},"geometry":{"type":"Polygon","coordinates":[[[36.581196,46.851776],[36.581702,46.851581],[36.583019,46.851083],[36.582908,46.850948],[36.581584,46.851473],[36.581101,46.851659],[36.581196,46.851776]]]}},{"type":"Feature","properties":{"cadnum":"2320681501:01:019:0005"},"geometry":{"type":"Polygon","coordinates":[[[36.583019,46.851083],[36.583217,46.851008],[36.583103,46.85087],[36.582908,46.850948],[36.583019,46.851083]]]}},{"type":"Feature","properties":{"cadnum":"2320681501:01:019:0002"},"geometry":{"type":"Polygon","coordinates":[[[36.581647,46.851096],[36.581863,46.85101],[36.581623,46.850721],[36.581406,46.850805],[36.581647,46.851096]]]}},{"type":"Feature","properties":{"cadnum":"2320681501:01:017:0011"},"geometry":{"type":"Polygon","coordinates":[[[36.579539,46.85272],[36.579356,46.852533],[36.579022811022675,46.85268961417367],[36.578837,46.852776],[36.57902,46.852963],[36.579065,46.852942],[36.579065,46.85294193063584],[36.57950269135802,46.852737],[36.579503,46.852737],[36.579539,46.85272]]]}},{"type":"Feature","properties":{"cadnum":"2320681501:01:052:0001"},"geometry":{"type":"Polygon","coordinates":[[[36.556094,46.839092],[36.556745,46.838862],[36.556454,46.838505],[36.555807,46.838754],[36.556094,46.839092]]]}},{"type":"Feature","properties":{"cadnum":"2320681501:01:052:0002"},"geometry":{"type":"Polygon","coordinates":[[[36.554932,46.839499],[36.556094,46.839092],[36.555807,46.838754],[36.554699,46.83918],[36.554932,46.839499]]]}},{"type":"Feature","properties":{"cadnum":"2320681501:01:024:0003"},"geometry":{"type":"Polygon","coordinates":[[[36.574392,46.850863],[36.574534,46.85082],[36.574404,46.850659],[36.574247,46.85075],[36.574392,46.850863]]]}},{"type":"Feature","properties":{"cadnum":"2320681501:01:024:0001"},"geometry":{"type":"Polygon","coordinates":[[[36.574974,46.851192],[36.575613,46.850871],[36.575443,46.850581],[36.575251,46.850676],[36.575121,46.850669],[36.574668,46.850869],[36.574974,46.851192]]]}},{"type":"Feature","properties":{"cadnum":"2320681501:01:024:0002"},"geometry":{"type":"Polygon","coordinates":[[[36.574534,46.85082],[36.575085,46.850592],[36.575251,46.850676],[36.575443,46.850581],[36.575234,46.850228],[36.574409,46.850562],[36.57446,46.850625],[36.574404,46.850659],[36.574534,46.85082]]]}},{"type":"Feature","properties":{"cadnum":"2320681501:01:065:0001"},"geometry":{"type":"Polygon","coordinates":[[[36.559937,46.822567],[36.559672,46.822675],[36.55967274468085,46.822675],[36.559132,46.822896],[36.559367,46.823166],[36.560172,46.822837],[36.560030999999995,46.822675],[36.560031,46.822675],[36.559937,46.822567]]]}},{"type":"Feature","properties":{"cadnum":"2320681501:01:065:0003"},"geometry":{"type":"Polygon","coordinates":[[[36.558654,46.822518],[36.558945,46.82236],[36.559449,46.822098],[36.559197,46.821859],[36.55875,46.822095],[36.558399,46.822277],[36.558654,46.822518]]]}},{"type":"Feature","properties":{"cadnum":"2320681501:01:064:0001"},"geometry":{"type":"Polygon","coordinates":[[[36.559304,46.821489],[36.559609,46.821365],[36.559861,46.821262],[36.560573,46.821057],[36.561386,46.820776],[36.561084,46.820427],[36.560904,46.820495],[36.560459,46.820671],[36.560393,46.820717],[36.56018,46.820828],[36.56016,46.820839],[36.559438,46.821219],[36.559339,46.821271],[36.559323,46.821328],[36.559296,46.821427],[36.559304,46.821489]]]}},{"type":"Feature","properties":{"cadnum":"2320681501:01:002:0004"},"geometry":{"type":"Polygon","coordinates":[[[36.582328,46.860021],[36.582143,46.859762],[36.581427,46.860015],[36.581599,46.86025],[36.58159953333334,46.86025],[36.581623,46.860282],[36.58170897333333,46.86025],[36.581709,46.86025],[36.582328,46.860021]]]}},{"type":"Feature","properties":{"cadnum":"2320681501:01:008:0006"},"geometry":{"type":"Polygon","coordinates":[[[36.581827,46.858278],[36.582335,46.858029],[36.582187,46.857877],[36.58173,46.858103],[36.581827,46.858278]]]}},{"type":"Feature","properties":{"cadnum":"2320681501:01:008:0004"},"geometry":{"type":"Polygon","coordinates":[[[36.581894,46.858402],[36.58245,46.858147],[36.582335,46.858029],[36.581827,46.858278],[36.581894,46.858402]]]}},{"type":"Feature","properties":{"cadnum":"2320681501:01:008:0008"},"geometry":{"type":"Polygon","coordinates":[[[36.580282,46.857554],[36.580451,46.857506],[36.581191,46.857297],[36.580951,46.857002],[36.580832,46.857032],[36.580282,46.857554]]]}},{"type":"Feature","properties":{"cadnum":"2320681501:01:008:0003"},"geometry":{"type":"Polygon","coordinates":[[[36.58245,46.858147],[36.582898,46.857941],[36.582913,46.857935],[36.582778,46.857812],[36.582335,46.858029],[36.58245,46.858147]]]}},{"type":"Feature","properties":{"cadnum":"2320681501:01:010:0005"},"geometry":{"type":"Polygon","coordinates":[[[36.579854,46.858915],[36.579545,46.858543],[36.578935,46.858802],[36.579221,46.859146],[36.579854,46.858915]]]}},{"type":"Feature","properties":{"cadnum":"2320681501:01:008:0005"},"geometry":{"type":"Polygon","coordinates":[[[36.582335,46.858029],[36.582778,46.857812],[36.582913,46.857935],[36.58318,46.857812],[36.5829,46.857524],[36.582187,46.857877],[36.582335,46.858029]]]}},{"type":"Feature","properties":{"cadnum":"2320681501:01:062:0003"},"geometry":{"type":"Polygon","coordinates":[[[36.562822,46.825758],[36.563215,46.825625],[36.56304,46.825383],[36.562648,46.825518],[36.562822,46.825758]]]}},{"type":"Feature","properties":{"cadnum":"2320681501:01:062:0004"},"geometry":{"type":"Polygon","coordinates":[[[36.564419,46.826125],[36.563589,46.826434],[36.5635895625,46.826434],[36.563474,46.826477],[36.563694,46.826704],[36.564646,46.826355],[36.564419,46.826125]]]}},{"type":"Feature","properties":{"cadnum":"2320681501:01:062:0005"},"geometry":{"type":"Polygon","coordinates":[[[36.564646,46.826355],[36.56498,46.826232],[36.564765,46.825996],[36.564419,46.826125],[36.564646,46.826355]]]}},{"type":"Feature","properties":{"cadnum":"2320681501:01:062:0008"},"geometry":{"type":"Polygon","coordinates":[[[36.56613,46.826241],[36.565933,46.826005],[36.565048,46.826272],[36.564699,46.826375],[36.564623,46.826398],[36.564652,46.826434],[36.56465273913044,46.826434],[36.564832,46.826651],[36.565892,46.826317],[36.56588979274611,46.826317],[36.56613,46.826241]]]}},{"type":"Feature","properties":{"cadnum":"2320681501:01:062:0006"},"geometry":{"type":"Polygon","coordinates":[[[36.563538,46.825214],[36.563345,46.824948],[36.562456,46.825253],[36.562586,46.825434],[36.562586,46.825432427083335],[36.562648,46.825518],[36.563538,46.825214]]]}},{"type":"Feature","properties":{"cadnum":"2320681501:01:062:0002"},"geometry":{"type":"Polygon","coordinates":[[[36.563215,46.825625],[36.564115,46.82532],[36.563938,46.825077],[36.56304,46.825383],[36.563215,46.825625]]]}},{"type":"Feature","properties":{"cadnum":"2320681501:01:058:0005"},"geometry":{"type":"Polygon","coordinates":[[[36.56255,46.825578],[36.56244,46.825408],[36.562414,46.825416],[36.562414,46.8254162255846],[36.561713,46.825638],[36.561072,46.825882],[36.561286,46.825994],[36.561895,46.825788],[36.562414,46.825621603053435],[36.562414,46.825622],[36.56255,46.825578]]]}},{"type":"Feature","properties":{"cadnum":"2320681501:01:008:0007"},"geometry":{"type":"Polygon","coordinates":[[[36.58129,46.854581],[36.582208,46.854235],[36.582497,46.854125],[36.582795,46.853966],[36.582694,46.853837],[36.582477,46.853926],[36.582484,46.853934],[36.58209,46.854089],[36.581237,46.854428],[36.58129,46.854581]]]}},{"type":"Feature","properties":{"cadnum":"2320681501:01:017:0003"},"geometry":{"type":"Polygon","coordinates":[[[36.579732,46.854561],[36.579497,46.854219],[36.579065,46.854356552238805],[36.579065,46.854356],[36.578769,46.854449],[36.578894,46.85463885849057],[36.578894,46.854639],[36.578981,46.854771],[36.579065,46.854748],[36.579065,46.854747511318244],[36.579732,46.854561]]]}},{"type":"Feature","properties":{"cadnum":"2320681501:01:018:0003"},"geometry":{"type":"Polygon","coordinates":[[[36.580712,46.853482],[36.581459,46.853181],[36.581667,46.853099],[36.581915,46.853],[36.581774,46.852837],[36.581723,46.85286],[36.581284,46.853039],[36.580571,46.853317],[36.580712,46.853482]]]}},{"type":"Feature","properties":{"cadnum":"2320681501:01:017:0004"},"geometry":{"type":"Polygon","coordinates":[[[36.579732,46.854561],[36.580516,46.854342],[36.58027,46.853974],[36.579497,46.854219],[36.579732,46.854561]]]}},{"type":"Feature","properties":{"cadnum":"2320681501:01:016:0006"},"geometry":{"type":"Polygon","coordinates":[[[36.579154,46.85391],[36.579439,46.853789],[36.579136,46.853527],[36.57892056097347,46.85362047561068],[36.578813,46.853667],[36.578381,46.853889],[36.578646,46.854117],[36.579065,46.853947],[36.579065,46.85394628461538],[36.579154,46.85391]]]}},{"type":"Feature","properties":{"cadnum":"2320681501:01:017:0010"},"geometry":{"type":"Polygon","coordinates":[[[36.57902,46.852963],[36.578894,46.852834],[36.578894,46.85283424590164],[36.578837,46.852776],[36.577917,46.853226],[36.577722,46.853314],[36.577897,46.853493],[36.578054,46.853413],[36.578247,46.853327],[36.578375,46.853266],[36.578894,46.85302219069768],[36.578894,46.853023],[36.57902,46.852963]]]}},{"type":"Feature","properties":{"cadnum":"2320681501:01:050:0002"},"geometry":{"type":"Polygon","coordinates":[[[36.559991,46.837389],[36.560675,46.837149],[36.560551,46.836989],[36.559826,46.837242],[36.559106,46.837512],[36.55916676923077,46.837591],[36.559166,46.837591],[36.559226,46.837668],[36.559991,46.837389]]]}},{"type":"Feature","properties":{"cadnum":"2320681501:01:054:0004"},"geometry":{"type":"Polygon","coordinates":[[[36.558017,46.840068],[36.559166,46.839652],[36.558962,46.839391],[36.557821,46.839813],[36.558017,46.840068]]]}},{"type":"Feature","properties":{"cadnum":"2320681501:01:055:0001"},"geometry":{"type":"Polygon","coordinates":[[[36.561182,46.838886],[36.56246,46.838405],[36.562259,46.838154],[36.560978,46.838637],[36.561182,46.838886]]]}},{"type":"Feature","properties":{"cadnum":"2320681501:01:050:0001"},"geometry":{"type":"Polygon","coordinates":[[[36.563416,46.839903],[36.563243,46.83963],[36.562614,46.839852],[36.562586,46.8398611],[36.562586,46.839861],[36.56247799999956,46.83989620000014],[36.562414,46.839917],[36.562414,46.83991705925926],[36.562316,46.839949],[36.56233,46.83997],[36.562414,46.84010191946308],[36.562414,46.840103],[36.562479,46.840204],[36.562586,46.84017],[36.562586,46.840169627534685],[36.563416,46.839903]]]}},{"type":"Feature","properties":{"cadnum":"2320681501:01:055:0002"},"geometry":{"type":"Polygon","coordinates":[[[36.560276,46.839227],[36.561182,46.838886],[36.560978,46.838637],[36.560077,46.838977],[36.560276,46.839227]]]}},{"type":"Feature","properties":{"cadnum":"2320681501:01:054:0003"},"geometry":{"type":"Polygon","coordinates":[[[36.559166,46.839652],[36.560035,46.839338],[36.559829,46.839071],[36.558962,46.839391],[36.559166,46.839652]]]}},{"type":"Feature","properties":{"cadnum":"2320681501:01:051:0002"},"geometry":{"type":"Polygon","coordinates":[[[36.559425,46.840332],[36.560219,46.840051],[36.560451,46.839976],[36.560283,46.83974],[36.559263,46.840103],[36.559425,46.840332]]]}},{"type":"Feature","properties":{"cadnum":"2320681501:01:043:0006"},"geometry":{"type":"Polygon","coordinates":[[[36.573775,46.84034],[36.574621,46.840025],[36.574476,46.839799],[36.573974,46.839994],[36.573987,46.840047],[36.5734,46.840266],[36.5734,46.84026614521452],[36.573269,46.840315],[36.573399,46.84048],[36.5734,46.84047962427746],[36.5734,46.84048],[36.573775,46.84034]]]}},{"type":"Feature","properties":{"cadnum":"2320681501:01:043:0005"},"geometry":{"type":"Polygon","coordinates":[[[36.573572,46.83985920598007],[36.573734,46.839969],[36.573974,46.839994],[36.574476,46.839799],[36.574322,46.839631],[36.573784,46.839845],[36.573741,46.839815],[36.573575,46.839683],[36.573433,46.839765],[36.573572,46.83986],[36.573572,46.83985920598007]]]}},{"type":"Feature","properties":{"cadnum":"2320681501:01:011:0002"},"geometry":{"type":"Polygon","coordinates":[[[36.573987,46.840047],[36.573974,46.839994],[36.573734,46.83997],[36.573509,46.839946],[36.573362,46.839837],[36.573232,46.83976],[36.573061,46.839828],[36.573022,46.839841],[36.573128,46.839979],[36.573273,46.840164],[36.572265,46.840542],[36.572478,46.840823],[36.573399,46.84048],[36.573269,46.840315],[36.573572,46.840202],[36.573572,46.84020182964225],[36.573987,46.840047]]]}},{"type":"Feature","properties":{"cadnum":"2320681501:01:043:0011"},"geometry":{"type":"Polygon","coordinates":[[[36.571638,46.840319],[36.573061,46.839828],[36.573375,46.839701],[36.573242,46.839612],[36.573372,46.839539],[36.573144,46.839357],[36.572985,46.83943],[36.572883,46.839481],[36.57264,46.83947],[36.572821,46.83964],[36.571422,46.840157],[36.571638,46.840319]]]}},{"type":"Feature","properties":{"cadnum":"2320681501:01:043:0009"},"geometry":{"type":"Polygon","coordinates":[[[36.573987,46.840609],[36.573775,46.84034],[36.57340841121633,46.84047685981257],[36.572478,46.840823],[36.572691,46.841092],[36.573572,46.840764],[36.573572,46.84076312265758],[36.573987,46.840609]]]}},{"type":"Feature","properties":{"cadnum":"2320681501:01:043:0004"},"geometry":{"type":"Polygon","coordinates":[[[36.571776,46.839814],[36.57264,46.83947],[36.572883,46.839481],[36.572985,46.83943],[36.573337,46.839269],[36.573114,46.839048],[36.572809,46.838747],[36.5726,46.838823],[36.572879,46.839122],[36.57262,46.839225],[36.572486,46.839326],[36.571661,46.839651],[36.571776,46.839814]]]}},{"type":"Feature","properties":{"cadnum":"2320681501:01:043:0003"},"geometry":{"type":"Polygon","coordinates":[[[36.573491756098115,46.83919787804852],[36.573742,46.839083],[36.573525,46.838879],[36.573223,46.838595],[36.572809,46.838747],[36.573114,46.839048],[36.573337,46.839269],[36.573491756098115,46.83919787804852]]]}},{"type":"Feature","properties":{"cadnum":"2320681501:01:043:0007"},"geometry":{"type":"Polygon","coordinates":[[[36.572169,46.838991],[36.5726,46.838823],[36.573248,46.838587],[36.573076,46.838426],[36.573048,46.838396],[36.57304,46.838393],[36.572432,46.838606],[36.572421,46.838616],[36.572259,46.838684],[36.571967,46.838799],[36.572169,46.838991]]]}},{"type":"Feature","properties":{"cadnum":"2320681501:01:004:0002"},"geometry":{"type":"Polygon","coordinates":[[[36.590588,46.859047],[36.590284,46.858679],[36.590052,46.8587593960396],[36.590052,46.858759],[36.58878,46.859199],[36.589012,46.85949],[36.589167,46.859437],[36.590052,46.859195],[36.590052,46.85919462711865],[36.590588,46.859047]]]}},{"type":"Feature","properties":{"cadnum":"2320681501:01:004:0004"},"geometry":{"type":"Polygon","coordinates":[[[36.590221,46.858323],[36.590037,46.858085],[36.58848,46.858617],[36.588682,46.858854],[36.590052,46.858382],[36.590052,46.85838148093841],[36.590221,46.858323]]]}},{"type":"Feature","properties":{"cadnum":"2320681501:01:018:0004"},"geometry":{"type":"Polygon","coordinates":[[[36.576552,46.847741],[36.577162,46.847499],[36.577193,46.847487],[36.576355,46.846492],[36.575714,46.846746],[36.576195,46.847317],[36.576552,46.847741]]]}},{"type":"Feature","properties":{"cadnum":"2320681501:01:023:0001"},"geometry":{"type":"Polygon","coordinates":[[[36.578007,46.847466],[36.578289,46.847337],[36.578277,46.847296],[36.578258,46.847258],[36.578046,46.846922],[36.57797,46.846821],[36.577628,46.846951],[36.578007,46.847466]]]}},{"type":"Feature","properties":{"cadnum":"2320681501:01:023:0002"},"geometry":{"type":"Polygon","coordinates":[[[36.577628,46.846951],[36.57797,46.846821],[36.577793,46.846588],[36.577444,46.846141],[36.577118,46.846259],[36.577628,46.846951]]]}},{"type":"Feature","properties":{"cadnum":"2320681501:01:023:0010"},"geometry":{"type":"Polygon","coordinates":[[[36.577275,46.847073],[36.577628,46.846951],[36.577137,46.846284],[36.576784,46.846407],[36.577275,46.847073]]]}},{"type":"Feature","properties":{"cadnum":"2320681501:01:017:0002"},"geometry":{"type":"Polygon","coordinates":[[[36.572391,46.84509],[36.57248,46.845058],[36.572451,46.845018],[36.57236,46.845051],[36.572391,46.84509]]]}},{"type":"Feature","properties":{"cadnum":"2320681501:01:017:0005"},"geometry":{"type":"Polygon","coordinates":[[[36.572326,46.845103],[36.572384,46.845083],[36.57236,46.845051],[36.572302,46.845072],[36.572326,46.845103]]]}},{"type":"Feature","properties":{"cadnum":"2320681501:01:017:0001"},"geometry":{"type":"Polygon","coordinates":[[[36.572793,46.845068],[36.572884,46.845032],[36.572845,46.844985],[36.572755,46.845021],[36.572793,46.845068]]]}},{"type":"Feature","properties":{"cadnum":"2320681501:01:037:0001"},"geometry":{"type":"Polygon","coordinates":[[[36.570647,46.84462],[36.570681,46.844601],[36.570631,46.84456],[36.570599,46.844531],[36.570573,46.844546],[36.570606,46.844574],[36.570598,46.844578],[36.570647,46.84462]]]}},{"type":"Feature","properties":{"cadnum":"2320681501:01:037:0002"},"geometry":{"type":"Polygon","coordinates":[[[36.568811,46.844387],[36.568885,46.844344],[36.569682,46.843816],[36.569479,46.843653],[36.569226,46.843816],[36.569054,46.843884],[36.568657,46.84412],[36.568555,46.844182],[36.568811,46.844387]]]}},{"type":"Feature","properties":{"cadnum":"2320681501:01:017:0012"},"geometry":{"type":"Polygon","coordinates":[[[36.57178,46.845045],[36.572379,46.844798],[36.572313,46.844729],[36.57223,46.844639],[36.572194,46.844598],[36.572153,46.844603],[36.571786,46.844742],[36.571735,46.84473],[36.571578,46.844814],[36.571689,46.844942],[36.57178,46.845045]]]}},{"type":"Feature","properties":{"cadnum":"2320681501:01:037:0003"},"geometry":{"type":"Polygon","coordinates":[[[36.568413,46.844616],[36.568811,46.844387],[36.568555,46.844182],[36.567907,46.844581],[36.567907,46.84458135612535],[36.567728,46.844691],[36.567907,46.844890381188115],[36.567907,46.844891],[36.56793,46.844916],[36.568079,46.844824],[36.568079,46.84482345341615],[36.568413,46.844616]]]}},{"type":"Feature","properties":{"cadnum":"2320681501:01:037:0012"},"geometry":{"type":"Polygon","coordinates":[[[36.56867,46.844715],[36.568567,46.844625],[36.567911,46.844968],[36.568013,46.845059],[36.568079,46.845025],[36.568079,46.84502444292237],[36.56867,46.844715]]]}},{"type":"Feature","properties":{"cadnum":"2320681501:01:025:0001"},"geometry":{"type":"Polygon","coordinates":[[[36.572442,46.851677],[36.572521,46.851619],[36.572472,46.851589],[36.572393,46.851646],[36.572442,46.851677]]]}},{"type":"Feature","properties":{"cadnum":"2320681501:01:026:0001"},"geometry":{"type":"Polygon","coordinates":[[[36.570277,46.852471],[36.569872,46.852691],[36.569747,46.852759],[36.570522,46.85336],[36.57005,46.853641],[36.57056,46.854022],[36.570958,46.85378],[36.571392,46.853512],[36.571506,46.853433],[36.57139,46.853355],[36.570581,46.852713],[36.570277,46.852471]]]}},{"type":"Feature","properties":{"cadnum":"2320681501:01:050:0003"},"geometry":{"type":"Polygon","coordinates":[[[36.560675,46.837149],[36.561269,46.83694],[36.561145,46.836783],[36.560614,46.836968],[36.560551,46.836989],[36.560675,46.837149]]]}},{"type":"Feature","properties":{"cadnum":"2320681501:01:055:0004"},"geometry":{"type":"Polygon","coordinates":[[[36.557621,46.835611],[36.558194,46.835392],[36.558537,46.835264],[36.558336,46.835013],[36.557986,46.83515],[36.557424,46.835364],[36.557621,46.835611]]]}},{"type":"Feature","properties":{"cadnum":"2320681501:01:055:0006"},"geometry":{"type":"Polygon","coordinates":[[[36.56141,46.835139],[36.562012,46.834908],[36.561884,46.834738],[36.561624,46.834835],[36.561289,46.834967],[36.56141,46.835139]]]}},{"type":"Feature","properties":{"cadnum":"2320681501:01:055:0008"},"geometry":{"type":"Polygon","coordinates":[[[36.558758,46.83725],[36.559087,46.837108],[36.55921,46.837064],[36.560051,46.836732],[36.560187,46.836674],[36.560075,46.836534],[36.559972,46.836571],[36.558626,46.837074],[36.558758,46.83725]]]}},{"type":"Feature","properties":{"cadnum":"2320681501:01:050:0004"},"geometry":{"type":"Polygon","coordinates":[[[36.561052,46.835706],[36.56228,46.835271],[36.562126,46.835072],[36.561646,46.835247],[36.561485,46.835315],[36.560916,46.835534],[36.561052,46.835706]]]}},{"type":"Feature","properties":{"cadnum":"2320681501:01:032:0005"},"geometry":{"type":"Polygon","coordinates":[[[36.580991,46.84137],[36.580173,46.841752],[36.579873,46.841862],[36.579989,46.842005],[36.580256,46.841896],[36.581147,46.841568],[36.581135,46.841552],[36.581015,46.8414],[36.580991,46.84137]]]}},{"type":"Feature","properties":{"cadnum":"2320681501:01:033:0001"},"geometry":{"type":"Polygon","coordinates":[[[36.579712,46.840087],[36.579445,46.839727],[36.578894,46.83993],[36.578894,46.839930493975906],[36.578816,46.839959],[36.578958,46.840149],[36.579065,46.840319],[36.579065,46.84031856779661],[36.579076,46.840336],[36.579712,46.840087]]]}},{"type":"Feature","properties":{"cadnum":"2320681501:01:045:0003"},"geometry":{"type":"Polygon","coordinates":[[[36.57965,46.838336],[36.579504,46.838197],[36.578894,46.838483],[36.578894,46.83848302463054],[36.578253,46.838783],[36.577923,46.838921],[36.578007,46.839002],[36.57805,46.839042],[36.578894,46.83866947586207],[36.578894,46.838671],[36.57965,46.838336]]]}},{"type":"Feature","properties":{"cadnum":"2320681501:01:042:0001"},"geometry":{"type":"Polygon","coordinates":[[[36.565976,46.841275],[36.566636,46.84101],[36.566352,46.840678],[36.56569,46.840945],[36.565976,46.841275]]]}},{"type":"Feature","properties":{"cadnum":"2320681501:01:042:0005"},"geometry":{"type":"Polygon","coordinates":[[[36.563834,46.840407],[36.565526,46.83965],[36.565863,46.839512],[36.565779,46.839405],[36.563781,46.84027],[36.563834,46.840407]]]}},{"type":"Feature","properties":{"cadnum":"2320681501:01:042:0002"},"geometry":{"type":"Polygon","coordinates":[[[36.565976,46.841275],[36.56569,46.840945],[36.565163,46.841158],[36.565426,46.841466],[36.56542714285714,46.841466],[36.565446,46.841488],[36.56554467870121,46.84144807220182],[36.565976,46.841275]]]}},{"type":"Feature","properties":{"cadnum":"2320681501:01:044:0007"},"geometry":{"type":"Polygon","coordinates":[[[36.571472,46.836183],[36.571996,46.835959],[36.572313,46.835835],[36.572066,46.835589],[36.571894,46.835658],[36.571209,46.835936],[36.571265,46.835987],[36.571472,46.836183]]]}},{"type":"Feature","properties":{"cadnum":"2320681501:01:044:0005"},"geometry":{"type":"Polygon","coordinates":[[[36.571602,46.836302],[36.573144,46.835713],[36.572987,46.835571],[36.572313,46.835835],[36.571996,46.835959],[36.571472,46.836183],[36.571602,46.836302]]]}},{"type":"Feature","properties":{"cadnum":"2320681501:01:044:0011"},"geometry":{"type":"Polygon","coordinates":[[[36.571209,46.835936],[36.571894,46.835659],[36.572066,46.835589],[36.57259,46.835378],[36.572341,46.835148],[36.571815,46.835365],[36.57164,46.835438],[36.571455,46.83552],[36.57096,46.835695],[36.571209,46.835936]]]}},{"type":"Feature","properties":{"cadnum":"2320681501:01:044:0009"},"geometry":{"type":"Polygon","coordinates":[[[36.57259,46.835378],[36.572833,46.835281],[36.573201,46.83513],[36.573348,46.835061],[36.573426,46.835026],[36.573449,46.835017],[36.573177,46.83478],[36.573072,46.834827],[36.572554,46.83506],[36.572341,46.835148],[36.57259,46.835378]]]}},{"type":"Feature","properties":{"cadnum":"2320681501:01:047:0002"},"geometry":{"type":"Polygon","coordinates":[[[36.572023,46.833682],[36.571126,46.83395],[36.57112719087136,46.83395],[36.570713,46.834074],[36.570889,46.834312],[36.5722,46.833867],[36.572023,46.833682]]]}},{"type":"Feature","properties":{"cadnum":"2320681501:01:047:0004"},"geometry":{"type":"Polygon","coordinates":[[[36.569661,46.83603],[36.569849,46.835967],[36.569706,46.835862],[36.569584,46.835909],[36.569568,46.835895],[36.569372,46.835974],[36.569384,46.835987],[36.56933,46.836009],[36.569337,46.836018],[36.568778,46.83628],[36.567948,46.8367],[36.568071,46.83679],[36.569661,46.83603]]]}},{"type":"Feature","properties":{"cadnum":"2320681501:01:047:0001"},"geometry":{"type":"Polygon","coordinates":[[[36.569947,46.83463],[36.570889,46.834312],[36.570713,46.834074],[36.569763,46.834359],[36.569947,46.83463]]]}},{"type":"Feature","properties":{"cadnum":"2320681501:01:041:0001"},"geometry":{"type":"Polygon","coordinates":[[[36.562821,46.843256],[36.562656,46.843037],[36.562414,46.843127],[36.562414,46.843127941848394],[36.561623,46.843422],[36.561785,46.843649],[36.562586,46.843346],[36.562586,46.8433454963145],[36.562821,46.843256]]]}},{"type":"Feature","properties":{"cadnum":"2320681501:01:014:0001"},"geometry":{"type":"Polygon","coordinates":[[[36.574974,46.858049],[36.575035,46.858013],[36.57525,46.857892],[36.575348,46.857832],[36.575392,46.857803],[36.575462,46.857771],[36.575025,46.857422],[36.574526,46.857692],[36.574974,46.858049]]]}},{"type":"Feature","properties":{"cadnum":"2320681501:01:010:0002"},"geometry":{"type":"Polygon","coordinates":[[[36.576802,46.8587],[36.577381,46.858545],[36.57748,46.858373],[36.577194,46.858136],[36.576524,46.858461],[36.576802,46.8587]]]}},{"type":"Feature","properties":{"cadnum":"2320681501:01:011:0001"},"geometry":{"type":"Polygon","coordinates":[[[36.574377,46.859494],[36.576209,46.858519],[36.575612,46.858042],[36.574854,46.858461],[36.573863,46.858997],[36.574377,46.859494]]]}},{"type":"Feature","properties":{"cadnum":"2320681501:01:057:0003"},"geometry":{"type":"Polygon","coordinates":[[[36.568008,46.830534],[36.567822,46.830306],[36.566751,46.830595],[36.566936,46.830821],[36.567336,46.830712],[36.567907,46.83056075297619],[36.567907,46.830561],[36.568008,46.830534]]]}},{"type":"Feature","properties":{"cadnum":"2320681501:01:048:0001"},"geometry":{"type":"Polygon","coordinates":[[[36.565103,46.832295],[36.566201,46.831921],[36.566066,46.831745],[36.564986,46.832109],[36.565103,46.832295]]]}},{"type":"Feature","properties":{"cadnum":"2320681501:01:055:0003"},"geometry":{"type":"Polygon","coordinates":[[[36.560146,46.833365],[36.56085,46.833058],[36.560743,46.832934],[36.560773,46.83292],[36.560746,46.832893],[36.560723,46.832903],[36.560602,46.832757],[36.559896,46.833042],[36.560146,46.833365]]]}},{"type":"Feature","properties":{"cadnum":"2320681501:01:059:0001"},"geometry":{"type":"Polygon","coordinates":[[[36.557291,46.831363],[36.558281,46.830958],[36.558127,46.830742],[36.557436,46.831022],[36.557322,46.831066],[36.557326,46.83107],[36.557294,46.831083],[36.557223,46.831105],[36.557132,46.831132],[36.557291,46.831363]]]}},{"type":"Feature","properties":{"cadnum":"2320681501:01:037:0004"},"geometry":{"type":"Polygon","coordinates":[[[36.566332,46.844312],[36.566856,46.844035],[36.566716,46.843907],[36.566187,46.844178],[36.566332,46.844312]]]}},{"type":"Feature","properties":{"cadnum":"2320681501:01:037:0009"},"geometry":{"type":"Polygon","coordinates":[[[36.564805,46.844887],[36.566108,46.84422],[36.565963,46.844079],[36.56541,46.844356],[36.564905,46.8446],[36.56464,46.844726],[36.564805,46.844887]]]}},{"type":"Feature","properties":{"cadnum":"2320681501:01:037:0010"},"geometry":{"type":"Polygon","coordinates":[[[36.566108,46.844219],[36.566185,46.844178],[36.566716,46.843907],[36.566783,46.843871],[36.56664,46.84374],[36.565963,46.844079],[36.566108,46.844219]]]}},{"type":"Feature","properties":{"cadnum":"2320681501:01:005:0004"},"geometry":{"type":"Polygon","coordinates":[[[36.590277,46.85381],[36.5912,46.853738],[36.59119,46.853548],[36.590088,46.853618],[36.589973834586324,46.85362787969926],[36.589826,46.853639],[36.589885,46.853844],[36.590052,46.85383],[36.590052,46.853829515306124],[36.590277,46.85381]]]}},{"type":"Feature","properties":{"cadnum":"2320681501:01:006:0001"},"geometry":{"type":"Polygon","coordinates":[[[36.586688,46.854634],[36.587367,46.85438],[36.587096,46.85404],[36.586425,46.854305],[36.586688,46.854634]]]}},{"type":"Feature","properties":{"cadnum":"2320681501:01:006:0002"},"geometry":{"type":"Polygon","coordinates":[[[36.587367,46.85438],[36.588122,46.854095],[36.587835,46.853738],[36.587096,46.85404],[36.587367,46.85438]]]}},{"type":"Feature","properties":{"cadnum":"2320681501:02:005:0097"},"geometry":{"type":"Polygon","coordinates":[[[36.559359,46.761587],[36.559505,46.761555],[36.559548,46.761279],[36.55965,46.761289],[36.55967,46.761066],[36.559461,46.761068],[36.559457,46.761245],[36.559291,46.761226],[36.55926,46.761353],[36.559359,46.761587]]]}},{"type":"Feature","properties":{"cadnum":"2320681501:01:010:0001"},"geometry":{"type":"Polygon","coordinates":[[[36.579498,46.860695],[36.579311,46.860446],[36.57905665957447,46.86053382978724],[36.578841,46.860607],[36.578376,46.86076],[36.57857,46.86102],[36.579057,46.860846],[36.579065,46.860844],[36.579065,46.86084326077098],[36.579498,46.860695]]]}},{"type":"Feature","properties":{"cadnum":"2320681501:01:012:0001"},"geometry":{"type":"Polygon","coordinates":[[[36.575114,46.861635],[36.575829,46.861364],[36.575612,46.861031],[36.574905,46.861301],[36.575114,46.861635]]]}},{"type":"Feature","properties":{"cadnum":"2320681501:01:012:0002"},"geometry":{"type":"Polygon","coordinates":[[[36.574414,46.861901],[36.575114,46.861635],[36.574905,46.861301],[36.574184,46.861576],[36.574414,46.861901]]]}},{"type":"Feature","properties":{"cadnum":"2320681501:01:029:0002"},"geometry":{"type":"Polygon","coordinates":[[[36.566432,46.848859],[36.566181,46.84898],[36.56618260344829,46.84898],[36.566065,46.849037],[36.566828,46.849803],[36.567211,46.849619],[36.566555095238094,46.84898],[36.566556,46.84898],[36.566432,46.848859]]]}},{"type":"Feature","properties":{"cadnum":"2320681501:01:028:0002"},"geometry":{"type":"Polygon","coordinates":[[[36.56463,46.848842],[36.564586934782604,46.848863],[36.564585,46.848863],[36.563883,46.849208],[36.564112,46.849427],[36.564553,46.849201],[36.564677,46.849306],[36.564976,46.849117],[36.56480286220472,46.84898],[36.564803,46.84898],[36.56463,46.848842]]]}},{"type":"Feature","properties":{"cadnum":"2320681501:01:029:0001"},"geometry":{"type":"Polygon","coordinates":[[[36.565964,46.848575],[36.565666,46.848357],[36.565633,46.848333],[36.565408,46.848458],[36.564939,46.848719],[36.56495,46.848726],[36.564986,46.848752],[36.565143878640775,46.848863],[36.565143,46.848863],[36.565279,46.848958],[36.565449,46.848863],[36.56544890861618,46.848863],[36.565964,46.848575]]]}},{"type":"Feature","properties":{"cadnum":"2320681501:01:039:0001"},"geometry":{"type":"Polygon","coordinates":[[[36.564559,46.848806],[36.564557,46.848805],[36.564375,46.84864],[36.564339,46.848607],[36.564002,46.848737],[36.563331,46.84898],[36.56333229767443,46.84898],[36.563062,46.849078],[36.563086,46.849109],[36.563234,46.849295],[36.563239,46.849302],[36.563278,46.849287],[36.564407,46.848863],[36.564559,46.848806]]]}},{"type":"Feature","properties":{"cadnum":"2320681501:01:037:0019"},"geometry":{"type":"Polygon","coordinates":[[[36.567175,46.846916],[36.567777,46.846612],[36.56795,46.846459],[36.567679,46.846247],[36.567485,46.846368],[36.566935,46.846718],[36.567175,46.846916]]]}},{"type":"Feature","properties":{"cadnum":"2320681501:01:038:0001"},"geometry":{"type":"Polygon","coordinates":[[[36.564559,46.848806],[36.564847,46.84867],[36.565543,46.848343],[36.566112,46.84807],[36.56656,46.847829],[36.56741,46.847317],[36.567615,46.847194],[36.567638,46.847181],[36.56762,46.847167],[36.567528,46.847095],[36.5675,46.847072],[36.567416,46.847122],[36.56725,46.847222],[36.566425,46.847719],[36.565987,46.847955],[36.565428,46.848223],[36.564502,46.848549],[36.564403,46.848584],[36.564339,46.848607],[36.564375,46.84864],[36.564559,46.848806]]]}},{"type":"Feature","properties":{"cadnum":"2320681501:01:038:0002"},"geometry":{"type":"Polygon","coordinates":[[[36.565648,46.847876],[36.56591,46.847747],[36.566074,46.847668],[36.566391,46.847466],[36.566403,46.847339],[36.566026,46.846993],[36.565027,46.847503],[36.565381,46.847872],[36.565544,46.847788],[36.565648,46.847876]]]}},{"type":"Feature","properties":{"cadnum":"2320681501:01:038:0007"},"geometry":{"type":"Polygon","coordinates":[[[36.56334,46.846571],[36.564152,46.846087],[36.563887,46.845889],[36.564711,46.845396],[36.564433,46.845189],[36.562857,46.846149],[36.56334,46.846571]]]}},{"type":"Feature","properties":{"cadnum":"2320681501:01:032:0003"},"geometry":{"type":"Polygon","coordinates":[[[36.582183,46.843021],[36.583001,46.842739],[36.582787,46.84246],[36.581977,46.842754],[36.582183,46.843021]]]}},{"type":"Feature","properties":{"cadnum":"2320681501:01:022:0005"},"geometry":{"type":"Polygon","coordinates":[[[36.582529,46.845141],[36.582941,46.844948],[36.582697,46.844692],[36.582664,46.844655],[36.582229,46.844849],[36.582394,46.845008],[36.582529,46.845141]]]}},{"type":"Feature","properties":{"cadnum":"2320681501:01:032:0004"},"geometry":{"type":"Polygon","coordinates":[[[36.5809,46.842753],[36.58176,46.842423],[36.581546,46.842161],[36.580687,46.842491],[36.5809,46.842753]]]}},{"type":"Feature","properties":{"cadnum":"2320681501:01:032:0006"},"geometry":{"type":"Polygon","coordinates":[[[36.58176,46.842423],[36.582584,46.842106],[36.582371,46.841845],[36.581546,46.842161],[36.58176,46.842423]]]}},{"type":"Feature","properties":{"cadnum":"2320681501:01:022:0004"},"geometry":{"type":"Polygon","coordinates":[[[36.582229,46.844849],[36.582664,46.844655],[36.582485,46.844467],[36.58245,46.844431],[36.582226,46.844203],[36.581752,46.844385],[36.582017,46.844643],[36.582229,46.844849]]]}},{"type":"Feature","properties":{"cadnum":"2320681501:01:031:0008"},"geometry":{"type":"Polygon","coordinates":[[[36.579503,46.843561],[36.580158,46.843332],[36.579924,46.843047],[36.579277,46.843287],[36.579503,46.843561]]]}},{"type":"Feature","properties":{"cadnum":"2320681501:01:032:0002"},"geometry":{"type":"Polygon","coordinates":[[[36.581294,46.843328],[36.582183,46.843021],[36.581977,46.842754],[36.581097,46.843072],[36.581294,46.843328]]]}},{"type":"Feature","properties":{"cadnum":"2320681501:01:019:0003"},"geometry":{"type":"Polygon","coordinates":[[[36.585068,46.851122],[36.585934,46.850804],[36.585739,46.850531],[36.584878,46.850855],[36.585068,46.851122]]]}},{"type":"Feature","properties":{"cadnum":"2320681501:01:006:0005"},"geometry":{"type":"Polygon","coordinates":[[[36.588425,46.852022],[36.588904,46.851858],[36.588814,46.851641],[36.588705,46.851462],[36.588689,46.851442],[36.588656,46.851431],[36.588555,46.851428],[36.58839,46.851464],[36.588094,46.851557],[36.588416,46.852008],[36.588425,46.852022]]]}},{"type":"Feature","properties":{"cadnum":"2320681501:01:019:0007"},"geometry":{"type":"Polygon","coordinates":[[[36.585335,46.851649],[36.58602,46.851408],[36.586243,46.851326],[36.586306,46.851305],[36.586118,46.851059],[36.585158,46.851418],[36.585335,46.851649]]]}},{"type":"Feature","properties":{"cadnum":"2320681501:01:058:0002"},"geometry":{"type":"Polygon","coordinates":[[[36.560884,46.825887],[36.56123,46.825728],[36.561034,46.82549],[36.560672,46.825628],[36.560884,46.825887]]]}},{"type":"Feature","properties":{"cadnum":"2320681501:01:062:0001"},"geometry":{"type":"Polygon","coordinates":[[[36.561398,46.823871],[36.562308,46.823585],[36.562124,46.823316],[36.561218,46.823606],[36.561398,46.823871]]]}},{"type":"Feature","properties":{"cadnum":"2320681501:01:058:0009"},"geometry":{"type":"Polygon","coordinates":[[[36.560774,46.825286],[36.561746,46.824875],[36.561559,46.82465],[36.560589,46.825063],[36.560774,46.825286]]]}},{"type":"Feature","properties":{"cadnum":"2320681501:01:058:0004"},"geometry":{"type":"Polygon","coordinates":[[[36.560051,46.825626],[36.560774,46.825286],[36.560589,46.825063],[36.559867,46.825405],[36.560051,46.825626]]]}},{"type":"Feature","properties":{"cadnum":"2320681501:01:065:0002"},"geometry":{"type":"Polygon","coordinates":[[[36.558707,46.823435],[36.559367,46.823166],[36.559132,46.822896],[36.558473,46.823165],[36.558707,46.823435]]]}},{"type":"Feature","properties":{"cadnum":"2320681501:01:058:0001"},"geometry":{"type":"Polygon","coordinates":[[[36.56123,46.825728],[36.56219,46.825335],[36.562009,46.825114],[36.561034,46.82549],[36.56123,46.825728]]]}},{"type":"Feature","properties":{"cadnum":"2320681501:01:004:0003"},"geometry":{"type":"Polygon","coordinates":[[[36.587726,46.859184],[36.588682,46.858854],[36.58848,46.858617],[36.587525,46.858943],[36.587726,46.859184]]]}},{"type":"Feature","properties":{"cadnum":"2320681501:01:004:0001"},"geometry":{"type":"Polygon","coordinates":[[[36.588213,46.859762],[36.589012,46.85949],[36.58878,46.859199],[36.587978,46.859477],[36.588213,46.859762]]]}},{"type":"Feature","properties":{"cadnum":"2320681501:01:016:0002"},"geometry":{"type":"Polygon","coordinates":[[[36.57656,46.85373],[36.576903,46.853538],[36.576484,46.853187],[36.576144,46.853383],[36.57656,46.85373]]]}},{"type":"Feature","properties":{"cadnum":"2320681501:01:016:0001"},"geometry":{"type":"Polygon","coordinates":[[[36.576051,46.854017],[36.57656,46.85373],[36.576144,46.853383],[36.57564,46.853674],[36.576051,46.854017]]]}},{"type":"Feature","properties":{"cadnum":"2320681501:01:015:0001"},"geometry":{"type":"Polygon","coordinates":[[[36.576859,46.85472],[36.577282,46.854499],[36.576705,46.854075],[36.576548,46.854183],[36.576324,46.854328],[36.576859,46.85472]]]}},{"type":"Feature","properties":{"cadnum":"2320681501:01:016:0008"},"geometry":{"type":"Polygon","coordinates":[[[36.577063,46.854869],[36.577582,46.854693],[36.578053,46.854485],[36.57775,46.854264],[36.577469,46.854405],[36.577359,46.854459],[36.576859,46.85472],[36.577063,46.854869]]]}},{"type":"Feature","properties":{"cadnum":"2320681501:01:016:0005"},"geometry":{"type":"Polygon","coordinates":[[[36.577558,46.855271],[36.578654,46.8549],[36.578604,46.854707],[36.57765,46.85501],[36.577638,46.855],[36.577616,46.85501],[36.577515,46.854905],[36.577275,46.855023],[36.577558,46.855271]]]}},{"type":"Feature","properties":{"cadnum":"2320681501:01:044:0012"},"geometry":{"type":"Polygon","coordinates":[[[36.574901,46.839568],[36.575695,46.839266],[36.576418,46.839021],[36.576328,46.838903],[36.575291,46.839258],[36.574754,46.839442],[36.574901,46.839568]]]}},{"type":"Feature","properties":{"cadnum":"2320681501:01:044:0014"},"geometry":{"type":"Polygon","coordinates":[[[36.5751,46.839737],[36.575477,46.839602],[36.575641,46.839546],[36.576226,46.839328],[36.576276,46.839313],[36.576071,46.839138],[36.575695,46.839266],[36.574901,46.839568],[36.5751,46.839737]]]}},{"type":"Feature","properties":{"cadnum":"2320681501:01:044:0002"},"geometry":{"type":"Polygon","coordinates":[[[36.574259,46.838988],[36.574637,46.838851],[36.575444,46.838579],[36.575369,46.83851],[36.575243,46.838401],[36.574534,46.838637],[36.574059,46.838811],[36.574259,46.838988]]]}},{"type":"Feature","properties":{"cadnum":"2320681501:01:034:0001"},"geometry":{"type":"Polygon","coordinates":[[[36.577203,46.838815],[36.57727,46.838765],[36.577266,46.838762],[36.577244,46.838749],[36.577239,46.838745],[36.577172,46.838794],[36.577203,46.838815]]]}},{"type":"Feature","properties":{"cadnum":"2320681501:01:025:0004"},"geometry":{"type":"Polygon","coordinates":[[[36.572483,46.853943],[36.572742,46.853786],[36.572816,46.853743],[36.573199,46.8535],[36.573071,46.853389],[36.57232,46.853817],[36.572483,46.853943]]]}},{"type":"Feature","properties":{"cadnum":"2320681501:01:027:0001"},"geometry":{"type":"Polygon","coordinates":[[[36.569431,46.855866],[36.569617,46.855761],[36.57048,46.855271],[36.569778,46.854692],[36.569024,46.855077],[36.568791,46.855195],[36.56872,46.855232],[36.569003,46.855485],[36.569015,46.85548],[36.569028,46.855496],[36.569019,46.855498],[36.569136,46.855603],[36.569431,46.855866]],[[36.56913,46.85541],[36.569117,46.855395],[36.569141,46.855386],[36.569153,46.855401],[36.56913,46.85541]]]}},{"type":"Feature","properties":{"cadnum":"2320681501:01:057:0002"},"geometry":{"type":"Polygon","coordinates":[[[36.569522,46.832581],[36.570862,46.832102],[36.570709,46.831876],[36.569594,46.832251],[36.569342,46.832337],[36.569522,46.832581]]]}},{"type":"Feature","properties":{"cadnum":"2320681501:01:047:0007"},"geometry":{"type":"Polygon","coordinates":[[[36.570462,46.833201],[36.570504,46.833185],[36.57148,46.832834],[36.571469,46.832805],[36.571319,46.832604],[36.57028,46.832982],[36.570462,46.833201]]]}},{"type":"Feature","properties":{"cadnum":"2320681501:01:057:0001"},"geometry":{"type":"Polygon","coordinates":[[[36.568601,46.83291],[36.569522,46.832581],[36.569342,46.832337],[36.568397,46.832655],[36.568601,46.83291]]]}},{"type":"Feature","properties":{"cadnum":"2320681501:01:047:0003"},"geometry":{"type":"Polygon","coordinates":[[[36.569259,46.833654],[36.569455,46.833583],[36.56946,46.833592],[36.569596,46.833543],[36.569593,46.833538],[36.569644,46.83352],[36.569667,46.833508],[36.570223,46.833293],[36.570056,46.833063],[36.569989,46.833088],[36.569066,46.833423],[36.569259,46.833654]]]}},{"type":"Feature","properties":{"cadnum":"2320681501:01:047:0005"},"geometry":{"type":"Polygon","coordinates":[[[36.570223,46.833293],[36.570462,46.833201],[36.570286,46.83299],[36.570064,46.833074],[36.570223,46.833293]]]}},{"type":"Feature","properties":{"cadnum":"2320681501:01:023:0003"},"geometry":{"type":"Polygon","coordinates":[[[36.582272,46.847699],[36.583051,46.847365],[36.582804,46.847093],[36.582025,46.847426],[36.582272,46.847699]]]}},{"type":"Feature","properties":{"cadnum":"2320681501:01:023:0004"},"geometry":{"type":"Polygon","coordinates":[[[36.58098,46.848251],[36.582272,46.847699],[36.582025,46.847426],[36.580734,46.847979],[36.58098,46.848251]]]}},{"type":"Feature","properties":{"cadnum":"2320681501:01:022:0008"},"geometry":{"type":"Polygon","coordinates":[[[36.582032,46.846028],[36.582444,46.845851],[36.582532,46.845813],[36.582153,46.845415],[36.581613,46.845648],[36.581808,46.845829],[36.582008,46.846026],[36.582032,46.846028]]]}},{"type":"Feature","properties":{"cadnum":"2320681501:01:023:0014"},"geometry":{"type":"Polygon","coordinates":[[[36.580734,46.847979],[36.580781,46.847959],[36.581922,46.84747],[36.581703,46.847236],[36.58109,46.847507],[36.580597,46.847708],[36.580542,46.847727],[36.580734,46.847979]]]}},{"type":"Feature","properties":{"cadnum":"2320681501:01:022:0009"},"geometry":{"type":"Polygon","coordinates":[[[36.582536,46.846572],[36.583205,46.84632],[36.582961,46.846028],[36.582681,46.846132],[36.582444,46.845851],[36.582032,46.846028],[36.582536,46.846572]]]}},{"type":"Feature","properties":{"cadnum":"2320681501:01:062:0009"},"geometry":{"type":"Polygon","coordinates":[[[36.562865,46.828537],[36.563837,46.828178],[36.564335,46.827988],[36.564251,46.827887],[36.563887,46.828051],[36.563684,46.828132],[36.562795,46.828461],[36.562865,46.828537]]]}},{"type":"Feature","properties":{"cadnum":"2320681501:01:062:0010"},"geometry":{"type":"Polygon","coordinates":[[[36.56519,46.827909],[36.566927,46.827611],[36.566805,46.827385],[36.564982,46.827659],[36.56519,46.827909]]]}},{"type":"Feature","properties":{"cadnum":"2320681501:01:062:0007"},"geometry":{"type":"Polygon","coordinates":[[[36.56394,46.826957],[36.564808,46.826623],[36.564571,46.826382],[36.563694,46.826704],[36.56394,46.826957]]]}},{"type":"Feature","properties":{"cadnum":"2320681501:01:058:0006"},"geometry":{"type":"Polygon","coordinates":[[[36.563487,46.828595],[36.564135,46.828349],[36.56452,46.828205],[36.564335,46.827988],[36.563837,46.828178],[36.563301,46.828376],[36.563487,46.828595]]]}}]}