{"type":"FeatureCollection","features":[{"type":"Feature","properties":{"cadnum":"2320686003:01:004:0002"},"geometry":{"type":"Polygon","coordinates":[[[37.060275,46.975869],[37.059735,46.976055],[37.060107,46.976563],[37.060107548387094,46.976563],[37.060158,46.976632],[37.060698,46.976446],[37.060275,46.975869]]]}},{"type":"Feature","properties":{"cadnum":"2320686003:01:013:0002"},"geometry":{"type":"Polygon","coordinates":[[[37.058833,46.973639],[37.059279,46.973466],[37.058965,46.97311],[37.058565,46.973283],[37.058833,46.973639]]]}},{"type":"Feature","properties":{"cadnum":"2320686003:01:013:0001"},"geometry":{"type":"Polygon","coordinates":[[[37.058513,46.972544],[37.05816418072289,46.972698],[37.058164,46.972698],[37.058137,46.97271],[37.058215,46.972815],[37.05821542931937,46.972815],[37.058565,46.973283],[37.058965,46.97311],[37.05872871359223,46.972815],[37.058729,46.972815],[37.058513,46.972544]]]}},{"type":"Feature","properties":{"cadnum":"2320686003:01:004:0001"},"geometry":{"type":"Polygon","coordinates":[[[37.059735,46.976055],[37.060275,46.975869],[37.059928,46.975397],[37.059458,46.975558],[37.059658,46.975832],[37.059588,46.975857],[37.059735,46.976055]]]}}]}