{"type":"FeatureCollection","features":[{"type":"Feature","properties":{"cadnum":"2320684503:01:011:0001"},"geometry":{"type":"Polygon","coordinates":[[[36.850931,46.846076],[36.851167,46.845827],[36.850518,46.845539],[36.850282,46.845787],[36.850931,46.846076]]]}},{"type":"Feature","properties":{"cadnum":"2320684503:01:001:0001"},"geometry":{"type":"Polygon","coordinates":[[[36.853634,46.847714],[36.853714,46.847735],[36.853724,46.847725],[36.853724,46.84772425373134],[36.853915,46.847519],[36.853591,46.847383],[36.852875,46.848187],[36.85312,46.848289],[36.853552,46.84780573151751],[36.853552,46.847806],[36.853634,46.847714]]]}},{"type":"Feature","properties":{"cadnum":"2320684503:01:010:0001"},"geometry":{"type":"Polygon","coordinates":[[[36.853842,46.845028],[36.8537596,46.845106],[36.853758,46.845106],[36.853552,46.845303],[36.853552,46.845303785714286],[36.853164,46.845671],[36.853428,46.845801],[36.853455,46.84578],[36.853552,46.845693777777775],[36.853552,46.845694],[36.853563,46.845684],[36.853724,46.845511],[36.853724,46.845510421875],[36.854075,46.845132],[36.853842,46.845028]]]}},{"type":"Feature","properties":{"cadnum":"2320684503:01:002:0003"},"geometry":{"type":"Polygon","coordinates":[[[36.852069,46.8466],[36.852908,46.845795],[36.852598,46.845688],[36.851854,46.846495],[36.852069,46.8466]]]}},{"type":"Feature","properties":{"cadnum":"2320684503:01:015:0003"},"geometry":{"type":"Polygon","coordinates":[[[36.849997,46.844954],[36.84982691821561,46.845106],[36.849826,46.845106],[36.849549,46.845355],[36.849888,46.845529],[36.850044,46.845385],[36.850325,46.845124],[36.849997,46.844954]]]}},{"type":"Feature","properties":{"cadnum":"2320684503:01:011:0002"},"geometry":{"type":"Polygon","coordinates":[[[36.849561,46.84472],[36.849298,46.844602],[36.84881224,46.845106],[36.848812,46.845106],[36.848792,46.845127],[36.849003,46.845223],[36.849003354838715,46.845223],[36.849065,46.845251],[36.8492,46.845106],[36.84919955666003,46.845106],[36.849561,46.84472]]]}},{"type":"Feature","properties":{"cadnum":"2320684503:01:014:0004"},"geometry":{"type":"Polygon","coordinates":[[[36.843567,46.842928],[36.843339,46.842821],[36.843032,46.843199],[36.842627,46.843712],[36.842737,46.843764],[36.842737,46.84376348],[36.842877,46.843829],[36.843567,46.842928]]]}},{"type":"Feature","properties":{"cadnum":"2320684503:01:017:0002"},"geometry":{"type":"Polygon","coordinates":[[[36.841148,46.840997],[36.841136,46.840987],[36.841084,46.840939],[36.841055,46.840914],[36.841168,46.840857],[36.84116,46.840849],[36.840967,46.840949],[36.840913,46.840902],[36.840707,46.841022],[36.840724,46.841037],[36.840244420560744,46.841348],[36.840243,46.841348],[36.840229,46.841358],[36.840359,46.841445],[36.841148,46.840997]]]}},{"type":"Feature","properties":{"cadnum":"2320684503:01:012:0001"},"geometry":{"type":"Polygon","coordinates":[[[36.841774,46.843439],[36.841982,46.843139],[36.842539,46.842447],[36.842553,46.842431],[36.842315,46.842328],[36.841554,46.843366],[36.841774,46.843439]]]}},{"type":"Feature","properties":{"cadnum":"2320684503:01:017:0001"},"geometry":{"type":"Polygon","coordinates":[[[36.84167,46.84118],[36.841342,46.840998],[36.841234,46.841099],[36.84098270858895,46.841348],[36.840982,46.841348],[36.840905,46.841425],[36.840795,46.841537],[36.841224,46.841707],[36.84142673537605,46.841466],[36.841427,46.841466],[36.84167,46.84118]]]}},{"type":"Feature","properties":{"cadnum":"2320684503:01:033:0005"},"geometry":{"type":"Polygon","coordinates":[[[36.846908,46.833567],[36.846594,46.833795],[36.84664867096774,46.833833],[36.846648,46.833833],[36.84678457270607,46.83392746084951],[36.846817,46.83395],[36.84681716009853,46.83395],[36.847235,46.834239],[36.847596,46.834039],[36.847465524271854,46.83395],[36.847466,46.83395],[36.846908,46.833567]]]}},{"type":"Feature","properties":{"cadnum":"2320684503:01:030:0007"},"geometry":{"type":"Polygon","coordinates":[[[36.844306,46.833919],[36.844245,46.83395],[36.844245852589644,46.83395],[36.843819,46.83417],[36.844509,46.835117],[36.844848,46.835024],[36.844947,46.834996],[36.844387,46.833878],[36.844306,46.833919]]]}},{"type":"Feature","properties":{"cadnum":"2320684503:01:015:0001"},"geometry":{"type":"Polygon","coordinates":[[[36.846107,46.842268],[36.84615,46.842222],[36.846086,46.842191],[36.846236,46.842046],[36.846187,46.842016],[36.846136,46.84206],[36.846048,46.842145],[36.846097,46.842168],[36.846032,46.842232],[36.846107,46.842268]]]}},{"type":"Feature","properties":{"cadnum":"2320684503:01:016:0008"},"geometry":{"type":"Polygon","coordinates":[[[36.846549,46.841104],[36.846382,46.840973],[36.84572099594319,46.841348],[36.84572,46.841348],[36.84562515237438,46.84140237385434],[36.845513,46.841466],[36.84551416541355,46.841466],[36.845488,46.841481],[36.845685,46.841609],[36.845928812260546,46.841466],[36.845929,46.841466],[36.846549,46.841104]]]}},{"type":"Feature","properties":{"cadnum":"2320684503:01:015:0005"},"geometry":{"type":"Polygon","coordinates":[[[36.844896,46.841466],[36.844897586885246,46.841466],[36.844676,46.841658],[36.844505,46.841836],[36.844878,46.842078],[36.844892,46.842067],[36.845358,46.841567],[36.845028,46.841353],[36.844896,46.841466]]]}},{"type":"Feature","properties":{"cadnum":"2320684503:01:014:0001"},"geometry":{"type":"Polygon","coordinates":[[[36.844428,46.844569],[36.844715,46.844219],[36.845177,46.843659],[36.844955,46.843557],[36.84418,46.844453],[36.844428,46.844569]]]}},{"type":"Feature","properties":{"cadnum":"2320684503:01:015:0006"},"geometry":{"type":"Polygon","coordinates":[[[36.844735,46.842184],[36.844878,46.842078],[36.844505,46.841836],[36.844462,46.841879],[36.844395,46.841992],[36.844735,46.842184]]]}},{"type":"Feature","properties":{"cadnum":"2320684503:01:014:0002"},"geometry":{"type":"Polygon","coordinates":[[[36.845352,46.844728],[36.845975,46.844012],[36.845673,46.843881],[36.84506,46.844603],[36.845352,46.844728]]]}},{"type":"Feature","properties":{"cadnum":"2320684503:01:016:0004"},"geometry":{"type":"Polygon","coordinates":[[[36.84865,46.842655],[36.848285,46.842466],[36.84823,46.842518323008846],[36.84823,46.842518],[36.847735,46.842988],[36.8481,46.843178],[36.84823,46.843055],[36.84823,46.843054381818185],[36.84865,46.842655]]]}},{"type":"Feature","properties":{"cadnum":"2320684503:01:027:0013"},"geometry":{"type":"Polygon","coordinates":[[[36.840447,46.837533],[36.840471,46.837525],[36.84031,46.837309],[36.840066,46.83738],[36.840109,46.837447],[36.84020113793104,46.837591],[36.8402,46.837591],[36.840326,46.837785],[36.840751,46.838267],[36.841026,46.83816],[36.840822,46.837931],[36.84061080588235,46.837708],[36.840612,46.837708],[36.840447,46.837533]]]}},{"type":"Feature","properties":{"cadnum":"2320684503:01:030:0008"},"geometry":{"type":"Polygon","coordinates":[[[36.837536,46.837136],[36.837178,46.837232],[36.83735146638656,46.837591],[36.83735,46.837591],[36.837528,46.837959],[36.837888,46.837861],[36.83779205042009,46.837664739495644],[36.837536,46.837136]]]}},{"type":"Feature","properties":{"cadnum":"2320684503:01:005:0010"},"geometry":{"type":"Polygon","coordinates":[[[36.860213,46.844634],[36.860292,46.844548],[36.859319,46.844166],[36.859245,46.844265],[36.860213,46.844634]]]}},{"type":"Feature","properties":{"cadnum":"2320684503:01:005:0009"},"geometry":{"type":"Polygon","coordinates":[[[36.860292,46.844548],[36.860374,46.84446],[36.859388,46.844074],[36.859319,46.844166],[36.860292,46.844548]]]}},{"type":"Feature","properties":{"cadnum":"2320684503:01:005:0006"},"geometry":{"type":"Polygon","coordinates":[[[36.861888,46.842101],[36.862186,46.841775],[36.861885,46.841644],[36.861542,46.841512],[36.861235,46.841847],[36.861608,46.841991],[36.861888,46.842101]]]}},{"type":"Feature","properties":{"cadnum":"2320684503:01:005:0007"},"geometry":{"type":"Polygon","coordinates":[[[36.862333,46.842273],[36.862623,46.841966],[36.862186,46.841775],[36.861888,46.842101],[36.862333,46.842273]]]}},{"type":"Feature","properties":{"cadnum":"2320684503:01:029:0004"},"geometry":{"type":"Polygon","coordinates":[[[36.83347,46.837528],[36.83314,46.837618],[36.833195,46.837708],[36.83319553755523,46.837708],[36.833559,46.838297],[36.833905,46.838203],[36.83358470588235,46.837708],[36.833586,46.837708],[36.83347,46.837528]]]}},{"type":"Feature","properties":{"cadnum":"2320684503:01:029:0011"},"geometry":{"type":"Polygon","coordinates":[[[36.83234,46.839448],[36.832609,46.839385],[36.832096,46.838609],[36.831961,46.838403],[36.831709,46.838461],[36.831906,46.838768],[36.83234,46.839448]]]}},{"type":"Feature","properties":{"cadnum":"2320684503:01:028:0008"},"geometry":{"type":"Polygon","coordinates":[[[36.83719469462357,46.84006885161294],[36.837244,46.840048],[36.837244,46.84004789555326],[36.838039,46.83971],[36.837872,46.839512],[36.837331,46.839733],[36.837244,46.83977129343629],[36.837244,46.839771],[36.83674,46.839993],[36.837017,46.840144],[36.837072,46.84012074008811],[36.837072,46.840121],[36.83719469462357,46.84006885161294]]]}},{"type":"Feature","properties":{"cadnum":"2320684503:01:028:0014"},"geometry":{"type":"Polygon","coordinates":[[[36.835467,46.840388],[36.835695,46.840125],[36.835202,46.839904],[36.834957,46.84016],[36.835467,46.840388]]]}},{"type":"Feature","properties":{"cadnum":"2320684503:01:029:0010"},"geometry":{"type":"Polygon","coordinates":[[[36.832979,46.837362],[36.832667,46.837442],[36.83275863849765,46.837591],[36.832758,46.837591],[36.832798,46.837655],[36.83283,46.837708],[36.8328308765625,46.837708],[36.833195,46.838295],[36.833508,46.838216],[36.83314,46.837618],[36.832979,46.837362]]]}},{"type":"Feature","properties":{"cadnum":"2320684503:01:029:0003"},"geometry":{"type":"Polygon","coordinates":[[[36.834015,46.839015],[36.834367,46.838918],[36.833905,46.838203],[36.833559,46.838297],[36.834015,46.839015]]]}},{"type":"Feature","properties":{"cadnum":"2320684503:01:029:0009"},"geometry":{"type":"Polygon","coordinates":[[[36.83369,46.839098],[36.834015,46.839015],[36.833559,46.838297],[36.833508,46.838216],[36.833195,46.838295],[36.833575,46.838908],[36.83369,46.839098]]]}},{"type":"Feature","properties":{"cadnum":"2320684503:01:028:0013"},"geometry":{"type":"Polygon","coordinates":[[[36.835695,46.840125],[36.836077,46.839684],[36.835608,46.839474],[36.835202,46.839904],[36.835695,46.840125]]]}},{"type":"Feature","properties":{"cadnum":"2320684503:01:029:0001"},"geometry":{"type":"Polygon","coordinates":[[[36.83638,46.838339],[36.836697,46.838246],[36.837025,46.838135],[36.836823,46.837768],[36.83615,46.837944],[36.83638,46.838339]]]}},{"type":"Feature","properties":{"cadnum":"2320684503:01:029:0007"},"geometry":{"type":"Polygon","coordinates":[[[36.83511,46.838706],[36.835482,46.838601],[36.835085,46.837946],[36.834688,46.838058],[36.83511,46.838706]]]}},{"type":"Feature","properties":{"cadnum":"2320684503:01:029:0008"},"geometry":{"type":"Polygon","coordinates":[[[36.83479,46.83746],[36.834424,46.837564],[36.834374,46.837578],[36.8343825,46.837591],[36.834382,46.837591],[36.834688,46.838058],[36.835085,46.837946],[36.83490839622748,46.837655748429434],[36.83479,46.83746]]]}},{"type":"Feature","properties":{"cadnum":"2320684503:01:029:0002"},"geometry":{"type":"Polygon","coordinates":[[[36.83588,46.838487],[36.83638,46.838339],[36.83615,46.837944],[36.835616,46.838083],[36.83588,46.838487]]]}},{"type":"Feature","properties":{"cadnum":"2320684503:01:028:0016"},"geometry":{"type":"Polygon","coordinates":[[[36.83716380197974,46.83918239273943],[36.837244,46.839155],[36.837244,46.839154780701755],[36.837528,46.839057],[36.837182,46.838716],[36.836631,46.838905],[36.837001,46.839238],[36.837072,46.8392137489712],[36.837072,46.839214],[36.83716380197974,46.83918239273943]]]}},{"type":"Feature","properties":{"cadnum":"2320684503:01:028:0015"},"geometry":{"type":"Polygon","coordinates":[[[36.837072,46.83875373139745],[36.837072,46.838754],[36.837182,46.838716],[36.836803,46.838341],[36.836197,46.838516],[36.836631,46.838905],[36.837072,46.83875373139745]]]}},{"type":"Feature","properties":{"cadnum":"2320684503:01:026:0003"},"geometry":{"type":"Polygon","coordinates":[[[36.84447,46.836957],[36.844796,46.836833],[36.844277,46.836187],[36.843913,46.836325],[36.844068,46.836517],[36.84447,46.836957]]]}},{"type":"Feature","properties":{"cadnum":"2320684503:01:026:0006"},"geometry":{"type":"Polygon","coordinates":[[[36.84823,46.836537533875344],[36.848442,46.83673],[36.84883,46.836576],[36.848458,46.836238],[36.848073,46.836395],[36.84823,46.836538],[36.84823,46.836537533875344]]]}},{"type":"Feature","properties":{"cadnum":"2320684503:01:030:0006"},"geometry":{"type":"Polygon","coordinates":[[[36.84499,46.835777],[36.845193,46.835723],[36.845296,46.835695],[36.844947,46.834996],[36.844848,46.835024],[36.844509,46.835117],[36.84499,46.835777]]]}},{"type":"Feature","properties":{"cadnum":"2320684503:01:026:0004"},"geometry":{"type":"Polygon","coordinates":[[[36.844609,46.83711],[36.844922,46.836991],[36.844796,46.836833],[36.84447,46.836957],[36.844609,46.83711]]]}},{"type":"Feature","properties":{"cadnum":"2320684503:01:027:0011"},"geometry":{"type":"Polygon","coordinates":[[[36.845802,46.837486],[36.845544,46.837322],[36.845068,46.837551],[36.84510112101911,46.837591],[36.8451,46.837591],[36.84516704761931,46.837670619047934],[36.845198,46.837708],[36.845198526315784,46.837708],[36.845276,46.8378],[36.845343,46.837767],[36.84547,46.837902],[36.845571,46.837861],[36.846011,46.837695],[36.845802,46.837486]]]}},{"type":"Feature","properties":{"cadnum":"2320684503:01:027:0015"},"geometry":{"type":"Polygon","coordinates":[[[36.844097,46.837275],[36.843545,46.837483],[36.843648200000004,46.837591],[36.843648,46.837591],[36.8436847500006,46.837629250000624],[36.84376,46.837708],[36.843760411764706,46.837708],[36.843991,46.837948],[36.844534,46.837728],[36.844402,46.837591],[36.844401323325634,46.837591],[36.844097,46.837275]]]}},{"type":"Feature","properties":{"cadnum":"2320684503:01:018:0012"},"geometry":{"type":"Polygon","coordinates":[[[36.846892,46.837463],[36.846622731707306,46.837591],[36.846622,46.837591],[36.846547,46.837627],[36.846834,46.837928],[36.847187,46.837756],[36.84713812727273,46.837708],[36.847139,46.837708],[36.846892,46.837463]]]}},{"type":"Feature","properties":{"cadnum":"2320684503:01:027:0008"},"geometry":{"type":"Polygon","coordinates":[[[36.844828,46.837263],[36.844621,46.837376],[36.84482563855422,46.837591],[36.844825,46.837591],[36.845099,46.837879],[36.845276,46.8378],[36.84515688888928,46.83765855555602],[36.844828,46.837263]]]}},{"type":"Feature","properties":{"cadnum":"2320684503:01:027:0012"},"geometry":{"type":"Polygon","coordinates":[[[36.845068,46.837551],[36.845544,46.837322],[36.845174,46.837084],[36.844828,46.837263],[36.845068,46.837551]]]}},{"type":"Feature","properties":{"cadnum":"2320684503:01:022:0002"},"geometry":{"type":"Polygon","coordinates":[[[36.84823,46.837079667870036],[36.848411,46.837343],[36.848991,46.837178],[36.848654,46.836722],[36.848134,46.83694],[36.84823,46.837081],[36.84823,46.837079667870036]]]}},{"type":"Feature","properties":{"cadnum":"2320684503:01:018:0007"},"geometry":{"type":"Polygon","coordinates":[[[36.847749,46.837101],[36.84820613414609,46.83768394207285],[36.848238,46.837725],[36.84841109248715,46.837637473987634],[36.848563,46.837561],[36.848411,46.837343],[36.848134,46.83694],[36.847749,46.837101]]]}},{"type":"Feature","properties":{"cadnum":"2320684503:01:026:0010"},"geometry":{"type":"Polygon","coordinates":[[[36.847584,46.835972],[36.847867,46.83583],[36.847316,46.835286],[36.847289,46.835246],[36.847176,46.835128],[36.846875,46.835244],[36.847584,46.835972]]]}},{"type":"Feature","properties":{"cadnum":"2320684503:01:033:0004"},"geometry":{"type":"Polygon","coordinates":[[[36.848059,46.834594958677684],[36.848059,46.834595],[36.84808739285643,46.83458267857174],[36.84823,46.834521],[36.84823,46.83452079245283],[36.848271,46.834503],[36.84821863346712,46.834467183267606],[36.847596,46.834039],[36.847235,46.834239],[36.847867,46.834678],[36.848059,46.834594958677684]]]}},{"type":"Feature","properties":{"cadnum":"2320684503:01:026:0001"},"geometry":{"type":"Polygon","coordinates":[[[36.846638,46.83533],[36.846685,46.835314],[36.846671,46.835294],[36.846624,46.835311],[36.846638,46.83533]]]}},{"type":"Feature","properties":{"cadnum":"2320684503:01:026:0009"},"geometry":{"type":"Polygon","coordinates":[[[36.84823,46.83602748863636],[36.848458,46.836238],[36.848676,46.83615],[36.848323,46.835825],[36.84823,46.83586271428571],[36.84823,46.835862],[36.848106,46.835913],[36.84823,46.836028],[36.84823,46.83602748863636]]]}},{"type":"Feature","properties":{"cadnum":"2320684503:01:026:0008"},"geometry":{"type":"Polygon","coordinates":[[[36.84823,46.836331],[36.84823,46.83633097662338],[36.848458,46.836238],[36.848106,46.835913],[36.847719,46.836069],[36.848073,46.836395],[36.84823,46.836331]]]}},{"type":"Feature","properties":{"cadnum":"2320684503:01:033:0002"},"geometry":{"type":"Polygon","coordinates":[[[36.852385,46.831907],[36.852596,46.831755],[36.85273,46.831659],[36.852782,46.831623],[36.852782,46.83159],[36.852775,46.831521],[36.852762,46.83148],[36.852746,46.831441],[36.85269,46.831293],[36.852659,46.831201],[36.851998,46.831526],[36.852385,46.831907]]]}},{"type":"Feature","properties":{"cadnum":"2320684503:01:025:0004"},"geometry":{"type":"Polygon","coordinates":[[[36.851877,46.833614],[36.851902,46.833546],[36.851578,46.833394],[36.851517,46.833563],[36.851877,46.833614]]]}},{"type":"Feature","properties":{"cadnum":"2320684503:01:025:0002"},"geometry":{"type":"Polygon","coordinates":[[[36.851877,46.833614],[36.851517,46.833563],[36.851375,46.83395],[36.851375495219884,46.83395],[36.851228,46.834356],[36.851587,46.834392],[36.851795,46.833833],[36.851794875,46.833833],[36.851877,46.833614]]]}},{"type":"Feature","properties":{"cadnum":"2320684503:01:025:0006"},"geometry":{"type":"Polygon","coordinates":[[[36.853677,46.833477],[36.853552,46.833438],[36.853552,46.83343836363636],[36.853292,46.833358],[36.853049,46.833765],[36.853037605405405,46.833833],[36.853037,46.833833],[36.8530201232877,46.83393732876697],[36.853018,46.83395],[36.85301807352941,46.83395],[36.853015,46.833969],[36.85341,46.834053],[36.85344043181818,46.83395],[36.853441,46.83395],[36.853526,46.833668],[36.853552,46.83363511258278],[36.853552,46.833636],[36.853677,46.833477]]]}},{"type":"Feature","properties":{"cadnum":"2320684503:01:024:0002"},"geometry":{"type":"Polygon","coordinates":[[[36.853026,46.832499],[36.853033,46.832497],[36.85345,46.832331],[36.852857,46.831863],[36.852447,46.832042],[36.853026,46.832499]]]}},{"type":"Feature","properties":{"cadnum":"2320684503:01:025:0001"},"geometry":{"type":"Polygon","coordinates":[[[36.848928,46.833434],[36.84856,46.833591],[36.84885120891365,46.833833],[36.848851,46.833833],[36.849192,46.834117],[36.849561,46.833961],[36.849407,46.833833],[36.849406645348836,46.833833],[36.848928,46.833434]]]}},{"type":"Feature","properties":{"cadnum":"2320684503:01:033:0003"},"geometry":{"type":"Polygon","coordinates":[[[36.852065,46.832058],[36.852385,46.831907],[36.851998,46.831526],[36.852659,46.831201],[36.852632,46.831121],[36.852487,46.83083],[36.851922,46.831005],[36.851508,46.831128],[36.851296,46.831265],[36.851472,46.831452],[36.851815,46.831847],[36.852065,46.832058]]]}},{"type":"Feature","properties":{"cadnum":"2320684503:01:033:0001"},"geometry":{"type":"Polygon","coordinates":[[[36.851277,46.832814],[36.851666,46.832556],[36.851095,46.832166],[36.850717,46.832416],[36.851277,46.832814]]]}},{"type":"Feature","properties":{"cadnum":"2320684503:01:024:0001"},"geometry":{"type":"Polygon","coordinates":[[[36.852545,46.832635],[36.852981,46.832462],[36.852401,46.832005],[36.85198,46.832189],[36.852545,46.832635]]]}},{"type":"Feature","properties":{"cadnum":"2320684503:01:024:0004"},"geometry":{"type":"Polygon","coordinates":[[[36.853379,46.833252],[36.853552,46.83330064057971],[36.853552,46.833302],[36.854063,46.833445],[36.854344,46.833099],[36.85364,46.832902],[36.853379,46.833252]]]}},{"type":"Feature","properties":{"cadnum":"2320684503:01:021:0001"},"geometry":{"type":"Polygon","coordinates":[[[36.851487,46.833643],[36.851378,46.83363],[36.851251,46.833663],[36.851179,46.833686],[36.851017397351,46.833833],[36.851017,46.833833],[36.851013,46.833837],[36.850905,46.83395],[36.85090525581395,46.83395],[36.85089,46.833966],[36.85084697777779,46.83395],[36.850847,46.83395],[36.850769,46.833921],[36.850719,46.833907],[36.850407,46.834198],[36.850807,46.83431],[36.850954,46.834336],[36.851319,46.833849],[36.851487,46.833643]]]}},{"type":"Feature","properties":{"cadnum":"2320684503:01:008:0005"},"geometry":{"type":"Polygon","coordinates":[[[36.858863,46.840909],[36.859045,46.84102490526316],[36.859045,46.841025],[36.859053,46.84103],[36.859404,46.841264],[36.859823,46.840999],[36.859529,46.840797],[36.859288,46.840639],[36.859045,46.840793],[36.859045,46.84079383615819],[36.858863,46.840909]]]}},{"type":"Feature","properties":{"cadnum":"2320684503:01:006:0001"},"geometry":{"type":"Polygon","coordinates":[[[36.863457,46.838696],[36.863601,46.838544],[36.863684,46.838578],[36.864065,46.838242],[36.863732,46.838069],[36.863243,46.83859],[36.863457,46.838696]]]}},{"type":"Feature","properties":{"cadnum":"2320684503:01:004:0002"},"geometry":{"type":"Polygon","coordinates":[[[36.857839,46.845067],[36.857774,46.845135],[36.857978,46.845223],[36.85797840506329,46.845223],[36.858141,46.845293],[36.858207,46.845225],[36.85807438116632,46.84516843497775],[36.857839,46.845067]]]}},{"type":"Feature","properties":{"cadnum":"2320684503:01:004:0005"},"geometry":{"type":"Polygon","coordinates":[[[36.854818,46.842102],[36.855176,46.841821],[36.85463,46.841445],[36.854249,46.841711],[36.854818,46.842102]]]}},{"type":"Feature","properties":{"cadnum":"2320684503:01:008:0001"},"geometry":{"type":"Polygon","coordinates":[[[36.85649,46.842144],[36.856905,46.841884],[36.856383,46.841515],[36.856374,46.841509],[36.855962,46.841768],[36.856219,46.84196],[36.85649,46.842144]]]}},{"type":"Feature","properties":{"cadnum":"2320684503:01:005:0012"},"geometry":{"type":"Polygon","coordinates":[[[36.858262,46.842328],[36.858451,46.842213],[36.858466,46.842206],[36.858537,46.842165],[36.857649,46.841582],[36.857428,46.84172],[36.858262,46.842328]]]}},{"type":"Feature","properties":{"cadnum":"2320684503:01:004:0001"},"geometry":{"type":"Polygon","coordinates":[[[36.858737,46.844666],[36.858395,46.844484],[36.857839,46.845067],[36.857929500000004,46.845106],[36.857928,46.845106],[36.85807438116632,46.84516843497775],[36.858201,46.845223],[36.85820231092436,46.845223],[36.858207,46.845225],[36.85830596296379,46.845119851850974],[36.858737,46.844666]]]}},{"type":"Feature","properties":{"cadnum":"2320684503:01:005:0011"},"geometry":{"type":"Polygon","coordinates":[[[36.858049,46.844057],[36.858185,46.843924],[36.858946,46.84316],[36.858733,46.843055],[36.858228,46.843555],[36.857815,46.843943],[36.858049,46.844057]]]}},{"type":"Feature","properties":{"cadnum":"2320684503:01:003:0004"},"geometry":{"type":"Polygon","coordinates":[[[36.855822,46.844965],[36.855529,46.845223],[36.855529546875005,46.845223],[36.855444,46.845298],[36.855991,46.845592],[36.856371,46.845259],[36.85630347058824,46.845223],[36.856304,46.845223],[36.855822,46.844965]]]}},{"type":"Feature","properties":{"cadnum":"2320684503:01:008:0002"},"geometry":{"type":"Polygon","coordinates":[[[36.855908,46.841181],[36.85567319548872,46.841348],[36.855672,46.841348],[36.855534,46.841447],[36.855558,46.841466],[36.855559333333325,46.841466],[36.855962,46.841768],[36.856374,46.841509],[36.856146,46.841348],[36.85614472982457,46.841348],[36.855908,46.841181]]]}},{"type":"Feature","properties":{"cadnum":"2320684503:01:016:0005"},"geometry":{"type":"Polygon","coordinates":[[[36.84865,46.842655],[36.848806,46.842506],[36.848429,46.84233],[36.848285,46.842466],[36.84865,46.842655]]]}},{"type":"Feature","properties":{"cadnum":"2320684503:01:015:0002"},"geometry":{"type":"Polygon","coordinates":[[[36.850325,46.845124],[36.850643,46.844831],[36.850947,46.844542],[36.850656,46.844364],[36.849997,46.844954],[36.850325,46.845124]]]}},{"type":"Feature","properties":{"cadnum":"2320684503:01:016:0001"},"geometry":{"type":"Polygon","coordinates":[[[36.850687,46.844354],[36.850841,46.844227],[36.851098,46.844026],[36.850557,46.843726],[36.850164,46.844063],[36.850365,46.844174],[36.850427,46.844121],[36.850489,46.844155],[36.850426,46.844208],[36.850687,46.844354]]]}},{"type":"Feature","properties":{"cadnum":"2320684503:01:016:0002"},"geometry":{"type":"Polygon","coordinates":[[[36.850426,46.844208],[36.850489,46.844155],[36.850427,46.844121],[36.850365,46.844174],[36.850426,46.844208]]]}},{"type":"Feature","properties":{"cadnum":"2320684503:01:030:0002"},"geometry":{"type":"Polygon","coordinates":[[[36.835969,46.835481],[36.836327,46.834929],[36.836261,46.834824],[36.836567,46.834635],[36.836466,46.834556],[36.836171,46.834727],[36.836223,46.834833],[36.835621,46.835249],[36.835969,46.835481]]]}},{"type":"Feature","properties":{"cadnum":"2320684503:01:030:0001"},"geometry":{"type":"Polygon","coordinates":[[[36.835621,46.835249],[36.836223,46.834833],[36.836171,46.834727],[36.836466,46.834556],[36.836321,46.834442],[36.83534,46.83505],[36.835621,46.835249]]]}},{"type":"Feature","properties":{"cadnum":"2320684503:01:027:0014"},"geometry":{"type":"Polygon","coordinates":[[[36.844381,46.838336],[36.844914,46.838121],[36.844534,46.837728],[36.843991,46.837948],[36.844169,46.838134],[36.844212,46.83817],[36.844381,46.838336]]]}},{"type":"Feature","properties":{"cadnum":"2320684503:01:015:0004"},"geometry":{"type":"Polygon","coordinates":[[[36.845296,46.841296],[36.845736,46.841061],[36.845214,46.840712],[36.844947,46.840854],[36.844895,46.840818],[36.844699,46.840922],[36.845296,46.841296]]]}},{"type":"Feature","properties":{"cadnum":"2320684503:01:018:0009"},"geometry":{"type":"Polygon","coordinates":[[[36.844513,46.839958],[36.844965,46.839731],[36.844629,46.839437],[36.844203,46.839668],[36.844513,46.839958]]]}},{"type":"Feature","properties":{"cadnum":"2320684503:01:018:0008"},"geometry":{"type":"Polygon","coordinates":[[[36.844957,46.840374],[36.845427,46.840139],[36.844965,46.839731],[36.844513,46.839958],[36.844957,46.840374]]]}},{"type":"Feature","properties":{"cadnum":"2320684503:01:009:0002"},"geometry":{"type":"Polygon","coordinates":[[[36.848704,46.84044],[36.848261,46.840194],[36.84819075180379,46.84024998989896],[36.847769,46.840583],[36.848059,46.84074454362416],[36.848059,46.840745],[36.848216,46.840832],[36.84823,46.840821],[36.84823,46.84082075409836],[36.848704,46.84044]]]}},{"type":"Feature","properties":{"cadnum":"2320684503:01:027:0009"},"geometry":{"type":"Polygon","coordinates":[[[36.842566,46.839142604651165],[36.842566,46.839143],[36.84263351956493,46.8391084086958],[36.842737,46.839056],[36.842737,46.83905539408867],[36.842769,46.839039],[36.842566,46.838841],[36.842566,46.838841318181814],[36.842539,46.838815],[36.842301,46.838559],[36.841892,46.838769],[36.84235,46.839252],[36.842566,46.839142604651165]]]}},{"type":"Feature","properties":{"cadnum":"2320684503:01:018:0010"},"geometry":{"type":"Polygon","coordinates":[[[36.845427,46.840139],[36.845866,46.839926],[36.845374,46.839527],[36.844958,46.839726],[36.845427,46.840139]]]}},{"type":"Feature","properties":{"cadnum":"2320684503:01:003:0005"},"geometry":{"type":"Polygon","coordinates":[[[36.855676,46.845868],[36.855991,46.845592],[36.855444,46.845298],[36.855129,46.845574],[36.855676,46.845868]]]}},{"type":"Feature","properties":{"cadnum":"2320684503:01:001:0002"},"geometry":{"type":"Polygon","coordinates":[[[36.853985,46.848551],[36.85461,46.847813],[36.854308,46.847686],[36.853698,46.848429],[36.853985,46.848551]]]}},{"type":"Feature","properties":{"cadnum":"2320684503:01:003:0001"},"geometry":{"type":"Polygon","coordinates":[[[36.857732,46.846467],[36.858074,46.846099],[36.857563,46.845805],[36.8572,46.846161],[36.857732,46.846467]]]}},{"type":"Feature","properties":{"cadnum":"2320684503:01:001:0003"},"geometry":{"type":"Polygon","coordinates":[[[36.853934,46.848611],[36.853985,46.848551],[36.853698,46.848429],[36.853648,46.848489],[36.853934,46.848611]]]}},{"type":"Feature","properties":{"cadnum":"2320684503:01:003:0003"},"geometry":{"type":"Polygon","coordinates":[[[36.85809,46.846794],[36.858527,46.846346],[36.85809,46.846104],[36.857674,46.846564],[36.85809,46.846794]]]}},{"type":"Feature","properties":{"cadnum":"2320684503:01:002:0002"},"geometry":{"type":"Polygon","coordinates":[[[36.854851,46.847822],[36.855124,46.847548],[36.854745,46.847384],[36.854507,46.847671],[36.854851,46.847822]]]}},{"type":"Feature","properties":{"cadnum":"2320684503:01:002:0001"},"geometry":{"type":"Polygon","coordinates":[[[36.855337,46.847575],[36.855849,46.847092],[36.855448,46.846871],[36.855251,46.847083],[36.854967,46.847403],[36.855337,46.847575]]]}},{"type":"Feature","properties":{"cadnum":"2320684503:01:003:0006"},"geometry":{"type":"Polygon","coordinates":[[[36.857847,46.847043],[36.85809,46.846794],[36.857674,46.846564],[36.857429,46.846834],[36.857567,46.846904],[36.857847,46.847043]]]}},{"type":"Feature","properties":{"cadnum":"2320684503:01:003:0002"},"geometry":{"type":"Polygon","coordinates":[[[36.857413,46.84681],[36.857732,46.846467],[36.8572,46.846161],[36.856855,46.8465],[36.857107,46.84664],[36.857413,46.84681]]]}},{"type":"Feature","properties":{"cadnum":"2320684503:01:024:0003"},"geometry":{"type":"Polygon","coordinates":[[[36.854523,46.833603],[36.854833,46.833227],[36.85489,46.833154],[36.854386,46.833049],[36.854063,46.833445],[36.854523,46.833603]]]}},{"type":"Feature","properties":{"cadnum":"2320684503:01:024:0005"},"geometry":{"type":"Polygon","coordinates":[[[36.854344,46.833099],[36.854386,46.833049],[36.853754,46.83275],[36.85364,46.832902],[36.854344,46.833099]]]}},{"type":"Feature","properties":{"cadnum":"2320684503:01:026:0007"},"geometry":{"type":"Polygon","coordinates":[[[36.84883,46.836576],[36.849048,46.836489],[36.848676,46.83615],[36.848458,46.836238],[36.84883,46.836576]]]}},{"type":"Feature","properties":{"cadnum":"2320684503:01:026:0005"},"geometry":{"type":"Polygon","coordinates":[[[36.849565,46.835094],[36.849791,46.834948],[36.849341,46.834669],[36.848968,46.834403],[36.848684,46.834528],[36.849087,46.834834],[36.849565,46.835094]]]}},{"type":"Feature","properties":{"cadnum":"2320684503:01:023:0006"},"geometry":{"type":"Polygon","coordinates":[[[36.852136,46.836465],[36.852566,46.83641],[36.852451,46.836205],[36.852046,46.836299],[36.852136,46.836465]]]}},{"type":"Feature","properties":{"cadnum":"2320684503:01:022:0006"},"geometry":{"type":"Polygon","coordinates":[[[36.850807,46.83737],[36.85155,46.837306],[36.851558,46.836967],[36.850819,46.836914],[36.850807,46.83737]]]}},{"type":"Feature","properties":{"cadnum":"2320684503:01:022:0003"},"geometry":{"type":"Polygon","coordinates":[[[36.848563,46.837561],[36.849774,46.837235],[36.849715,46.836603],[36.849134,46.836597],[36.848883,46.836628],[36.848654,46.836722],[36.848991,46.837178],[36.848411,46.837343],[36.848563,46.837561]]]}},{"type":"Feature","properties":{"cadnum":"2320684503:01:022:0004"},"geometry":{"type":"Polygon","coordinates":[[[36.851558,46.836967],[36.85157,46.836615],[36.851177,46.836653],[36.850564,46.836628],[36.850554,46.836895],[36.851558,46.836967]]]}},{"type":"Feature","properties":{"cadnum":"2320684503:01:022:0005"},"geometry":{"type":"Polygon","coordinates":[[[36.850554,46.836895],[36.850564,46.836628],[36.850066,46.836609],[36.850011,46.836857],[36.850554,46.836895]]]}},{"type":"Feature","properties":{"cadnum":"2320684503:01:023:0005"},"geometry":{"type":"Polygon","coordinates":[[[36.852046,46.836299],[36.852451,46.836205],[36.852079,46.835545],[36.851696,46.835648],[36.851867,46.835972],[36.852046,46.836299]]]}},{"type":"Feature","properties":{"cadnum":"2320684503:01:026:0011"},"geometry":{"type":"Polygon","coordinates":[[[36.850162,46.835824],[36.850732,46.835564],[36.850376,46.835225],[36.84977,46.835502],[36.850162,46.835824]]]}},{"type":"Feature","properties":{"cadnum":"2320684503:01:008:0003"},"geometry":{"type":"Polygon","coordinates":[[[36.856443,46.839688],[36.857004,46.839311],[36.856652,46.839038],[36.856054,46.839447],[36.856443,46.839688]]]}},{"type":"Feature","properties":{"cadnum":"2320684503:01:008:0004"},"geometry":{"type":"Polygon","coordinates":[[[36.856776,46.839992],[36.85732,46.839558],[36.857004,46.839311],[36.856443,46.839688],[36.856054,46.839447],[36.855842,46.839592],[36.856776,46.839992]]]}},{"type":"Feature","properties":{"cadnum":"2320684503:01:023:0002"},"geometry":{"type":"Polygon","coordinates":[[[36.854625,46.835044],[36.854981,46.834966],[36.854937,46.834906],[36.854589,46.834981],[36.854625,46.835044]]]}},{"type":"Feature","properties":{"cadnum":"2320684503:01:023:0001"},"geometry":{"type":"Polygon","coordinates":[[[36.855055,46.835805],[36.855222,46.835597],[36.855381,46.835425],[36.855129,46.835166],[36.854981,46.834966],[36.854625,46.835044],[36.855055,46.835805]]]}},{"type":"Feature","properties":{"cadnum":"2320684503:01:025:0005"},"geometry":{"type":"Polygon","coordinates":[[[36.854386,46.836695],[36.854808,46.83662],[36.854741,46.836501],[36.854497,46.836087],[36.854237,46.836146],[36.854025,46.836205],[36.854241,46.836491],[36.854319,46.836595],[36.854386,46.836695]]]}},{"type":"Feature","properties":{"cadnum":"2320684503:01:009:0005"},"geometry":{"type":"Polygon","coordinates":[[[36.849463,46.840446],[36.849773,46.84022],[36.849345,46.839949],[36.849047,46.840182],[36.849463,46.840446]]]}},{"type":"Feature","properties":{"cadnum":"2320684503:01:009:0003"},"geometry":{"type":"Polygon","coordinates":[[[36.848704,46.84044],[36.848999,46.840203],[36.84856,46.839959],[36.848261,46.840194],[36.848704,46.84044]]]}},{"type":"Feature","properties":{"cadnum":"2320684503:01:009:0001"},"geometry":{"type":"Polygon","coordinates":[[[36.850827,46.840779],[36.851204,46.840457],[36.851437,46.840259],[36.851138,46.840088],[36.850914,46.840283],[36.850533,46.840617],[36.850827,46.840779]]]}},{"type":"Feature","properties":{"cadnum":"2320684503:01:009:0004"},"geometry":{"type":"Polygon","coordinates":[[[36.849773,46.84022],[36.850262,46.839847],[36.849829,46.839571],[36.849345,46.839949],[36.849773,46.84022]]]}},{"type":"Feature","properties":{"cadnum":"2320684503:01:017:0004"},"geometry":{"type":"Polygon","coordinates":[[[36.839724,46.84127],[36.840123,46.840992],[36.839828,46.840843],[36.839476,46.841154],[36.839724,46.84127]]]}},{"type":"Feature","properties":{"cadnum":"2320684503:01:028:0004"},"geometry":{"type":"Polygon","coordinates":[[[36.839478,46.84106],[36.83976,46.840776],[36.839384,46.840586],[36.839131,46.840446],[36.838797,46.840784],[36.839478,46.84106]]]}},{"type":"Feature","properties":{"cadnum":"2320684503:01:028:0012"},"geometry":{"type":"Polygon","coordinates":[[[36.838966,46.840026],[36.839324,46.839824],[36.838991,46.839451],[36.838601,46.839615],[36.838966,46.840026]]]}},{"type":"Feature","properties":{"cadnum":"2320684503:01:018:0005"},"geometry":{"type":"Polygon","coordinates":[[[36.841998,46.840562],[36.842368,46.840419],[36.842073,46.840171],[36.841707,46.840358],[36.841998,46.840562]]]}},{"type":"Feature","properties":{"cadnum":"2320684503:01:028:0005"},"geometry":{"type":"Polygon","coordinates":[[[36.838797,46.840784],[36.839131,46.840446],[36.838644,46.840178],[36.838427,46.840298],[36.838088,46.840495],[36.838797,46.840784]]]}},{"type":"Feature","properties":{"cadnum":"2320684503:01:027:0001"},"geometry":{"type":"Polygon","coordinates":[[[36.841926,46.83944],[36.84235,46.839252],[36.841892,46.838769],[36.841459,46.838962],[36.841694,46.839204],[36.841926,46.83944]]]}},{"type":"Feature","properties":{"cadnum":"2320684503:01:027:0010"},"geometry":{"type":"Polygon","coordinates":[[[36.841892,46.838769],[36.842301,46.838559],[36.841821,46.838039],[36.841397,46.838245],[36.841892,46.838769]]]}},{"type":"Feature","properties":{"cadnum":"2320684503:01:018:0004"},"geometry":{"type":"Polygon","coordinates":[[[36.841707,46.840358],[36.842073,46.840171],[36.841549,46.839728],[36.841108,46.839928],[36.841652,46.840355],[36.84168,46.840338],[36.841707,46.840358]]]}},{"type":"Feature","properties":{"cadnum":"2320684503:01:027:0007"},"geometry":{"type":"Polygon","coordinates":[[[36.841092,46.839345],[36.841566,46.839192],[36.841332,46.838922],[36.840861,46.839055],[36.840846,46.83906],[36.841092,46.839345]]]}},{"type":"Feature","properties":{"cadnum":"2320684503:01:028:0011"},"geometry":{"type":"Polygon","coordinates":[[[36.839324,46.839824],[36.839552,46.83967],[36.839925,46.839532],[36.839619,46.839189],[36.838991,46.839451],[36.839324,46.839824]]]}},{"type":"Feature","properties":{"cadnum":"2320684503:01:017:0003"},"geometry":{"type":"Polygon","coordinates":[[[36.840123,46.840992],[36.84084,46.840493],[36.840447,46.840297],[36.839828,46.840843],[36.840123,46.840992]]]}},{"type":"Feature","properties":{"cadnum":"2320684503:01:027:0006"},"geometry":{"type":"Polygon","coordinates":[[[36.840326,46.839607],[36.841092,46.839345],[36.840846,46.83906],[36.840063,46.839295],[36.840326,46.839607]]]}},{"type":"Feature","properties":{"cadnum":"2320684503:01:017:0005"},"geometry":{"type":"Polygon","coordinates":[[[36.840025,46.841325],[36.840999,46.840701],[36.840819,46.840508],[36.83983,46.841196],[36.840025,46.841325]]]}},{"type":"Feature","properties":{"cadnum":"2320684503:01:028:0017"},"geometry":{"type":"Polygon","coordinates":[[[36.83976,46.840776],[36.839977,46.840548],[36.839482,46.840236],[36.839276,46.840089],[36.838991,46.84037],[36.83924,46.840506],[36.839384,46.840586],[36.83976,46.840776]]]}},{"type":"Feature","properties":{"cadnum":"2320684503:01:028:0018"},"geometry":{"type":"Polygon","coordinates":[[[36.838991,46.84037],[36.839276,46.840089],[36.83908,46.839961],[36.838966,46.840026],[36.838675,46.840194],[36.838991,46.84037]]]}},{"type":"Feature","properties":{"cadnum":"2320684503:01:018:0011"},"geometry":{"type":"Polygon","coordinates":[[[36.841085,46.840568],[36.84146,46.840367],[36.841041,46.839875],[36.840709,46.84002],[36.840677,46.84007],[36.841085,46.840568]]]}},{"type":"Feature","properties":{"cadnum":"2320684503:01:027:0002"},"geometry":{"type":"Polygon","coordinates":[[[36.841459,46.838962],[36.841892,46.838769],[36.841367,46.838213],[36.840919,46.838413],[36.841202,46.838702],[36.841459,46.838962]]]}}]}