{"type":"FeatureCollection","features":[{"type":"Feature","properties":{"cadnum":"2320655205:01:010:0001"},"geometry":{"type":"Polygon","coordinates":[[[36.669116,46.98403],[36.669539,46.983748],[36.669661,46.983668],[36.669713,46.983633],[36.670002,46.983416],[36.671058,46.982741],[36.671022,46.982714],[36.670833,46.982577],[36.67081,46.982593],[36.669492,46.983523],[36.66946,46.983541],[36.669316,46.983618],[36.668796,46.983898],[36.668821,46.983912],[36.668894,46.98395],[36.669001,46.984005],[36.669074,46.984043],[36.669087,46.98405],[36.669116,46.98403]]]}},{"type":"Feature","properties":{"cadnum":"2320655205:01:011:0001"},"geometry":{"type":"Polygon","coordinates":[[[36.667828,46.984843],[36.667979,46.984739],[36.668524,46.984396],[36.668746,46.984279],[36.668796,46.984252],[36.668878,46.984209],[36.668793,46.984166],[36.668792,46.984166],[36.668774,46.984156],[36.668665,46.984101],[36.668614,46.984074],[36.668552,46.984043],[36.667995,46.984451],[36.66775,46.984613],[36.667676,46.984661],[36.667617,46.9847],[36.667679,46.984742],[36.667783,46.984812],[36.667828,46.984843]]]}},{"type":"Feature","properties":{"cadnum":"2320655205:01:016:0002"},"geometry":{"type":"Polygon","coordinates":[[[36.666878,46.982162],[36.6669,46.982177],[36.666956,46.982132],[36.666956,46.982130955555554],[36.667125,46.981992],[36.666855,46.981798],[36.666182,46.982299],[36.66643,46.982552],[36.666784,46.98224383035714],[36.666784,46.982244],[36.666878,46.982162]]]}},{"type":"Feature","properties":{"cadnum":"2320655205:01:020:0001"},"geometry":{"type":"Polygon","coordinates":[[[36.658699,46.983833],[36.658397,46.983672],[36.65805691709844,46.983941],[36.658056,46.983941],[36.65797554545556,46.98400536363556],[36.657909,46.984058],[36.65790975000001,46.984058],[36.657881,46.984081],[36.657616,46.984312],[36.65787,46.984446],[36.65816,46.984225],[36.658470128911766,46.98399858197701],[36.658699,46.983833]]]}},{"type":"Feature","properties":{"cadnum":"2320655205:01:007:0001"},"geometry":{"type":"Polygon","coordinates":[[[36.664404,46.987431],[36.664325,46.987391],[36.664234,46.987347],[36.664137,46.987299],[36.66376,46.987693],[36.663682,46.987806],[36.66368247674419,46.987806],[36.663642,46.987865],[36.663568,46.987971],[36.663496,46.988078],[36.663138,46.988578],[36.662813,46.989038],[36.661865,46.99022],[36.661609,46.990491],[36.66166,46.990514],[36.661842,46.9906],[36.661881,46.990618],[36.662147,46.990335],[36.662679,46.989672],[36.662754,46.989578],[36.663106,46.989141],[36.663436,46.988672],[36.663619,46.988392],[36.663674,46.988308],[36.663787,46.988136],[36.664043,46.987809],[36.664157,46.987689],[36.66415632,46.987689],[36.664404,46.987431]]]}},{"type":"Feature","properties":{"cadnum":"2320655205:01:001:0001"},"geometry":{"type":"Polygon","coordinates":[[[36.670332,46.991318],[36.670018,46.991108],[36.669724,46.991343],[36.66944500000105,46.991552999999215],[36.669381,46.991601],[36.669716,46.991825],[36.67005798802367,46.99154314970083],[36.670332,46.991318]]]}},{"type":"Feature","properties":{"cadnum":"2320655205:01:001:0002"},"geometry":{"type":"Polygon","coordinates":[[[36.669214,46.992239],[36.669716,46.991825],[36.669381,46.991601],[36.668855,46.991997],[36.669214,46.992239]]]}},{"type":"Feature","properties":{"cadnum":"2320655205:01:014:0002"},"geometry":{"type":"Polygon","coordinates":[[[36.663562,46.986185],[36.664235,46.985783],[36.664423,46.985648],[36.664188,46.985478],[36.66393,46.985617],[36.663311,46.986004],[36.663562,46.986185]]]}}]}