{"type":"FeatureCollection","features":[{"type":"Feature","properties":{"cadnum":"2320682503:01:019:0001"},"geometry":{"type":"Polygon","coordinates":[[[36.957756,47.067225],[36.957941,47.066741],[36.957365,47.06664],[36.957183,47.067123],[36.957756,47.067225]]]}},{"type":"Feature","properties":{"cadnum":"2320682503:01:002:0002"},"geometry":{"type":"Polygon","coordinates":[[[36.947659,47.077494],[36.948215,47.077268],[36.94796,47.076883],[36.947393,47.077129],[36.947659,47.077494]]]}},{"type":"Feature","properties":{"cadnum":"2320682503:01:002:0001"},"geometry":{"type":"Polygon","coordinates":[[[36.948215,47.077268],[36.948812,47.077027],[36.948545,47.076629],[36.94796,47.076883],[36.948215,47.077268]]]}},{"type":"Feature","properties":{"cadnum":"2320682503:01:012:0001"},"geometry":{"type":"Polygon","coordinates":[[[36.972237,47.073096],[36.972431,47.072687],[36.971623,47.072466],[36.971391,47.072822],[36.972237,47.073096]]]}},{"type":"Feature","properties":{"cadnum":"2320682503:01:012:0002"},"geometry":{"type":"Polygon","coordinates":[[[36.972274,47.073921],[36.972297,47.073836],[36.972296,47.073644],[36.972284,47.073613],[36.972032,47.073556],[36.971714,47.073922],[36.971714661417316,47.073922],[36.971706,47.073932],[36.97222236363613,47.073922],[36.972226,47.073922],[36.972274,47.073921]]]}},{"type":"Feature","properties":{"cadnum":"2320682503:01:023:0001"},"geometry":{"type":"Polygon","coordinates":[[[36.959433,47.066187],[36.959759,47.06554],[36.959063,47.065375],[36.958736,47.066022],[36.959433,47.066187]]]}},{"type":"Feature","properties":{"cadnum":"2320682503:01:023:0002"},"geometry":{"type":"Polygon","coordinates":[[[36.958653,47.066346],[36.958606,47.066439],[36.95860638630807,47.066439],[36.958448,47.066755],[36.958733,47.066822],[36.95894,47.066414],[36.958653,47.066346]]]}}]}