{"type":"FeatureCollection","features":[{"type":"Feature","properties":{"cadnum":"2320655206:02:012:0008"},"geometry":{"type":"Polygon","coordinates":[[[36.601038,47.061124215909096],[36.601218,47.061182],[36.601348,47.061003],[36.601381,47.060957],[36.600966,47.060819],[36.60075,47.060748],[36.600583,47.060974],[36.600793,47.06104],[36.600841,47.06106],[36.600866,47.06106824873096],[36.600866,47.061069],[36.600950161551516,47.0610960177708],[36.601038,47.061125],[36.601038,47.061124215909096]]]}},{"type":"Feature","properties":{"cadnum":"2320655206:01:014:0001"},"geometry":{"type":"Polygon","coordinates":[[[36.614717,47.062359],[36.615204,47.061535],[36.615179,47.061527],[36.615213,47.061469],[36.615238,47.061477],[36.615476,47.061063],[36.615452,47.061057],[36.615207,47.060989],[36.615171,47.060979],[36.614957,47.061349],[36.614344,47.062334],[36.614242,47.062562],[36.614235,47.06258],[36.614234,47.06258],[36.614228,47.062598],[36.614182,47.062697],[36.61418331858407,47.062697],[36.614177,47.062711],[36.614135,47.062802],[36.61277906928788,47.066322],[36.612778,47.066322],[36.612436,47.067212],[36.612462,47.067217],[36.612698,47.067261],[36.612753,47.067271],[36.61307212328767,47.066439],[36.613073,47.066439],[36.614453,47.062861],[36.614466,47.062832],[36.614519,47.062716],[36.614554,47.062641],[36.614717,47.062359]]]}},{"type":"Feature","properties":{"cadnum":"2320655206:02:021:0001"},"geometry":{"type":"Polygon","coordinates":[[[36.591969,47.058371],[36.592452,47.058277],[36.59223,47.057708],[36.591745,47.057802],[36.591969,47.058371]]]}},{"type":"Feature","properties":{"cadnum":"2320655206:02:021:0003"},"geometry":{"type":"Polygon","coordinates":[[[36.59128,47.058504],[36.591716,47.05842],[36.591674,47.058094],[36.591644,47.057741],[36.591216,47.057824],[36.591237,47.058113],[36.591255,47.058261],[36.591279,47.058261],[36.59128,47.058504]]]}},{"type":"Feature","properties":{"cadnum":"2320655206:02:021:0002"},"geometry":{"type":"Polygon","coordinates":[[[36.591745,47.057802],[36.59223,47.057708],[36.591951,47.057042],[36.591464,47.057128],[36.591745,47.057802]]]}},{"type":"Feature","properties":{"cadnum":"2320655206:02:029:0001"},"geometry":{"type":"Polygon","coordinates":[[[36.592971,47.054838],[36.593406,47.054795],[36.593266,47.054129],[36.592832,47.054172],[36.592971,47.054838]]]}},{"type":"Feature","properties":{"cadnum":"2320655206:01:011:0004"},"geometry":{"type":"Polygon","coordinates":[[[36.609024,47.069094],[36.609166,47.06892],[36.608989,47.068859],[36.60795,47.068576],[36.607467,47.068433],[36.607373,47.068536],[36.609024,47.069094]]]}},{"type":"Feature","properties":{"cadnum":"2320655206:01:011:0003"},"geometry":{"type":"Polygon","coordinates":[[[36.606531,47.06825793586005],[36.607045,47.068449],[36.607373,47.068536],[36.607467,47.068433],[36.607092,47.068283],[36.606531,47.0681100313779],[36.606531,47.06811],[36.605232,47.067708],[36.60515,47.067742],[36.606359,47.06819373352643],[36.606359,47.068194],[36.60649763152024,47.06824553212487],[36.606531,47.068258],[36.606531,47.06825793586005]]]}},{"type":"Feature","properties":{"cadnum":"2320655206:01:011:0002"},"geometry":{"type":"Polygon","coordinates":[[[36.606531,47.069699],[36.606531,47.06969869090909],[36.606634,47.06965],[36.606531,47.069548872727275],[36.606531,47.069548],[36.605834,47.068863],[36.605423,47.0692],[36.606148,47.06988],[36.606531,47.069699]]]}},{"type":"Feature","properties":{"cadnum":"2320655206:01:011:0001"},"geometry":{"type":"Polygon","coordinates":[[[36.606634,47.06965],[36.606359,47.06978],[36.606359,47.069780284595296],[36.606148,47.06988],[36.60634502999999,47.070063],[36.606345,47.070063],[36.60635810679432,47.0700751456294],[36.606359,47.0700759752322],[36.606359,47.070077],[36.606471,47.07018],[36.606471064000004,47.07018],[36.606495,47.070202],[36.606531,47.0702],[36.606531,47.07019941284404],[36.607149,47.070155],[36.607056,47.070063],[36.60705517821782,47.070063],[36.606634,47.06965]]]}},{"type":"Feature","properties":{"cadnum":"2320655206:02:032:0001"},"geometry":{"type":"Polygon","coordinates":[[[36.602642,47.054993],[36.602447,47.055025],[36.602379,47.055044],[36.60218666265061,47.055096],[36.602186,47.055096],[36.602072,47.055127],[36.602083,47.055213],[36.60208358367347,47.055213],[36.602105,47.055372],[36.602709,47.055332],[36.602669098958316,47.05513164583323],[36.602642,47.054993]]]}},{"type":"Feature","properties":{"cadnum":"2320655206:02:023:0001"},"geometry":{"type":"Polygon","coordinates":[[[36.60637021933016,47.0558587881041],[36.606531,47.055856],[36.606531,47.05585575149105],[36.607365,47.05584],[36.607336,47.055465],[36.606359,47.055489],[36.606359,47.05549007415036],[36.60556,47.055509],[36.605493,47.055874],[36.606359,47.05585898265896],[36.606359,47.055859],[36.60637021933016,47.0558587881041]]]}},{"type":"Feature","properties":{"cadnum":"2320655206:01:014:0002"},"geometry":{"type":"Polygon","coordinates":[[[36.619246,47.063711],[36.619599,47.063114],[36.619148,47.063038],[36.618796,47.063634],[36.619246,47.063711]]]}},{"type":"Feature","properties":{"cadnum":"2320655206:02:007:0001"},"geometry":{"type":"Polygon","coordinates":[[[36.596399,47.057541],[36.596838,47.057452],[36.596791,47.057171],[36.596732,47.056762],[36.596356,47.056838],[36.596372,47.057125],[36.596356,47.057378],[36.596399,47.057541]]]}},{"type":"Feature","properties":{"cadnum":"2320655206:01:031:0002"},"geometry":{"type":"Polygon","coordinates":[[[36.612968,47.045078],[36.612943,47.044709],[36.612521,47.044715],[36.612106,47.044743],[36.612114,47.044941],[36.612162,47.045001],[36.612183,47.045078],[36.612968,47.045078]]]}},{"type":"Feature","properties":{"cadnum":"2320655206:01:031:0003"},"geometry":{"type":"Polygon","coordinates":[[[36.615749,47.045078],[36.615777,47.044663],[36.612943,47.044709],[36.612968,47.045078],[36.615749,47.045078]]]}},{"type":"Feature","properties":{"cadnum":"2320655206:01:013:0005"},"geometry":{"type":"Polygon","coordinates":[[[36.607678,47.066208],[36.608777,47.066202],[36.608776,47.065974],[36.607675,47.065979],[36.607678,47.066208]]]}},{"type":"Feature","properties":{"cadnum":"2320655206:01:013:0003"},"geometry":{"type":"Polygon","coordinates":[[[36.60938,47.065971],[36.61007,47.065967],[36.610073,47.065797],[36.609381,47.065798],[36.60938,47.065971]]]}},{"type":"Feature","properties":{"cadnum":"2320655206:01:013:0004"},"geometry":{"type":"Polygon","coordinates":[[[36.608777,47.066202],[36.609331,47.066199],[36.610073,47.066196],[36.61007,47.065967],[36.60938,47.065971],[36.608776,47.065974],[36.608777,47.066202]]]}},{"type":"Feature","properties":{"cadnum":"2320655206:01:013:0002"},"geometry":{"type":"Polygon","coordinates":[[[36.608555,47.064622],[36.608554,47.064418],[36.606531,47.06443551116173],[36.606531,47.064435],[36.605993,47.06444],[36.606082,47.064674],[36.606531,47.064665],[36.606531,47.06466439708561],[36.608555,47.064622]]]}},{"type":"Feature","properties":{"cadnum":"2320655206:01:013:0001"},"geometry":{"type":"Polygon","coordinates":[[[36.608555,47.064622],[36.610077,47.064598],[36.610073,47.064413],[36.608554,47.064418],[36.608555,47.064622]]]}},{"type":"Feature","properties":{"cadnum":"2320655206:01:002:0001"},"geometry":{"type":"Polygon","coordinates":[[[36.601038,47.079276987912976],[36.602107,47.079395],[36.602118,47.07935],[36.600866,47.079212],[36.600866,47.07921282014388],[36.599926,47.079108],[36.59986,47.079101],[36.59985,47.079146],[36.599915,47.079153],[36.601038,47.079277],[36.601038,47.079276987912976]]]}},{"type":"Feature","properties":{"cadnum":"2320655206:01:002:0002"},"geometry":{"type":"Polygon","coordinates":[[[36.605291,47.080122],[36.605566,47.079642],[36.604658,47.079401],[36.604757,47.079237],[36.604387,47.079133],[36.603974,47.079016],[36.603777,47.079612],[36.603223,47.079559],[36.60238,47.079458],[36.602354,47.079436],[36.602339,47.079498],[36.603213,47.079604],[36.603762,47.079656],[36.603744,47.079711],[36.604014,47.079783],[36.605291,47.080122]]]}},{"type":"Feature","properties":{"cadnum":"2320655206:02:013:0001"},"geometry":{"type":"Polygon","coordinates":[[[36.602476,47.059372],[36.60249,47.059347],[36.602439,47.059333],[36.602425,47.059359],[36.602476,47.059372]]]}},{"type":"Feature","properties":{"cadnum":"2320655206:01:008:0001"},"geometry":{"type":"Polygon","coordinates":[[[36.609345,47.072987],[36.609424,47.072849],[36.60955,47.072699],[36.609624,47.072574],[36.6097,47.072445],[36.609224,47.072317],[36.608909,47.072849],[36.608898,47.072867],[36.609345,47.072987]]]}},{"type":"Feature","properties":{"cadnum":"2320655206:02:039:0001"},"geometry":{"type":"Polygon","coordinates":[[[36.60582,47.048489],[36.605873,47.048145],[36.605598,47.048123],[36.60501,47.048047],[36.604959,47.048381],[36.605541,47.04846],[36.60582,47.048489]]]}},{"type":"Feature","properties":{"cadnum":"2320655206:02:039:0002"},"geometry":{"type":"Polygon","coordinates":[[[36.605873,47.048145],[36.60582,47.048489],[36.606359,47.048548130801684],[36.606359,47.048549],[36.606915,47.048608],[36.60698,47.048232],[36.606359,47.048184],[36.606359,47.048184145896656],[36.605873,47.048145]]]}},{"type":"Feature","properties":{"cadnum":"2320655206:02:022:0001"},"geometry":{"type":"Polygon","coordinates":[[[36.603224,47.054823],[36.603275,47.054815],[36.603266,47.054789],[36.603215,47.054797],[36.603224,47.054823]]]}},{"type":"Feature","properties":{"cadnum":"2320655206:01:005:0002"},"geometry":{"type":"Polygon","coordinates":[[[36.606418,47.076905],[36.606444,47.076862],[36.60638,47.076844],[36.606354,47.076888],[36.606418,47.076905]]]}},{"type":"Feature","properties":{"cadnum":"2320655206:01:005:0001"},"geometry":{"type":"Polygon","coordinates":[[[36.60366,47.076155],[36.603671,47.076136],[36.603642,47.076129],[36.603632,47.076147],[36.60366,47.076155]]]}},{"type":"Feature","properties":{"cadnum":"2320655206:01:006:0001"},"geometry":{"type":"Polygon","coordinates":[[[36.601259,47.075562],[36.601371,47.07556],[36.601369,47.075484],[36.601258,47.075485],[36.601259,47.075562]]]}},{"type":"Feature","properties":{"cadnum":"2320655206:01:007:0001"},"geometry":{"type":"Polygon","coordinates":[[[36.605815,47.072685],[36.605899,47.072467],[36.604633,47.072201],[36.604548,47.07242],[36.604607,47.072431],[36.60492,47.072492],[36.605815,47.072685]]]}},{"type":"Feature","properties":{"cadnum":"2320655206:01:006:0002"},"geometry":{"type":"Polygon","coordinates":[[[36.604549,47.071377],[36.604525,47.071323],[36.604497,47.07125],[36.604463,47.071085],[36.604455,47.070998],[36.604348,47.070967],[36.60422,47.070909],[36.604031,47.070815],[36.603802,47.07071],[36.60357,47.070904],[36.603831,47.071019],[36.603752,47.071113],[36.604172,47.071261],[36.604549,47.071377]]]}},{"type":"Feature","properties":{"cadnum":"2320655206:01:025:0001"},"geometry":{"type":"Polygon","coordinates":[[[36.616541,47.058083],[36.61717,47.056234],[36.616867,47.056202],[36.616868,47.056187],[36.615922,47.056129],[36.61582,47.056134],[36.615761,47.056655],[36.615559,47.056645],[36.615551,47.056729],[36.615224,47.056718],[36.615211,47.057169],[36.615267,47.057212],[36.61526,47.057318],[36.615177,47.057317],[36.615258,47.057986],[36.616227,47.058052],[36.616223,47.058065],[36.616466,47.058081],[36.616541,47.058083]]]}},{"type":"Feature","properties":{"cadnum":"2320655206:01:021:0001"},"geometry":{"type":"Polygon","coordinates":[[[36.616796,47.058328],[36.616753,47.05832],[36.616533,47.058282],[36.616477,47.058272],[36.616268168374816,47.058838],[36.616268,47.058838],[36.616147,47.059166],[36.615962,47.059583],[36.616009,47.059593],[36.616231,47.059641],[36.616276,47.05965],[36.616463,47.059226],[36.616607,47.058838],[36.616606478468896,47.058838],[36.616796,47.058328]]]}},{"type":"Feature","properties":{"cadnum":"2320655206:01:025:0002"},"geometry":{"type":"Polygon","coordinates":[[[36.616418,47.058357],[36.616475,47.058175],[36.616466,47.058081],[36.616223,47.058065],[36.616227,47.058052],[36.615938,47.058032],[36.615897,47.05832],[36.616418,47.058357]]]}},{"type":"Feature","properties":{"cadnum":"2320655206:01:017:0001"},"geometry":{"type":"Polygon","coordinates":[[[36.615476,47.061063],[36.615907,47.060348],[36.616101,47.06002],[36.616148,47.059922],[36.616235,47.059737],[36.616276,47.05965],[36.616231,47.059641],[36.616009,47.059593],[36.615962,47.059583],[36.615793,47.059943],[36.615731,47.060045],[36.615656,47.060172],[36.615602,47.060263],[36.615171,47.060979],[36.615207,47.060989],[36.615452,47.061057],[36.615476,47.061063]]]}}]}