{"type":"FeatureCollection","features":[{"type":"Feature","properties":{"cadnum":"2321883501:01:002:0002"},"geometry":{"type":"Polygon","coordinates":[[[36.683435,47.655614258122746],[36.684393,47.655667],[36.68441,47.65555],[36.683358,47.655492],[36.683285,47.655606],[36.683435,47.655615],[36.683435,47.655614258122746]]]}},{"type":"Feature","properties":{"cadnum":"2321883501:01:002:0001"},"geometry":{"type":"Polygon","coordinates":[[[36.68441,47.65555],[36.684413,47.655529],[36.684048,47.655386],[36.683932,47.654967],[36.683714,47.654927],[36.683358,47.655492],[36.68441,47.65555]]]}},{"type":"Feature","properties":{"cadnum":"2321883501:03:001:0001"},"geometry":{"type":"Polygon","coordinates":[[[36.675075,47.646011],[36.674653,47.645956],[36.67447645803842,47.646829],[36.674476,47.646829],[36.674427,47.647074],[36.674855,47.6471],[36.67488588560886,47.646945],[36.674886,47.646945],[36.675075,47.646011]]]}},{"type":"Feature","properties":{"cadnum":"2321883501:01:007:0001"},"geometry":{"type":"Polygon","coordinates":[[[36.694349,47.649179],[36.69425,47.649149],[36.69425,47.64914934177215],[36.694112,47.649108],[36.693999,47.649278],[36.694237,47.649351],[36.694349,47.649179]]]}},{"type":"Feature","properties":{"cadnum":"2321883501:01:005:0001"},"geometry":{"type":"Polygon","coordinates":[[[36.688643,47.652871],[36.68884,47.652579],[36.68799,47.652325],[36.687794,47.652619],[36.688643,47.652871]]]}},{"type":"Feature","properties":{"cadnum":"2321883501:01:005:0002"},"geometry":{"type":"Polygon","coordinates":[[[36.688929,47.652655],[36.688929,47.65265315706806],[36.688955,47.652613],[36.68884,47.652579],[36.688757,47.652702],[36.688757,47.652702025380705],[36.688643,47.652871],[36.688757,47.65290585950413],[36.688757,47.652906],[36.688764,47.652908],[36.688929,47.652655]]]}},{"type":"Feature","properties":{"cadnum":"2321883501:02:004:0001"},"geometry":{"type":"Polygon","coordinates":[[[36.698736,47.651923],[36.698963,47.651558],[36.698268,47.651357],[36.698039,47.65172],[36.698736,47.651923]]]}},{"type":"Feature","properties":{"cadnum":"2321883501:02:004:0002"},"geometry":{"type":"Polygon","coordinates":[[[36.698963,47.651558],[36.699228,47.65113],[36.698536,47.650929],[36.698267,47.651357],[36.698963,47.651558]]]}}]}