{"type":"FeatureCollection","features":[{"type":"Feature","properties":{"cadnum":"2322786603:03:001:0004"},"geometry":{"type":"Polygon","coordinates":[[[36.702989,47.553096],[36.703238,47.552167],[36.703277,47.552162],[36.703356,47.551557],[36.702789,47.551491],[36.702365,47.55246],[36.701933,47.552431],[36.701626,47.552843],[36.701681,47.5529],[36.702989,47.553096]]]}},{"type":"Feature","properties":{"cadnum":"2322786603:03:001:0005"},"geometry":{"type":"Polygon","coordinates":[[[36.704201,47.552314],[36.704271,47.55198],[36.703928,47.551944],[36.703958,47.551642],[36.703356,47.551557],[36.70327,47.552215],[36.704201,47.552314]]]}},{"type":"Feature","properties":{"cadnum":"2322786603:03:001:0003"},"geometry":{"type":"Polygon","coordinates":[[[36.710531,47.552222],[36.710602,47.5522],[36.710718,47.552129],[36.710755,47.551882],[36.708215,47.55165],[36.708149,47.551947],[36.710531,47.552222]]]}}]}