{"type":"FeatureCollection","features":[{"type":"Feature","properties":{"cadnum":"2322782701:01:010:0008"},"geometry":{"type":"Polygon","coordinates":[[[36.547333,47.352702],[36.54783,47.352579],[36.547313,47.351955],[36.546825,47.352085],[36.547333,47.352702]]]}},{"type":"Feature","properties":{"cadnum":"2322782701:01:010:0010"},"geometry":{"type":"Polygon","coordinates":[[[36.547795,47.351791],[36.548318,47.351651],[36.547897,47.351188],[36.547386,47.351325],[36.547795,47.351791]]]}},{"type":"Feature","properties":{"cadnum":"2322782701:01:010:0011"},"geometry":{"type":"Polygon","coordinates":[[[36.548409,47.352491],[36.548968,47.352368],[36.548318,47.351651],[36.547795,47.351791],[36.548409,47.352491]]]}},{"type":"Feature","properties":{"cadnum":"2322782701:01:010:0006"},"geometry":{"type":"Polygon","coordinates":[[[36.54623,47.352178],[36.546781,47.352031],[36.546413,47.351585],[36.545935,47.351713],[36.545935,47.35181],[36.54623,47.352178]]]}},{"type":"Feature","properties":{"cadnum":"2322782701:01:010:0005"},"geometry":{"type":"Polygon","coordinates":[[[36.545935,47.353147],[36.5464,47.352991],[36.545935,47.352524],[36.545935,47.353147]]]}},{"type":"Feature","properties":{"cadnum":"2322782701:01:010:0009"},"geometry":{"type":"Polygon","coordinates":[[[36.546825,47.352085],[36.547313,47.351955],[36.546899,47.351455],[36.546413,47.351585],[36.546781,47.352031],[36.546825,47.352085]]]}},{"type":"Feature","properties":{"cadnum":"2322782701:01:010:0007"},"geometry":{"type":"Polygon","coordinates":[[[36.54679,47.352881],[36.547333,47.352702],[36.546825,47.352085],[36.546781,47.352031],[36.54623,47.352178],[36.54679,47.352881]]]}},{"type":"Feature","properties":{"cadnum":"2322782701:01:010:0012"},"geometry":{"type":"Polygon","coordinates":[[[36.54995,47.351167],[36.550469,47.351004],[36.550116,47.350544],[36.549592,47.350709],[36.54995,47.351167]]]}}]}