{"type":"FeatureCollection","features":[{"type":"Feature","properties":{"cadnum":"2322786601:01:001:0023"},"geometry":{"type":"Polygon","coordinates":[[[36.670832,47.536163],[36.670837,47.535775],[36.670488,47.535776],[36.667378,47.535753],[36.667372,47.536142],[36.67004,47.536158],[36.670832,47.536163]]]}},{"type":"Feature","properties":{"cadnum":"2322786601:01:004:0008"},"geometry":{"type":"Polygon","coordinates":[[[36.68314,47.550506],[36.68313713740458,47.550521],[36.683136,47.550521],[36.683073,47.550869],[36.683264,47.55089063259668],[36.683264,47.550891],[36.683402090908736,47.55090627272723],[36.683435,47.55091],[36.683435,47.5509099124424],[36.684349,47.551011],[36.684424,47.550643],[36.68436798360656,47.550637],[36.684372,47.550637],[36.68408819445793,47.55060703136424],[36.683285,47.550521],[36.683284,47.550521],[36.683278281250026,47.550521],[36.68314,47.550506]]]}},{"type":"Feature","properties":{"cadnum":"2322786601:01:007:0009"},"geometry":{"type":"Polygon","coordinates":[[[36.68125160994014,47.52832460993477],[36.680642,47.528271],[36.680637755725165,47.528271],[36.680466,47.528256],[36.680446,47.528387],[36.68044701736973,47.528387],[36.680405,47.528674],[36.682074,47.528821],[36.682143,47.528403],[36.68196106060612,47.528387],[36.681966,47.528387],[36.68125160994014,47.52832460993477]]]}},{"type":"Feature","properties":{"cadnum":"2322786601:01:006:0028"},"geometry":{"type":"Polygon","coordinates":[[[36.683435,47.530480607142856],[36.683516,47.530488],[36.68359,47.52999],[36.683435,47.52997621165644],[36.683435,47.529976],[36.681929,47.529839],[36.681966,47.529579],[36.680293,47.529432],[36.680234,47.529834],[36.681908,47.529985],[36.681858,47.530338],[36.683435,47.530481],[36.683435,47.530480607142856]]]}},{"type":"Feature","properties":{"cadnum":"2322786601:01:006:0027"},"geometry":{"type":"Polygon","coordinates":[[[36.682506,47.53197],[36.682561,47.531592],[36.681692,47.531513],[36.681637,47.531894],[36.682506,47.53197]]]}},{"type":"Feature","properties":{"cadnum":"2322786601:01:006:0026"},"geometry":{"type":"Polygon","coordinates":[[[36.683343,47.531662],[36.682561,47.531592],[36.682506,47.53197],[36.68261933333329,47.53198],[36.682619,47.53198],[36.683288,47.532039],[36.683343,47.531662]]]}},{"type":"Feature","properties":{"cadnum":"2322786601:01:002:0033"},"geometry":{"type":"Polygon","coordinates":[[[36.683147,47.556173],[36.683218,47.555706],[36.683253,47.555485],[36.682825,47.555444],[36.682808,47.555562],[36.682808,47.555563],[36.682718,47.556132],[36.683147,47.556173]]]}},{"type":"Feature","properties":{"cadnum":"2322786601:01:002:0019"},"geometry":{"type":"Polygon","coordinates":[[[36.681963,47.557914],[36.682128,47.557055],[36.681569,47.556998],[36.681394,47.55788],[36.681963,47.557914]]]}},{"type":"Feature","properties":{"cadnum":"2322786601:01:002:0035"},"geometry":{"type":"Polygon","coordinates":[[[36.681075,47.555977],[36.68117,47.555352],[36.6807,47.555308],[36.680697,47.555321],[36.680604,47.555933],[36.681075,47.555977]]]}},{"type":"Feature","properties":{"cadnum":"2322786601:01:002:0018"},"geometry":{"type":"Polygon","coordinates":[[[36.682128,47.557055],[36.682196,47.556703],[36.681955,47.556695],[36.682037,47.556386],[36.681699,47.556349],[36.68163,47.556679],[36.681569,47.556998],[36.682128,47.557055]]]}},{"type":"Feature","properties":{"cadnum":"2322786601:01:002:0020"},"geometry":{"type":"Polygon","coordinates":[[[36.682317,47.555792],[36.68256,47.55458],[36.681814,47.554524],[36.681586,47.555722],[36.682317,47.555792]]]}},{"type":"Feature","properties":{"cadnum":"2322786601:01:002:0003"},"geometry":{"type":"Polygon","coordinates":[[[36.682664,47.55281],[36.681987,47.552808],[36.681903,47.554093],[36.681885190476194,47.554229],[36.681885,47.554229],[36.68188294377509,47.55424615662656],[36.68187,47.554345],[36.68187109737828,47.554345],[36.681853,47.554496],[36.682608,47.554533],[36.682617,47.554229],[36.68261685407167,47.554229],[36.682664,47.55281]]]}},{"type":"Feature","properties":{"cadnum":"2322786601:01:005:0015"},"geometry":{"type":"Polygon","coordinates":[[[36.681692,47.539283],[36.680863,47.53918],[36.680806045045045,47.539398],[36.680806,47.539398],[36.68080214754057,47.539412918034394],[36.680776,47.539513],[36.6807763021978,47.539513],[36.680759,47.53958],[36.681587,47.539692],[36.68163266326531,47.539513],[36.681633,47.539513],[36.681692,47.539283]]]}},{"type":"Feature","properties":{"cadnum":"2322786601:01:005:0016"},"geometry":{"type":"Polygon","coordinates":[[[36.682388,47.539371],[36.681692,47.539283],[36.6816625,47.539398],[36.681662,47.539398],[36.681587,47.539692],[36.681705,47.539708],[36.682326,47.539773],[36.682373446327716,47.53946085310714],[36.682388,47.539371]]]}},{"type":"Feature","properties":{"cadnum":"2322786601:01:002:0029"},"geometry":{"type":"Polygon","coordinates":[[[36.686993,47.562877],[36.68707,47.562511],[36.686208,47.562454],[36.686166,47.562451],[36.68602,47.562812],[36.686993,47.562877]]]}},{"type":"Feature","properties":{"cadnum":"2322786601:01:001:0033"},"geometry":{"type":"Polygon","coordinates":[[[36.678716,47.548118],[36.678727,47.548047],[36.678616,47.548037],[36.678603,47.54811],[36.678716,47.548118]]]}},{"type":"Feature","properties":{"cadnum":"2322786601:01:001:0024"},"geometry":{"type":"Polygon","coordinates":[[[36.681984,47.550391],[36.681161,47.550321],[36.68112618987342,47.550521],[36.681126,47.550521],[36.68111574683548,47.5505809999998],[36.681106,47.550637],[36.68110617721519,47.550637],[36.681099,47.550679],[36.681923,47.550749],[36.681962,47.550521],[36.68196127642276,47.550521],[36.681984,47.550391]]]}},{"type":"Feature","properties":{"cadnum":"2322786601:01:001:0042"},"geometry":{"type":"Polygon","coordinates":[[[36.682926,47.547947],[36.681459,47.547793],[36.681412,47.548123],[36.683264,47.548317080079094],[36.683264,47.548318],[36.683549,47.548347],[36.683639,47.548021],[36.683264,47.547982],[36.683264,47.54798219449902],[36.682926,47.547947]]]}},{"type":"Feature","properties":{"cadnum":"2322786601:01:001:0015"},"geometry":{"type":"Polygon","coordinates":[[[36.681103,47.548395],[36.681143,47.548142],[36.680049,47.5481],[36.680016,47.548351],[36.681103,47.548395]]]}},{"type":"Feature","properties":{"cadnum":"2322786601:01:001:0025"},"geometry":{"type":"Polygon","coordinates":[[[36.683136,47.550506],[36.681984,47.550391],[36.681941,47.550637],[36.68194215789474,47.550637],[36.681923,47.550749],[36.683072,47.550863],[36.68311164912281,47.550637],[36.683112,47.550637],[36.683136,47.550506]]]}},{"type":"Feature","properties":{"cadnum":"2322786601:01:001:0010"},"geometry":{"type":"Polygon","coordinates":[[[36.681082,47.548933],[36.681119,47.548639],[36.680118,47.548582],[36.680068,47.548876],[36.681082,47.548933]]]}},{"type":"Feature","properties":{"cadnum":"2322786601:01:001:0032"},"geometry":{"type":"Polygon","coordinates":[[[36.677942,47.54820738594594],[36.678696,47.548262],[36.678716,47.548118],[36.678603,47.54811],[36.678616,47.548037],[36.677771,47.547964],[36.677771,47.54796468656716],[36.677607,47.54795],[36.677567,47.54818],[36.677942,47.548208],[36.677942,47.54820738594594]]]}},{"type":"Feature","properties":{"cadnum":"2322786601:01:001:0004"},"geometry":{"type":"Polygon","coordinates":[[[36.680071,47.547476],[36.680103,47.547268],[36.679531,47.547225],[36.679126,47.547196],[36.679093,47.547406],[36.679498,47.547435],[36.680071,47.547476]]]}},{"type":"Feature","properties":{"cadnum":"2322786601:01:004:0007"},"geometry":{"type":"Polygon","coordinates":[[[36.674858,47.542077],[36.67629,47.541838],[36.676521,47.54122],[36.67467,47.54152],[36.674858,47.542077]]]}},{"type":"Feature","properties":{"cadnum":"2322786601:01:003:0004"},"geometry":{"type":"Polygon","coordinates":[[[36.676683,47.553931],[36.676568,47.553924],[36.676234,47.553892],[36.67618118101545,47.554229],[36.67618,47.554229],[36.676082,47.554863],[36.676531,47.554903],[36.676531,47.554901],[36.676636,47.554229],[36.676635492753626,47.554229],[36.676683,47.553931]]]}},{"type":"Feature","properties":{"cadnum":"2322786601:01:003:0005"},"geometry":{"type":"Polygon","coordinates":[[[36.677315,47.555639],[36.677418,47.554971],[36.677418,47.554966],[36.676981,47.554927],[36.676978,47.554941],[36.676876,47.555599],[36.677315,47.555639]]]}},{"type":"Feature","properties":{"cadnum":"2322786601:01:003:0006"},"geometry":{"type":"Polygon","coordinates":[[[36.677569,47.553983],[36.677131,47.553957],[36.67708893814433,47.554229],[36.677088,47.554229],[36.676981,47.554927],[36.677418,47.554966],[36.677531,47.554229],[36.67753094475138,47.554229],[36.677569,47.553983]]]}},{"type":"Feature","properties":{"cadnum":"2322786601:01:001:0021"},"geometry":{"type":"Polygon","coordinates":[[[36.678406,47.543048],[36.678375,47.543222],[36.67837621404682,47.543222],[36.678345,47.543405],[36.68006,47.54354],[36.680122,47.543183],[36.678406,47.543048]]]}},{"type":"Feature","properties":{"cadnum":"2322786601:01:001:0046"},"geometry":{"type":"Polygon","coordinates":[[[36.683079,47.543033],[36.683146,47.542567],[36.682513,47.542516],[36.682444,47.542983],[36.682749,47.543007],[36.683079,47.543033]]]}},{"type":"Feature","properties":{"cadnum":"2322786601:01:005:0030"},"geometry":{"type":"Polygon","coordinates":[[[36.681148,47.54287],[36.680324,47.542797],[36.680193,47.542786],[36.680138120772945,47.543106],[36.680138,47.543106],[36.680122,47.5432],[36.680371,47.543222],[36.68037526190477,47.543222],[36.681089,47.543284],[36.681102180952394,47.54318624126975],[36.681148,47.54287]]]}},{"type":"Feature","properties":{"cadnum":"2322786601:01:001:0049"},"geometry":{"type":"Polygon","coordinates":[[[36.683435,47.54259068],[36.684164,47.542649],[36.684223,47.542246],[36.683304,47.542172],[36.683245,47.542575],[36.683264,47.5425766],[36.683264,47.542577],[36.68335900000007,47.542584600000005],[36.683435,47.542591],[36.683435,47.54259068]]]}},{"type":"Feature","properties":{"cadnum":"2322786601:01:001:0029"},"geometry":{"type":"Polygon","coordinates":[[[36.680324,47.542797],[36.680415,47.542352],[36.681931,47.542462],[36.681986,47.542106],[36.680454,47.541922],[36.680364,47.542296],[36.678787,47.542191],[36.678763,47.542333],[36.680268,47.542448],[36.680193,47.542786],[36.680324,47.542797]]]}},{"type":"Feature","properties":{"cadnum":"2322786601:01:001:0045"},"geometry":{"type":"Polygon","coordinates":[[[36.683079,47.543033],[36.682749,47.543007],[36.68273426511628,47.543106],[36.682734,47.543106],[36.68272301834887,47.54318156421853],[36.682717,47.543222],[36.682717141868515,47.543222],[36.682692,47.543395],[36.683213,47.543437],[36.683264,47.54344113513513],[36.683264,47.543442],[36.684039,47.543503],[36.684095,47.543115],[36.683435,47.54306258122744],[36.683435,47.543062],[36.683079,47.543033]]]}},{"type":"Feature","properties":{"cadnum":"2322786601:01:001:0048"},"geometry":{"type":"Polygon","coordinates":[[[36.683245,47.542575],[36.683304,47.542172],[36.68257,47.542113],[36.682513,47.542516],[36.683146,47.542567],[36.683245,47.542575]]]}},{"type":"Feature","properties":{"cadnum":"2322786601:01:005:0029"},"geometry":{"type":"Polygon","coordinates":[[[36.681862,47.542935],[36.681148,47.54287],[36.68111380681818,47.543106],[36.681113,47.543106],[36.681102180952394,47.54318624126975],[36.681097,47.543222],[36.68109735955056,47.543222],[36.681089,47.543284],[36.681803,47.543347],[36.68182063485477,47.543222],[36.681821,47.543222],[36.681862,47.542935]]]}},{"type":"Feature","properties":{"cadnum":"2322786601:01:005:0028"},"geometry":{"type":"Polygon","coordinates":[[[36.681807,47.541418],[36.681874,47.540922],[36.680413,47.540792],[36.680359,47.541274],[36.681807,47.541418]]]}},{"type":"Feature","properties":{"cadnum":"2322786601:01:006:0001"},"geometry":{"type":"Polygon","coordinates":[[[36.687248,47.531222],[36.68744,47.530188],[36.686005,47.530076],[36.685922,47.530414],[36.685828,47.530791],[36.68575,47.531106],[36.687248,47.531222]]]}},{"type":"Feature","properties":{"cadnum":"2322786601:01:006:0030"},"geometry":{"type":"Polygon","coordinates":[[[36.685621,47.530652],[36.685679,47.530265],[36.684601,47.53017],[36.684549,47.530558],[36.684555,47.530558],[36.685621,47.530652]]]}},{"type":"Feature","properties":{"cadnum":"2322786601:01:006:0029"},"geometry":{"type":"Polygon","coordinates":[[[36.684549,47.530558],[36.684601,47.53017],[36.683839,47.530102],[36.683788,47.530491],[36.684549,47.530558]]]}},{"type":"Feature","properties":{"cadnum":"2322786601:01:001:0038"},"geometry":{"type":"Polygon","coordinates":[[[36.686327,47.534733],[36.686368,47.534359],[36.685576,47.534296],[36.685534,47.534669],[36.685573,47.534673],[36.686327,47.534733]]]}},{"type":"Feature","properties":{"cadnum":"2322786601:01:006:0019"},"geometry":{"type":"Polygon","coordinates":[[[36.687236,47.533152],[36.687299,47.532764],[36.685926,47.532638],[36.685874,47.533024],[36.687236,47.533152]]]}},{"type":"Feature","properties":{"cadnum":"2322786601:01:001:0037"},"geometry":{"type":"Polygon","coordinates":[[[36.68553,47.535065],[36.685573,47.534673],[36.685534,47.534669],[36.684771,47.534609],[36.684734,47.53495],[36.684728,47.534999],[36.68553,47.535065]]]}},{"type":"Feature","properties":{"cadnum":"2322786601:01:001:0040"},"geometry":{"type":"Polygon","coordinates":[[[36.686398,47.534083],[36.686452,47.533596],[36.685579,47.533526],[36.684896,47.533471],[36.684856,47.533807],[36.68484,47.53396],[36.686398,47.534083]]]}},{"type":"Feature","properties":{"cadnum":"2322786601:01:001:0036"},"geometry":{"type":"Polygon","coordinates":[[[36.686284,47.535127],[36.686327,47.534733],[36.685573,47.534673],[36.68553,47.535065],[36.686284,47.535127]]]}},{"type":"Feature","properties":{"cadnum":"2322786601:01:001:0039"},"geometry":{"type":"Polygon","coordinates":[[[36.685534,47.534669],[36.685576,47.534296],[36.684813,47.534237],[36.684775,47.534572],[36.684771,47.534609],[36.685534,47.534669]]]}},{"type":"Feature","properties":{"cadnum":"2322786601:01:005:0025"},"geometry":{"type":"Polygon","coordinates":[[[36.684734,47.53495],[36.684771,47.534609],[36.684775,47.534572],[36.683964,47.534507],[36.683913,47.534886],[36.684734,47.53495]]]}},{"type":"Feature","properties":{"cadnum":"2322786601:01:005:0024"},"geometry":{"type":"Polygon","coordinates":[[[36.683435,47.53484917411402],[36.683913,47.534886],[36.683964,47.534507],[36.683435,47.53446619142857],[36.683435,47.534466],[36.683183,47.534446],[36.683132,47.534825],[36.683264,47.53483589108911],[36.683264,47.534836],[36.68328392279076,47.53483753488372],[36.683435,47.53485],[36.683435,47.53484917411402]]]}},{"type":"Feature","properties":{"cadnum":"2322786601:01:007:0001"},"geometry":{"type":"Polygon","coordinates":[[[36.681025,47.524678],[36.68102589018844,47.524678],[36.680816,47.526101],[36.683435,47.52629],[36.683435,47.52628931949883],[36.684541,47.526369],[36.68480396126176,47.524678],[36.684805,47.524678],[36.685296,47.521539],[36.683264,47.521364],[36.683264,47.52136421665789],[36.681538,47.521215],[36.681025,47.524678]]]}},{"type":"Feature","properties":{"cadnum":"2322786601:01:007:0002"},"geometry":{"type":"Polygon","coordinates":[[[36.6888197936511,47.523361857140976],[36.688929,47.52268],[36.688929,47.52267813043478],[36.689079,47.521739],[36.68886089085687,47.52172409813308],[36.685372,47.521473],[36.68488624149766,47.524562],[36.684885,47.524562],[36.684655,47.526034],[36.684819,47.526045],[36.684795,47.526179],[36.688329,47.526433],[36.688608524318546,47.524678],[36.688609,47.524678],[36.688757,47.52375392499999],[36.688757,47.523755],[36.6888197936511,47.523361857140976]]]}},{"type":"Feature","properties":{"cadnum":"2322786601:01:005:0023"},"geometry":{"type":"Polygon","coordinates":[[[36.685973,47.540519],[36.685996,47.540313],[36.685593,47.540281],[36.684523,47.540196],[36.684494,47.540402],[36.685973,47.540519]]]}},{"type":"Feature","properties":{"cadnum":"2322786601:01:001:0035"},"geometry":{"type":"Polygon","coordinates":[[[36.685349,47.539004],[36.684538,47.538931],[36.68448323454158,47.539398],[36.684483,47.539398],[36.684483,47.5394],[36.685271,47.539457],[36.685349,47.539004]]]}},{"type":"Feature","properties":{"cadnum":"2322786601:01:001:0034"},"geometry":{"type":"Polygon","coordinates":[[[36.686005,47.539062],[36.685349,47.539004],[36.6852811589404,47.539398],[36.685281,47.539398],[36.685271,47.539457],[36.685929,47.539505],[36.686005,47.539062]]]}},{"type":"Feature","properties":{"cadnum":"2322786601:01:005:0011"},"geometry":{"type":"Polygon","coordinates":[[[36.685153,47.541993],[36.685153,47.541725],[36.683595,47.541565],[36.683588,47.541857],[36.685153,47.541993]]]}},{"type":"Feature","properties":{"cadnum":"2322786601:01:001:0020"},"geometry":{"type":"Polygon","coordinates":[[[36.678401,47.544634],[36.678449,47.544312],[36.67829,47.544302],[36.678241,47.544623],[36.678401,47.544634]]]}},{"type":"Feature","properties":{"cadnum":"2322786601:01:001:0043"},"geometry":{"type":"Polygon","coordinates":[[[36.683162,47.543796],[36.683213,47.543437],[36.682692,47.543395],[36.682389,47.543371],[36.682337,47.543729],[36.683162,47.543796]]]}},{"type":"Feature","properties":{"cadnum":"2322786601:01:001:0044"},"geometry":{"type":"Polygon","coordinates":[[[36.683435,47.543455],[36.683213,47.543437],[36.683162,47.543796],[36.683264,47.54380384615384],[36.683264,47.543804],[36.683987,47.543861],[36.684039,47.543503],[36.683435,47.54345545935484],[36.683435,47.543455]]]}},{"type":"Feature","properties":{"cadnum":"2322786601:01:001:0026"},"geometry":{"type":"Polygon","coordinates":[[[36.682871,47.544289],[36.68293,47.543969],[36.68231,47.543918],[36.682251,47.544237],[36.682871,47.544289]]]}},{"type":"Feature","properties":{"cadnum":"2322786601:01:006:0022"},"geometry":{"type":"Polygon","coordinates":[[[36.681278,47.53262],[36.681333,47.532248],[36.679898,47.532122],[36.679843,47.532493],[36.681278,47.53262]]]}},{"type":"Feature","properties":{"cadnum":"2322786601:01:005:0019"},"geometry":{"type":"Polygon","coordinates":[[[36.682342,47.534018],[36.682397,47.533639],[36.679709,47.533404],[36.679654,47.533782],[36.682342,47.534018]]]}},{"type":"Feature","properties":{"cadnum":"2322786601:01:007:0006"},"geometry":{"type":"Polygon","coordinates":[[[36.683173,47.52769],[36.68323,47.527295],[36.682483,47.527229],[36.682426,47.527624],[36.683173,47.52769]]]}},{"type":"Feature","properties":{"cadnum":"2322786601:01:002:0016"},"geometry":{"type":"Polygon","coordinates":[[[36.666725,47.550327],[36.666831,47.548973],[36.66633,47.548863],[36.666271,47.550319],[36.66626718867925,47.550521],[36.666267,47.550521],[36.6662658235294,47.55059335294194],[36.666265,47.550637],[36.66626511382114,47.550637],[36.666265,47.550644],[36.66669,47.550662],[36.66669916932914,47.55056965175651],[36.666725,47.550327]]]}},{"type":"Feature","properties":{"cadnum":"2322786601:01:002:0010"},"geometry":{"type":"Polygon","coordinates":[[[36.664416,47.550225],[36.66374,47.550194],[36.66373926185101,47.550521],[36.663739,47.550521],[36.663739,47.550637],[36.663739,47.550644],[36.664405,47.550664],[36.66440764391692,47.550537973293864],[36.664416,47.550225]]]}},{"type":"Feature","properties":{"cadnum":"2322786601:01:002:0022"},"geometry":{"type":"Polygon","coordinates":[[[36.685013,47.55569],[36.685182,47.554594],[36.684727,47.554546],[36.684558,47.555647],[36.685013,47.55569]]]}},{"type":"Feature","properties":{"cadnum":"2322786601:01:003:0008"},"geometry":{"type":"Polygon","coordinates":[[[36.684526,47.555864],[36.684558,47.555647],[36.684727,47.554546],[36.684046,47.554476],[36.683849,47.555765],[36.683843,47.5558],[36.684526,47.555864]]]}},{"type":"Feature","properties":{"cadnum":"2322786601:01:002:0021"},"geometry":{"type":"Polygon","coordinates":[[[36.684912,47.556339],[36.68501,47.555707],[36.685013,47.55569],[36.684558,47.555647],[36.684526,47.555864],[36.684459,47.556297],[36.684912,47.556339]]]}},{"type":"Feature","properties":{"cadnum":"2322786601:01:006:0017"},"geometry":{"type":"Polygon","coordinates":[[[36.686116,47.538285],[36.686205,47.537857],[36.68552,47.537792],[36.685432,47.53822],[36.686116,47.538285]]]}},{"type":"Feature","properties":{"cadnum":"2322786601:01:006:0018"},"geometry":{"type":"Polygon","coordinates":[[[36.685432,47.53822],[36.68552,47.537792],[36.684653,47.53771],[36.684565,47.538137],[36.685432,47.53822]]]}},{"type":"Feature","properties":{"cadnum":"2322786601:01:005:0022"},"geometry":{"type":"Polygon","coordinates":[[[36.685309,47.536648],[36.685342,47.536361],[36.684817,47.536315],[36.684785,47.536602],[36.685309,47.536648]]]}},{"type":"Feature","properties":{"cadnum":"2322786601:01:005:0027"},"geometry":{"type":"Polygon","coordinates":[[[36.684358,47.538033],[36.684402,47.537656],[36.683556,47.537595],[36.683505,47.537972],[36.684358,47.538033]]]}},{"type":"Feature","properties":{"cadnum":"2322786601:01:006:0014"},"geometry":{"type":"Polygon","coordinates":[[[36.688025,47.52774],[36.688062,47.527407],[36.686366,47.527268],[36.685288,47.52718],[36.685242,47.527537],[36.688025,47.52774]]]}},{"type":"Feature","properties":{"cadnum":"2322786601:01:007:0010"},"geometry":{"type":"Polygon","coordinates":[[[36.686363,47.527262],[36.686405,47.526868],[36.685009,47.526744],[36.684586,47.526707],[36.684532,47.527105],[36.686363,47.527262]]]}},{"type":"Feature","properties":{"cadnum":"2322786601:01:002:0014"},"geometry":{"type":"Polygon","coordinates":[[[36.668693,47.550154],[36.668765,47.549289],[36.668331,47.549266],[36.66827,47.550122],[36.668693,47.550154]]]}},{"type":"Feature","properties":{"cadnum":"2322786601:01:001:0019"},"geometry":{"type":"Polygon","coordinates":[[[36.684723,47.545622],[36.685377,47.545427],[36.684777,47.545147],[36.684723,47.545622]]]}},{"type":"Feature","properties":{"cadnum":"2322786601:01:002:0013"},"geometry":{"type":"Polygon","coordinates":[[[36.664416,47.550225],[36.664474,47.548942],[36.663745,47.548927],[36.66374,47.550194],[36.664416,47.550225]]]}}]}