{"type":"FeatureCollection","features":[{"type":"Feature","properties":{"cadnum":"2322755103:07:001:0012"},"geometry":{"type":"Polygon","coordinates":[[[36.583786,47.320014],[36.583927,47.319681],[36.582948,47.319656],[36.582709,47.319649],[36.582149,47.31986],[36.582122,47.319814],[36.581029,47.320214],[36.581015,47.32022],[36.58105,47.320251],[36.581082,47.320265],[36.58108331034483,47.320265],[36.581119,47.32028],[36.581277,47.32029],[36.58256,47.320149],[36.58255594023904,47.320149],[36.583786,47.320014]]]}},{"type":"Feature","properties":{"cadnum":"2322755103:07:001:0022"},"geometry":{"type":"Polygon","coordinates":[[[36.582965,47.317983],[36.583216,47.317891],[36.583102,47.317741],[36.582851,47.317833],[36.582965,47.317983]]]}},{"type":"Feature","properties":{"cadnum":"2322755103:07:001:0005"},"geometry":{"type":"Polygon","coordinates":[[[36.583883,47.316741],[36.584015,47.316661],[36.58393,47.316597],[36.583832,47.316521],[36.583794,47.316491],[36.583657,47.316574],[36.583696,47.316603],[36.583748,47.316641],[36.58384,47.31671],[36.583883,47.316741]]]}},{"type":"Feature","properties":{"cadnum":"2322755103:07:001:0018"},"geometry":{"type":"Polygon","coordinates":[[[36.582063,47.317136],[36.582904,47.316858],[36.582769,47.31667],[36.582627,47.316721],[36.582414,47.316639],[36.581845,47.316822],[36.582063,47.317136]]]}},{"type":"Feature","properties":{"cadnum":"2322755103:07:001:0015"},"geometry":{"type":"Polygon","coordinates":[[[36.584792,47.31835],[36.584387,47.31785],[36.584387,47.3178514612069],[36.584326,47.317776],[36.58322,47.318189],[36.583685,47.318765],[36.584558,47.318439],[36.584558,47.31843782222222],[36.584792,47.31835]]]}},{"type":"Feature","properties":{"cadnum":"2322755103:07:001:0013"},"geometry":{"type":"Polygon","coordinates":[[[36.581018,47.32016],[36.582352,47.31964],[36.581318,47.319612],[36.581043,47.319862],[36.581018,47.32016]]]}},{"type":"Feature","properties":{"cadnum":"2322755103:07:001:0014"},"geometry":{"type":"Polygon","coordinates":[[[36.580188,47.319873],[36.579666,47.319986],[36.57976882437276,47.320149],[36.579768,47.320149],[36.57980879245288,47.32021235849064],[36.579842,47.320265],[36.579842684931506,47.320265],[36.579862,47.320295],[36.580384,47.320181],[36.580188,47.319873]]]}},{"type":"Feature","properties":{"cadnum":"2322755103:07:001:0016"},"geometry":{"type":"Polygon","coordinates":[[[36.581286,47.316357],[36.581085,47.316143],[36.580604,47.316322],[36.580695242009135,47.316425],[36.580695,47.316425],[36.580713420731996,47.31644552134179],[36.580798,47.316541],[36.58079912598426,47.316541],[36.580809,47.316552],[36.58112,47.316425],[36.58111895652174,47.316425],[36.581286,47.316357]]]}},{"type":"Feature","properties":{"cadnum":"2322755103:07:001:0026"},"geometry":{"type":"Polygon","coordinates":[[[36.581329,47.322531],[36.581427,47.322318],[36.581141,47.322258],[36.58064,47.32215],[36.580543,47.322362],[36.581046,47.322472],[36.581329,47.322531]]]}},{"type":"Feature","properties":{"cadnum":"2322755103:07:001:0027"},"geometry":{"type":"Polygon","coordinates":[[[36.580715,47.323878],[36.580809,47.323661],[36.580616,47.323622],[36.580043,47.323502],[36.579948,47.323713],[36.580715,47.323878]]]}},{"type":"Feature","properties":{"cadnum":"2322755103:07:001:0017"},"geometry":{"type":"Polygon","coordinates":[[[36.581027,47.315973],[36.581156,47.31593],[36.580967,47.315616],[36.581151,47.315555],[36.580874,47.315146],[36.580794,47.315133],[36.580424,47.315237],[36.580365,47.315275],[36.580182,47.315576],[36.580326,47.315768],[36.580386,47.315808],[36.580799,47.315671],[36.581027,47.315973]]]}},{"type":"Feature","properties":{"cadnum":"2322755103:07:001:0007"},"geometry":{"type":"Polygon","coordinates":[[[36.584143,47.314398],[36.584078,47.314123],[36.584033,47.31398],[36.583754,47.31397],[36.583606,47.313964],[36.583569,47.314374],[36.583716,47.31438],[36.584143,47.314398]]]}},{"type":"Feature","properties":{"cadnum":"2322755103:07:001:0019"},"geometry":{"type":"Polygon","coordinates":[[[36.596522,47.310567],[36.596722,47.310493],[36.596894,47.310429],[36.596575,47.310013],[36.596223,47.310144],[36.596349,47.310336],[36.596522,47.310567]]]}},{"type":"Feature","properties":{"cadnum":"2322755103:07:001:0020"},"geometry":{"type":"Polygon","coordinates":[[[36.592585,47.312672],[36.59232289237805,47.312785789237076],[36.592142,47.312864],[36.592149,47.312878],[36.592181,47.312955],[36.592193,47.312976],[36.592303,47.313142],[36.592448,47.313334],[36.592967,47.313122],[36.592706916864614,47.312817],[36.592707,47.312817],[36.592585,47.312672]]]}},{"type":"Feature","properties":{"cadnum":"2322755103:07:001:0006"},"geometry":{"type":"Polygon","coordinates":[[[36.588398,47.313146],[36.588403,47.313055],[36.588078,47.313048],[36.587481,47.313023],[36.587473,47.312821],[36.587176,47.312828],[36.587176,47.31312],[36.587713,47.313127],[36.588398,47.313146]]]}},{"type":"Feature","properties":{"cadnum":"2322755103:07:001:0023"},"geometry":{"type":"Polygon","coordinates":[[[36.586663,47.31537],[36.58675,47.315199],[36.586246,47.31508],[36.586223,47.315082],[36.586205,47.315093],[36.586193,47.315107],[36.586126,47.315234],[36.586248,47.315263],[36.586244,47.315271],[36.586663,47.31537]]]}},{"type":"Feature","properties":{"cadnum":"2322755103:07:001:0011"},"geometry":{"type":"Polygon","coordinates":[[[36.587656,47.314809],[36.587722,47.314685],[36.587129,47.314543],[36.58709,47.314534],[36.586608,47.314415],[36.586605,47.314429],[36.586593,47.314435],[36.586567,47.314431],[36.586506,47.314574],[36.586881,47.314662],[36.587112,47.314714],[36.587459,47.314783],[36.587656,47.314809]]]}},{"type":"Feature","properties":{"cadnum":"2322755103:07:001:0010"},"geometry":{"type":"Polygon","coordinates":[[[36.587722,47.314685],[36.587752,47.314614],[36.587789,47.314548],[36.587141,47.314394],[36.586632,47.31428],[36.586567,47.314431],[36.586593,47.314435],[36.586605,47.314429],[36.586608,47.314415],[36.58709,47.314534],[36.587129,47.314543],[36.587722,47.314685]]]}}]}