{"type":"FeatureCollection","features":[{"type":"Feature","properties":{"cadnum":"2322781302:02:001:0002"},"geometry":{"type":"Polygon","coordinates":[[[36.57159,47.215002],[36.570917,47.215181],[36.570976,47.21566],[36.57098865957447,47.215779],[36.570988,47.215779],[36.57099717346942,47.21585903061258],[36.571001,47.215895],[36.57100129644269,47.215895],[36.571017,47.216032],[36.571642,47.215991],[36.57163656603773,47.215895],[36.571637,47.215895],[36.57159,47.215002]]]}},{"type":"Feature","properties":{"cadnum":"2322781302:02:001:0004"},"geometry":{"type":"Polygon","coordinates":[[[36.573572,47.214555286374136],[36.573572,47.214554],[36.572531,47.214975],[36.572684,47.215895],[36.57268554121864,47.215895],[36.572713,47.216058],[36.572731,47.216116],[36.573248,47.216074],[36.573244,47.216005],[36.573572,47.215959],[36.573572,47.21595867676768],[36.573796,47.215927],[36.57383,47.216049],[36.574295,47.216037],[36.57429080887617,47.21582073801056],[36.574266,47.214274],[36.573572,47.214555286374136]]]}},{"type":"Feature","properties":{"cadnum":"2322781302:02:002:0004"},"geometry":{"type":"Polygon","coordinates":[[[36.601038,47.213529],[36.600579,47.213528],[36.600506,47.214833],[36.600866,47.21490269924812],[36.600866,47.214903],[36.601542,47.215034],[36.601676,47.21353],[36.601038,47.21352921234568],[36.601038,47.213529]]]}},{"type":"Feature","properties":{"cadnum":"2322781302:02:001:0005"},"geometry":{"type":"Polygon","coordinates":[[[36.574304,47.215287],[36.575289,47.21528],[36.575055,47.214108],[36.574333,47.214104],[36.574304,47.215287]]]}},{"type":"Feature","properties":{"cadnum":"2322781302:02:001:0001"},"geometry":{"type":"Polygon","coordinates":[[[36.571027,47.216506],[36.571666,47.216461],[36.571642,47.215991],[36.571017,47.216032],[36.571029,47.216138],[36.571027,47.216506]]]}}]}