{"type":"FeatureCollection","features":[{"type":"Feature","properties":{"cadnum":"2322785401:01:011:0014"},"geometry":{"type":"Polygon","coordinates":[[[36.683435,47.438897],[36.683435,47.43889658181818],[36.683552,47.438781],[36.683435,47.43873103125],[36.683435,47.438731],[36.682566,47.438358],[36.682388,47.438536],[36.683264,47.43889376576576],[36.683264,47.438895],[36.683387,47.438944],[36.683435,47.438897]]]}},{"type":"Feature","properties":{"cadnum":"2322785401:01:015:0003"},"geometry":{"type":"Polygon","coordinates":[[[36.690113,47.428048],[36.69005,47.428145],[36.69005115258855,47.428145],[36.689879,47.428415],[36.690817,47.428688],[36.691064,47.428305],[36.6904719377432,47.428145],[36.690472,47.428145],[36.690113,47.428048]]]}},{"type":"Feature","properties":{"cadnum":"2322785401:01:013:0008"},"geometry":{"type":"Polygon","coordinates":[[[36.687483,47.434472],[36.687689,47.43418],[36.686862,47.43391],[36.686651,47.4342],[36.687483,47.434472]]]}},{"type":"Feature","properties":{"cadnum":"2322785401:01:013:0009"},"geometry":{"type":"Polygon","coordinates":[[[36.686651,47.4342],[36.686862,47.43391],[36.685899,47.433594],[36.685691,47.433885],[36.68648,47.434144],[36.686651,47.4342]]]}},{"type":"Feature","properties":{"cadnum":"2322785401:01:011:0011"},"geometry":{"type":"Polygon","coordinates":[[[36.687476,47.444388],[36.687683,47.443852],[36.686914,47.443996],[36.687476,47.444388]]]}},{"type":"Feature","properties":{"cadnum":"2322785401:01:011:0012"},"geometry":{"type":"Polygon","coordinates":[[[36.692414,47.439062],[36.69248,47.438994],[36.692279,47.438906],[36.692214,47.438974],[36.692414,47.439062]]]}},{"type":"Feature","properties":{"cadnum":"2322785401:01:010:0011"},"geometry":{"type":"Polygon","coordinates":[[[36.679403,47.444289],[36.679623,47.444108],[36.678515,47.443469],[36.678292,47.443647],[36.679403,47.444289]]]}},{"type":"Feature","properties":{"cadnum":"2322785401:01:010:0010"},"geometry":{"type":"Polygon","coordinates":[[[36.680371,47.444848],[36.680594,47.444671],[36.679623,47.444108],[36.679403,47.444289],[36.680371,47.444848]]]}},{"type":"Feature","properties":{"cadnum":"2322785401:01:013:0007"},"geometry":{"type":"Polygon","coordinates":[[[36.679076,47.432127],[36.679198,47.43192],[36.678903,47.431839],[36.678779,47.432047],[36.679076,47.432127]]]}},{"type":"Feature","properties":{"cadnum":"2322785401:01:013:0006"},"geometry":{"type":"Polygon","coordinates":[[[36.680336,47.432467],[36.680457,47.432268],[36.679198,47.43192],[36.679076,47.432127],[36.680336,47.432467]]]}},{"type":"Feature","properties":{"cadnum":"2322785401:01:007:0003"},"geometry":{"type":"Polygon","coordinates":[[[36.669977,47.450313],[36.670077,47.450127],[36.668561,47.449758],[36.668454,47.449963],[36.669977,47.450313]]]}},{"type":"Feature","properties":{"cadnum":"2322785401:01:007:0002"},"geometry":{"type":"Polygon","coordinates":[[[36.668454,47.449963],[36.668561,47.449758],[36.667856,47.449586],[36.667318,47.449455],[36.667201,47.449675],[36.667743,47.449799],[36.668454,47.449963]]]}},{"type":"Feature","properties":{"cadnum":"2322785401:01:003:0004"},"geometry":{"type":"Polygon","coordinates":[[[36.665387,47.462653],[36.6656,47.462353],[36.664769,47.462088],[36.664559,47.462379],[36.665387,47.462653]]]}},{"type":"Feature","properties":{"cadnum":"2322785401:01:003:0003"},"geometry":{"type":"Polygon","coordinates":[[[36.666181,47.462915],[36.666401,47.462609],[36.6656,47.462353],[36.665387,47.462653],[36.666181,47.462915]]]}},{"type":"Feature","properties":{"cadnum":"2322785401:01:015:0002"},"geometry":{"type":"Polygon","coordinates":[[[36.691462,47.428877],[36.691714,47.42848],[36.691064,47.428305],[36.690817,47.428688],[36.691462,47.428877]]]}},{"type":"Feature","properties":{"cadnum":"2322785401:01:011:0009"},"geometry":{"type":"Polygon","coordinates":[[[36.684878,47.440122],[36.685053,47.440029],[36.685439,47.439637],[36.684652,47.439293],[36.684641,47.4393],[36.684652,47.439305],[36.684541,47.439422],[36.68453,47.439417],[36.684494,47.439452],[36.684464,47.439531],[36.684337,47.439675],[36.684589,47.439784],[36.684456,47.439938],[36.684476,47.439948],[36.684797,47.440109],[36.684815,47.440091],[36.684878,47.440122]]]}},{"type":"Feature","properties":{"cadnum":"2322785401:01:011:0035"},"geometry":{"type":"Polygon","coordinates":[[[36.686179,47.442195],[36.686236,47.442125],[36.686299,47.442047],[36.685242,47.441682],[36.685178,47.44166],[36.685163,47.441674],[36.684811,47.441559],[36.684768,47.441617],[36.684689,47.441722],[36.685133,47.441859],[36.686179,47.442195]]]}},{"type":"Feature","properties":{"cadnum":"2322785401:01:011:0015"},"geometry":{"type":"Polygon","coordinates":[[[36.688317,47.441899],[36.688434,47.44168],[36.688597,47.441371],[36.688685,47.441223],[36.687797,47.440984],[36.687728,47.441004],[36.687432,47.441512],[36.688069,47.44168],[36.687991,47.441806],[36.688317,47.441899]]]}},{"type":"Feature","properties":{"cadnum":"2322785401:01:011:0003"},"geometry":{"type":"Polygon","coordinates":[[[36.68448,47.438945],[36.684693,47.43877],[36.684405,47.438607],[36.68419,47.438782],[36.68448,47.438945]]]}},{"type":"Feature","properties":{"cadnum":"2322785401:01:011:0013"},"geometry":{"type":"Polygon","coordinates":[[[36.685786,47.436952],[36.685981,47.436668],[36.685561,47.436518],[36.685239,47.436381],[36.684881,47.436616],[36.68551,47.436855],[36.685575,47.436879],[36.685786,47.436952]]]}},{"type":"Feature","properties":{"cadnum":"2322785401:01:011:0002"},"geometry":{"type":"Polygon","coordinates":[[[36.684039,47.438909],[36.684188,47.438787],[36.684028,47.438698],[36.683877,47.438817],[36.684039,47.438909]]]}}]}