{"type":"FeatureCollection","features":[{"type":"Feature","properties":{"cadnum":"2324981201:04:001:0082"},"geometry":{"type":"Polygon","coordinates":[[[37.211601,47.426883],[37.211501,47.426658],[37.211486,47.426528],[37.211353,47.426529],[37.211369,47.426673],[37.211475,47.42691],[37.211844,47.427605],[37.21205914074074,47.428029],[37.212059,47.428029],[37.212095982141356,47.42810160713991],[37.212118,47.428145],[37.21211808411215,47.428145],[37.212386,47.428671],[37.212885,47.429774],[37.213066,47.430296],[37.213114,47.430764],[37.213097,47.431037],[37.213115,47.431351],[37.213278,47.431755],[37.213264,47.431861],[37.21326468837209,47.431861],[37.213224,47.432185],[37.212977,47.432739],[37.212336,47.433695],[37.211883,47.434355],[37.211738,47.434568],[37.211517,47.43489],[37.211273,47.435174],[37.211104,47.435278],[37.210833,47.435397],[37.210779,47.435429400000004],[37.210779,47.435429],[37.210582,47.435547],[37.21054,47.435577],[37.210541227799226,47.435577],[37.209878,47.436065],[37.208346,47.437241],[37.207862,47.437655],[37.206812,47.438522],[37.206579,47.438677],[37.206464,47.438712],[37.206292,47.43872],[37.2061,47.438708],[37.205801,47.43863],[37.205152,47.438432],[37.205081,47.438508],[37.205114,47.43851830243902],[37.205114,47.438519],[37.205211374732215,47.438548702355426],[37.205286,47.438572],[37.205286,47.438571465408806],[37.20575,47.438713],[37.206069,47.438797],[37.206291,47.43881],[37.206497,47.438801],[37.206655,47.438752],[37.206909,47.438583],[37.207964,47.437712],[37.208448,47.437299],[37.209977,47.436125],[37.210608,47.43565956851312],[37.210608,47.43566],[37.210663,47.435619],[37.210779,47.43555],[37.210779,47.435549492063494],[37.210915,47.435468],[37.210931,47.435461],[37.21093094117648,47.435461],[37.211186,47.435349],[37.211376,47.435231],[37.211633,47.434934],[37.211812,47.434673],[37.211958,47.434461],[37.212457,47.433733],[37.213103,47.432768],[37.213355,47.432202],[37.213412,47.431747],[37.213247,47.431332],[37.213224,47.431043],[37.213245,47.430764],[37.213197,47.430283],[37.213011,47.429748],[37.212512,47.428642],[37.21222547885104,47.428080857941495],[37.211969,47.427575],[37.211601,47.426883]]]}},{"type":"Feature","properties":{"cadnum":"2324981201:04:001:0086"},"geometry":{"type":"Polygon","coordinates":[[[37.212987,47.441278],[37.214065,47.441159],[37.213888,47.440822],[37.213439,47.440925],[37.212433,47.439557],[37.212297,47.439604],[37.213125,47.440579],[37.212559,47.440776],[37.212987,47.441278]]]}},{"type":"Feature","properties":{"cadnum":"2324981201:04:001:0085"},"geometry":{"type":"Polygon","coordinates":[[[37.213612,47.442013],[37.214462,47.441917],[37.214065,47.441159],[37.212987,47.441278],[37.213612,47.442013]]]}},{"type":"Feature","properties":{"cadnum":"2324981201:04:001:0087"},"geometry":{"type":"Polygon","coordinates":[[[37.216924,47.44095],[37.216974,47.440793],[37.216272,47.440993226804125],[37.216272,47.440993],[37.21452,47.44149],[37.214583,47.441722],[37.216101,47.44122139253996],[37.216101,47.441222],[37.216924,47.44095]]]}},{"type":"Feature","properties":{"cadnum":"2324981201:04:001:0088"},"geometry":{"type":"Polygon","coordinates":[[[37.210909,47.436069],[37.210614,47.435887],[37.210267,47.436147],[37.210561,47.436328],[37.210608,47.436293073394495],[37.210608,47.436294],[37.210909,47.436069]]]}},{"type":"Feature","properties":{"cadnum":"2324981201:04:001:0081"},"geometry":{"type":"Polygon","coordinates":[[[37.223018,47.434483],[37.223019,47.434477],[37.223072,47.434211],[37.223241,47.433866],[37.222804,47.433844],[37.222653,47.43414],[37.222589,47.434542],[37.222632,47.434544],[37.222759,47.435577],[37.222759467415734,47.435577],[37.222856,47.436351],[37.222896,47.436353],[37.222938,47.436336],[37.222972617608434,47.43551734034099],[37.223018,47.434483]]]}},{"type":"Feature","properties":{"cadnum":"2324981201:04:001:0080"},"geometry":{"type":"Polygon","coordinates":[[[37.223018,47.434483],[37.223019,47.434477],[37.223072,47.434211],[37.223241,47.433866],[37.222804,47.433844],[37.222653,47.43414],[37.222589,47.434542],[37.222632,47.434544],[37.222759,47.435577],[37.222759467415734,47.435577],[37.222856,47.436351],[37.222896,47.436353],[37.222938,47.436336],[37.222972617608434,47.43551734034099],[37.223018,47.434483]]]}},{"type":"Feature","properties":{"cadnum":"2324981201:04:001:0089"},"geometry":{"type":"Polygon","coordinates":[[[37.205784,47.437689],[37.205977,47.437542],[37.205769,47.437404],[37.205576,47.437556],[37.205784,47.437689]]]}},{"type":"Feature","properties":{"cadnum":"2324981201:04:001:0084"},"geometry":{"type":"Polygon","coordinates":[[[37.20584,47.437451],[37.206002,47.437321],[37.205911,47.437261],[37.205759,47.437398],[37.20584,47.437451]]]}},{"type":"Feature","properties":{"cadnum":"2324981201:04:001:0090"},"geometry":{"type":"Polygon","coordinates":[[[37.20687,47.438407],[37.20706,47.438257],[37.205977,47.437542],[37.205784,47.437689],[37.206535,47.438177],[37.20652,47.438187],[37.20687,47.438407]]]}},{"type":"Feature","properties":{"cadnum":"2324981201:04:001:0083"},"geometry":{"type":"Polygon","coordinates":[[[37.20706,47.438257],[37.207232,47.43812],[37.206002,47.437321],[37.20584,47.437451],[37.20706,47.438257]]]}},{"type":"Feature","properties":{"cadnum":"2324981201:04:002:0072"},"geometry":{"type":"Polygon","coordinates":[[[37.209319,47.436457],[37.209407,47.436382],[37.209236,47.436288],[37.209292,47.43624],[37.20914,47.436158],[37.208941,47.436327],[37.208997,47.436358],[37.208981,47.436372],[37.20902,47.436392],[37.209034,47.436378],[37.209092,47.436409],[37.209146,47.436364],[37.209319,47.436457]]]}},{"type":"Feature","properties":{"cadnum":"2324981201:04:002:0071"},"geometry":{"type":"Polygon","coordinates":[[[37.222608,47.434775],[37.22307,47.433827],[37.22264,47.433825],[37.222171,47.434753],[37.222608,47.434775]]]}},{"type":"Feature","properties":{"cadnum":"2324981201:04:002:0070"},"geometry":{"type":"Polygon","coordinates":[[[37.222204,47.435464],[37.222246,47.435447],[37.222385,47.435392],[37.222386,47.435386],[37.222439,47.43512],[37.222608,47.434775],[37.222171,47.434753],[37.22202,47.435049],[37.221956,47.435451],[37.221999,47.435453],[37.222164,47.435462],[37.222204,47.435464]]]}},{"type":"Feature","properties":{"cadnum":"2324981201:04:002:0073"},"geometry":{"type":"Polygon","coordinates":[[[37.212933,47.432132],[37.212991,47.432095],[37.213032,47.432066],[37.213017,47.432056],[37.213125,47.431984],[37.213011,47.431905],[37.212804,47.432044],[37.212933,47.432132]]]}}]}