{"type":"FeatureCollection","features":[{"type":"Feature","properties":{"cadnum":"2324955103:08:001:0036"},"geometry":{"type":"Polygon","coordinates":[[[37.062464,47.353453],[37.062021,47.352986],[37.061833,47.353066],[37.062292,47.35355045958796],[37.062292,47.353552],[37.062497,47.353769],[37.06249787663552,47.353769],[37.062894,47.354187],[37.063083,47.354105],[37.062653,47.353652],[37.06265288531187,47.353652],[37.062464,47.35345311016949],[37.062464,47.353453]]]}},{"type":"Feature","properties":{"cadnum":"2324955103:08:001:0014"},"geometry":{"type":"Polygon","coordinates":[[[37.068656,47.355714],[37.06846,47.35555],[37.067785,47.355942],[37.067785,47.3559424516696],[37.067388,47.356172],[37.067325,47.356208],[37.067493,47.356356],[37.067563,47.356318],[37.067957,47.356101],[37.067957,47.356100014925374],[37.068656,47.355714]]]}},{"type":"Feature","properties":{"cadnum":"2324955103:08:001:0081"},"geometry":{"type":"Polygon","coordinates":[[[37.063445,47.353341],[37.063458,47.35319],[37.063271,47.35294],[37.062906,47.353096],[37.063507,47.353769],[37.063507171052635,47.353769],[37.063606,47.35388],[37.063836,47.353781],[37.063722,47.353652],[37.06372112149533,47.353652],[37.063445,47.353341]]]}},{"type":"Feature","properties":{"cadnum":"2324955103:08:001:0032"},"geometry":{"type":"Polygon","coordinates":[[[37.060052,47.356939],[37.060349,47.35681],[37.059613,47.356061],[37.059354,47.356175],[37.060052,47.356939]]]}},{"type":"Feature","properties":{"cadnum":"2324955103:08:001:0031"},"geometry":{"type":"Polygon","coordinates":[[[37.060349,47.35681],[37.060052,47.356939],[37.06044910526316,47.357374],[37.060449,47.357374],[37.060463030942806,47.35738925457154],[37.060555,47.35749],[37.06055569518716,47.35749],[37.060621,47.357561],[37.060909,47.357378],[37.060349,47.35681]]]}},{"type":"Feature","properties":{"cadnum":"2324955103:08:001:0033"},"geometry":{"type":"Polygon","coordinates":[[[37.059649,47.355596],[37.059929,47.355473],[37.059191,47.35471],[37.058923,47.354828],[37.059649,47.355596]]]}},{"type":"Feature","properties":{"cadnum":"2324955103:08:001:0034"},"geometry":{"type":"Polygon","coordinates":[[[37.058923,47.354828],[37.059191,47.35471],[37.058654,47.354152],[37.058396,47.354271],[37.058923,47.354828]]]}},{"type":"Feature","properties":{"cadnum":"2324955103:08:001:0019"},"geometry":{"type":"Polygon","coordinates":[[[37.054956,47.357007],[37.055474,47.3568],[37.054653,47.355984],[37.054111,47.356201],[37.054956,47.357007]]]}},{"type":"Feature","properties":{"cadnum":"2324955103:08:001:0018"},"geometry":{"type":"Polygon","coordinates":[[[37.055385,47.357416],[37.055891,47.357214],[37.055474,47.3568],[37.054956,47.357007],[37.055385,47.357416]]]}},{"type":"Feature","properties":{"cadnum":"2324955103:08:001:0002"},"geometry":{"type":"Polygon","coordinates":[[[37.051477,47.3580259],[37.051516,47.358061],[37.051799,47.357929],[37.051341,47.357504],[37.051091,47.357616],[37.051119,47.357703],[37.051306,47.357871717877096],[37.051306,47.357872],[37.051432249999,47.3579856249991],[37.051477,47.358026],[37.051477,47.3580259]]]}},{"type":"Feature","properties":{"cadnum":"2324955103:08:001:0001"},"geometry":{"type":"Polygon","coordinates":[[[37.052301,47.358767],[37.052574,47.358646],[37.051799,47.357929],[37.051516,47.358061],[37.052301,47.358767]]]}},{"type":"Feature","properties":{"cadnum":"2324955103:08:001:0035"},"geometry":{"type":"Polygon","coordinates":[[[37.061833,47.353066],[37.062021,47.352986],[37.061974,47.352936],[37.061715,47.352941],[37.061833,47.353066]]]}},{"type":"Feature","properties":{"cadnum":"2324955103:08:000:0000"},"geometry":{"type":"Polygon","coordinates":[[[37.066258,47.427258],[37.066432,47.427042],[37.065782,47.426825],[37.065601,47.426861],[37.066258,47.427258]]]}}]}