{"type":"FeatureCollection","features":[{"type":"Feature","properties":{"cadnum":"2324984001:08:001:0099"},"geometry":{"type":"Polygon","coordinates":[[[36.831095,47.516986],[36.830061,47.517197],[36.830083,47.517259],[36.83008356617647,47.517259],[36.83016,47.517469],[36.830414,47.517417],[36.830706,47.517357],[36.83117,47.517261],[36.831155108303285,47.51720775090264],[36.831095,47.516986]]]}},{"type":"Feature","properties":{"cadnum":"2324984001:08:001:0100"},"geometry":{"type":"Polygon","coordinates":[[[36.831901,47.517112],[36.831819,47.516838],[36.831666,47.516869],[36.831095,47.516986],[36.831137556776554,47.517143],[36.831137,47.517143],[36.831155108303285,47.51720775090264],[36.831169,47.517259],[36.83116944067797,47.517259],[36.83117,47.517261],[36.83117983050845,47.517259],[36.831182,47.517259],[36.831751,47.517143],[36.831751,47.517142745341616],[36.831901,47.517112]]]}},{"type":"Feature","properties":{"cadnum":"2324984001:08:001:0003"},"geometry":{"type":"Polygon","coordinates":[[[36.826541,47.518557],[36.827146,47.518536],[36.827104,47.518318],[36.827093,47.518317],[36.827073,47.518302],[36.826463,47.51833],[36.826541,47.518557]]]}},{"type":"Feature","properties":{"cadnum":"2324984001:08:001:0090"},"geometry":{"type":"Polygon","coordinates":[[[36.830471,47.51913],[36.830482,47.519047],[36.830501,47.519048],[36.830518,47.519051],[36.830521,47.51903],[36.830504,47.519029],[36.830504,47.519027],[36.830484,47.519025],[36.83049,47.518952],[36.830325,47.518943],[36.830309,47.519121],[36.830471,47.51913]]]}},{"type":"Feature","properties":{"cadnum":"2324984001:08:001:0089"},"geometry":{"type":"Polygon","coordinates":[[[36.842634,47.518638],[36.842635,47.518629],[36.84265,47.518539],[36.842545,47.518532],[36.84254,47.518567],[36.842503,47.518564],[36.842489,47.518563],[36.84248,47.518626],[36.842634,47.518638]]]}}]}