{"type":"FeatureCollection","features":[{"type":"Feature","properties":{"cadnum":"2324980203:06:001:0101"},"geometry":{"type":"Polygon","coordinates":[[[37.018799,47.498584],[37.01879240983607,47.49859],[37.018791,47.49859],[37.018518,47.49884025],[37.018518,47.49884],[37.017881,47.499421],[37.01472415086782,47.502301],[37.014724,47.502301],[37.012957,47.503914],[37.013025,47.503976],[37.013025,47.50397558490566],[37.013063,47.50401],[37.013025,47.50405163636364],[37.013025,47.504051],[37.011129,47.506128],[37.01112908360982,47.506128],[37.009859,47.507519],[37.007532,47.506441633453385],[37.007532,47.506441],[37.006605,47.506012],[37.006604904958685,47.506012],[37.004768,47.50516],[37.003867,47.506128],[37.00386776056338,47.506128],[37.003711,47.506296],[37.006723,47.507665],[37.00736,47.50796578368356],[37.00736,47.507967],[37.010524,47.50946],[37.012854,47.5069306317473],[37.012854,47.506931],[37.0135923405876,47.506128],[37.013593,47.506128],[37.014848,47.504765],[37.014872,47.504738],[37.01716252318425,47.502417],[37.017163,47.502417],[37.017778,47.501794],[37.018347,47.50125345],[37.018347,47.501254],[37.02102890390391,47.498706],[37.021029,47.498706],[37.021523,47.498237],[37.019889,47.49759],[37.018799,47.498584]]]}},{"type":"Feature","properties":{"cadnum":"2324980203:06:001:0045"},"geometry":{"type":"Polygon","coordinates":[[[37.01290312775149,47.5108900792971],[37.013025,47.510759],[37.013025,47.51075879779412],[37.013126,47.51065],[37.012906,47.510571],[37.012762,47.510744],[37.011311,47.510232],[37.011082,47.510751],[37.012522,47.5113],[37.012854,47.510942918489064],[37.012854,47.510943],[37.01290312775149,47.5108900792971]]]}},{"type":"Feature","properties":{"cadnum":"2324980203:06:001:0010"},"geometry":{"type":"Polygon","coordinates":[[[37.013025,47.51346052351097],[37.01326,47.513213],[37.01295410958894,47.51309395890407],[37.0128,47.513033],[37.012282,47.513549],[37.012282791366914,47.513549],[37.011842,47.513989],[37.012127,47.514405],[37.012854,47.51364075946548],[37.012854,47.513641],[37.01290614705853,47.51358594117678],[37.013025,47.513461],[37.013025,47.51346052351097]]]}},{"type":"Feature","properties":{"cadnum":"2324980203:06:001:0059"},"geometry":{"type":"Polygon","coordinates":[[[37.01369,47.513406],[37.013548,47.513549],[37.01354899388005,47.513549],[37.013025,47.514077522222216],[37.013025,47.514077],[37.012524,47.514581],[37.012854,47.514699503740644],[37.012854,47.5147],[37.012925,47.514725],[37.014094,47.513594],[37.01385549859058,47.513483340844616],[37.01369,47.513406]]]}},{"type":"Feature","properties":{"cadnum":"2324980203:06:001:0003"},"geometry":{"type":"Polygon","coordinates":[[[37.011904,47.509473],[37.011688,47.509711],[37.01186628816978,47.50978698187102],[37.012765,47.510173],[37.012854,47.51008203964758],[37.012854,47.510083],[37.012992,47.509941],[37.01275260730595,47.509838],[37.012753,47.509838],[37.011904,47.509473]]]}},{"type":"Feature","properties":{"cadnum":"2324980203:06:001:0029"},"geometry":{"type":"Polygon","coordinates":[[[37.012144,47.50921],[37.011904,47.509473],[37.0124831808219,47.509722],[37.012483,47.509722],[37.012854,47.50988162475442],[37.012854,47.509882],[37.012992,47.509941],[37.013025,47.509955],[37.013025,47.509954799999996],[37.013047,47.509964],[37.013181831775384,47.509821514019016],[37.013287,47.509712],[37.013025,47.509597034642034],[37.013025,47.509597],[37.012144,47.50921]]]}},{"type":"Feature","properties":{"cadnum":"2324980203:06:001:0040"},"geometry":{"type":"Polygon","coordinates":[[[37.016177,47.509346],[37.015738,47.509156],[37.015278,47.509643],[37.015724,47.509826],[37.016177,47.509346]]]}},{"type":"Feature","properties":{"cadnum":"2324980203:06:001:0041"},"geometry":{"type":"Polygon","coordinates":[[[37.016378,47.509276],[37.016284,47.509393],[37.016177,47.509346],[37.01582215,47.509722],[37.01582,47.509722],[37.015724,47.509826],[37.017295,47.510471],[37.017775,47.510013],[37.017763,47.509915],[37.017671,47.509854],[37.017635242424255,47.509838],[37.017636,47.509838],[37.016378,47.509276]]]}},{"type":"Feature","properties":{"cadnum":"2324980203:06:001:0031"},"geometry":{"type":"Polygon","coordinates":[[[37.016036,47.511867],[37.016236,47.511658],[37.015241,47.511181],[37.015044,47.511392],[37.016036,47.511867]]]}},{"type":"Feature","properties":{"cadnum":"2324980203:06:001:0033"},"geometry":{"type":"Polygon","coordinates":[[[37.01525,47.513134],[37.015344,47.512959],[37.014342,47.512519],[37.014215,47.512678],[37.01525,47.513134]]]}},{"type":"Feature","properties":{"cadnum":"2324980203:06:001:0049"},"geometry":{"type":"Polygon","coordinates":[[[37.008299,47.509577],[37.007945,47.509365],[37.00753290274842,47.509722],[37.007532,47.509722],[37.00736,47.509872],[37.007733,47.510068],[37.008132,47.509722],[37.00813122222223,47.509722],[37.008299,47.509577]]]}},{"type":"Feature","properties":{"cadnum":"2324980203:06:001:0052"},"geometry":{"type":"Polygon","coordinates":[[[37.008691,47.50872],[37.008356,47.508571],[37.00741714754123,47.50941841803256],[37.00708,47.509722],[37.00736,47.509871],[37.00739787248322,47.509838],[37.007398,47.509838],[37.007399,47.509838],[37.007945,47.509365],[37.008691,47.50872]]]}},{"type":"Feature","properties":{"cadnum":"2324980203:06:001:0008"},"geometry":{"type":"Polygon","coordinates":[[[37.009915,47.511219],[37.010343,47.510832],[37.009886,47.510564],[37.009438,47.510967],[37.009915,47.511219]]]}},{"type":"Feature","properties":{"cadnum":"2324980203:06:001:0032"},"geometry":{"type":"Polygon","coordinates":[[[37.012762,47.510744],[37.012906,47.510571],[37.012524,47.510432],[37.011403,47.510024],[37.011311,47.510232],[37.012762,47.510744]]]}},{"type":"Feature","properties":{"cadnum":"2324980203:06:001:0066"},"geometry":{"type":"Polygon","coordinates":[[[37.01186628816978,47.50978698187102],[37.011715,47.509722],[37.011713811023604,47.509722],[37.011688,47.509711],[37.01167795275591,47.509722],[37.011676,47.509722],[37.011403,47.510024],[37.012524,47.510432],[37.012765,47.510173],[37.01198506651886,47.509838],[37.011986,47.509838],[37.01186628816978,47.50978698187102]]]}},{"type":"Feature","properties":{"cadnum":"2324980203:06:001:0009"},"geometry":{"type":"Polygon","coordinates":[[[37.010344,47.51083],[37.010361,47.510816],[37.011185,47.510068],[37.010676,47.509848],[37.009886,47.510563],[37.010344,47.51083]]]}},{"type":"Feature","properties":{"cadnum":"2324980203:06:001:0056"},"geometry":{"type":"Polygon","coordinates":[[[37.010869,47.511072],[37.011133,47.510477],[37.011314,47.510125],[37.011197,47.510074],[37.010356,47.510836],[37.010869,47.511072]]]}},{"type":"Feature","properties":{"cadnum":"2324980203:06:001:0012"},"geometry":{"type":"Polygon","coordinates":[[[37.025547,47.500926],[37.024441,47.500513],[37.023915,47.501071],[37.024012,47.50111],[37.024012,47.50110967721519],[37.025021,47.501512],[37.025547,47.500926]]]}},{"type":"Feature","properties":{"cadnum":"2324980203:06:001:0002"},"geometry":{"type":"Polygon","coordinates":[[[37.021064,47.502161],[37.021537,47.501688],[37.020176,47.501098],[37.019673,47.501553],[37.021064,47.502161]]]}},{"type":"Feature","properties":{"cadnum":"2324980203:06:001:0016"},"geometry":{"type":"Polygon","coordinates":[[[37.021961,47.501866],[37.022157,47.501662],[37.020368,47.500923],[37.020176,47.501098],[37.021961,47.501866]]]}},{"type":"Feature","properties":{"cadnum":"2324980203:06:001:0039"},"geometry":{"type":"Polygon","coordinates":[[[37.023298,47.500467],[37.023687,47.50006],[37.022076,47.499371],[37.021647,47.49976],[37.023298,47.500467]]]}},{"type":"Feature","properties":{"cadnum":"2324980203:06:001:0025"},"geometry":{"type":"Polygon","coordinates":[[[37.019673,47.501553],[37.019389,47.501812],[37.020794,47.502417],[37.02079467202572,47.502417],[37.021248,47.502612],[37.021497,47.502351],[37.021383,47.502301],[37.02138271428572,47.502301],[37.019673,47.501553]]]}},{"type":"Feature","properties":{"cadnum":"2324980203:06:001:0011"},"geometry":{"type":"Polygon","coordinates":[[[37.022157,47.501661],[37.022345,47.501465],[37.020557,47.500751],[37.020369,47.500922],[37.022157,47.501661]]]}},{"type":"Feature","properties":{"cadnum":"2324980203:06:001:0017"},"geometry":{"type":"Polygon","coordinates":[[[37.024012,47.50111],[37.023914,47.501071],[37.02384,47.501043],[37.02384,47.5010430754717],[37.023808,47.501031],[37.02367,47.501199],[37.023373,47.501074],[37.023279,47.501173],[37.02384,47.50141561527967],[37.02384,47.501416],[37.024743,47.501806],[37.025013,47.50151],[37.024012,47.50111014649682],[37.024012,47.50111]]]}},{"type":"Feature","properties":{"cadnum":"2324980203:00:000:0000"},"geometry":{"type":"Polygon","coordinates":[[[37.100479,47.455649],[37.100695,47.455542],[37.100585,47.455442],[37.100463,47.455438],[37.100102,47.454983],[37.099864,47.4551],[37.100358,47.455553],[37.100369,47.455549],[37.100479,47.455649]]]}},{"type":"Feature","properties":{"cadnum":"2324980203:06:001:0013"},"geometry":{"type":"Polygon","coordinates":[[[37.024395,47.500497],[37.02508,47.49977],[37.024834,47.499673],[37.024447,47.500057],[37.024364,47.500024],[37.024042,47.500366],[37.024395,47.500497]]]}},{"type":"Feature","properties":{"cadnum":"2324980203:06:001:0014"},"geometry":{"type":"Polygon","coordinates":[[[37.025547,47.500926],[37.026101,47.500319],[37.026105,47.500245],[37.026077,47.500188],[37.025996,47.500132],[37.02508,47.49977],[37.024395,47.500497],[37.024441,47.500513],[37.025547,47.500926]]]}},{"type":"Feature","properties":{"cadnum":"2324980203:06:001:0074"},"geometry":{"type":"Polygon","coordinates":[[[37.014608,47.50958],[37.01483,47.509347],[37.013939,47.508932],[37.013723,47.509165],[37.014608,47.50958]]]}},{"type":"Feature","properties":{"cadnum":"2324980203:06:001:0073"},"geometry":{"type":"Polygon","coordinates":[[[37.013025,47.5088380886076],[37.013723,47.509165],[37.013939,47.508932],[37.012858,47.508428],[37.012854,47.508432],[37.012854,47.508432396226425],[37.012646,47.508661],[37.013025,47.508839],[37.013025,47.5088380886076]]]}},{"type":"Feature","properties":{"cadnum":"2324980203:06:001:0062"},"geometry":{"type":"Polygon","coordinates":[[[37.018347,47.5093375483871],[37.018347,47.509338],[37.018451571427505,47.509257714286534],[37.018518,47.509207],[37.018518,47.50920671311475],[37.018713,47.509057],[37.018347,47.508886],[37.018347,47.50888649675324],[37.017286,47.508387],[37.016949,47.508744],[37.018332,47.509349],[37.018347,47.5093375483871]]]}},{"type":"Feature","properties":{"cadnum":"2324980203:06:001:0004"},"geometry":{"type":"Polygon","coordinates":[[[37.016292,47.507796],[37.016626,47.507448],[37.014558,47.506559],[37.014208,47.506944],[37.016292,47.507796]]]}},{"type":"Feature","properties":{"cadnum":"2324980203:06:001:0015"},"geometry":{"type":"Polygon","coordinates":[[[37.018518,47.507211897712835],[37.019921,47.50781],[37.020062,47.507696],[37.01996,47.507597],[37.01851182183319,47.50698738253238],[37.017994,47.506768],[37.017843,47.506929],[37.018321,47.507128],[37.018518,47.507212],[37.018518,47.507211897712835]]]}},{"type":"Feature","properties":{"cadnum":"2324980203:06:001:0058"},"geometry":{"type":"Polygon","coordinates":[[[37.018518,47.50811548132337],[37.019284,47.508476],[37.019921,47.50781],[37.018347,47.507139],[37.018347,47.507139086294416],[37.018321,47.507128],[37.018194,47.507276],[37.018166,47.507265],[37.017718,47.507738],[37.018518,47.508116],[37.018518,47.50811548132337]]]}},{"type":"Feature","properties":{"cadnum":"2324980203:06:001:0057"},"geometry":{"type":"Polygon","coordinates":[[[37.017718,47.507738],[37.018166,47.507265],[37.017706,47.507073],[37.017275,47.50753],[37.017718,47.507738]]]}},{"type":"Feature","properties":{"cadnum":"2324980203:06:001:0042"},"geometry":{"type":"Polygon","coordinates":[[[37.018518,47.50855348611111],[37.018995,47.508778],[37.019284,47.508476],[37.018347,47.508035],[37.018347,47.508035202500004],[37.017718,47.507738],[37.017275,47.50753],[37.016988,47.507833],[37.018518,47.508554],[37.018518,47.50855348611111]]]}},{"type":"Feature","properties":{"cadnum":"2324980203:06:001:0048"},"geometry":{"type":"Polygon","coordinates":[[[37.00741714754123,47.50941841803256],[37.007532,47.509315],[37.007532,47.50931475100402],[37.008356,47.508571],[37.008055,47.508406],[37.00736,47.50905],[37.00736,47.50905038043478],[37.006796,47.509573],[37.00708,47.509722],[37.00736,47.509469876106195],[37.00736,47.50947],[37.00741714754123,47.50941841803256]]]}},{"type":"Feature","properties":{"cadnum":"2324980203:06:001:0075"},"geometry":{"type":"Polygon","coordinates":[[[37.008055,47.508406],[37.007653,47.508163],[37.00736,47.508435],[37.00736,47.50843566119274],[37.006375,47.50935],[37.006796,47.509573],[37.007532,47.508891],[37.007532,47.50889062158274],[37.008055,47.508406]]]}},{"type":"Feature","properties":{"cadnum":"2324980203:06:001:0068"},"geometry":{"type":"Polygon","coordinates":[[[37.004355,47.507791],[37.004669,47.507463],[37.00507,47.507042],[37.004653,47.506891],[37.004485,47.506889],[37.004291,47.506923],[37.003756,47.507474],[37.004355,47.507791]]]}},{"type":"Feature","properties":{"cadnum":"2324980203:06:001:0077"},"geometry":{"type":"Polygon","coordinates":[[[37.004343,47.50828],[37.004749,47.507856],[37.004967,47.507628],[37.004669,47.507463],[37.004355,47.507791],[37.00404,47.508121],[37.004343,47.50828]]]}},{"type":"Feature","properties":{"cadnum":"2324980203:06:001:0078"},"geometry":{"type":"Polygon","coordinates":[[[37.004967,47.507628],[37.005389,47.507187],[37.00507,47.507042],[37.004669,47.507463],[37.004967,47.507628]]]}},{"type":"Feature","properties":{"cadnum":"2324980203:06:001:0070"},"geometry":{"type":"Polygon","coordinates":[[[37.005689,47.508354],[37.006435,47.507584],[37.005907,47.507396],[37.005216,47.508109],[37.005689,47.508354]]]}},{"type":"Feature","properties":{"cadnum":"2324980203:06:001:0076"},"geometry":{"type":"Polygon","coordinates":[[[37.01374,47.515106],[37.015117,47.514058],[37.014538,47.513801],[37.013367,47.514933],[37.01374,47.515106]]]}},{"type":"Feature","properties":{"cadnum":"2324980203:06:001:0050"},"geometry":{"type":"Polygon","coordinates":[[[37.008299,47.509577],[37.009052,47.508926],[37.008689,47.50872],[37.007945,47.509365],[37.008299,47.509577]]]}},{"type":"Feature","properties":{"cadnum":"2324980203:06:001:0060"},"geometry":{"type":"Polygon","coordinates":[[[37.018518,47.50473005504587],[37.019001,47.504959],[37.019232,47.504719],[37.018347,47.504309],[37.018347,47.50430967281106],[37.017216,47.503785],[37.016979,47.504001],[37.018518,47.504731],[37.018518,47.50473005504587]]]}},{"type":"Feature","properties":{"cadnum":"2324980203:06:001:0024"},"geometry":{"type":"Polygon","coordinates":[[[37.018518,47.503486989847715],[37.019135,47.503772],[37.019421,47.503475],[37.018518,47.50305713128492],[37.018518,47.503057],[37.018187,47.502903],[37.017873,47.503189],[37.018518,47.503488],[37.018518,47.503486989847715]]]}},{"type":"Feature","properties":{"cadnum":"2324980203:06:001:0021"},"geometry":{"type":"Polygon","coordinates":[[[37.017873,47.50319],[37.017745,47.503307],[37.018347,47.50358580465718],[37.018347,47.503586],[37.019712,47.504217],[37.019829,47.504095],[37.019135,47.503774],[37.018347,47.503409],[37.018347,47.503409730232555],[37.017873,47.50319]]]}},{"type":"Feature","properties":{"cadnum":"2324980203:06:001:0034"},"geometry":{"type":"Polygon","coordinates":[[[37.018347,47.503943627118645],[37.018347,47.503944],[37.018454,47.503833],[37.0176,47.503437],[37.017407,47.503613],[37.018277,47.504016],[37.018347,47.503943627118645]]]}},{"type":"Feature","properties":{"cadnum":"2324980203:06:001:0001"},"geometry":{"type":"Polygon","coordinates":[[[37.021866,47.50578],[37.022087,47.505549],[37.019983,47.504663],[37.019732,47.504928],[37.021866,47.50578]]]}},{"type":"Feature","properties":{"cadnum":"2324980203:06:001:0023"},"geometry":{"type":"Polygon","coordinates":[[[37.022687,47.504923],[37.022809,47.504795],[37.022237,47.504554],[37.022133,47.504695],[37.022687,47.504923]]]}},{"type":"Feature","properties":{"cadnum":"2324980203:06:001:0064"},"geometry":{"type":"Polygon","coordinates":[[[37.022809,47.504795],[37.023037,47.504557],[37.021878,47.504085],[37.021663,47.504312],[37.022237,47.504554],[37.022809,47.504795]]]}},{"type":"Feature","properties":{"cadnum":"2324980203:06:001:0020"},"geometry":{"type":"Polygon","coordinates":[[[37.022551,47.505064],[37.022687,47.504923],[37.022133,47.504695],[37.022027,47.504844],[37.022551,47.505064]]]}},{"type":"Feature","properties":{"cadnum":"2324980203:06:001:0063"},"geometry":{"type":"Polygon","coordinates":[[[37.021866,47.50578],[37.019732,47.504928],[37.019359,47.505323],[37.0211581031056,47.506012],[37.021158,47.506012],[37.021513,47.506148],[37.021561043478634,47.50609773913004],[37.021866,47.50578]]]}},{"type":"Feature","properties":{"cadnum":"2324980203:06:001:0036"},"geometry":{"type":"Polygon","coordinates":[[[37.022346,47.505278],[37.022551,47.505064],[37.022027,47.504844],[37.021671,47.504695],[37.021469,47.504908],[37.022346,47.505278]]]}},{"type":"Feature","properties":{"cadnum":"2324980203:06:001:0022"},"geometry":{"type":"Polygon","coordinates":[[[37.019829,47.504095],[37.020114,47.503797],[37.019421,47.503476],[37.019135,47.503774],[37.019829,47.504095]]]}}]}