{"type":"FeatureCollection","features":[{"type":"Feature","properties":{"cadnum":"2324955101:07:002:0037"},"geometry":{"type":"Polygon","coordinates":[[[37.08993,47.37194],[37.089871,47.371908],[37.089677,47.372061],[37.089758,47.372104221343875],[37.089758,47.372105],[37.090262,47.372373],[37.09026383408072,47.372373],[37.090882,47.372702],[37.091061,47.372559],[37.090508,47.372256],[37.090507129032254,47.372256],[37.08993,47.37194027647059],[37.08993,47.37194]]]}},{"type":"Feature","properties":{"cadnum":"2324955101:07:002:0008"},"geometry":{"type":"Polygon","coordinates":[[[37.089268,47.372094],[37.089081213114746,47.372256],[37.089079,47.372256],[37.089057,47.372277],[37.08922,47.372373],[37.0892223568282,47.372373],[37.089448,47.372504],[37.08972,47.372334],[37.089574,47.372256],[37.089573099999996,47.372256],[37.089268,47.372094]]]}},{"type":"Feature","properties":{"cadnum":"2324955101:07:002:0038"},"geometry":{"type":"Polygon","coordinates":[[[37.089758,47.3719971185567],[37.089758,47.371998],[37.089871,47.371908],[37.089213,47.371549],[37.089028,47.371715],[37.089677,47.372061],[37.089758,47.3719971185567]]]}},{"type":"Feature","properties":{"cadnum":"2324955101:07:002:0007"},"geometry":{"type":"Polygon","coordinates":[[[37.08993,47.372445],[37.08979225806491,47.3723721935486],[37.089758,47.372354],[37.089758,47.37235408571429],[37.08972,47.372334],[37.089448,47.372504],[37.089758,47.37266929045643],[37.089758,47.37267],[37.09041,47.373016],[37.090643,47.372824],[37.08993,47.37244534463277],[37.08993,47.372445]]]}},{"type":"Feature","properties":{"cadnum":"2324955101:07:001:0003"},"geometry":{"type":"Polygon","coordinates":[[[37.09901,47.371555],[37.098286,47.371062],[37.097326,47.371757],[37.097284,47.371848],[37.09678507428572,47.372256],[37.096784,47.372256],[37.09628,47.372669],[37.096155,47.372682],[37.095809,47.372538],[37.095251,47.372967],[37.095251,47.372967090794454],[37.09463,47.373444],[37.094134,47.37379],[37.094965,47.373993],[37.095067,47.373671],[37.095251,47.37377023595506],[37.095251,47.373771],[37.095711,47.374018],[37.096791,47.372873],[37.097212,47.37306],[37.098032298507455,47.372373],[37.098033,47.372373],[37.09901,47.371555]]]}},{"type":"Feature","properties":{"cadnum":"2324955101:07:002:0015"},"geometry":{"type":"Polygon","coordinates":[[[37.097339,47.36761],[37.097656,47.367361],[37.096918,47.366993],[37.096606,47.367237],[37.097339,47.36761]]]}},{"type":"Feature","properties":{"cadnum":"2324955101:07:001:0019"},"geometry":{"type":"Polygon","coordinates":[[[37.100744,47.366863421052635],[37.100744,47.366864],[37.100837,47.36679],[37.099812,47.366254],[37.099598,47.366423],[37.100609,47.36697],[37.100744,47.366863421052635]]]}},{"type":"Feature","properties":{"cadnum":"2324955101:07:001:0020"},"geometry":{"type":"Polygon","coordinates":[[[37.100609,47.36697],[37.100744,47.367042996742676],[37.100744,47.367044],[37.101825,47.367628],[37.102067,47.367433],[37.100837,47.36679],[37.100609,47.36697]]]}},{"type":"Feature","properties":{"cadnum":"2324955101:07:002:0019"},"geometry":{"type":"Polygon","coordinates":[[[37.099724,47.365737],[37.099933,47.365573],[37.098898,47.365006],[37.098675,47.365181],[37.099724,47.365737]]]}},{"type":"Feature","properties":{"cadnum":"2324955101:07:002:0020"},"geometry":{"type":"Polygon","coordinates":[[[37.097806,47.36441],[37.097594,47.364607],[37.09798756307691,47.364816],[37.097987,47.364816],[37.098675,47.365181],[37.098898,47.365006],[37.098661679999296,47.36487771199962],[37.097806,47.36441]]]}},{"type":"Feature","properties":{"cadnum":"2324955101:07:002:0016"},"geometry":{"type":"Polygon","coordinates":[[[37.096606,47.367237],[37.096918,47.366993],[37.095598,47.366333],[37.0954,47.366625],[37.096606,47.367237]]]}},{"type":"Feature","properties":{"cadnum":"2324955101:07:001:0009"},"geometry":{"type":"Polygon","coordinates":[[[37.095423,47.370777526570045],[37.095665,47.370926],[37.095883,47.370755],[37.095251,47.370378],[37.095251,47.37037823076923],[37.094864,47.370147],[37.094658,47.370308],[37.095423,47.370778],[37.095423,47.370777526570045]]]}},{"type":"Feature","properties":{"cadnum":"2324955101:07:002:0010"},"geometry":{"type":"Polygon","coordinates":[[[37.104058,47.360944],[37.102902,47.360705],[37.102742,47.360877],[37.10318974850299,47.361095],[37.103189,47.361095],[37.103583,47.361287],[37.103475,47.361414],[37.104078,47.361687],[37.104591,47.361203],[37.104058,47.360944]]]}},{"type":"Feature","properties":{"cadnum":"2324955101:07:001:0008"},"geometry":{"type":"Polygon","coordinates":[[[37.096551,47.368991],[37.096596,47.368983],[37.096898,47.3689],[37.096941,47.368871],[37.096611,47.368683],[37.096357,47.368881],[37.096551,47.368991]]]}},{"type":"Feature","properties":{"cadnum":"2324955101:07:001:0010"},"geometry":{"type":"Polygon","coordinates":[[[37.096738,47.371583],[37.096953,47.371395],[37.095883,47.370755],[37.095665,47.370926],[37.096738,47.371583]]]}},{"type":"Feature","properties":{"cadnum":"2324955101:07:001:0006"},"geometry":{"type":"Polygon","coordinates":[[[37.106237,47.362972777777784],[37.106237,47.362973],[37.10632979999776,47.362900600001744],[37.106409,47.362839],[37.106409,47.362838810344826],[37.106469,47.362792],[37.106237,47.362668],[37.106237,47.362668187175046],[37.105832,47.362452],[37.1058,47.362455],[37.10563,47.362318],[37.105295,47.362487],[37.106211,47.362993],[37.106237,47.362972777777784]]]}},{"type":"Feature","properties":{"cadnum":"2324955101:00:007:0008"},"geometry":{"type":"Polygon","coordinates":[[[37.066258,47.427258],[37.066432,47.427042],[37.065782,47.426825],[37.065601,47.426861],[37.066258,47.427258]]]}},{"type":"Feature","properties":{"cadnum":"2324955101:01:002:0000"},"geometry":{"type":"Polygon","coordinates":[[[37.066258,47.427258],[37.066432,47.427042],[37.065782,47.426825],[37.065601,47.426861],[37.066258,47.427258]]]}},{"type":"Feature","properties":{"cadnum":"2324955101:07:002:0021"},"geometry":{"type":"Polygon","coordinates":[[[37.089419,47.373947],[37.089594,47.373758],[37.088587,47.373455],[37.08831,47.373715],[37.089419,47.373947]]]}},{"type":"Feature","properties":{"cadnum":"2324955101:07:002:0022"},"geometry":{"type":"Polygon","coordinates":[[[37.08831,47.373715],[37.088587,47.373455],[37.088013,47.373284],[37.087516,47.37355],[37.08831,47.373715]]]}},{"type":"Feature","properties":{"cadnum":"2324955101:07:002:0009"},"geometry":{"type":"Polygon","coordinates":[[[37.104495,47.361876],[37.105002,47.361404],[37.104591,47.361203],[37.104078,47.361687],[37.104495,47.361876]]]}},{"type":"Feature","properties":{"cadnum":"2324955101:07:001:0002"},"geometry":{"type":"Polygon","coordinates":[[[37.102036,47.362389],[37.102215,47.362226],[37.101021,47.36167],[37.100862,47.361831],[37.102036,47.362389]]]}},{"type":"Feature","properties":{"cadnum":"2324955101:07:001:0001"},"geometry":{"type":"Polygon","coordinates":[[[37.103196,47.362942],[37.103402,47.36278],[37.102215,47.362226],[37.102036,47.362389],[37.103196,47.362942]]]}}]}