{"type":"FeatureCollection","features":[{"type":"Feature","properties":{"cadnum":"2324955000:01:002:0009"},"geometry":{"type":"Polygon","coordinates":[[[37.045984,47.40947636046511],[37.046071,47.409561],[37.04607169027611,47.409561],[37.047671,47.411111],[37.04916,47.410261],[37.048318,47.409445],[37.0483173678161,47.409445],[37.045984,47.407182476172174],[37.045984,47.407182],[37.045835,47.407038],[37.044262,47.407807],[37.045984,47.409477],[37.045984,47.40947636046511]]]}},{"type":"Feature","properties":{"cadnum":"2324955000:03:002:0018"},"geometry":{"type":"Polygon","coordinates":[[[37.118845,47.38438],[37.117708,47.385059],[37.119390014598544,47.387135],[37.11939,47.387135],[37.119413430461144,47.387163900659246],[37.119484,47.387251],[37.11948404399634,47.387251],[37.121159,47.389317],[37.121741,47.390035],[37.122717,47.389446831578944],[37.122717,47.389447],[37.122881,47.389348],[37.12117629914144,47.387251],[37.121177,47.387251],[37.118845,47.38438]]]}},{"type":"Feature","properties":{"cadnum":"2324955000:02:001:0028"},"geometry":{"type":"Polygon","coordinates":[[[37.102178,47.423688],[37.101454,47.422961],[37.100916,47.423367152112675],[37.100916,47.423367],[37.099509,47.424429],[37.099509462147445,47.424429],[37.096988,47.426334],[37.098045,47.427395],[37.100744,47.42535688366423],[37.100744,47.425357],[37.102126,47.424313],[37.10212462162163,47.424313],[37.10251,47.424022],[37.102178,47.423688]]]}},{"type":"Feature","properties":{"cadnum":"2324955000:02:001:0046"},"geometry":{"type":"Polygon","coordinates":[[[37.100337,47.412616],[37.099548,47.411774],[37.096312,47.413278],[37.09631391325696,47.413278],[37.09529256831392,47.41375364158551],[37.093427,47.414621],[37.093657,47.414856],[37.094239,47.415452],[37.095251,47.41498189864865],[37.095251,47.414982],[37.095373537864035,47.414924976498966],[37.095423,47.414902],[37.095423,47.41490195908975],[37.099162,47.413162],[37.09916087311178,47.413162],[37.100337,47.412616]]]}},{"type":"Feature","properties":{"cadnum":"2324955000:01:002:0022"},"geometry":{"type":"Polygon","coordinates":[[[37.055305,47.421847],[37.051306,47.424219],[37.051306,47.42421929714286],[37.050952,47.424429],[37.05095244808742,47.424429],[37.04868,47.425777],[37.049651,47.426575],[37.051306,47.42559251369113],[37.051306,47.425593],[37.053461,47.424313],[37.05346056702189,47.424313],[37.056271,47.422646],[37.055305,47.421847]]]}},{"type":"Feature","properties":{"cadnum":"2324955000:03:004:0035"},"geometry":{"type":"Polygon","coordinates":[[[37.08455,47.359827],[37.084436,47.35998180000001],[37.084436,47.359981],[37.083527,47.361211],[37.0835272808933,47.361211],[37.082124,47.36311],[37.083959,47.363673],[37.084265,47.36330605660377],[37.084265,47.363307],[37.085303,47.36206],[37.08600947357513,47.361211],[37.08601,47.361211],[37.08662,47.36048],[37.08455,47.359827]]]}},{"type":"Feature","properties":{"cadnum":"2324955000:03:002:0027"},"geometry":{"type":"Polygon","coordinates":[[[37.12648711808118,47.387135],[37.126487,47.387135],[37.126303,47.387247],[37.126306,47.387251],[37.12630626501767,47.387251],[37.12821,47.389583281385285],[37.12821,47.389584],[37.12924634199133,47.390854],[37.129245,47.390854],[37.131266,47.393329],[37.132563,47.393293],[37.130668597785984,47.39097],[37.13067,47.39097],[37.128345164834414,47.38811876922985],[37.127544,47.387135],[37.127542882783885,47.387135],[37.127194,47.386705],[37.12648711808118,47.387135]]]}},{"type":"Feature","properties":{"cadnum":"2324955000:03:002:0025"},"geometry":{"type":"Polygon","coordinates":[[[37.125335,47.387833],[37.124259,47.388486],[37.12619134138486,47.390854],[37.12619,47.390854],[37.12821,47.3933270750837],[37.12821,47.393328],[37.128281,47.393414],[37.129853,47.39337],[37.12821641796808,47.39136486328043],[37.1278,47.390854],[37.12779937328657,47.390854],[37.125335,47.387833]]]}},{"type":"Feature","properties":{"cadnum":"2324955000:03:002:0017"},"geometry":{"type":"Polygon","coordinates":[[[37.119876,47.377717],[37.117803,47.377516],[37.119604323465396,47.379696],[37.119604,47.379696],[37.121897,47.38247],[37.122889,47.381869],[37.122889,47.38186839423077],[37.123133,47.38172],[37.12285104444379,47.38137433333254],[37.121486,47.379696],[37.12148488167939,47.379696],[37.119876,47.377717]]]}},{"type":"Feature","properties":{"cadnum":"2324955000:06:002:0017"},"geometry":{"type":"Polygon","coordinates":[[[37.070462,47.394628],[37.070784,47.394376],[37.070714,47.394328],[37.070439,47.394091],[37.07019,47.394001],[37.069966,47.393974],[37.069912,47.394183],[37.069922,47.394204],[37.069884,47.394211],[37.069943,47.394338],[37.069981,47.394331],[37.06999,47.39435],[37.070462,47.394628]]]}},{"type":"Feature","properties":{"cadnum":"2324955000:03:003:0016"},"geometry":{"type":"Polygon","coordinates":[[[37.106409,47.375484],[37.106409,47.375483352534566],[37.107558,47.372805],[37.106409,47.372694535957606],[37.106409,47.372694],[37.105378,47.372594],[37.104933,47.37347],[37.10389,47.375519],[37.106237,47.37583742223161],[37.106237,47.375838],[37.106256,47.37584],[37.106409,47.375484]]]}},{"type":"Feature","properties":{"cadnum":"2324955000:03:004:0007"},"geometry":{"type":"Polygon","coordinates":[[[37.077998,47.366124],[37.076729,47.365968],[37.074831,47.368652],[37.07483300863558,47.368652],[37.073278,47.370852],[37.073278,47.37085303376623],[37.073065,47.371154],[37.073278,47.371189961038965],[37.073278,47.37119],[37.074327,47.371367],[37.076226828682444,47.368652],[37.076228,47.368652],[37.077998,47.366124]]]}},{"type":"Feature","properties":{"cadnum":"2324955000:03:004:0006"},"geometry":{"type":"Polygon","coordinates":[[[37.076729,47.365968],[37.075446,47.365797],[37.07351095166374,47.368536],[37.07351,47.368536],[37.073278,47.368866],[37.073278,47.3688664939759],[37.07179,47.370973],[37.073065,47.371154],[37.07345,47.37061],[37.07345,47.37060865729994],[37.074915,47.368536],[37.07491302980626,47.368536],[37.076729,47.365968]]]}},{"type":"Feature","properties":{"cadnum":"2324955000:02:002:0056"},"geometry":{"type":"Polygon","coordinates":[[[37.101277,47.394662],[37.101301,47.394689],[37.10130161361816,47.394689],[37.10458525260348,47.398291],[37.104585,47.398291],[37.10468483086547,47.398400232744926],[37.104691,47.398407],[37.10469101564945,47.398407],[37.105169,47.39893],[37.106409,47.398847],[37.106409,47.3988461027668],[37.106743,47.398823],[37.10652,47.398562],[37.106271,47.398291],[37.10627,47.398291],[37.10626968335942,47.398291],[37.10293731664058,47.394689],[37.102938,47.394689],[37.102828,47.39457],[37.101277,47.394662]]]}},{"type":"Feature","properties":{"cadnum":"2324955000:06:006:0007"},"geometry":{"type":"Polygon","coordinates":[[[37.065067,47.375867],[37.065079,47.37582],[37.065275,47.375591],[37.065477,47.375645],[37.065558,47.375667],[37.065618,47.375682],[37.065696,47.375703],[37.065733,47.375713],[37.065708,47.375756],[37.065751,47.375768],[37.065736,47.375794],[37.06577,47.375804],[37.065787,47.375777],[37.065827,47.375787],[37.065858,47.37574],[37.065924,47.375639],[37.066063,47.375457],[37.066113,47.375358],[37.065916,47.375313],[37.065959,47.375224],[37.06508,47.375],[37.064846,47.374914],[37.06488,47.374835],[37.064768,47.374807],[37.064718,47.374794],[37.064665,47.374923],[37.064783,47.374992],[37.064719,47.375363],[37.064777,47.375364],[37.064827,47.375366],[37.064824,47.375387],[37.065041,47.375482],[37.065053,47.375487],[37.065029,47.375508],[37.065017,47.375519],[37.064969,47.37562],[37.06491,47.375741],[37.064883,47.375778],[37.06475,47.375737],[37.064682,47.375716],[37.064628,47.375795],[37.064624,47.375796],[37.064587,47.37591],[37.06454004273504,47.375977],[37.06454,47.375977],[37.064505,47.376027],[37.064541,47.376036],[37.064627,47.376047],[37.064665,47.376058],[37.064788,47.376093],[37.064789999999995,47.376093],[37.06489,47.376121],[37.064929,47.37605],[37.065067,47.375867]]]}},{"type":"Feature","properties":{"cadnum":"2324955000:03:005:0027"},"geometry":{"type":"Polygon","coordinates":[[[37.11658483845753,47.350047],[37.114901628452316,47.353652],[37.114901,47.353652],[37.114322,47.354895],[37.115349,47.355135],[37.11598548415374,47.353769],[37.115986,47.353769],[37.117224,47.35111639389638],[37.117224,47.351118],[37.11772205560236,47.350047],[37.117723,47.350047],[37.118368,47.348666],[37.11734,47.348429],[37.116584,47.350047],[37.11658483845753,47.350047]]]}},{"type":"Feature","properties":{"cadnum":"2324955000:03:004:0051"},"geometry":{"type":"Polygon","coordinates":[[[37.09109123529412,47.361095],[37.091091,47.361095],[37.09105620717738,47.361136787928736],[37.090994,47.361211],[37.09099441786383,47.361211],[37.089758,47.362696],[37.089758,47.362697313946214],[37.088331,47.364409],[37.089589,47.364589],[37.08993,47.36418],[37.08993,47.364179619314996],[37.091539,47.362249],[37.090595,47.36304],[37.089758,47.362935],[37.089758,47.36293557875458],[37.089657,47.362923],[37.089758,47.36289266300366],[37.089758,47.362893],[37.09067,47.362618],[37.092031,47.361376],[37.091511,47.361095],[37.091510485294116,47.361095],[37.091222,47.360939],[37.09109123529412,47.361095]]]}},{"type":"Feature","properties":{"cadnum":"2324955000:06:003:0004"},"geometry":{"type":"Polygon","coordinates":[[[37.070526,47.389234],[37.070636,47.389036],[37.070748,47.388932],[37.071023,47.38875],[37.070691,47.388823],[37.07048,47.388718],[37.070142,47.389046],[37.070526,47.389234]]]}},{"type":"Feature","properties":{"cadnum":"2324955000:06:003:0008"},"geometry":{"type":"Polygon","coordinates":[[[37.079844,47.391955],[37.079938,47.391812],[37.079606,47.3917],[37.079476,47.391833],[37.079844,47.391955]]]}},{"type":"Feature","properties":{"cadnum":"2324955000:06:003:0007"},"geometry":{"type":"Polygon","coordinates":[[[37.079596,47.392324],[37.079669,47.392243],[37.079844,47.391955],[37.079476,47.391833],[37.079383,47.391936],[37.079201,47.392199],[37.079596,47.392324]]]}},{"type":"Feature","properties":{"cadnum":"2324955000:03:004:0050"},"geometry":{"type":"Polygon","coordinates":[[[37.089589,47.364589],[37.088331,47.364409],[37.087894,47.364932],[37.08789530050933,47.364932],[37.086028,47.367172],[37.087286,47.367352],[37.0894,47.364816],[37.08939972303207,47.364816],[37.089589,47.364589]]]}},{"type":"Feature","properties":{"cadnum":"2324955000:06:007:0001"},"geometry":{"type":"Polygon","coordinates":[[[37.065867,47.425285],[37.066042,47.425068],[37.065391,47.424852],[37.065216,47.425068],[37.065867,47.425285]]]}},{"type":"Feature","properties":{"cadnum":"2324955000:00:002:0103"},"geometry":{"type":"Polygon","coordinates":[[[37.065857,47.424924],[37.066031,47.424708],[37.065381,47.424492],[37.065205,47.424708],[37.065857,47.424924]]]}},{"type":"Feature","properties":{"cadnum":"2324955000:01:002:0000"},"geometry":{"type":"Polygon","coordinates":[[[37.065857,47.424924],[37.066031,47.424708],[37.065381,47.424492],[37.065205,47.424708],[37.065857,47.424924]]]}},{"type":"Feature","properties":{"cadnum":"2324955000:06:006:0009"},"geometry":{"type":"Polygon","coordinates":[[[37.065867,47.425285],[37.066042,47.425068],[37.065391,47.424852],[37.065216,47.425068],[37.065867,47.425285]]]}},{"type":"Feature","properties":{"cadnum":"2324955000:06:007:0002"},"geometry":{"type":"Polygon","coordinates":[[[37.065867,47.425285],[37.066042,47.425068],[37.065391,47.424852],[37.065216,47.425068],[37.065867,47.425285]]]}},{"type":"Feature","properties":{"cadnum":"2324955000:00:000:0099"},"geometry":{"type":"Polygon","coordinates":[[[37.065857,47.424924],[37.066031,47.424708],[37.065381,47.424492],[37.065205,47.424708],[37.065857,47.424924]]]}},{"type":"Feature","properties":{"cadnum":"2324955000:00:000:0046"},"geometry":{"type":"Polygon","coordinates":[[[37.065857,47.424924],[37.066031,47.424708],[37.065381,47.424492],[37.065205,47.424708],[37.065857,47.424924]]]}}]}