{"type":"FeatureCollection","features":[{"type":"Feature","properties":{"cadnum":"2324981803:05:001:0144"},"geometry":{"type":"Polygon","coordinates":[[[36.953137,47.492066],[36.953032,47.49196],[36.9526,47.492157181818186],[36.9526,47.492157],[36.952504,47.492201],[36.9526,47.492299],[36.9526,47.49229699999999],[36.952609,47.492306],[36.953137,47.492066]]]}},{"type":"Feature","properties":{"cadnum":"2324981803:06:002:0014"},"geometry":{"type":"Polygon","coordinates":[[[36.914362,47.539845],[36.914075,47.539721],[36.913385,47.540465],[36.913672,47.540588],[36.913977,47.5402592920168],[36.913977,47.54026],[36.914362,47.539845]]]}},{"type":"Feature","properties":{"cadnum":"2324981803:06:001:0056"},"geometry":{"type":"Polygon","coordinates":[[[36.912999,47.541526],[36.913543,47.54096],[36.913167,47.540803],[36.912622,47.541368],[36.912999,47.541526]]]}},{"type":"Feature","properties":{"cadnum":"2324981803:06:002:0051"},"geometry":{"type":"Polygon","coordinates":[[[36.914509,47.538825],[36.914134,47.538643],[36.913309,47.539513],[36.91331052838428,47.539513],[36.913203,47.539627],[36.913594,47.539792],[36.91388,47.53949],[36.913967,47.539398],[36.91396681690141,47.539398],[36.913977,47.53938720895522],[36.913977,47.539388],[36.914509,47.538825]]]}},{"type":"Feature","properties":{"cadnum":"2324981803:06:001:0024"},"geometry":{"type":"Polygon","coordinates":[[[36.908942,47.539038],[36.908655,47.539336304157544],[36.908655,47.539336],[36.90859510169492,47.539398],[36.908595,47.539398],[36.90856292307555,47.53943130769373],[36.908484,47.539513],[36.90848424942263,47.539513],[36.908178,47.539831],[36.908058,47.539956],[36.908289,47.540053],[36.908471,47.539865],[36.908484,47.53985157608695],[36.908484,47.539853],[36.90864993333276,47.53968023188466],[36.908655,47.539675],[36.908655,47.539674956521736],[36.908921,47.539398],[36.90892004497355,47.539398],[36.909174,47.539135],[36.908942,47.539038]]]}},{"type":"Feature","properties":{"cadnum":"2324981803:06:001:0074"},"geometry":{"type":"Polygon","coordinates":[[[36.909847,47.541951],[36.910891,47.540869],[36.910597,47.540746],[36.910497,47.540851],[36.909554,47.541828],[36.909847,47.541951]]]}},{"type":"Feature","properties":{"cadnum":"2324981803:06:001:0055"},"geometry":{"type":"Polygon","coordinates":[[[36.911801,47.542768],[36.912999,47.541526],[36.912622,47.541368],[36.912442,47.541555],[36.911425,47.542611],[36.911801,47.542768]]]}},{"type":"Feature","properties":{"cadnum":"2324981803:06:001:0052"},"geometry":{"type":"Polygon","coordinates":[[[36.91198,47.541222],[36.912607,47.54057],[36.912282,47.540433],[36.911653,47.541085],[36.91198,47.541222]]]}},{"type":"Feature","properties":{"cadnum":"2324981803:06:001:0067"},"geometry":{"type":"Polygon","coordinates":[[[36.909298,47.541721],[36.910239,47.540744],[36.910297,47.540685],[36.91002,47.540569],[36.909944,47.540648],[36.909021,47.541606],[36.909298,47.541721]]]}},{"type":"Feature","properties":{"cadnum":"2324981803:06:001:0078"},"geometry":{"type":"Polygon","coordinates":[[[36.910539,47.54224],[36.911573,47.541167],[36.911284,47.541046],[36.91025,47.542119],[36.910539,47.54224]]]}},{"type":"Feature","properties":{"cadnum":"2324981803:06:001:0073"},"geometry":{"type":"Polygon","coordinates":[[[36.909349,47.540555],[36.909127,47.540462],[36.908484,47.54113],[36.908484,47.5411304622093],[36.908311,47.54131],[36.908532,47.541402],[36.909349,47.540555]]]}},{"type":"Feature","properties":{"cadnum":"2324981803:06:002:0058"},"geometry":{"type":"Polygon","coordinates":[[[36.921797,47.542936],[36.921528,47.542818],[36.92125710891089,47.543106],[36.921256,47.543106],[36.920788,47.543603],[36.921056,47.543721],[36.92152660162602,47.543222],[36.921527,47.543222],[36.921797,47.542936]]]}},{"type":"Feature","properties":{"cadnum":"2324981803:06:002:0076"},"geometry":{"type":"Polygon","coordinates":[[[36.923323,47.542487],[36.923064,47.542378],[36.92237807526881,47.543106],[36.922377,47.543106],[36.922363,47.543122],[36.922589,47.543222],[36.922591571428576,47.543222],[36.922619,47.543234],[36.922739,47.543106],[36.9227385292517,47.543106],[36.923323,47.542487]]]}},{"type":"Feature","properties":{"cadnum":"2324981803:06:002:0079"},"geometry":{"type":"Polygon","coordinates":[[[36.919792,47.540989],[36.919517,47.540874],[36.918818,47.541612],[36.918776,47.541655],[36.919051,47.541771],[36.91947,47.54132856440678],[36.91947,47.541329],[36.919792,47.540989]]]}},{"type":"Feature","properties":{"cadnum":"2324981803:06:002:0080"},"geometry":{"type":"Polygon","coordinates":[[[36.919945,47.542136],[36.920677,47.541361],[36.920405,47.541247],[36.919672,47.542021],[36.919945,47.542136]]]}},{"type":"Feature","properties":{"cadnum":"2324981803:06:002:0057"},"geometry":{"type":"Polygon","coordinates":[[[36.921797,47.542936],[36.921807,47.542926],[36.922536,47.542153],[36.922265,47.542037],[36.9217,47.542637],[36.921528,47.542818],[36.921797,47.542936]]]}},{"type":"Feature","properties":{"cadnum":"2324981803:06:002:0075"},"geometry":{"type":"Polygon","coordinates":[[[36.922267,47.543222],[36.92226858252427,47.543222],[36.921585,47.543946],[36.921841,47.544058],[36.922619,47.543234],[36.922363,47.543122],[36.922267,47.543222]]]}},{"type":"Feature","properties":{"cadnum":"2324981803:06:002:0072"},"geometry":{"type":"Polygon","coordinates":[[[36.923996,47.542775],[36.923763,47.542675],[36.92335563802559,47.543106],[36.923355,47.543106],[36.922663,47.54384],[36.922896,47.543942],[36.92357466028709,47.543222],[36.923575,47.543222],[36.923996,47.542775]]]}},{"type":"Feature","properties":{"cadnum":"2324981803:06:002:0069"},"geometry":{"type":"Polygon","coordinates":[[[36.9217,47.542637],[36.922265,47.542037],[36.922046,47.541944],[36.921475,47.542548],[36.9217,47.542637]]]}},{"type":"Feature","properties":{"cadnum":"2324981803:06:001:0025"},"geometry":{"type":"Polygon","coordinates":[[[36.907432,47.540943],[36.908289,47.540053],[36.908058,47.539956],[36.9072,47.540845],[36.907432,47.540943]]]}},{"type":"Feature","properties":{"cadnum":"2324981803:06:001:0069"},"geometry":{"type":"Polygon","coordinates":[[[36.90609,47.537728],[36.905863,47.537633],[36.90416199080087,47.539398],[36.904161,47.539398],[36.904082,47.539481],[36.904146,47.539513],[36.904298,47.539589],[36.904482,47.539398],[36.904480812324934,47.539398],[36.90609,47.537728]]]}},{"type":"Feature","properties":{"cadnum":"2324981803:06:001:0062"},"geometry":{"type":"Polygon","coordinates":[[[36.90628,47.537809],[36.90609,47.537728],[36.90437,47.539513],[36.90437121465968,47.539513],[36.904298,47.539589],[36.904507,47.539694],[36.904786,47.539398],[36.90478425117371,47.539398],[36.90628,47.537809]]]}},{"type":"Feature","properties":{"cadnum":"2324981803:06:002:0078"},"geometry":{"type":"Polygon","coordinates":[[[36.932001,47.546162],[36.931571,47.545965],[36.93066,47.54693],[36.93066024215246,47.54693],[36.930559,47.547037],[36.930971,47.547227],[36.931265,47.546923],[36.932001,47.546162]]]}},{"type":"Feature","properties":{"cadnum":"2324981803:06:002:0052"},"geometry":{"type":"Polygon","coordinates":[[[36.932193,47.54625],[36.932001,47.546162],[36.931370419185285,47.546814],[36.931369,47.546814],[36.931265,47.546923],[36.931278,47.54693],[36.93128024299067,47.54693],[36.931498,47.54703],[36.93158688888889,47.54693],[36.931587,47.54693],[36.932193,47.54625]]]}},{"type":"Feature","properties":{"cadnum":"2324981803:06:001:0076"},"geometry":{"type":"Polygon","coordinates":[[[36.90357,47.539224],[36.905345,47.537414],[36.905066,47.537296],[36.903304,47.53909],[36.90357,47.539224]]]}},{"type":"Feature","properties":{"cadnum":"2324981803:06:002:0071"},"geometry":{"type":"Polygon","coordinates":[[[36.907184,47.53521],[36.906876,47.535067],[36.90600452574526,47.535689],[36.906004,47.535689],[36.904462,47.536792],[36.904813,47.536939],[36.906527,47.535689],[36.90652628067228,47.535689],[36.907184,47.53521]]]}},{"type":"Feature","properties":{"cadnum":"2324981803:06:002:0081"},"geometry":{"type":"Polygon","coordinates":[[[36.908337,47.535742],[36.908225,47.53569],[36.908085,47.535805],[36.908085796285874,47.535805],[36.906074,47.537467],[36.906499,47.537645],[36.908484,47.53594180335731],[36.908484,47.535943],[36.908584,47.535856],[36.908484,47.535809],[36.908484,47.535809846153846],[36.90847350000001,47.535805],[36.908474,47.535805],[36.908337,47.535742]]]}},{"type":"Feature","properties":{"cadnum":"2324981803:06:002:0074"},"geometry":{"type":"Polygon","coordinates":[[[36.90860685371457,47.53615209287978],[36.908655,47.53611],[36.908655,47.5361098041543],[36.908821,47.535964],[36.908718,47.535917],[36.908584,47.535856],[36.906499,47.537645],[36.90677,47.537758],[36.908484,47.53625950026525],[36.908484,47.53626],[36.90860685371457,47.53615209287978]]]}},{"type":"Feature","properties":{"cadnum":"2324981803:06:002:0061"},"geometry":{"type":"Polygon","coordinates":[[[36.907865,47.535523],[36.907586,47.535395],[36.907507,47.535359],[36.907065273542614,47.535689],[36.907065,47.535689],[36.90696917565605,47.53576079172094],[36.90691,47.535805],[36.90691016844349,47.535805],[36.905187,47.537096],[36.905639,47.537284],[36.907508381818175,47.535805],[36.907509,47.535805],[36.907865,47.535523]]]}},{"type":"Feature","properties":{"cadnum":"2324981803:06:002:0070"},"geometry":{"type":"Polygon","coordinates":[[[36.90796,47.535568],[36.907865,47.535523],[36.907655439716315,47.535689],[36.907655,47.535689],[36.905639,47.537284],[36.906074,47.537467],[36.908225,47.53569],[36.90796,47.535568]]]}},{"type":"Feature","properties":{"cadnum":"2324981803:06:002:0064"},"geometry":{"type":"Polygon","coordinates":[[[36.907507,47.535359],[36.907215,47.535224],[36.907184,47.53521],[36.906367,47.535805],[36.90636794079999,47.535805],[36.904813,47.536939],[36.905187,47.537096],[36.90696917565605,47.53576079172094],[36.907507,47.535359]]]}},{"type":"Feature","properties":{"cadnum":"2324981803:06:001:0068"},"geometry":{"type":"Polygon","coordinates":[[[36.904907,47.537229],[36.904429,47.537028],[36.90299384245934,47.5383823738292],[36.902612,47.538742],[36.90299,47.53893183628319],[36.90299,47.538933],[36.903064,47.538969],[36.903162,47.538877],[36.903162,47.53887647693977],[36.904907,47.537229]]]}},{"type":"Feature","properties":{"cadnum":"2324981803:06:002:0068"},"geometry":{"type":"Polygon","coordinates":[[[36.909041,47.537925],[36.910248,47.53665],[36.909872,47.536458],[36.909799,47.536421],[36.908655,47.537630247148286],[36.908655,47.537629],[36.908088,47.538229],[36.908564,47.53843],[36.908655,47.538334],[36.908655,47.53833365828092],[36.909041,47.537925]]]}},{"type":"Feature","properties":{"cadnum":"2324981803:06:001:0072"},"geometry":{"type":"Polygon","coordinates":[[[36.918227,47.545759],[36.919401,47.544472],[36.919096,47.54435],[36.919014,47.54444],[36.917906,47.545653],[36.918227,47.545759]]]}},{"type":"Feature","properties":{"cadnum":"2324981803:06:001:0065"},"geometry":{"type":"Polygon","coordinates":[[[36.917906,47.545653],[36.919014,47.54444],[36.918742,47.544332],[36.917622,47.545559],[36.917906,47.545653]]]}},{"type":"Feature","properties":{"cadnum":"2324981803:06:001:0080"},"geometry":{"type":"Polygon","coordinates":[[[36.920056,47.543755],[36.91975,47.543633],[36.91947,47.54394],[36.91947,47.54394031559634],[36.919096,47.54435],[36.919401,47.544472],[36.91947,47.5443963875],[36.91947,47.544398],[36.920056,47.543755]]]}},{"type":"Feature","properties":{"cadnum":"2324981803:06:001:0081"},"geometry":{"type":"Polygon","coordinates":[[[36.92025,47.543832],[36.920056,47.543755],[36.919641,47.5442103668942],[36.919641,47.544209],[36.919401,47.544472],[36.918227,47.545759],[36.918429,47.545826],[36.91947,47.54468622524753],[36.91947,47.544687],[36.92025,47.543832]]]}},{"type":"Feature","properties":{"cadnum":"2324981803:06:001:0021"},"geometry":{"type":"Polygon","coordinates":[[[36.916554,47.545143],[36.917653,47.544003],[36.917702,47.543951],[36.917454,47.543847],[36.916295,47.545051],[36.916554,47.545143]]]}},{"type":"Feature","properties":{"cadnum":"2324981803:06:001:0020"},"geometry":{"type":"Polygon","coordinates":[[[36.918528,47.543095],[36.91828,47.542991],[36.918056,47.543222],[36.91805692112676,47.543222],[36.917826,47.543461],[36.917454,47.543847],[36.917702,47.543951],[36.918518,47.543106],[36.918517346456696,47.543106],[36.918528,47.543095]]]}},{"type":"Feature","properties":{"cadnum":"2324981803:06:001:0066"},"geometry":{"type":"Polygon","coordinates":[[[36.91975,47.543633],[36.919479,47.543525],[36.918742,47.544332],[36.919014,47.54444],[36.919096,47.54435],[36.919641,47.543753],[36.919641,47.543752510714285],[36.91975,47.543633]]]}},{"type":"Feature","properties":{"cadnum":"2324981803:06:001:0059"},"geometry":{"type":"Polygon","coordinates":[[[36.914808,47.543051],[36.914616,47.542968],[36.914371,47.543222],[36.9143717640118,47.543222],[36.914156,47.543445],[36.914347,47.54353],[36.914755,47.543106],[36.91475492982456,47.543106],[36.914808,47.543051]]]}},{"type":"Feature","properties":{"cadnum":"2324981803:06:001:0077"},"geometry":{"type":"Polygon","coordinates":[[[36.914616,47.542968],[36.914822,47.542754],[36.914582,47.542651],[36.914516,47.54272],[36.91414460956175,47.543106],[36.914143,47.543106],[36.913919,47.543339],[36.913977,47.54336508733625],[36.913977,47.543366],[36.91408512427717,47.54341371965305],[36.914148,47.543442],[36.914148,47.54344146927374],[36.914156,47.543445],[36.914484,47.543106],[36.91448288976378,47.543106],[36.914616,47.542968]]]}},{"type":"Feature","properties":{"cadnum":"2324981803:06:001:0079"},"geometry":{"type":"Polygon","coordinates":[[[36.916067,47.542046],[36.915862,47.541958],[36.914867,47.542992],[36.914808,47.543051],[36.914643,47.543222],[36.91464337735849,47.543222],[36.914347,47.54353],[36.914549,47.543621],[36.915046,47.543106],[36.91504485714285,47.543106],[36.916067,47.542046]]]}},{"type":"Feature","properties":{"cadnum":"2324981803:06:001:0063"},"geometry":{"type":"Polygon","coordinates":[[[36.928599,47.548542],[36.929395,47.547686],[36.929145,47.54758],[36.928348,47.548437],[36.928599,47.548542]]]}},{"type":"Feature","properties":{"cadnum":"2324981803:06:001:0054"},"geometry":{"type":"Polygon","coordinates":[[[36.927534,47.548195],[36.928363,47.547336],[36.928119,47.547229],[36.92729,47.548088],[36.927534,47.548195]]]}},{"type":"Feature","properties":{"cadnum":"2324981803:06:001:0053"},"geometry":{"type":"Polygon","coordinates":[[[36.926363,47.549409],[36.927534,47.548195],[36.92729,47.548088],[36.926122,47.549299],[36.926363,47.549409]]]}},{"type":"Feature","properties":{"cadnum":"2324981803:06:001:0070"},"geometry":{"type":"Polygon","coordinates":[[[36.92694,47.546655],[36.926464,47.546455],[36.9261304159292,47.546814],[36.92613,47.546814],[36.926044,47.546907],[36.926098,47.54693],[36.926098740000015,47.54693],[36.92652,47.547107],[36.926792,47.546814],[36.92679198545455,47.546814],[36.92694,47.546655]]]}},{"type":"Feature","properties":{"cadnum":"2324981803:06:001:0023"},"geometry":{"type":"Polygon","coordinates":[[[36.925994,47.546259],[36.925792,47.546174],[36.92519602116403,47.546814],[36.925195,47.546814],[36.924963,47.547064],[36.924963,47.54706406097561],[36.924807,47.547231],[36.924963,47.547296],[36.925011,47.547316],[36.925125,47.547193],[36.925135,47.547183],[36.925135,47.547182263456094],[36.925478,47.546814],[36.92547704769002,47.546814],[36.925994,47.546259]]]}},{"type":"Feature","properties":{"cadnum":"2324981803:06:001:0071"},"geometry":{"type":"Polygon","coordinates":[[[36.926161,47.547493],[36.92652,47.547107],[36.926044,47.546907],[36.924963,47.548069],[36.924963,47.54806949324325],[36.924543,47.54852],[36.924963,47.54870408510639],[36.924963,47.548705],[36.925013,47.548726],[36.925135,47.548596],[36.925135,47.54859496689896],[36.926161,47.547493]]]}},{"type":"Feature","properties":{"cadnum":"2324981803:06:001:0057"},"geometry":{"type":"Polygon","coordinates":[[[36.928845,47.54865],[36.929645,47.54779],[36.929395,47.547686],[36.928599,47.548542],[36.928596,47.548545],[36.928845,47.54865]]]}},{"type":"Feature","properties":{"cadnum":"2324981803:06:001:0058"},"geometry":{"type":"Polygon","coordinates":[[[36.927681,47.549901],[36.928845,47.54865],[36.928596,47.548545],[36.927435,47.549793],[36.927681,47.549901]]]}},{"type":"Feature","properties":{"cadnum":"2324981803:06:001:0064"},"geometry":{"type":"Polygon","coordinates":[[[36.927435,47.549793],[36.928596,47.548545],[36.928599,47.548542],[36.928348,47.548437],[36.927188,47.549684],[36.927435,47.549793]]]}},{"type":"Feature","properties":{"cadnum":"2324981803:06:002:0059"},"geometry":{"type":"Polygon","coordinates":[[[36.915666,47.539304],[36.915468,47.539513],[36.915468983502535,47.539513],[36.914831,47.540186],[36.914567,47.540466],[36.915165,47.540718],[36.916267,47.539553],[36.91616970967742,47.539513],[36.916171,47.539513],[36.915666,47.539304]]]}},{"type":"Feature","properties":{"cadnum":"2324981803:06:002:0015"},"geometry":{"type":"Polygon","coordinates":[[[36.915131,47.539015],[36.914854,47.538881],[36.914266,47.539513],[36.91426754489164,47.539513],[36.914075,47.539721],[36.914362,47.539845],[36.914776,47.539398],[36.91477568674699,47.539398],[36.915131,47.539015]]]}},{"type":"Feature","properties":{"cadnum":"2324981803:06:001:0022"},"geometry":{"type":"Polygon","coordinates":[[[36.924081,47.548315],[36.925011,47.547316],[36.924807,47.547231],[36.923881,47.548228],[36.924081,47.548315]]]}},{"type":"Feature","properties":{"cadnum":"2324981803:06:002:0077"},"geometry":{"type":"Polygon","coordinates":[[[36.910977,47.538391],[36.911842,47.537476],[36.911577,47.537339],[36.910694,47.538271],[36.910977,47.538391]]]}},{"type":"Feature","properties":{"cadnum":"2324981803:06:002:0056"},"geometry":{"type":"Polygon","coordinates":[[[36.911163,47.538918],[36.911254,47.538821],[36.912287,47.53773],[36.911842,47.537476],[36.910977,47.538391],[36.910674,47.538711],[36.911163,47.538918]]]}},{"type":"Feature","properties":{"cadnum":"2324981803:06:002:0013"},"geometry":{"type":"Polygon","coordinates":[[[36.923462,47.544715],[36.923653,47.544517],[36.923395,47.544404],[36.923206,47.544603],[36.923462,47.544715]]]}},{"type":"Feature","properties":{"cadnum":"2324981803:06:002:0020"},"geometry":{"type":"Polygon","coordinates":[[[36.925285,47.544583],[36.92509880000012,47.54450320000006],[36.924954,47.54444],[36.92435,47.54508],[36.924681,47.545223],[36.924963,47.54492422907489],[36.924963,47.544925],[36.925285,47.544583]]]}},{"type":"Feature","properties":{"cadnum":"2324981803:06:002:0021"},"geometry":{"type":"Polygon","coordinates":[[[36.926269,47.543538],[36.925943,47.543389],[36.924968,47.544424],[36.924954,47.54444],[36.924963,47.5444439281768],[36.924963,47.544445],[36.92509880000012,47.54450320000006],[36.925135,47.544519],[36.925135,47.544518714285715],[36.925285,47.544583],[36.926269,47.543538]]]}},{"type":"Feature","properties":{"cadnum":"2324981803:06:001:0075"},"geometry":{"type":"Polygon","coordinates":[[[36.920132,47.546402],[36.921304,47.545185],[36.920981,47.545043],[36.919788,47.546281],[36.920132,47.546402]]]}},{"type":"Feature","properties":{"cadnum":"2324981803:06:002:0017"},"geometry":{"type":"Polygon","coordinates":[[[36.927939,47.546626],[36.928455,47.546078],[36.928715,47.545802],[36.928458,47.545691],[36.92768,47.546515],[36.927939,47.546626]]]}},{"type":"Feature","properties":{"cadnum":"2324981803:06:002:0018"},"geometry":{"type":"Polygon","coordinates":[[[36.928715,47.545802],[36.929469,47.545003],[36.929216,47.544887],[36.928513,47.545632],[36.928458,47.545691],[36.928715,47.545802]]]}},{"type":"Feature","properties":{"cadnum":"2324981803:06:002:0054"},"geometry":{"type":"Polygon","coordinates":[[[36.926808,47.544962],[36.9269,47.544864],[36.927574,47.544136],[36.927339,47.544028],[36.926559,47.544856],[36.926808,47.544962]]]}},{"type":"Feature","properties":{"cadnum":"2324981803:06:002:0016"},"geometry":{"type":"Polygon","coordinates":[[[36.927133,47.544964],[36.927812,47.544245],[36.927574,47.544136],[36.9269,47.544864],[36.927133,47.544964]]]}},{"type":"Feature","properties":{"cadnum":"2324981803:06:002:0019"},"geometry":{"type":"Polygon","coordinates":[[[36.92625,47.545899],[36.926802,47.545315],[36.927133,47.544964],[36.9269,47.544864],[36.926808,47.544962],[36.926029,47.545803],[36.92625,47.545899]]]}},{"type":"Feature","properties":{"cadnum":"2324981803:06:002:0023"},"geometry":{"type":"Polygon","coordinates":[[[36.928513,47.545632],[36.929216,47.544887],[36.92898,47.544779],[36.928273,47.545528],[36.928513,47.545632]]]}},{"type":"Feature","properties":{"cadnum":"2324981803:06:002:0065"},"geometry":{"type":"Polygon","coordinates":[[[36.927165,47.545471],[36.927334,47.545292],[36.928168,47.544407],[36.927812,47.544245],[36.927133,47.544964],[36.926802,47.545315],[36.927165,47.545471]]]}},{"type":"Feature","properties":{"cadnum":"2324981803:06:002:0066"},"geometry":{"type":"Polygon","coordinates":[[[36.927891,47.545532],[36.927913,47.545507],[36.928714,47.544657],[36.928442,47.544532],[36.927613,47.545412],[36.927891,47.545532]]]}},{"type":"Feature","properties":{"cadnum":"2324981803:06:002:0022"},"geometry":{"type":"Polygon","coordinates":[[[36.92768,47.546515],[36.928458,47.545691],[36.928513,47.545632],[36.928273,47.545528],[36.928183,47.545624],[36.92744,47.546412],[36.92768,47.546515]]]}},{"type":"Feature","properties":{"cadnum":"2324981803:06:002:0055"},"geometry":{"type":"Polygon","coordinates":[[[36.926029,47.545803],[36.926808,47.544962],[36.926559,47.544856],[36.926261,47.545172],[36.92577,47.545692],[36.926029,47.545803]]]}},{"type":"Feature","properties":{"cadnum":"2324981803:06:002:0063"},"geometry":{"type":"Polygon","coordinates":[[[36.926261,47.545172],[36.926559,47.544856],[36.927339,47.544028],[36.926938,47.543845],[36.925853,47.544996],[36.926261,47.545172]]]}},{"type":"Feature","properties":{"cadnum":"2324981803:06:002:0067"},"geometry":{"type":"Polygon","coordinates":[[[36.928183,47.545624],[36.928273,47.545528],[36.92898,47.544779],[36.928714,47.544657],[36.927913,47.545507],[36.928183,47.545624]]]}},{"type":"Feature","properties":{"cadnum":"2324981803:06:002:0062"},"geometry":{"type":"Polygon","coordinates":[[[36.92577,47.545692],[36.926261,47.545172],[36.925853,47.544996],[36.925778,47.545076],[36.925363,47.545516],[36.92577,47.545692]]]}},{"type":"Feature","properties":{"cadnum":"2324981803:06:001:0060"},"geometry":{"type":"Polygon","coordinates":[[[36.914808,47.543051],[36.914867,47.542992],[36.915862,47.541958],[36.91567,47.541874],[36.914822,47.542754],[36.914616,47.542968],[36.914808,47.543051]]]}},{"type":"Feature","properties":{"cadnum":"2324981803:06:002:0073"},"geometry":{"type":"Polygon","coordinates":[[[36.918818,47.541612],[36.919517,47.540874],[36.919257,47.540765],[36.918558,47.541502],[36.918818,47.541612]]]}},{"type":"Feature","properties":{"cadnum":"2324981803:06:002:0060"},"geometry":{"type":"Polygon","coordinates":[[[36.914827,47.541075],[36.915165,47.540718],[36.914567,47.540466],[36.914229,47.540822],[36.914827,47.541075]]]}}]}