{"type":"FeatureCollection","features":[{"type":"Feature","properties":{"cadnum":"2324982005:06:002:0137"},"geometry":{"type":"Polygon","coordinates":[[[37.043133,47.374676],[37.043357,47.374653],[37.042953,47.373313],[37.042746,47.373335],[37.043133,47.374676]]]}},{"type":"Feature","properties":{"cadnum":"2324982005:06:002:0129"},"geometry":{"type":"Polygon","coordinates":[[[37.045253,47.372156],[37.044807,47.372194],[37.044817044692735,47.372256],[37.044816,47.372256],[37.04483199342103,47.3723482697367],[37.044836,47.372373],[37.04483628,47.372373],[37.044907,47.372781],[37.045106,47.372767],[37.045239,47.372756],[37.045243,47.372782],[37.045322,47.372777],[37.045318,47.372751],[37.045459,47.37274],[37.04543,47.372651],[37.045417,47.372652],[37.045286,47.372256],[37.045285718894014,47.372256],[37.045253,47.372156]]]}},{"type":"Feature","properties":{"cadnum":"2324982005:06:002:0139"},"geometry":{"type":"Polygon","coordinates":[[[37.044504,47.374161],[37.044805,47.374126],[37.044497,47.373151],[37.044209,47.373181],[37.044504,47.374161]]]}},{"type":"Feature","properties":{"cadnum":"2324982005:06:002:0123"},"geometry":{"type":"Polygon","coordinates":[[[37.041948,47.371207],[37.041764,47.371215],[37.041547,47.371239],[37.041961,47.372373],[37.041961894875165,47.372373],[37.042198,47.373017],[37.042379,47.373002],[37.0422,47.372256],[37.04219990394511,47.372256],[37.041948,47.371207]]]}},{"type":"Feature","properties":{"cadnum":"2324982005:06:002:0138"},"geometry":{"type":"Polygon","coordinates":[[[37.043291,47.375225],[37.043522,47.375205],[37.043357,47.374653],[37.043133,47.374676],[37.043291,47.375225]]]}},{"type":"Feature","properties":{"cadnum":"2324982005:06:002:0124"},"geometry":{"type":"Polygon","coordinates":[[[37.042699,47.3719],[37.042492,47.371131],[37.042385,47.371188],[37.04215,47.371198],[37.042433,47.372373],[37.04243324691358,47.372373],[37.042581,47.372985],[37.042795,47.372968],[37.04285,47.372963],[37.042931,47.372956],[37.042806,47.372299],[37.042699,47.3719]]]}},{"type":"Feature","properties":{"cadnum":"2324982005:06:002:0134"},"geometry":{"type":"Polygon","coordinates":[[[37.042121,47.374599],[37.042424,47.374582],[37.042214,47.373634],[37.041897,47.373655],[37.042121,47.374599]]]}},{"type":"Feature","properties":{"cadnum":"2324982005:06:002:0135"},"geometry":{"type":"Polygon","coordinates":[[[37.042308,47.37539],[37.042598,47.375373],[37.042424,47.374582],[37.042121,47.374599],[37.042308,47.37539]]]}},{"type":"Feature","properties":{"cadnum":"2324982005:06:001:0075"},"geometry":{"type":"Polygon","coordinates":[[[37.034007,47.379622],[37.033759,47.379347],[37.032965,47.379659],[37.033094,47.379813],[37.033094066390035,47.379813],[37.033198,47.379937],[37.033515460580915,47.379813],[37.033517,47.379813],[37.034007,47.379622]]]}},{"type":"Feature","properties":{"cadnum":"2324982005:06:001:0076"},"geometry":{"type":"Polygon","coordinates":[[[37.03506,47.379213],[37.03493368656724,47.37906185572149],[37.034812,47.378914],[37.033759,47.379347],[37.034007,47.379622],[37.034998,47.379238],[37.034998,47.37923711111111],[37.03506,47.379213]]]}},{"type":"Feature","properties":{"cadnum":"2324982005:06:001:0152"},"geometry":{"type":"Polygon","coordinates":[[[37.032423,47.379453],[37.032772,47.379295],[37.032848,47.379374],[37.032942,47.379332],[37.032896,47.379282],[37.034231,47.378736],[37.034019,47.378519],[37.032297,47.379308],[37.032423,47.379453]]]}},{"type":"Feature","properties":{"cadnum":"2324982005:06:002:0141"},"geometry":{"type":"Polygon","coordinates":[[[37.050439,47.373796],[37.050722,47.373753],[37.050537,47.373277],[37.050305,47.372722],[37.050057,47.372746],[37.050262,47.373331],[37.050439,47.373796]]]}},{"type":"Feature","properties":{"cadnum":"2324982005:06:002:0142"},"geometry":{"type":"Polygon","coordinates":[[[37.050658,47.374366],[37.050944,47.374324],[37.050722,47.373753],[37.050439,47.373796],[37.050658,47.374366]]]}},{"type":"Feature","properties":{"cadnum":"2324982005:06:001:0105"},"geometry":{"type":"Polygon","coordinates":[[[37.03181,47.38185],[37.03264,47.381484],[37.033539,47.381204],[37.033281,47.381043],[37.033171,47.381035],[37.032851,47.380759],[37.031445,47.381349],[37.03181,47.38185]]]}},{"type":"Feature","properties":{"cadnum":"2324982005:06:002:0122"},"geometry":{"type":"Polygon","coordinates":[[[37.048436,47.37126],[37.048628,47.371227],[37.049249,47.371121],[37.049326,47.371108],[37.049367,47.37049],[37.047679,47.369888],[37.047628,47.369872],[37.047513,47.369838],[37.047445,47.369966],[37.047429,47.370155],[37.047411,47.370351],[37.047362,47.37061],[37.04732,47.370781],[37.047619,47.370753],[37.048153,47.370804],[37.048117,47.371033],[37.04827,47.371233],[37.048436,47.37126]]]}},{"type":"Feature","properties":{"cadnum":"2324982005:06:002:0136"},"geometry":{"type":"Polygon","coordinates":[[[37.046832,47.370046],[37.046911,47.369904],[37.04614,47.369721],[37.046041,47.370021],[37.046589,47.370032],[37.046832,47.370046]]]}}]}