{"type":"FeatureCollection","features":[{"type":"Feature","properties":{"cadnum":"4410160100:01:004:0028"},"geometry":{"type":"Polygon","coordinates":[[[39.192759,48.583017],[39.192791,48.582898],[39.192804,48.582836],[39.192808,48.582738],[39.192814,48.582595],[39.192858,48.582298],[39.192724,48.582277],[39.192688,48.582529],[39.192665,48.582719],[39.192651,48.582862],[39.192655,48.582862],[39.192621,48.582999],[39.192759,48.583017]]]}},{"type":"Feature","properties":{"cadnum":"4410160100:01:004:0029"},"geometry":{"type":"Polygon","coordinates":[[[39.189009,48.583481],[39.189116,48.583071],[39.189175,48.582773],[39.189018,48.582756],[39.188942,48.583053],[39.188865,48.583386],[39.188847,48.583468],[39.189009,48.583481]]]}},{"type":"Feature","properties":{"cadnum":"4410160100:01:004:0030"},"geometry":{"type":"Polygon","coordinates":[[[39.188982,48.583575],[39.189009,48.583481],[39.188847,48.583468],[39.188829,48.583558],[39.188982,48.583575]]]}}]}