{"type":"FeatureCollection","features":[{"type":"Feature","properties":{"cadnum":"4410100001:02:016:0002"},"geometry":{"type":"Polygon","coordinates":[[[39.347574,48.572203],[39.34762,48.572215],[39.34762,48.572214376344085],[39.347853,48.572272],[39.347903,48.572325],[39.347898,48.572414],[39.348375,48.57201],[39.347987,48.571793],[39.347926,48.571757],[39.347966,48.571725],[39.348029,48.571757],[39.34845,48.571995],[39.347947,48.572426],[39.348209,48.572479],[39.348823,48.571968],[39.34854,48.571814],[39.348478,48.571799],[39.348056,48.571564],[39.347786,48.571775],[39.347574,48.571953],[39.347194,48.571739],[39.346932,48.571941],[39.346834,48.572019],[39.346829,48.572019],[39.346699,48.572117],[39.346515,48.571998],[39.346452,48.57204],[39.346259,48.57217],[39.346012,48.572245],[39.345679,48.572224],[39.346349,48.572406],[39.346632,48.572578],[39.346366,48.572765],[39.346398,48.572783],[39.346528,48.572848],[39.346614,48.572889],[39.346708,48.572926],[39.346752,48.572943],[39.3474,48.573148],[39.347448,48.573108509090915],[39.347448,48.573109],[39.347562780269826,48.57301407623255],[39.34762,48.572967],[39.34762,48.572966755274265],[39.348159,48.572521],[39.347871,48.572474],[39.34762,48.572651464843744],[39.34762,48.572651],[39.347615,48.572655],[39.34736,48.572789],[39.347144,48.572721],[39.346865,48.572572],[39.346825,48.572506],[39.346852,48.572114],[39.346771,48.572067],[39.346834,48.572021],[39.346915,48.572069],[39.346905,48.572524],[39.347228,48.572296],[39.347373,48.572375],[39.347448,48.572310820895524],[39.347448,48.572312],[39.347574,48.572203]]]}},{"type":"Feature","properties":{"cadnum":"4410100001:01:029:0097"},"geometry":{"type":"Polygon","coordinates":[[[39.252479,48.553815],[39.252682,48.553776],[39.252623,48.553643],[39.252579,48.553553],[39.25252,48.553443],[39.252489,48.553366],[39.252296,48.553408],[39.252317,48.553485],[39.25234,48.553538],[39.252394,48.553639],[39.252479,48.553815]]]}},{"type":"Feature","properties":{"cadnum":"4410100001:02:072:0205"},"geometry":{"type":"Polygon","coordinates":[[[39.336471,48.569629],[39.336458,48.569591],[39.336431,48.569543],[39.336404,48.569483],[39.336414,48.569454],[39.336418,48.569397],[39.336435,48.569373],[39.336454,48.569347],[39.336458,48.569347],[39.336458,48.569344],[39.336463,48.569177],[39.336125,48.569172],[39.336068,48.569567],[39.336471,48.569629]]]}}]}