{"type":"FeatureCollection","features":[{"type":"Feature","properties":{"cadnum":"4410000000:07:006:0010"},"geometry":{"type":"Polygon","coordinates":[[[38.666234,48.639776],[38.666305,48.639642],[38.66632,48.639607],[38.665718,48.639468],[38.665691,48.639518],[38.665628,48.639636],[38.666234,48.639776]]]}},{"type":"Feature","properties":{"cadnum":"4410000000:07:007:0029"},"geometry":{"type":"Polygon","coordinates":[[[38.665749,48.639153],[38.665835,48.638984],[38.665305,48.638859],[38.665273,48.638921],[38.66521,48.639028],[38.665749,48.639153]]]}},{"type":"Feature","properties":{"cadnum":"4410000000:07:007:0027"},"geometry":{"type":"Polygon","coordinates":[[[38.665368,48.639764],[38.66543,48.639627],[38.665448,48.639595],[38.665452,48.639589],[38.665246,48.639545],[38.66495,48.639473],[38.6649,48.639532],[38.664842,48.639646],[38.665368,48.639764]]]}}]}