{"type":"FeatureCollection","features":[{"type":"Feature","properties":{"cadnum":"4410345600:01:004:0062"},"geometry":{"type":"Polygon","coordinates":[[[39.093486,48.075152],[39.093819,48.075094],[39.093671,48.074671],[39.093616,48.074527],[39.093608,48.074506],[39.093455,48.074531],[39.093482,48.074756],[39.093491,48.075085],[39.093486,48.075152]]]}},{"type":"Feature","properties":{"cadnum":"4410345600:01:004:0068"},"geometry":{"type":"Polygon","coordinates":[[[39.094191,48.074428],[39.094158,48.074351],[39.09415788172043,48.074351],[39.094151,48.074335],[39.09408014285714,48.074351],[39.094079,48.074351],[39.093872,48.074398],[39.093878,48.074419],[39.093907,48.074466],[39.09390768421053,48.074466],[39.093926,48.074495],[39.093981,48.074611],[39.094021,48.074707],[39.094165,48.07529],[39.094281,48.075154],[39.094245,48.074887],[39.09419547058824,48.074466],[39.094196,48.074466],[39.094191,48.074428]]]}},{"type":"Feature","properties":{"cadnum":"4410345600:01:004:0052"},"geometry":{"type":"Polygon","coordinates":[[[39.092767,48.075332],[39.093019,48.07526],[39.092943,48.075049],[39.092822,48.074776],[39.092777,48.074687],[39.092763,48.074669],[39.092547,48.074716],[39.092507,48.074722],[39.092494,48.074725],[39.092593,48.074962],[39.092767,48.075332]]]}},{"type":"Feature","properties":{"cadnum":"4410345600:01:004:0046"},"geometry":{"type":"Polygon","coordinates":[[[39.093473,48.075608],[39.093685,48.075557],[39.093725,48.075548],[39.093958,48.075505],[39.093819,48.075094],[39.093486,48.075152],[39.093478,48.075334],[39.093473,48.075608]]]}},{"type":"Feature","properties":{"cadnum":"4410345600:01:004:0022"},"geometry":{"type":"Polygon","coordinates":[[[39.08935,48.077954],[39.089441,48.077944],[39.089441,48.077943036144575],[39.089848,48.077894],[39.089767,48.077721],[39.089744,48.077658],[39.08974,48.077654],[39.08932953333498,48.077702906666474],[39.089251,48.077712],[39.089031,48.077727],[39.089048,48.077876],[39.08913,48.077879],[39.089138,48.077957],[39.08927,48.077955132075466],[39.08927,48.077956],[39.08935,48.077954]]]}},{"type":"Feature","properties":{"cadnum":"4410345600:01:004:0016"},"geometry":{"type":"Polygon","coordinates":[[[39.09235,48.077819],[39.091784,48.077907],[39.09182,48.07799],[39.091828,48.078012],[39.092087,48.078136],[39.09208766187051,48.078136],[39.09214,48.078161],[39.092228,48.078152],[39.092471,48.078126],[39.09235,48.077819]]]}},{"type":"Feature","properties":{"cadnum":"4410345600:01:004:0014"},"geometry":{"type":"Polygon","coordinates":[[[39.090117,48.077928],[39.090207,48.077903],[39.09022,48.077925],[39.090324,48.077894],[39.090419,48.077865],[39.090436,48.077861],[39.090373,48.077727],[39.090347,48.077607],[39.090207,48.077639],[39.090077,48.07742],[39.090023,48.07734],[39.089781,48.077393],[39.089943,48.077681],[39.090041,48.077816],[39.090064,48.07785],[39.090117,48.077928]]]}},{"type":"Feature","properties":{"cadnum":"4410345600:01:004:0074"},"geometry":{"type":"Polygon","coordinates":[[[39.090517,48.075025],[39.090589,48.075016],[39.090958,48.074969],[39.091056,48.074956],[39.091263,48.074927],[39.091241,48.074854],[39.091245,48.074833],[39.091232,48.074782],[39.091228,48.074767],[39.091222,48.074753],[39.091169,48.074762],[39.091128,48.07474],[39.091119,48.074704],[39.090993,48.074716],[39.090926,48.074725],[39.090872,48.074734],[39.09045,48.07478],[39.090517,48.075025]]]}},{"type":"Feature","properties":{"cadnum":"4410345600:01:005:0008"},"geometry":{"type":"Polygon","coordinates":[[[39.090432,48.076232],[39.090432,48.076214],[39.090406,48.076214],[39.090406,48.076232],[39.090432,48.076232]]]}},{"type":"Feature","properties":{"cadnum":"4410345600:01:005:0011"},"geometry":{"type":"Polygon","coordinates":[[[39.09196,48.076847],[39.091987,48.076844],[39.091987,48.076829],[39.09196,48.076829],[39.09196,48.076847]]]}},{"type":"Feature","properties":{"cadnum":"4410345600:01:004:0003"},"geometry":{"type":"Polygon","coordinates":[[[39.091411,48.078057],[39.091411,48.078039],[39.091389,48.078039],[39.091389,48.078057],[39.091411,48.078057]]]}},{"type":"Feature","properties":{"cadnum":"4410345600:01:004:0064"},"geometry":{"type":"Polygon","coordinates":[[[39.089907,48.075728],[39.09062,48.075668],[39.090899,48.075643],[39.090949,48.075643],[39.090949,48.075686],[39.091065,48.075686],[39.091065,48.075677],[39.091075,48.075635],[39.091069,48.075635],[39.091069,48.075563],[39.091111,48.075566],[39.091119,48.075514],[39.091124,48.075514],[39.091124,48.075476],[39.091102,48.075476],[39.090882,48.075503],[39.08988,48.075623],[39.089907,48.075728]]]}},{"type":"Feature","properties":{"cadnum":"4410345600:01:004:0070"},"geometry":{"type":"Polygon","coordinates":[[[39.093595,48.077936],[39.093782,48.077892],[39.093851,48.077867],[39.093859,48.077856],[39.093882,48.077852],[39.093828,48.077768],[39.093792,48.077699],[39.093805,48.077699],[39.093725,48.077561],[39.093553,48.077307],[39.093289,48.077378],[39.093369,48.077516],[39.093595,48.077936]]]}},{"type":"Feature","properties":{"cadnum":"4410345600:01:004:0071"},"geometry":{"type":"Polygon","coordinates":[[[39.091807,48.075256],[39.0924,48.075181],[39.09236,48.075056],[39.092337,48.074969],[39.092121,48.074978],[39.092004,48.074891],[39.091951,48.074849],[39.091932,48.074858],[39.091865,48.074863],[39.091721,48.074893],[39.091735,48.074933],[39.091748,48.074971],[39.091761,48.075043],[39.091788,48.075205],[39.091807,48.075256]]]}},{"type":"Feature","properties":{"cadnum":"4410345600:01:004:0073"},"geometry":{"type":"Polygon","coordinates":[[[39.09279,48.075301],[39.093037,48.075227],[39.092956,48.07502],[39.092826,48.074749],[39.092777,48.07466],[39.092767,48.074638],[39.092553,48.074689],[39.092511,48.074698],[39.092498,48.074702],[39.092606,48.074938],[39.09279,48.075301]]]}},{"type":"Feature","properties":{"cadnum":"4410345600:01:004:0057"},"geometry":{"type":"Polygon","coordinates":[[[39.092732,48.078086],[39.09283,48.078068],[39.09292,48.07805],[39.092884,48.077988],[39.092893,48.077985],[39.09288,48.077957],[39.09283,48.077852],[39.092643,48.077567],[39.092431,48.077222],[39.09227,48.077243],[39.092484,48.077667],[39.092579,48.077832],[39.092606,48.077888],[39.092651,48.07799],[39.09266769565217,48.078022],[39.092667,48.078022],[39.092687,48.078059],[39.0927,48.078092],[39.092732,48.078086]]]}},{"type":"Feature","properties":{"cadnum":"4410345600:01:004:0063"},"geometry":{"type":"Polygon","coordinates":[[[39.092166,48.075971],[39.092417,48.075896],[39.092449,48.075887],[39.092507,48.075872],[39.092561,48.075857],[39.092574,48.075875],[39.092696,48.075839],[39.092687,48.075821],[39.092656,48.075758],[39.092647,48.07573],[39.092633,48.075701],[39.092616,48.07565],[39.092606,48.075623],[39.092574,48.075581],[39.09253,48.075592],[39.092323,48.07565],[39.092035,48.075739],[39.092166,48.075971]]]}},{"type":"Feature","properties":{"cadnum":"4410345600:01:004:0002"},"geometry":{"type":"Polygon","coordinates":[[[39.091519,48.077549],[39.091519,48.077534],[39.091492,48.077534],[39.091492,48.077549],[39.091519,48.077549]]]}},{"type":"Feature","properties":{"cadnum":"4410345600:01:005:0010"},"geometry":{"type":"Polygon","coordinates":[[[39.091645,48.076619],[39.091668,48.076613],[39.091641,48.076574],[39.091704,48.076553],[39.09169,48.076538],[39.091609,48.076565],[39.091645,48.076619]]]}},{"type":"Feature","properties":{"cadnum":"4410345600:01:005:0007"},"geometry":{"type":"Polygon","coordinates":[[[39.089507,48.075988],[39.089534,48.075941],[39.089507,48.075935],[39.08948,48.075983],[39.089507,48.075988]]]}},{"type":"Feature","properties":{"cadnum":"4410345600:01:004:0001"},"geometry":{"type":"Polygon","coordinates":[[[39.091698,48.07456],[39.091815,48.074518],[39.091767,48.074455],[39.091649,48.074497],[39.091698,48.07456]]]}},{"type":"Feature","properties":{"cadnum":"4410345600:01:004:0060"},"geometry":{"type":"Polygon","coordinates":[[[39.091582,48.077729],[39.091897,48.077672],[39.09213,48.077616],[39.091932,48.077321],[39.091739,48.077369],[39.091627,48.077396],[39.091492,48.077423],[39.091415,48.077441],[39.091438,48.077478],[39.091497,48.077612],[39.091528,48.077678],[39.091582,48.077729]]]}},{"type":"Feature","properties":{"cadnum":"4410345600:01:004:0045"},"geometry":{"type":"Polygon","coordinates":[[[39.08932953333498,48.077702906666474],[39.089441,48.07769],[39.089441,48.07768962553192],[39.08974,48.077654],[39.089736,48.077643],[39.089718,48.077576],[39.089704,48.077534],[39.0897,48.07751],[39.089597,48.077522],[39.089583,48.077519],[39.089471,48.077534],[39.08928827272616,48.07755036363646],[39.089121,48.077565],[39.088712,48.077607],[39.088698,48.07775],[39.089031,48.077727],[39.089251,48.077712],[39.08927,48.0777098],[39.08927,48.07771],[39.08932953333498,48.077702906666474]]]}},{"type":"Feature","properties":{"cadnum":"4410345600:01:004:0072"},"geometry":{"type":"Polygon","coordinates":[[[39.09191,48.075536],[39.092453,48.075356],[39.0924,48.075181],[39.091807,48.075256],[39.09191,48.075536]]]}},{"type":"Feature","properties":{"cadnum":"4410345600:01:004:0056"},"geometry":{"type":"Polygon","coordinates":[[[39.090486,48.077867],[39.090553,48.077852],[39.090625,48.077834],[39.090849,48.077781],[39.090769,48.077627],[39.090738,48.077507],[39.09058,48.077547],[39.090379,48.077598],[39.090442,48.07775],[39.090486,48.077867]]]}},{"type":"Feature","properties":{"cadnum":"4410345600:01:004:0061"},"geometry":{"type":"Polygon","coordinates":[[[39.09213,48.077616],[39.092215,48.077598],[39.092027,48.077298],[39.091932,48.077321],[39.09213,48.077616]]]}},{"type":"Feature","properties":{"cadnum":"4410345600:01:005:0001"},"geometry":{"type":"Polygon","coordinates":[[[39.092008,48.076787],[39.092081,48.076784],[39.092077,48.076733],[39.092,48.076739],[39.092008,48.076787]]]}},{"type":"Feature","properties":{"cadnum":"4410345600:01:005:0009"},"geometry":{"type":"Polygon","coordinates":[[[39.091056,48.076418],[39.091079,48.076415],[39.091079,48.0764],[39.091056,48.0764],[39.091056,48.076418]]]}},{"type":"Feature","properties":{"cadnum":"4410345600:01:004:0015"},"geometry":{"type":"Polygon","coordinates":[[[39.089781,48.077393],[39.090023,48.07734],[39.089983,48.077276],[39.089744,48.077327],[39.089781,48.077393]]]}},{"type":"Feature","properties":{"cadnum":"4410345600:01:001:0013"},"geometry":{"type":"Polygon","coordinates":[[[39.088757,48.093539],[39.088757,48.093524],[39.088729,48.093524],[39.088729,48.093539],[39.088757,48.093539]]]}},{"type":"Feature","properties":{"cadnum":"4410345600:01:001:0057"},"geometry":{"type":"Polygon","coordinates":[[[39.087576,48.094616],[39.08793,48.094526],[39.088765,48.094322],[39.088672,48.094198],[39.087966,48.094361],[39.087805,48.094403],[39.087477,48.094487],[39.087486,48.094496],[39.087509,48.094517],[39.087526,48.094547],[39.087576,48.094616]]]}},{"type":"Feature","properties":{"cadnum":"4410345600:01:006:0008"},"geometry":{"type":"Polygon","coordinates":[[[39.084534,48.095447],[39.084534,48.095423],[39.084503,48.095426],[39.084503,48.095447],[39.084534,48.095447]]]}},{"type":"Feature","properties":{"cadnum":"4410345600:01:001:0071"},"geometry":{"type":"Polygon","coordinates":[[[39.085482,48.093779],[39.085819,48.093695],[39.086345,48.093575],[39.086457,48.093542],[39.086641,48.093506],[39.086664,48.0935],[39.08666,48.093491],[39.086624,48.093422],[39.086601,48.093383],[39.086591,48.093371],[39.086587,48.093364],[39.086408,48.09341],[39.086071,48.093488],[39.085393,48.093638],[39.085482,48.093779]]]}},{"type":"Feature","properties":{"cadnum":"4410345600:01:001:0012"},"geometry":{"type":"Polygon","coordinates":[[[39.08913,48.094172],[39.08913,48.094154],[39.089107,48.094157],[39.089107,48.094172],[39.08913,48.094172]]]}},{"type":"Feature","properties":{"cadnum":"4410345600:01:006:0009"},"geometry":{"type":"Polygon","coordinates":[[[39.085765,48.095801],[39.085765,48.095777],[39.085734,48.095777],[39.085734,48.095801],[39.085765,48.095801]]]}},{"type":"Feature","properties":{"cadnum":"4410345600:01:001:0008"},"geometry":{"type":"Polygon","coordinates":[[[39.086943,48.096148],[39.086943,48.096125],[39.086907,48.096125],[39.086907,48.096148],[39.086943,48.096148]]]}},{"type":"Feature","properties":{"cadnum":"4410345600:01:001:0014"},"geometry":{"type":"Polygon","coordinates":[[[39.088528,48.092917],[39.088528,48.0929],[39.088501,48.0929],[39.088501,48.092917],[39.088528,48.092917]]]}},{"type":"Feature","properties":{"cadnum":"4410345600:01:001:0077"},"geometry":{"type":"Polygon","coordinates":[[[39.087674,48.094832],[39.088972,48.09458],[39.088918,48.09446],[39.088262,48.094618],[39.087953,48.094676],[39.087786,48.094691],[39.087687,48.094709],[39.087652,48.094721],[39.087629,48.094727],[39.087674,48.094832]]]}},{"type":"Feature","properties":{"cadnum":"4410345600:01:004:0069"},"geometry":{"type":"Polygon","coordinates":[[[39.088838,48.07628],[39.088932,48.076235],[39.088991,48.076199],[39.08895,48.076097],[39.088932,48.075932],[39.088685,48.07585],[39.088578,48.075812],[39.088321,48.075986],[39.088362,48.076031],[39.088406,48.076057],[39.088612,48.076178],[39.088662,48.076217],[39.088694,48.076235],[39.088792,48.076259],[39.088806,48.076253],[39.088838,48.07628]]]}},{"type":"Feature","properties":{"cadnum":"4410345600:01:004:0026"},"geometry":{"type":"Polygon","coordinates":[[[39.087494,48.077781],[39.087853,48.077745],[39.08824,48.077699],[39.088488,48.077676],[39.088488,48.077669],[39.088478,48.077636],[39.088456,48.077531],[39.088446,48.077498],[39.088442,48.077496],[39.088245,48.077519],[39.088146,48.077531],[39.087782,48.07757],[39.087454,48.077598],[39.087494,48.077781]]]}},{"type":"Feature","properties":{"cadnum":"4410345600:01:004:0025"},"geometry":{"type":"Polygon","coordinates":[[[39.086987,48.076865],[39.087333,48.076853],[39.08732,48.076694],[39.087207,48.076757],[39.087027,48.076838],[39.086991,48.076859],[39.086987,48.076865]]]}},{"type":"Feature","properties":{"cadnum":"4410345600:01:004:0065"},"geometry":{"type":"Polygon","coordinates":[[[39.088446,48.076916],[39.088771,48.076847],[39.08904,48.076784],[39.0893,48.076712],[39.089255,48.076649],[39.089237,48.076652],[39.089188,48.076598],[39.089161,48.076559],[39.089157,48.076559],[39.089027,48.076577],[39.08895,48.076598],[39.088901,48.076607],[39.088842,48.076622],[39.088389,48.076724],[39.088446,48.076916]]]}},{"type":"Feature","properties":{"cadnum":"4410345600:01:004:0020"},"geometry":{"type":"Polygon","coordinates":[[[39.087769,48.077925],[39.087046,48.078012],[39.087053499999996,48.078022],[39.087053,48.078022],[39.087167,48.078174],[39.087836,48.078141],[39.08780641293536,48.07804834577125],[39.087769,48.077925]]]}},{"type":"Feature","properties":{"cadnum":"4410345600:01:004:0023"},"geometry":{"type":"Polygon","coordinates":[[[39.089048,48.077876],[39.089031,48.077727],[39.088698,48.07775],[39.088735,48.07787],[39.089048,48.077876]]]}},{"type":"Feature","properties":{"cadnum":"4410345600:01:004:0067"},"geometry":{"type":"Polygon","coordinates":[[[39.087226,48.0767],[39.087391,48.076688],[39.08784,48.076646],[39.088249,48.076613],[39.088245,48.076607],[39.088285,48.076604],[39.088268,48.076535],[39.088276,48.076535],[39.088272,48.076496],[39.088326,48.076499],[39.08833,48.076457],[39.088272,48.076454],[39.088268,48.076448],[39.088043,48.076457],[39.088043,48.076439],[39.087819,48.076424],[39.087652,48.076412],[39.087226,48.0767]]]}},{"type":"Feature","properties":{"cadnum":"4410345600:01:004:0066"},"geometry":{"type":"Polygon","coordinates":[[[39.08833,48.076457],[39.088366,48.076454],[39.088608,48.07637],[39.088645,48.076358],[39.088595,48.076292],[39.088523,48.076238],[39.088488,48.076217],[39.088352,48.076121],[39.087819,48.076424],[39.088043,48.076439],[39.088043,48.076457],[39.088268,48.076448],[39.088272,48.076454],[39.08833,48.076457]]]}},{"type":"Feature","properties":{"cadnum":"4410345600:01:004:0019"},"geometry":{"type":"Polygon","coordinates":[[[39.088626,48.078081],[39.088564,48.077859],[39.088551,48.077859],[39.087859,48.077916],[39.087769,48.077925],[39.08779842180095,48.078022],[39.087798,48.078022],[39.08780641293536,48.07804834577125],[39.087833,48.078136],[39.08783440336135,48.078136],[39.087836,48.078141],[39.087876,48.078137],[39.088102,48.078126],[39.088626,48.078081]]]}},{"type":"Feature","properties":{"cadnum":"4410345600:01:005:0004"},"geometry":{"type":"Polygon","coordinates":[[[39.087454,48.07589],[39.087454,48.075872],[39.087427,48.075875],[39.087427,48.07589],[39.087454,48.07589]]]}},{"type":"Feature","properties":{"cadnum":"4410345600:01:004:0024"},"geometry":{"type":"Polygon","coordinates":[[[39.087333,48.076853],[39.088276,48.076814],[39.088262,48.076625],[39.087853,48.076637],[39.0874,48.076652],[39.08732,48.076694],[39.087333,48.076853]]]}},{"type":"Feature","properties":{"cadnum":"4410345600:01:004:0027"},"geometry":{"type":"Polygon","coordinates":[[[39.086983,48.077828],[39.087494,48.077781],[39.087454,48.077598],[39.086933,48.077639],[39.086983,48.077828]]]}},{"type":"Feature","properties":{"cadnum":"4410345600:01:005:0003"},"geometry":{"type":"Polygon","coordinates":[[[39.086817,48.075866],[39.086817,48.07585],[39.08679,48.07585],[39.08679,48.075866],[39.086817,48.075866]]]}},{"type":"Feature","properties":{"cadnum":"4410345600:01:004:0018"},"geometry":{"type":"Polygon","coordinates":[[[39.086915,48.077307],[39.08741,48.077255],[39.087369,48.077072],[39.086884,48.077117],[39.086915,48.077307]]]}},{"type":"Feature","properties":{"cadnum":"4410345600:01:004:0017"},"geometry":{"type":"Polygon","coordinates":[[[39.08741,48.077255],[39.087957,48.077201],[39.088393,48.07716],[39.088343,48.076976],[39.087899,48.077022],[39.087369,48.077072],[39.08741,48.077255]]]}},{"type":"Feature","properties":{"cadnum":"4410345600:01:005:0006"},"geometry":{"type":"Polygon","coordinates":[[[39.088779,48.075944],[39.088779,48.075926],[39.088702,48.075926],[39.088702,48.075941],[39.088779,48.075944]]]}},{"type":"Feature","properties":{"cadnum":"4410345600:01:005:0005"},"geometry":{"type":"Polygon","coordinates":[[[39.087993,48.075914],[39.087993,48.075899],[39.087966,48.075899],[39.087966,48.075914],[39.087993,48.075914]]]}},{"type":"Feature","properties":{"cadnum":"4410345600:01:006:0007"},"geometry":{"type":"Polygon","coordinates":[[[39.083182,48.095045],[39.083182,48.095021],[39.083146,48.095021],[39.083146,48.095045],[39.083182,48.095045]]]}},{"type":"Feature","properties":{"cadnum":"4410345600:01:006:0006"},"geometry":{"type":"Polygon","coordinates":[[[39.082024,48.094724],[39.082024,48.0947],[39.081987,48.0947],[39.081987,48.094724],[39.082024,48.094724]]]}},{"type":"Feature","properties":{"cadnum":"4410345600:01:002:0129"},"geometry":{"type":"Polygon","coordinates":[[[39.090603,48.08431],[39.0908,48.084238],[39.090845,48.084223],[39.090899,48.084208],[39.090985,48.084178],[39.090998,48.084175],[39.090849,48.083974],[39.090792,48.083893],[39.090738,48.083914],[39.090406,48.084046],[39.090603,48.08431]]]}},{"type":"Feature","properties":{"cadnum":"4410345600:01:002:0147"},"geometry":{"type":"Polygon","coordinates":[[[39.089876,48.08452],[39.09019,48.084412],[39.090006,48.08422],[39.089947,48.08425],[39.08971,48.08437],[39.089876,48.08452]]]}},{"type":"Feature","properties":{"cadnum":"4410345600:01:002:0047"},"geometry":{"type":"Polygon","coordinates":[[[39.091236,48.085213],[39.091981,48.085027],[39.091824,48.084841],[39.091092,48.085024],[39.091236,48.085213]]]}},{"type":"Feature","properties":{"cadnum":"4410345600:01:002:0046"},"geometry":{"type":"Polygon","coordinates":[[[39.090356,48.085399],[39.090585,48.085351],[39.091008,48.085267],[39.091236,48.085213],[39.091092,48.085024],[39.090966,48.085058],[39.090262,48.085216],[39.090302,48.085291],[39.090324,48.085333],[39.090356,48.085399]]]}},{"type":"Feature","properties":{"cadnum":"4410345600:01:003:0013"},"geometry":{"type":"Polygon","coordinates":[[[39.09354,48.082888],[39.093595,48.082881],[39.093671,48.082872],[39.093782,48.082852],[39.093819,48.082845],[39.093748,48.082654],[39.093706,48.082582],[39.093685,48.082558],[39.093675,48.082407],[39.093666,48.082342],[39.093082,48.082458],[39.093369,48.082563],[39.093343,48.082614],[39.093383,48.08263],[39.093419,48.082654],[39.093455,48.082734],[39.093465,48.082747],[39.093499,48.082768],[39.09354,48.082888]]]}},{"type":"Feature","properties":{"cadnum":"4410345600:01:002:0137"},"geometry":{"type":"Polygon","coordinates":[[[39.090172,48.085003],[39.090279,48.08497],[39.09054,48.084877],[39.090773,48.084802],[39.091056,48.084731],[39.090931,48.084562],[39.090486,48.084685],[39.090352,48.084733],[39.090109,48.084802],[39.09006,48.084817],[39.090109,48.084892],[39.090131,48.084931],[39.090172,48.085003]]]}},{"type":"Feature","properties":{"cadnum":"4410345600:01:002:0037"},"geometry":{"type":"Polygon","coordinates":[[[39.084683,48.084493],[39.084664,48.084394],[39.084409,48.084424],[39.084314,48.084439],[39.083794,48.084472],[39.083299,48.084529],[39.083268,48.084694],[39.083948,48.084598],[39.083948,48.08459753693495],[39.084683,48.084493]]]}},{"type":"Feature","properties":{"cadnum":"4410345600:01:002:0049"},"geometry":{"type":"Polygon","coordinates":[[[39.088662,48.081544],[39.088232,48.081651],[39.088241522580645,48.081692],[39.088241,48.081692],[39.088281,48.081862],[39.088335,48.08196],[39.088415,48.082065],[39.088474,48.082078],[39.088541,48.082096],[39.088555,48.082071],[39.088564,48.082029],[39.088635,48.082054],[39.088681,48.081978],[39.088689,48.081949],[39.088694,48.081895],[39.088676,48.081692],[39.088674992366414,48.081692],[39.088662,48.081544]]]}},{"type":"Feature","properties":{"cadnum":"4410345600:01:002:0130"},"geometry":{"type":"Polygon","coordinates":[[[39.086341,48.085058],[39.086475,48.085027],[39.086555,48.085009],[39.086551,48.085006],[39.086561,48.085003],[39.086511,48.084904],[39.086278,48.084949],[39.086291,48.084976],[39.086335,48.085058],[39.086341,48.085058]]]}},{"type":"Feature","properties":{"cadnum":"4410345600:01:002:0057"},"geometry":{"type":"Polygon","coordinates":[[[39.086107,48.084586],[39.086444,48.084502],[39.086983,48.084382],[39.087377,48.08428],[39.087301,48.084157],[39.086838,48.084283],[39.086052,48.084454],[39.086039,48.084457],[39.086107,48.084586]]]}},{"type":"Feature","properties":{"cadnum":"4410345600:01:002:0126"},"geometry":{"type":"Polygon","coordinates":[[[39.087737,48.085006],[39.087926,48.084967],[39.088199,48.084892],[39.087993,48.084649],[39.087939,48.084646],[39.087853,48.08464],[39.08775,48.084646],[39.087652,48.084664],[39.087593,48.084652],[39.087549,48.084662],[39.087576,48.084715],[39.087589,48.084733],[39.087616,48.084778],[39.087737,48.085006]]]}},{"type":"Feature","properties":{"cadnum":"4410345600:01:002:0139"},"geometry":{"type":"Polygon","coordinates":[[[39.085415,48.083845],[39.085649,48.083788],[39.085639,48.083776],[39.08559,48.083671],[39.08541,48.083319],[39.085272,48.083098],[39.085029,48.083167],[39.08506,48.083218],[39.08528,48.083572],[39.085339,48.083662],[39.085393,48.083749],[39.085415,48.083845]]]}},{"type":"Feature","properties":{"cadnum":"4410345600:01:002:0055"},"geometry":{"type":"Polygon","coordinates":[[[39.086008,48.083719],[39.086142,48.08368],[39.086327,48.083584],[39.086308,48.083569],[39.086331,48.083557],[39.086291,48.083521],[39.086228,48.083335],[39.086129,48.083107],[39.085806,48.083266],[39.085846,48.08335],[39.085936,48.083545],[39.085985,48.083662],[39.086008,48.083719]]]}},{"type":"Feature","properties":{"cadnum":"4410345600:01:002:0056"},"geometry":{"type":"Polygon","coordinates":[[[39.085806,48.083266],[39.086129,48.083107],[39.085824,48.082423],[39.085496,48.082656],[39.085806,48.083266]]]}},{"type":"Feature","properties":{"cadnum":"4410345600:01:002:0052"},"geometry":{"type":"Polygon","coordinates":[[[39.086052,48.084454],[39.086838,48.084283],[39.087301,48.084157],[39.087261,48.084082],[39.086794,48.084175],[39.086232,48.084286],[39.085962,48.084343],[39.085981,48.084373],[39.085995,48.084394],[39.086012,48.084388],[39.086052,48.084454]]]}},{"type":"Feature","properties":{"cadnum":"4410345600:01:002:0051"},"geometry":{"type":"Polygon","coordinates":[[[39.086991,48.08539],[39.086979,48.085361],[39.0869788115942,48.085361],[39.086933,48.085252],[39.086574,48.085325],[39.08658924087591,48.085361],[39.086589,48.085361],[39.086632,48.085462],[39.086991,48.08539]]]}},{"type":"Feature","properties":{"cadnum":"4410345600:01:007:0076"},"geometry":{"type":"Polygon","coordinates":[[[39.079917,48.084481],[39.080182,48.084439],[39.080115,48.084274],[39.079868,48.084298],[39.079917,48.084481]]]}},{"type":"Feature","properties":{"cadnum":"4410345600:01:007:0040"},"geometry":{"type":"Polygon","coordinates":[[[39.081413,48.085309],[39.081404,48.085153],[39.081404,48.085039],[39.081148,48.085066],[39.081144,48.085105],[39.081108,48.085294],[39.08110344217687,48.085361],[39.081102,48.085361],[39.081098,48.085441],[39.081144,48.085606],[39.081165,48.085663],[39.081471,48.085636],[39.081427,48.085429],[39.081413,48.085309]]]}},{"type":"Feature","properties":{"cadnum":"4410345600:01:007:0075"},"geometry":{"type":"Polygon","coordinates":[[[39.080155,48.08512],[39.080186,48.085111],[39.080272,48.085093],[39.080345,48.085075],[39.080339,48.085063],[39.080322,48.085018],[39.080345,48.085012],[39.080318,48.08476],[39.080182,48.084439],[39.079917,48.084481],[39.079949,48.084613],[39.080012,48.08476],[39.080062,48.084934],[39.080092,48.085045],[39.08011,48.085045],[39.080119,48.085087],[39.080155,48.08512]]]}},{"type":"Feature","properties":{"cadnum":"4410345600:01:007:0048"},"geometry":{"type":"Polygon","coordinates":[[[39.077029,48.087478],[39.077479,48.087415],[39.077465,48.087044],[39.07733,48.087046],[39.077286,48.087046],[39.077173,48.087049],[39.077039,48.087049],[39.077012,48.087046],[39.077029,48.087478]]]}},{"type":"Feature","properties":{"cadnum":"4410345600:01:007:0064"},"geometry":{"type":"Polygon","coordinates":[[[39.073297,48.088441],[39.073324,48.088439],[39.073351,48.088439],[39.073714,48.088387],[39.073561,48.08798],[39.073215,48.087985],[39.073297,48.088441]]]}},{"type":"Feature","properties":{"cadnum":"4410345600:01:007:0035"},"geometry":{"type":"Polygon","coordinates":[[[39.07662,48.086468],[39.076647,48.086461],[39.076819,48.086428],[39.076809,48.08641],[39.076804,48.086401],[39.07675,48.086261],[39.076683,48.086116],[39.076454,48.085606],[39.076284,48.085597],[39.076494,48.086134],[39.076508,48.086176],[39.07653,48.08623],[39.076611,48.086434],[39.076607,48.086434],[39.07662,48.086468]]]}},{"type":"Feature","properties":{"cadnum":"4410345600:01:007:0029"},"geometry":{"type":"Polygon","coordinates":[[[39.075865,48.086012],[39.076171,48.085961],[39.0761,48.085801],[39.075804,48.085852],[39.075865,48.086012]]]}},{"type":"Feature","properties":{"cadnum":"4410345600:01:007:0081"},"geometry":{"type":"Polygon","coordinates":[[[39.073265,48.087818],[39.073593,48.087814],[39.073593,48.08756],[39.073597,48.087262],[39.073351,48.087251],[39.073288,48.087257],[39.073274,48.087257],[39.073274,48.087493],[39.073265,48.087818]]]}},{"type":"Feature","properties":{"cadnum":"4410345600:01:006:0052"},"geometry":{"type":"Polygon","coordinates":[[[39.0772,48.088928],[39.0772,48.088772],[39.076876,48.088748],[39.076872,48.088859],[39.076836,48.089008],[39.07683432116788,48.089031],[39.076834,48.089031],[39.076813,48.089317],[39.076935,48.089312],[39.077115,48.089312],[39.077119,48.089279],[39.077123,48.089234],[39.07714492118227,48.089145],[39.077145,48.089145],[39.0772,48.088928]]]}},{"type":"Feature","properties":{"cadnum":"4410345600:01:007:0049"},"geometry":{"type":"Polygon","coordinates":[[[39.077033,48.087542],[39.077483,48.087478],[39.077479,48.087415],[39.077029,48.087478],[39.077033,48.087542]]]}},{"type":"Feature","properties":{"cadnum":"4410345600:01:007:0057"},"geometry":{"type":"Polygon","coordinates":[[[39.073714,48.088387],[39.074007,48.088354],[39.073876,48.087949],[39.073561,48.08798],[39.073714,48.088387]]]}},{"type":"Feature","properties":{"cadnum":"4410345600:01:007:0038"},"geometry":{"type":"Polygon","coordinates":[[[39.075219,48.086806],[39.075389,48.086779],[39.075498,48.086761],[39.075574,48.08675],[39.075538,48.086686],[39.075534,48.086686],[39.075336,48.086317],[39.075188,48.086341],[39.075008,48.086399],[39.075219,48.086806]]]}},{"type":"Feature","properties":{"cadnum":"4410345600:01:007:0030"},"geometry":{"type":"Polygon","coordinates":[[[39.077442,48.086797],[39.077523,48.086786],[39.077865,48.086764],[39.077743,48.086381],[39.077555,48.086408],[39.07742,48.086434],[39.077349,48.08645],[39.077406,48.08659],[39.077379,48.086597],[39.077393,48.086635],[39.077406,48.086675],[39.077425,48.08674],[39.077442,48.086797]]]}},{"type":"Feature","properties":{"cadnum":"4410345600:01:006:0034"},"geometry":{"type":"Polygon","coordinates":[[[39.076836,48.089008],[39.076872,48.088859],[39.076876,48.088718],[39.076513,48.088748],[39.076508,48.088685],[39.076293,48.088712],[39.07626132101617,48.089031],[39.076261,48.089031],[39.076257525,48.089069225],[39.07625,48.089145],[39.07625063636364,48.089145],[39.076248,48.089174],[39.076221,48.089288],[39.076221,48.089377],[39.076383,48.089345],[39.076504,48.089342],[39.076553,48.089342],[39.076563,48.089345],[39.076607,48.089339],[39.076607,48.089335],[39.076756,48.089321],[39.076791,48.089317],[39.076813,48.089317],[39.07682562937063,48.089145],[39.076826,48.089145],[39.076836,48.089008]]]}},{"type":"Feature","properties":{"cadnum":"4410345600:01:007:0028"},"geometry":{"type":"Polygon","coordinates":[[[39.076266,48.086521],[39.076414,48.086494],[39.076171,48.085961],[39.075865,48.086012],[39.07597,48.086297],[39.076045,48.086482],[39.07606,48.086519],[39.076091,48.086512],[39.07618,48.086494],[39.07619,48.086515],[39.076257,48.086503],[39.076266,48.086521]]]}},{"type":"Feature","properties":{"cadnum":"4410345600:01:006:0035"},"geometry":{"type":"Polygon","coordinates":[[[39.076513,48.088748],[39.076876,48.088718],[39.076881,48.088652],[39.076508,48.088685],[39.076513,48.088748]]]}},{"type":"Feature","properties":{"cadnum":"4410345600:01:006:0018"},"geometry":{"type":"Polygon","coordinates":[[[39.077949,48.089081],[39.077949,48.089066],[39.078026,48.089048],[39.077986,48.088714],[39.077708,48.088727],[39.07765645977012,48.089031],[39.077656,48.089031],[39.077649,48.089075],[39.077645,48.089145],[39.077645363636364,48.089145],[39.077645,48.089152],[39.077645,48.089276],[39.077955,48.08929],[39.07795083732057,48.089145],[39.077951,48.089145],[39.077949,48.089081]]]}},{"type":"Feature","properties":{"cadnum":"4410345600:01:006:0019"},"geometry":{"type":"Polygon","coordinates":[[[39.076293,48.088712],[39.076108,48.088697],[39.07602822767857,48.089031],[39.076028,48.089031],[39.07601482296665,48.0890871244013],[39.076001,48.089145],[39.07600123478261,48.089145],[39.075974,48.089261],[39.075938,48.089273],[39.075934,48.089321],[39.075942,48.08939],[39.075942,48.089405],[39.076117,48.08939],[39.076171,48.08939],[39.076203,48.089384],[39.076221,48.089377],[39.076221,48.089288],[39.076248,48.089174],[39.076257525,48.089069225],[39.076293,48.088712]]]}},{"type":"Feature","properties":{"cadnum":"4410345600:01:007:0046"},"geometry":{"type":"Polygon","coordinates":[[[39.076337,48.087613],[39.076603,48.087607],[39.076567,48.087166],[39.076584,48.087164],[39.07658,48.087109],[39.076567,48.087028],[39.076536,48.087031],[39.07645,48.087037],[39.076356,48.087044],[39.076351,48.087019],[39.076207,48.087028],[39.076211,48.087049],[39.076261,48.087266],[39.076301,48.087509],[39.076337,48.087613]]]}},{"type":"Feature","properties":{"cadnum":"4410345600:01:007:0078"},"geometry":{"type":"Polygon","coordinates":[[[39.078012,48.086203],[39.078125,48.086179],[39.078121,48.08617],[39.078179,48.086161],[39.078265,48.08615],[39.078255,48.086125],[39.078251,48.08603],[39.078314,48.086017],[39.078287,48.085957],[39.078232,48.085897],[39.078188,48.085814],[39.078138,48.08569],[39.078112,48.085616],[39.077779,48.085672],[39.077896,48.085954],[39.077955,48.086059],[39.077972,48.086101],[39.077999,48.086179],[39.078012,48.086203]]]}},{"type":"Feature","properties":{"cadnum":"4410345600:01:007:0079"},"geometry":{"type":"Polygon","coordinates":[[[39.077779,48.085672],[39.078112,48.085616],[39.078067,48.085483],[39.077735,48.085567],[39.077779,48.085672]]]}},{"type":"Feature","properties":{"cadnum":"4410345600:01:007:0082"},"geometry":{"type":"Polygon","coordinates":[[[39.075754,48.087415],[39.07628,48.087371],[39.076261,48.087266],[39.076211,48.087049],[39.076207,48.087028],[39.076005,48.087037],[39.075888,48.087046],[39.075762,48.087053],[39.075718,48.087055],[39.075722,48.0871],[39.075727,48.087146],[39.075749,48.087311],[39.075754,48.087415]]]}},{"type":"Feature","properties":{"cadnum":"4410345600:01:007:0052"},"geometry":{"type":"Polygon","coordinates":[[[39.076418,48.086506],[39.07662,48.086468],[39.076607,48.086434],[39.076611,48.086434],[39.07653,48.08623],[39.076508,48.086176],[39.076494,48.086134],[39.076333,48.08572],[39.076087,48.085774],[39.0761,48.085801],[39.076171,48.085961],[39.076414,48.086494],[39.076418,48.086506]]]}},{"type":"Feature","properties":{"cadnum":"4410345600:01:007:0065"},"geometry":{"type":"Polygon","coordinates":[[[39.073265,48.087854],[39.073593,48.087845],[39.073584,48.087589],[39.07358,48.087293],[39.073333,48.087286],[39.07327,48.087289],[39.073257,48.087289],[39.073265,48.087527],[39.073265,48.087854]]]}},{"type":"Feature","properties":{"cadnum":"4410345600:01:007:0047"},"geometry":{"type":"Polygon","coordinates":[[[39.07637,48.087713],[39.076611,48.087707],[39.076603,48.087607],[39.076337,48.087613],[39.07637,48.087713]]]}},{"type":"Feature","properties":{"cadnum":"4410345600:01:007:0053"},"geometry":{"type":"Polygon","coordinates":[[[39.076087,48.085774],[39.076333,48.08572],[39.076284,48.085597],[39.076028,48.085651],[39.076087,48.085774]]]}},{"type":"Feature","properties":{"cadnum":"4410345600:01:007:0020"},"geometry":{"type":"Polygon","coordinates":[[[39.080272,48.08887],[39.080295,48.088861],[39.080259,48.088817],[39.080236,48.088823],[39.080272,48.08887]]]}},{"type":"Feature","properties":{"cadnum":"4410345600:01:006:0024"},"geometry":{"type":"Polygon","coordinates":[[[39.080968,48.088988],[39.080645,48.08897],[39.080607,48.089145],[39.08060815062761,48.089145],[39.080582,48.08927],[39.080573,48.089426],[39.080662,48.089428],[39.080869,48.089435],[39.080928,48.089435],[39.080928,48.089375],[39.080957645892326,48.08908362322971],[39.080968,48.088988]]]}},{"type":"Feature","properties":{"cadnum":"4410345600:01:006:0049"},"geometry":{"type":"Polygon","coordinates":[[[39.079387,48.088943],[39.0794,48.088808],[39.07902,48.088805],[39.079014,48.088852],[39.078966,48.089145],[39.07896618446602,48.089145],[39.078951,48.089237],[39.078943,48.089333],[39.078961,48.089333],[39.079087,48.089339],[39.079176,48.089345],[39.079244,48.089345],[39.079257,48.089195],[39.079297,48.089092],[39.079387,48.088943]]]}},{"type":"Feature","properties":{"cadnum":"4410345600:01:006:0056"},"geometry":{"type":"Polygon","coordinates":[[[39.082832,48.089031],[39.082832,48.088886],[39.082653,48.088865],[39.082612,48.08891],[39.082598612765956,48.089031],[39.082598,48.089031],[39.082567,48.089317],[39.082572,48.089462],[39.082729,48.089468],[39.082869,48.089486],[39.082869,48.089474],[39.082873,48.089435],[39.082823,48.089428],[39.082832,48.089237],[39.082832,48.089145],[39.082832,48.089031]]]}},{"type":"Feature","properties":{"cadnum":"4410345600:01:007:0033"},"geometry":{"type":"Polygon","coordinates":[[[39.080402,48.086528],[39.080748,48.086494],[39.080758,48.086348],[39.080766,48.086095],[39.080295,48.08611],[39.080358,48.086408],[39.080345,48.086408],[39.080335,48.086446],[39.080286,48.086446],[39.080282,48.086528],[39.080402,48.086528]]]}},{"type":"Feature","properties":{"cadnum":"4410345600:01:006:0058"},"geometry":{"type":"Polygon","coordinates":[[[39.083215,48.088916],[39.082832,48.088886],[39.082832,48.089031],[39.082832,48.089145],[39.082832,48.089237],[39.083354,48.089213],[39.083286,48.089081],[39.083215,48.088916]]]}},{"type":"Feature","properties":{"cadnum":"4410345600:01:007:0071"},"geometry":{"type":"Polygon","coordinates":[[[39.081849,48.087749],[39.082429,48.087742],[39.082815,48.087733],[39.083052,48.087736],[39.083043,48.087658],[39.083039,48.087622],[39.083043,48.087596],[39.083003,48.087596],[39.082932,48.087589],[39.082926,48.087613],[39.082519,48.087593],[39.081911,48.087578],[39.081849,48.087749]]]}},{"type":"Feature","properties":{"cadnum":"4410345600:01:006:0022"},"geometry":{"type":"Polygon","coordinates":[[[39.082096,48.089015],[39.081737,48.089012],[39.081731,48.089031],[39.08173,48.089031],[39.081702857142815,48.08912011904776],[39.081695,48.089145],[39.08169527918782,48.089145],[39.08167,48.089228],[39.081628,48.089354],[39.081637,48.089402],[39.081647,48.089453],[39.081763,48.089444],[39.081817,48.089441],[39.081871,48.089435],[39.081871,48.089459],[39.082001,48.08945],[39.081997,48.089426],[39.082123,48.089419],[39.082096,48.089357],[39.082087,48.089333],[39.082091980132454,48.089145],[39.082092,48.089145],[39.082096,48.089015]]]}},{"type":"Feature","properties":{"cadnum":"4410345600:01:006:0021"},"geometry":{"type":"Polygon","coordinates":[[[39.0821,48.088972],[39.082513,48.08897],[39.082486,48.088847],[39.082104,48.088861],[39.0821,48.088972]]]}},{"type":"Feature","properties":{"cadnum":"4410345600:01:006:0039"},"geometry":{"type":"Polygon","coordinates":[[[39.080573,48.088856],[39.080259,48.088819],[39.08023709333333,48.089031],[39.080236,48.089031],[39.080228,48.089119],[39.080223,48.089145],[39.080223411764706,48.089145],[39.080219,48.08917],[39.080236,48.089219],[39.080228,48.08927],[39.080223,48.089285],[39.080209,48.089405],[39.080303,48.08941],[39.080379,48.089408],[39.080421,48.08941],[39.080475,48.089414],[39.080483,48.089321],[39.080488,48.089285],[39.080496,48.08927],[39.080528,48.089105],[39.080573,48.088856]]]}},{"type":"Feature","properties":{"cadnum":"4410345600:01:007:0077"},"geometry":{"type":"Polygon","coordinates":[[[39.083228,48.086452],[39.083402,48.086434],[39.083192,48.086236],[39.083146,48.086194],[39.083016,48.086132],[39.083008,48.086116],[39.082949,48.086125],[39.082945,48.086116],[39.082693,48.086143],[39.082657,48.086146],[39.082519,48.086137],[39.082496,48.086137],[39.082473,48.086179],[39.082532,48.086194],[39.082559,48.086215],[39.082662,48.086266],[39.082706,48.086332],[39.082989,48.086383],[39.083138,48.086426],[39.083228,48.086452]]]}},{"type":"Feature","properties":{"cadnum":"4410345600:01:006:0023"},"geometry":{"type":"Polygon","coordinates":[[[39.082096,48.089015],[39.082104,48.088861],[39.082109,48.088705],[39.081836,48.088703],[39.081737,48.089012],[39.082096,48.089015]]]}},{"type":"Feature","properties":{"cadnum":"4410345600:01:007:0039"},"geometry":{"type":"Polygon","coordinates":[[[39.081746,48.086261],[39.08197,48.086203],[39.082091,48.086161],[39.081993,48.085952],[39.081831,48.085948],[39.08175,48.085927],[39.081538,48.085963],[39.08158,48.086161],[39.081588,48.086192],[39.081718,48.086183],[39.081746,48.086261]]]}},{"type":"Feature","properties":{"cadnum":"4410345600:01:006:0050"},"geometry":{"type":"Polygon","coordinates":[[[39.0794,48.088808],[39.07941,48.088754],[39.07905,48.088772],[39.079024,48.088774],[39.07902,48.088805],[39.0794,48.088808]]]}},{"type":"Feature","properties":{"cadnum":"4410345600:01:007:0019"},"geometry":{"type":"Polygon","coordinates":[[[39.080406,48.089045],[39.080406,48.089027],[39.080379,48.089027],[39.080379,48.089045],[39.080406,48.089045]]]}},{"type":"Feature","properties":{"cadnum":"4410345600:01:007:0034"},"geometry":{"type":"Polygon","coordinates":[[[39.080295,48.08611],[39.080766,48.086095],[39.080766,48.08609],[39.080295,48.086104],[39.080295,48.08611]]]}},{"type":"Feature","properties":{"cadnum":"4410345600:01:007:0041"},"geometry":{"type":"Polygon","coordinates":[[[39.08158,48.086161],[39.081538,48.085963],[39.081471,48.085636],[39.081165,48.085663],[39.081305,48.085966],[39.081427,48.086161],[39.08158,48.086161]]]}},{"type":"Feature","properties":{"cadnum":"4410345600:01:006:0044"},"geometry":{"type":"Polygon","coordinates":[[[39.081584,48.088757],[39.081381,48.088739],[39.081332,48.088985],[39.081303,48.089145],[39.08130456221198,48.089145],[39.081287,48.089248],[39.081287,48.089446],[39.081301,48.089446],[39.08149,48.089444],[39.081525,48.089444],[39.081534,48.089285],[39.081554978021906,48.08905332967112],[39.081584,48.088757]]]}},{"type":"Feature","properties":{"cadnum":"4410345600:01:007:0002"},"geometry":{"type":"Polygon","coordinates":[[[39.080245,48.088739],[39.080318,48.088736],[39.080312,48.088688],[39.080241,48.088688],[39.080245,48.088739]]]}},{"type":"Feature","properties":{"cadnum":"4410345600:01:006:0001"},"geometry":{"type":"Polygon","coordinates":[[[39.074756,48.09263],[39.074756,48.092606],[39.07472,48.092606],[39.07472,48.09263],[39.074756,48.09263]]]}},{"type":"Feature","properties":{"cadnum":"4410345600:01:006:0004"},"geometry":{"type":"Polygon","coordinates":[[[39.076603,48.090242],[39.076813,48.090227],[39.076777,48.089753],[39.076756,48.089504],[39.07675,48.089471],[39.076526,48.089486],[39.076553,48.089762],[39.076603,48.090242]]]}},{"type":"Feature","properties":{"cadnum":"4410345600:01:006:0037"},"geometry":{"type":"Polygon","coordinates":[[[39.076104,48.090266],[39.0761,48.089939],[39.076104,48.089783],[39.076108,48.089762],[39.076095,48.089684],[39.076108,48.089648],[39.076108,48.089626],[39.076104,48.089557],[39.076104,48.089539],[39.075875,48.089548],[39.075893,48.089984],[39.075897,48.090262],[39.076104,48.090266]]]}},{"type":"Feature","properties":{"cadnum":"4410345600:01:007:0006"},"geometry":{"type":"Polygon","coordinates":[[[39.072911,48.091256],[39.072875,48.091256],[39.072875,48.09128],[39.072911,48.09128],[39.072911,48.091256]]]}},{"type":"Feature","properties":{"cadnum":"4410345600:01:006:0005"},"geometry":{"type":"Polygon","coordinates":[[[39.076832,48.092486],[39.076041,48.092372],[39.075896,48.092814],[39.07589754314721,48.092814],[39.075871,48.092897],[39.076657,48.093014],[39.07674964550275,48.092731566137246],[39.076832,48.092486]]]}},{"type":"Feature","properties":{"cadnum":"4410345600:01:006:0063"},"geometry":{"type":"Polygon","coordinates":[[[39.076135,48.090271],[39.076127,48.089944],[39.076127,48.089789],[39.076131,48.089768],[39.076117,48.08969],[39.076131,48.089654],[39.076131,48.089633],[39.076121,48.089561],[39.076121,48.089543],[39.075893,48.089557],[39.07592,48.08999],[39.075928,48.090269],[39.076135,48.090271]]]}},{"type":"Feature","properties":{"cadnum":"4410345600:01:006:0033"},"geometry":{"type":"Polygon","coordinates":[[[39.078045,48.0902],[39.078058,48.08987],[39.077695,48.089861],[39.077708,48.089741],[39.077613,48.089735],[39.077339,48.089741],[39.077366,48.090077],[39.077402,48.090167],[39.077658,48.090161],[39.078045,48.0902]]]}},{"type":"Feature","properties":{"cadnum":"4410345600:01:006:0031"},"geometry":{"type":"Polygon","coordinates":[[[39.075259,48.09028],[39.075678,48.090262],[39.075659,48.090173],[39.075255,48.090193],[39.075259,48.09028]]]}},{"type":"Feature","properties":{"cadnum":"4410345600:01:006:0061"},"geometry":{"type":"Polygon","coordinates":[[[39.076135,48.090271],[39.076364,48.090251],[39.076347,48.089849],[39.076333,48.08969],[39.076328,48.089597],[39.076333,48.089564],[39.076333,48.089537],[39.076253,48.089539],[39.076217,48.089543],[39.076121,48.089543],[39.076121,48.089561],[39.076131,48.089633],[39.076131,48.089654],[39.076117,48.08969],[39.076131,48.089768],[39.076127,48.089789],[39.076127,48.089944],[39.076135,48.090271]]]}},{"type":"Feature","properties":{"cadnum":"4410345600:01:006:0030"},"geometry":{"type":"Polygon","coordinates":[[[39.075255,48.090193],[39.075659,48.090173],[39.075569,48.089737],[39.075569,48.089591],[39.075358,48.089591],[39.075362,48.089617],[39.075376,48.089843],[39.075238,48.089852],[39.075255,48.090193]]]}},{"type":"Feature","properties":{"cadnum":"4410345600:01:006:0041"},"geometry":{"type":"Polygon","coordinates":[[[39.076104,48.090266],[39.076333,48.090244],[39.076315,48.089686],[39.076311,48.089591],[39.076315,48.089561],[39.076315,48.089534],[39.076234,48.089534],[39.076198,48.089537],[39.076104,48.089539],[39.076104,48.089557],[39.076108,48.089626],[39.076108,48.089648],[39.076095,48.089684],[39.076108,48.089762],[39.076104,48.089783],[39.0761,48.089939],[39.076104,48.090266]]]}},{"type":"Feature","properties":{"cadnum":"4410345600:01:006:0046"},"geometry":{"type":"Polygon","coordinates":[[[39.078283,48.08981106361323],[39.078283,48.089812],[39.07838734430424,48.08980920506328],[39.078455,48.089808],[39.078455,48.089807392857146],[39.078507,48.089806],[39.078521,48.089633],[39.078525,48.08941],[39.078283,48.089403],[39.078283,48.08940360089686],[39.078232,48.089402],[39.078192,48.089402],[39.078094,48.089399],[39.078067,48.089672],[39.078062,48.089777],[39.078062,48.089815],[39.078283,48.08981106361323]]]}},{"type":"Feature","properties":{"cadnum":"4410345600:01:006:0032"},"geometry":{"type":"Polygon","coordinates":[[[39.078058,48.08987],[39.078062,48.089777],[39.078067,48.089672],[39.078094,48.089399],[39.077811,48.089386],[39.077668,48.089384],[39.077676,48.089548],[39.077676,48.089606],[39.077725,48.089606],[39.077716,48.089668],[39.077708,48.089741],[39.077695,48.089861],[39.078058,48.08987]]]}},{"type":"Feature","properties":{"cadnum":"4410345600:01:007:0007"},"geometry":{"type":"Polygon","coordinates":[[[39.073724,48.091871],[39.073724,48.091847],[39.073687,48.091847],[39.073691,48.091871],[39.073724,48.091871]]]}},{"type":"Feature","properties":{"cadnum":"4410345600:01:006:0054"},"geometry":{"type":"Polygon","coordinates":[[[39.076804,48.090151],[39.077083,48.09014],[39.077025,48.089953],[39.07706,48.089789],[39.077056,48.089686],[39.077052,48.089666],[39.077043,48.089566],[39.077016,48.08957],[39.077007,48.089459],[39.07694,48.089462],[39.07675,48.089471],[39.076756,48.089504],[39.076777,48.089753],[39.076804,48.090151]]]}},{"type":"Feature","properties":{"cadnum":"4410345600:01:002:0064"},"geometry":{"type":"Polygon","coordinates":[[[39.091878,48.087022],[39.092233,48.086966],[39.092215,48.08675],[39.091828,48.086788],[39.091878,48.087022]]]}},{"type":"Feature","properties":{"cadnum":"4410345600:01:002:0146"},"geometry":{"type":"Polygon","coordinates":[[[39.091725,48.086314],[39.092058,48.086261],[39.09204,48.086041],[39.091717,48.086099],[39.091645,48.08611],[39.091725,48.086314]]]}},{"type":"Feature","properties":{"cadnum":"4410345600:01:002:0145"},"geometry":{"type":"Polygon","coordinates":[[[39.090882,48.086452],[39.091079,48.086413],[39.091236,48.086392],[39.091348,48.086374],[39.091541,48.086341],[39.091725,48.086314],[39.091645,48.08611],[39.091331,48.086164],[39.091124,48.086197],[39.091025,48.086212],[39.090782,48.086252],[39.090805,48.086293],[39.090819,48.086321],[39.090845,48.086372],[39.090872,48.086434],[39.090882,48.086452]]]}},{"type":"Feature","properties":{"cadnum":"4410345600:01:002:0043"},"geometry":{"type":"Polygon","coordinates":[[[39.089318,48.088229],[39.089337,48.088223],[39.089441,48.088203],[39.089441,48.08820246376811],[39.089889,48.088114],[39.089799,48.087971],[39.089441,48.088041381852555],[39.089441,48.088041],[39.088985,48.088129],[39.088887,48.088154],[39.088798,48.088169],[39.088712,48.088192],[39.088735,48.088225],[39.088779,48.088298],[39.088815,48.088336],[39.088824,48.088349],[39.088909,48.088331],[39.089054,48.088283],[39.089184,48.088261],[39.089211,48.088249],[39.089255,48.088238],[39.08927,48.088235857142855],[39.08927,48.088236],[39.089318,48.088229]]]}},{"type":"Feature","properties":{"cadnum":"4410345600:01:002:0053"},"geometry":{"type":"Polygon","coordinates":[[[39.091065,48.086897],[39.091438,48.08683],[39.091815,48.086791],[39.091735,48.086563],[39.091389,48.086608],[39.090962,48.086657],[39.090989,48.086719],[39.091008,48.086761],[39.091039,48.086821],[39.091065,48.086897]]]}},{"type":"Feature","properties":{"cadnum":"4410345600:01:002:0036"},"geometry":{"type":"Polygon","coordinates":[[[39.090432,48.088436],[39.091025,48.088387],[39.091295,48.088372],[39.091484,48.088327],[39.091452,48.088267],[39.091425,48.08822],[39.091308,48.088247],[39.091263,48.088249],[39.091111,48.088265],[39.090369,48.088316],[39.090432,48.088436]]]}},{"type":"Feature","properties":{"cadnum":"4410345600:01:002:0040"},"geometry":{"type":"Polygon","coordinates":[[[39.08957,48.086326],[39.089987,48.086203],[39.090473,48.086081],[39.090469,48.086074],[39.090432,48.086005],[39.09041,48.085954],[39.090392,48.085915],[39.090159,48.085966],[39.090123,48.085975],[39.089475,48.086164],[39.08957,48.086326]]]}},{"type":"Feature","properties":{"cadnum":"4410345600:01:002:0042"},"geometry":{"type":"Polygon","coordinates":[[[39.090262,48.088156],[39.090186,48.08806],[39.089889,48.088114],[39.089337,48.088223],[39.089318,48.088229],[39.089255,48.088238],[39.089211,48.088249],[39.089184,48.088261],[39.089054,48.088283],[39.088909,48.088331],[39.088824,48.088349],[39.088855,48.088376],[39.088959,48.088447],[39.08917,48.088354],[39.089441,48.088306],[39.089441,48.08830497177419],[39.090262,48.088156]]]}},{"type":"Feature","properties":{"cadnum":"4410345600:01:002:0144"},"geometry":{"type":"Polygon","coordinates":[[[39.089368,48.088894],[39.089255,48.088907],[39.08926,48.088925],[39.089224,48.08893],[39.089094,48.088948],[39.08912896954315,48.089031],[39.089127,48.089031],[39.08917630833333,48.089143358333324],[39.089177,48.089145],[39.08917702877698,48.089145],[39.089188,48.08917],[39.08927,48.08915898023716],[39.08927,48.08916],[39.08952,48.089126],[39.089516,48.08911],[39.089574,48.089105],[39.089538,48.088925],[39.08948,48.08893],[39.089471,48.088894],[39.089413,48.088901],[39.089368,48.088907],[39.089368,48.088894]]]}},{"type":"Feature","properties":{"cadnum":"4410345600:01:002:0143"},"geometry":{"type":"Polygon","coordinates":[[[39.090782,48.086252],[39.091025,48.086212],[39.091124,48.086197],[39.091331,48.086164],[39.091645,48.08611],[39.091717,48.086099],[39.091658,48.085925],[39.091448,48.085957],[39.091083,48.086005],[39.091025,48.086017],[39.090953,48.086032],[39.090841,48.086056],[39.090702,48.086083],[39.090746,48.086183],[39.090773,48.086252],[39.090782,48.086252]]]}},{"type":"Feature","properties":{"cadnum":"4410345600:01:002:0034"},"geometry":{"type":"Polygon","coordinates":[[[39.089435,48.087271],[39.08935,48.087164],[39.08927,48.087185],[39.08927,48.08718521151937],[39.088343,48.087431],[39.088136,48.087487],[39.088075,48.087502],[39.087935,48.087547],[39.087939,48.087551],[39.087962,48.087575],[39.087993,48.087611],[39.087975,48.08762],[39.088016,48.087662],[39.088047,48.087649],[39.088326,48.087556],[39.088545,48.087502],[39.08927,48.0873138258427],[39.08927,48.087314],[39.089435,48.087271]]]}},{"type":"Feature","properties":{"cadnum":"4410345600:01:002:0044"},"geometry":{"type":"Polygon","coordinates":[[[39.089889,48.088114],[39.090186,48.08806],[39.090086,48.087914],[39.089799,48.087971],[39.089889,48.088114]]]}},{"type":"Feature","properties":{"cadnum":"4410345600:01:002:0141"},"geometry":{"type":"Polygon","coordinates":[[[39.0893001981138,48.08760067924514],[39.089441,48.087567],[39.089441,48.08756654545454],[39.089633,48.08752],[39.089593,48.087442],[39.08942068360331,48.08747934411074],[39.088515,48.087673],[39.088425,48.087695],[39.088419,48.087689],[39.088348,48.087707],[39.088132,48.087782],[39.088142,48.087785],[39.088155,48.0878],[39.088182,48.087833],[39.088232,48.087887],[39.088326,48.087851],[39.088446,48.087805],[39.08927,48.087607902512566],[39.08927,48.087608],[39.0893001981138,48.08760067924514]]]}},{"type":"Feature","properties":{"cadnum":"4410345600:01:002:0035"},"geometry":{"type":"Polygon","coordinates":[[[39.089624,48.08722],[39.089547,48.087113],[39.089441,48.08714044162437],[39.089441,48.08714],[39.08935,48.087164],[39.089435,48.087271],[39.089624,48.08722]]]}},{"type":"Feature","properties":{"cadnum":"4410345600:01:002:0054"},"geometry":{"type":"Polygon","coordinates":[[[39.091815,48.086791],[39.092786,48.086686],[39.092719,48.086432],[39.091735,48.086563],[39.091815,48.086791]]]}},{"type":"Feature","properties":{"cadnum":"4410345600:01:002:0059"},"geometry":{"type":"Polygon","coordinates":[[[39.087454,48.087055],[39.087481,48.087049],[39.087629,48.087013],[39.087756,48.087002],[39.087975,48.086977],[39.088604,48.086824],[39.088478,48.08657],[39.088452,48.086575],[39.088501,48.08668],[39.088096,48.086782],[39.087836,48.086848],[39.087616,48.086888],[39.087557,48.086893],[39.087553,48.086879],[39.087499,48.086897],[39.087391,48.08692],[39.087423,48.086993],[39.087454,48.087055]]]}},{"type":"Feature","properties":{"cadnum":"4410345600:01:002:0030"},"geometry":{"type":"Polygon","coordinates":[[[39.089094,48.088948],[39.088591,48.089021],[39.088433,48.089032],[39.088452,48.089145],[39.08845217575758,48.089145],[39.088461,48.089197],[39.088469,48.089273],[39.088622,48.089261],[39.089192,48.089177],[39.089129,48.089031],[39.08912896954315,48.089031],[39.089094,48.088948]]]}},{"type":"Feature","properties":{"cadnum":"4410345600:01:002:0004"},"geometry":{"type":"Polygon","coordinates":[[[39.086781,48.087364],[39.086853,48.087355],[39.086838,48.087304],[39.086767,48.087317],[39.086781,48.087364]]]}},{"type":"Feature","properties":{"cadnum":"4410345600:01:002:0013"},"geometry":{"type":"Polygon","coordinates":[[[39.087005,48.088225],[39.087005,48.088207],[39.086983,48.088207],[39.086983,48.088225],[39.087005,48.088225]]]}},{"type":"Feature","properties":{"cadnum":"4410345600:01:002:0019"},"geometry":{"type":"Polygon","coordinates":[[[39.086817,48.088796],[39.086817,48.088778],[39.086794,48.088778],[39.086794,48.088796],[39.086817,48.088796]]]}},{"type":"Feature","properties":{"cadnum":"4410345600:01:002:0016"},"geometry":{"type":"Polygon","coordinates":[[[39.08665,48.087496],[39.08665,48.087478],[39.086624,48.087478],[39.086624,48.087496],[39.08665,48.087496]]]}},{"type":"Feature","properties":{"cadnum":"4410345600:01:002:0060"},"geometry":{"type":"Polygon","coordinates":[[[39.088604,48.086824],[39.088924,48.086744],[39.088834,48.086555],[39.088811,48.086515],[39.088478,48.08657],[39.088604,48.086824]]]}},{"type":"Feature","properties":{"cadnum":"4410345600:01:002:0115"},"geometry":{"type":"Polygon","coordinates":[[[39.085756,48.088058],[39.085828,48.08804],[39.086008,48.087902],[39.086232,48.087682],[39.086062,48.087658],[39.085968,48.08764],[39.085922,48.087644],[39.085878,48.087631],[39.085806,48.087649],[39.085765,48.087664],[39.085536,48.087785],[39.085415,48.087838],[39.085756,48.088058]]]}},{"type":"Feature","properties":{"cadnum":"4410345600:01:002:0021"},"geometry":{"type":"Polygon","coordinates":[[[39.085976,48.088952],[39.085976,48.088934],[39.085954,48.088934],[39.085954,48.088952],[39.085976,48.088952]]]}},{"type":"Feature","properties":{"cadnum":"4410345600:01:002:0048"},"geometry":{"type":"Polygon","coordinates":[[[39.084926,48.087436],[39.085087,48.087415],[39.085375,48.087362],[39.085505,48.087337],[39.085482,48.087289],[39.085528,48.087253],[39.085446,48.087113],[39.085335,48.087146],[39.085006,48.087148],[39.08466,48.08714],[39.084926,48.087436]]]}},{"type":"Feature","properties":{"cadnum":"4410345600:01:002:0142"},"geometry":{"type":"Polygon","coordinates":[[[39.085725,48.08627],[39.085855,48.086233],[39.086115,48.086168],[39.086228,48.086141],[39.086304,48.086119],[39.086354,48.08611],[39.086461,48.086083],[39.08652,48.086068],[39.086461,48.085966],[39.086362,48.08599],[39.086291,48.086005],[39.086259,48.086017],[39.085932,48.086116],[39.085779,48.086159],[39.085725,48.08627]]]}},{"type":"Feature","properties":{"cadnum":"4410345600:01:002:0014"},"geometry":{"type":"Polygon","coordinates":[[[39.086888,48.088009],[39.086888,48.087994],[39.086866,48.087994],[39.086866,48.088009],[39.086888,48.088009]]]}},{"type":"Feature","properties":{"cadnum":"4410345600:01:002:0011"},"geometry":{"type":"Polygon","coordinates":[[[39.087261,48.088712],[39.087283,48.088705],[39.087253,48.088658],[39.08723,48.088663],[39.087261,48.088712]]]}},{"type":"Feature","properties":{"cadnum":"4410345600:01:002:0136"},"geometry":{"type":"Polygon","coordinates":[[[39.085006,48.087148],[39.085335,48.087146],[39.085446,48.087113],[39.085388,48.087002],[39.085173,48.087008],[39.085065,48.087008],[39.08466,48.08698],[39.084265,48.086989],[39.08466,48.08714],[39.085006,48.087148]]]}},{"type":"Feature","properties":{"cadnum":"4410345600:01:002:0125"},"geometry":{"type":"Polygon","coordinates":[[[39.084692,48.087638],[39.085146,48.087593],[39.085433,48.087529],[39.085639,48.087464],[39.085603,48.087415],[39.085582,48.087389],[39.085568,48.087367],[39.085519,48.087382],[39.085052,48.087455],[39.084706,48.0875],[39.084692,48.087638]]]}},{"type":"Feature","properties":{"cadnum":"4410345600:01:002:0018"},"geometry":{"type":"Polygon","coordinates":[[[39.086956,48.087433],[39.086956,48.087415],[39.086928,48.087415],[39.086928,48.087433],[39.086956,48.087433]]]}},{"type":"Feature","properties":{"cadnum":"4410345600:01:002:0012"},"geometry":{"type":"Polygon","coordinates":[[[39.087131,48.088441],[39.087131,48.088423],[39.087104,48.088427],[39.087104,48.088441],[39.087131,48.088441]]]}},{"type":"Feature","properties":{"cadnum":"4410345600:01:002:0020"},"geometry":{"type":"Polygon","coordinates":[[[39.086448,48.088861],[39.086448,48.088847],[39.086421,48.088847],[39.086421,48.088861],[39.086448,48.088861]]]}},{"type":"Feature","properties":{"cadnum":"4410345600:01:002:0010"},"geometry":{"type":"Polygon","coordinates":[[[39.087459,48.088967],[39.087459,48.088948],[39.087436,48.088948],[39.087436,48.088967],[39.087459,48.088967]]]}},{"type":"Feature","properties":{"cadnum":"4410345600:01:002:0015"},"geometry":{"type":"Polygon","coordinates":[[[39.086758,48.087754],[39.086758,48.087736],[39.086735,48.087736],[39.086735,48.087754],[39.086758,48.087754]]]}},{"type":"Feature","properties":{"cadnum":"4410345600:01:002:0061"},"geometry":{"type":"Polygon","coordinates":[[[39.087603,48.087197],[39.087764,48.08714],[39.088106,48.087062],[39.089018,48.086848],[39.088924,48.086744],[39.088604,48.086824],[39.087975,48.086977],[39.087756,48.087002],[39.087629,48.087013],[39.087486,48.087049],[39.087503,48.087068],[39.087522,48.087095],[39.087557,48.087137],[39.087603,48.087197]]]}},{"type":"Feature","properties":{"cadnum":"4410345600:01:002:0017"},"geometry":{"type":"Polygon","coordinates":[[[39.08652,48.087269],[39.086542,48.087262],[39.086511,48.087215],[39.086488,48.08722],[39.08652,48.087269]]]}},{"type":"Feature","properties":{"cadnum":"4410345600:01:002:0022"},"geometry":{"type":"Polygon","coordinates":[[[39.085478,48.089087],[39.085478,48.089072],[39.085456,48.089072],[39.085456,48.089087],[39.085478,48.089087]]]}},{"type":"Feature","properties":{"cadnum":"4410345600:01:002:0135"},"geometry":{"type":"Polygon","coordinates":[[[39.087176,48.086563],[39.087297,48.086539],[39.087324,48.086537],[39.087369,48.086533],[39.087377,48.086533],[39.087446,48.086521],[39.088213,48.086362],[39.088169,48.086257],[39.088159,48.086233],[39.087576,48.086357],[39.087287,48.086413],[39.087216,48.086417],[39.087117,48.086437],[39.087121,48.086446],[39.087117,48.086446],[39.087127,48.086464],[39.087144,48.086501],[39.087176,48.086563]]]}},{"type":"Feature","properties":{"cadnum":"4410345600:01:003:0001"},"geometry":{"type":"Polygon","coordinates":[[[39.093585,48.080412],[39.093658,48.080409],[39.093652,48.080358],[39.093576,48.080365],[39.093585,48.080412]]]}},{"type":"Feature","properties":{"cadnum":"4410345600:01:004:0010"},"geometry":{"type":"Polygon","coordinates":[[[39.092341,48.080154],[39.09236,48.080142],[39.092305,48.080106],[39.092287,48.080118],[39.092341,48.080154]]]}},{"type":"Feature","properties":{"cadnum":"4410345600:01:003:0017"},"geometry":{"type":"Polygon","coordinates":[[[39.090863,48.079392],[39.091222,48.079383],[39.091411,48.079371],[39.091411,48.07938],[39.091532,48.07938],[39.091555,48.079107],[39.091232,48.079104],[39.091115,48.07911],[39.091075,48.079119],[39.090935,48.079167],[39.09089,48.079203],[39.090863,48.079245],[39.090859,48.079302],[39.090863,48.079392]]]}},{"type":"Feature","properties":{"cadnum":"4410345600:01:003:0016"},"geometry":{"type":"Polygon","coordinates":[[[39.090442,48.080881],[39.090477,48.08079],[39.090337,48.080763],[39.090347,48.080748],[39.090153,48.080694],[39.08983,48.080589],[39.089767,48.080664],[39.090297,48.080832],[39.090306,48.080832],[39.090297,48.080859],[39.090442,48.080881]]]}},{"type":"Feature","properties":{"cadnum":"4410345600:01:003:0004"},"geometry":{"type":"Polygon","coordinates":[[[39.089441,48.078754041509434],[39.08961,48.078777],[39.089974,48.078824],[39.090279,48.078855],[39.090365,48.078873],[39.09067,48.078921],[39.090729,48.07893],[39.090746,48.078815],[39.090765,48.078819],[39.090769,48.078792],[39.090706,48.078789],[39.090706,48.078795],[39.090603,48.078789],[39.090477,48.07878],[39.090442,48.078773],[39.090302,48.078744],[39.090077,48.078711],[39.089587,48.078663],[39.089282,48.07863],[39.089205,48.078621],[39.089157,48.078717],[39.08927,48.07873142553191],[39.08927,48.078732],[39.089345,48.078741],[39.089441,48.078755],[39.089441,48.078754041509434]]]}},{"type":"Feature","properties":{"cadnum":"4410345600:01:004:0004"},"geometry":{"type":"Polygon","coordinates":[[[39.091228,48.07839],[39.091249,48.078386],[39.091245,48.078335],[39.091218,48.078335],[39.091228,48.07839]]]}},{"type":"Feature","properties":{"cadnum":"4410345600:01:004:0008"},"geometry":{"type":"Polygon","coordinates":[[[39.091748,48.079554],[39.091748,48.079536],[39.091721,48.079536],[39.091721,48.079554],[39.091748,48.079554]]]}},{"type":"Feature","properties":{"cadnum":"4410345600:01:004:0011"},"geometry":{"type":"Polygon","coordinates":[[[39.09323,48.080301],[39.093253,48.080295],[39.093226,48.080256],[39.093285,48.080238],[39.093276,48.080223],[39.09319,48.080247],[39.09323,48.080301]]]}},{"type":"Feature","properties":{"cadnum":"4410345600:01:004:0007"},"geometry":{"type":"Polygon","coordinates":[[[39.091614,48.079326],[39.091614,48.079311],[39.091587,48.079311],[39.091587,48.079326],[39.091614,48.079326]]]}},{"type":"Feature","properties":{"cadnum":"4410345600:01:004:0009"},"geometry":{"type":"Polygon","coordinates":[[[39.091887,48.079839],[39.091887,48.079821],[39.091865,48.079821],[39.091865,48.079839],[39.091887,48.079839]]]}},{"type":"Feature","properties":{"cadnum":"4410345600:01:004:0006"},"geometry":{"type":"Polygon","coordinates":[[[39.091478,48.079089],[39.091505,48.079082],[39.091478,48.079035],[39.091456,48.079038],[39.091478,48.079089]]]}},{"type":"Feature","properties":{"cadnum":"4410345600:01:004:0005"},"geometry":{"type":"Polygon","coordinates":[[[39.091348,48.078704],[39.091348,48.078686],[39.091326,48.078686],[39.091326,48.078704],[39.091348,48.078704]]]}},{"type":"Feature","properties":{"cadnum":"4410345600:01:003:0003"},"geometry":{"type":"Polygon","coordinates":[[[39.091092,48.08109],[39.091268,48.081061],[39.091318,48.080799],[39.091106,48.08079],[39.09089,48.080781],[39.090729,48.080766],[39.090683,48.080908],[39.090689,48.080941],[39.090662,48.080941],[39.09067,48.080994],[39.090697,48.080991],[39.090683,48.08107],[39.090976,48.081081],[39.091092,48.08109]]]}},{"type":"Feature","properties":{"cadnum":"4410345600:01:005:0032"},"geometry":{"type":"Polygon","coordinates":[[[39.087962,48.072207],[39.088599,48.072033],[39.088815,48.07197],[39.088909,48.071937],[39.088905,48.071931],[39.088991,48.071901],[39.089111,48.071859],[39.089067,48.071799],[39.089044,48.07177],[39.089035,48.071772],[39.088878,48.071817],[39.088878,48.07182],[39.088779,48.071844],[39.088515,48.071917],[39.088343,48.071959],[39.087836,48.072108],[39.087962,48.072207]]]}},{"type":"Feature","properties":{"cadnum":"4410345600:01:005:0017"},"geometry":{"type":"Polygon","coordinates":[[[39.088006,48.071781],[39.088582,48.071599],[39.088914,48.071508],[39.088878,48.071412],[39.088905,48.071406],[39.088878,48.071355],[39.088802,48.07137],[39.088694,48.071392],[39.088564,48.071421],[39.088299,48.07149],[39.087895,48.071592],[39.088006,48.071781]]]}},{"type":"Feature","properties":{"cadnum":"4410345600:01:007:0005"},"geometry":{"type":"Polygon","coordinates":[[[39.071846,48.09052],[39.071846,48.090497],[39.07181,48.090497],[39.07181,48.09052],[39.071846,48.09052]]]}},{"type":"Feature","properties":{"cadnum":"4410345600:01:007:0004"},"geometry":{"type":"Polygon","coordinates":[[[39.070697,48.089657],[39.070697,48.089633],[39.07066,48.089633],[39.07066,48.089657],[39.070697,48.089657]]]}},{"type":"Feature","properties":{"cadnum":"4410345600:01:001:0064"},"geometry":{"type":"Polygon","coordinates":[[[39.087845,48.092737],[39.08802,48.092684],[39.087993,48.092621],[39.087975,48.09257],[39.087962,48.092543],[39.087916,48.09245],[39.087912,48.092441],[39.087845,48.092281],[39.087792,48.092168],[39.087549,48.092201],[39.087702,48.092471],[39.087729,48.092495],[39.087756,48.092546],[39.087742,48.092548],[39.0878,48.09266],[39.087845,48.092737]]]}},{"type":"Feature","properties":{"cadnum":"4410345600:01:001:0016"},"geometry":{"type":"Polygon","coordinates":[[[39.088438,48.09155],[39.088438,48.091534],[39.088411,48.091534],[39.088415,48.09155],[39.088438,48.09155]]]}},{"type":"Feature","properties":{"cadnum":"4410345600:01:001:0072"},"geometry":{"type":"Polygon","coordinates":[[[39.087853,48.092306],[39.088501,48.092189],[39.088595,48.09217],[39.088649,48.092168],[39.088765,48.092147],[39.088765,48.092138],[39.088735,48.092072],[39.088721,48.092032],[39.088541,48.09206],[39.088047,48.092129],[39.087792,48.092168],[39.087845,48.092281],[39.087853,48.092306]]]}},{"type":"Feature","properties":{"cadnum":"4410345600:01:001:0015"},"geometry":{"type":"Polygon","coordinates":[[[39.088482,48.092234],[39.088482,48.092216],[39.088456,48.092216],[39.088456,48.092234],[39.088482,48.092234]]]}},{"type":"Feature","properties":{"cadnum":"4410345600:01:001:0060"},"geometry":{"type":"Polygon","coordinates":[[[39.086314,48.089633],[39.086421,48.089608],[39.086421,48.089591],[39.086417,48.089564],[39.086331,48.089306],[39.086304,48.08927],[39.086184,48.089177],[39.086121,48.089132],[39.086031,48.089101],[39.085882,48.089096],[39.085878,48.089179],[39.085873,48.089228],[39.085882,48.089281],[39.085968,48.089377],[39.086031,48.089446],[39.086044,48.089459],[39.086178,48.089633],[39.086314,48.089633]]]}},{"type":"Feature","properties":{"cadnum":"4410345600:01:001:0028"},"geometry":{"type":"Polygon","coordinates":[[[39.085528,48.090917],[39.086538,48.090794],[39.08666,48.090794],[39.086781,48.090785],[39.086781,48.090791],[39.086825,48.090787],[39.086821,48.090769],[39.086807,48.090704],[39.086803,48.090674],[39.086727,48.09068],[39.086641,48.090686],[39.086641,48.09068],[39.086435,48.090698],[39.086354,48.0907],[39.085442,48.090785],[39.085528,48.090917]]]}},{"type":"Feature","properties":{"cadnum":"4410345600:01:001:0030"},"geometry":{"type":"Polygon","coordinates":[[[39.088461,48.089471],[39.088555,48.089459],[39.088685,48.089437],[39.088744,48.089426],[39.089345,48.089321],[39.089314,48.08923],[39.0893,48.089234],[39.089291,48.089204],[39.088972,48.089264],[39.088928,48.089276],[39.088878,48.089281],[39.088702,48.089317],[39.088433,48.089359],[39.088461,48.089471]]]}},{"type":"Feature","properties":{"cadnum":"4410345600:01:001:0023"},"geometry":{"type":"Polygon","coordinates":[[[39.089876,48.090353],[39.089876,48.090248],[39.089861,48.090119],[39.089441,48.09017940609137],[39.089441,48.090179],[39.089215,48.090211],[39.089291,48.090437],[39.089441,48.090416],[39.089441,48.09041546153846],[39.089876,48.090353]]]}},{"type":"Feature","properties":{"cadnum":"4410345600:01:001:0022"},"geometry":{"type":"Polygon","coordinates":[[[39.088519,48.090539],[39.088641,48.090529],[39.088981,48.090485],[39.089291,48.090437],[39.089215,48.090211],[39.088895,48.090253],[39.088771,48.090271],[39.088635,48.090287],[39.088492,48.090293],[39.088501,48.090416],[39.088509,48.09046],[39.088519,48.090539]]]}},{"type":"Feature","properties":{"cadnum":"4410345600:01:001:0029"},"geometry":{"type":"Polygon","coordinates":[[[39.085406,48.09058],[39.085618,48.090548],[39.085761,48.090524],[39.086129,48.090449],[39.086345,48.090413],[39.086597,48.090377],[39.086735,48.090359],[39.0867,48.090244],[39.086467,48.09029],[39.086291,48.090317],[39.085712,48.090451],[39.085576,48.090476],[39.085379,48.090506],[39.085406,48.09058]]]}},{"type":"Feature","properties":{"cadnum":"4410345600:01:001:0032"},"geometry":{"type":"Polygon","coordinates":[[[39.086821,48.089675],[39.087198,48.089626],[39.087216,48.089624],[39.087544,48.089603],[39.087536,48.089528],[39.087526,48.089462],[39.087522,48.08939],[39.087517,48.089368],[39.087391,48.089377],[39.087283,48.089386],[39.08722,48.089393],[39.087216,48.089368],[39.087136,48.089377],[39.086943,48.089395],[39.086838,48.089419],[39.086771,48.089468],[39.086821,48.089675]]]}},{"type":"Feature","properties":{"cadnum":"4410345600:01:002:0008"},"geometry":{"type":"Polygon","coordinates":[[[39.088146,48.089708],[39.088146,48.089693],[39.088119,48.089693],[39.088119,48.089708],[39.088146,48.089708]]]}},{"type":"Feature","properties":{"cadnum":"4410345600:01:002:0023"},"geometry":{"type":"Polygon","coordinates":[[[39.085052,48.089204],[39.085052,48.089188],[39.085024,48.089188],[39.085024,48.089204],[39.085052,48.089204]]]}},{"type":"Feature","properties":{"cadnum":"4410345600:01:001:0020"},"geometry":{"type":"Polygon","coordinates":[[[39.086897,48.090515],[39.087211,48.090476],[39.08784,48.090422],[39.088222,48.090389],[39.088218,48.090329],[39.088182,48.090329],[39.088182,48.090322],[39.088178,48.090262],[39.088039,48.090278],[39.08771,48.090308],[39.087171,48.090365],[39.086893,48.0904],[39.086897,48.090515]]]}},{"type":"Feature","properties":{"cadnum":"4410345600:01:002:0007"},"geometry":{"type":"Polygon","coordinates":[[[39.088308,48.09008],[39.088308,48.090062],[39.088281,48.090062],[39.088281,48.09008],[39.088308,48.09008]]]}},{"type":"Feature","properties":{"cadnum":"4410345600:01:002:0006"},"geometry":{"type":"Polygon","coordinates":[[[39.088362,48.090518],[39.088358,48.090467],[39.088335,48.090467],[39.088339,48.090518],[39.088362,48.090518]]]}},{"type":"Feature","properties":{"cadnum":"4410345600:01:002:0005"},"geometry":{"type":"Polygon","coordinates":[[[39.088398,48.090869],[39.088398,48.090851],[39.088371,48.090851],[39.088371,48.090869],[39.088398,48.090869]]]}},{"type":"Feature","properties":{"cadnum":"4410345600:01:002:0009"},"geometry":{"type":"Polygon","coordinates":[[[39.087723,48.089252],[39.087723,48.089234],[39.087697,48.089234],[39.087697,48.089252],[39.087723,48.089252]]]}},{"type":"Feature","properties":{"cadnum":"4410345600:01:002:0140"},"geometry":{"type":"Polygon","coordinates":[[[39.08683,48.089324],[39.08727,48.089321],[39.08727,48.089308],[39.0874,48.089299],[39.087396,48.089294],[39.087549,48.089288],[39.08758,48.08929],[39.087557,48.089137],[39.087427,48.089141],[39.087104,48.089147],[39.086866,48.089141],[39.086727,48.089234],[39.08683,48.089324]]]}},{"type":"Feature","properties":{"cadnum":"4410345600:01:007:0008"},"geometry":{"type":"Polygon","coordinates":[[[39.084067,48.089477],[39.084067,48.089459],[39.084041,48.089459],[39.084041,48.089477],[39.084067,48.089477]]]}},{"type":"Feature","properties":{"cadnum":"4410345600:01:006:0062"},"geometry":{"type":"Polygon","coordinates":[[[39.08445,48.090382],[39.084458,48.090218],[39.084463,48.090064],[39.084458,48.089993],[39.083987,48.08996],[39.083978,48.090046],[39.083982,48.090133],[39.083947,48.09017],[39.08392,48.0902],[39.083933,48.090206],[39.083924,48.090224],[39.083974,48.090239],[39.083982,48.090221],[39.084085,48.090251],[39.084216,48.090304],[39.08445,48.090382]]]}},{"type":"Feature","properties":{"cadnum":"4410345600:01:006:0064"},"geometry":{"type":"Polygon","coordinates":[[[39.083928,48.089815],[39.083937,48.089764],[39.083948,48.089765],[39.083948,48.08976425],[39.084113,48.089768],[39.084238,48.089755],[39.084274,48.089704],[39.08422,48.089582],[39.084203,48.089531],[39.084153,48.089417],[39.08414,48.089417],[39.084027,48.089437],[39.083991,48.089444],[39.083978,48.089417],[39.083948,48.089422400000004],[39.083948,48.089422],[39.083928,48.089426],[39.083776,48.089463],[39.083776,48.089463552941176],[39.083758,48.089468],[39.083637,48.089497],[39.083776,48.08977990588235],[39.083776,48.089781],[39.083807,48.089843],[39.08383,48.089855],[39.083928,48.089815]]]}},{"type":"Feature","properties":{"cadnum":"4410345600:01:006:0002"},"geometry":{"type":"Polygon","coordinates":[[[39.08387,48.090008],[39.083865,48.089933],[39.083844,48.089888],[39.08365,48.089797],[39.083519,48.089717],[39.083452,48.089672],[39.083331,48.089621],[39.083345,48.089603],[39.083232,48.089573],[39.083182,48.08972],[39.083251,48.090002],[39.083776,48.09001629219601],[39.083776,48.090017],[39.083802,48.090017],[39.08387,48.090008]]]}},{"type":"Feature","properties":{"cadnum":"4410345600:01:002:0024"},"geometry":{"type":"Polygon","coordinates":[[[39.084651,48.089339],[39.08466,48.089321],[39.084603,48.089306],[39.084624,48.089264],[39.084603,48.089257],[39.08457,48.089317],[39.084651,48.089339]]]}},{"type":"Feature","properties":{"cadnum":"4410345600:01:001:0049"},"geometry":{"type":"Polygon","coordinates":[[[39.090041,48.090008],[39.090253,48.089986],[39.090186,48.089677],[39.090109,48.089393],[39.090064,48.089188],[39.09006,48.089159],[39.089884,48.089174],[39.089853,48.089177],[39.089834,48.089177],[39.089897,48.08939],[39.089911,48.089417],[39.089947,48.089617],[39.090041,48.090008]]]}},{"type":"Feature","properties":{"cadnum":"4410345600:01:001:0070"},"geometry":{"type":"Polygon","coordinates":[[[39.090186,48.089677],[39.090656,48.089594],[39.090599,48.089506],[39.090585,48.089471],[39.090522,48.089368],[39.090503,48.089339],[39.090482,48.089324],[39.090446,48.089299],[39.090333,48.089239],[39.090212,48.089192],[39.09006,48.089159],[39.090064,48.089188],[39.090109,48.089393],[39.090186,48.089677]]]}},{"type":"Feature","properties":{"cadnum":"4410345600:01:002:0123"},"geometry":{"type":"Polygon","coordinates":[[[39.092077,48.090142],[39.092368,48.090038],[39.092121,48.089902],[39.091834,48.089741],[39.091609,48.089708],[39.091582,48.089792],[39.091574,48.089849],[39.0916,48.089852],[39.091591,48.089879],[39.091551,48.08987],[39.091501,48.089944],[39.091484,48.089978],[39.091555,48.089995],[39.091918,48.090035],[39.092077,48.090142]]]}},{"type":"Feature","properties":{"cadnum":"4410345600:01:001:0021"},"geometry":{"type":"Polygon","coordinates":[[[39.089646,48.091654],[39.08987,48.091603],[39.089777,48.091364],[39.089763,48.091319],[39.089794,48.091313],[39.089771,48.091229],[39.089714,48.091235],[39.089614,48.091247],[39.089524,48.091259],[39.089475,48.091267],[39.089547,48.091439],[39.089646,48.091654]]]}},{"type":"Feature","properties":{"cadnum":"4410345600:01:001:0075"},"geometry":{"type":"Polygon","coordinates":[[[39.090725,48.092591],[39.09023894074073,48.0927],[39.090238,48.0927],[39.090123,48.092726],[39.089755,48.092814],[39.089759108108126,48.092814],[39.089664,48.092837],[39.089448,48.092894],[39.089524,48.093017],[39.089744,48.09296],[39.090054,48.092888],[39.090778,48.09272],[39.090725,48.092591]]]}},{"type":"Feature","properties":{"cadnum":"4410345600:01:001:0027"},"geometry":{"type":"Polygon","coordinates":[[[39.090675,48.091616],[39.091012,48.091556],[39.091035,48.091525],[39.090656,48.091585],[39.090675,48.091616]]]}},{"type":"Feature","properties":{"cadnum":"4410345600:01:001:0067"},"geometry":{"type":"Polygon","coordinates":[[[39.091492,48.091553],[39.091551,48.091529],[39.091452,48.091367],[39.091331,48.091193],[39.091291,48.091109],[39.091263,48.091016],[39.091039,48.091046],[39.091035,48.091058],[39.091012,48.091061],[39.091035,48.091094],[39.091069,48.091187],[39.091083,48.09122],[39.091092,48.09122],[39.091222,48.091376],[39.091335,48.09152],[39.091492,48.091553]]]}},{"type":"Feature","properties":{"cadnum":"4410345600:01:001:0076"},"geometry":{"type":"Polygon","coordinates":[[[39.090778,48.09272],[39.091236,48.092615],[39.091169,48.092492],[39.090725,48.092591],[39.090778,48.09272]]]}},{"type":"Feature","properties":{"cadnum":"4410345600:01:001:0073"},"geometry":{"type":"Polygon","coordinates":[[[39.091035,48.091525],[39.091335,48.09152],[39.091222,48.091376],[39.091092,48.09122],[39.091083,48.09122],[39.091069,48.091187],[39.091035,48.091094],[39.091012,48.091061],[39.090966,48.091069],[39.090886,48.091082],[39.090882,48.091073],[39.090823,48.091078],[39.090756,48.091087],[39.090809,48.091175],[39.090849,48.091241],[39.091035,48.091525]]]}},{"type":"Feature","properties":{"cadnum":"4410345600:01:001:0007"},"geometry":{"type":"Polygon","coordinates":[[[39.090387,48.091834],[39.090522,48.091799],[39.090284,48.091285],[39.090243,48.091289],[39.090199,48.091165],[39.090023,48.091187],[39.09018,48.091541],[39.090387,48.091834]]]}},{"type":"Feature","properties":{"cadnum":"4410345600:01:001:0026"},"geometry":{"type":"Polygon","coordinates":[[[39.090656,48.091585],[39.091035,48.091525],[39.090849,48.091241],[39.090809,48.091175],[39.090756,48.091087],[39.090469,48.091127],[39.090427,48.091133],[39.090379,48.091138],[39.09041,48.091193],[39.090473,48.091283],[39.090656,48.091585]]]}},{"type":"Feature","properties":{"cadnum":"4410345600:01:001:0061"},"geometry":{"type":"Polygon","coordinates":[[[39.092081,48.09155],[39.092256,48.091496],[39.092166,48.091394],[39.09191,48.091112],[39.091901,48.091061],[39.091874,48.090983],[39.091838,48.090989],[39.091771,48.091001],[39.091712,48.091004],[39.091677,48.091013],[39.091587,48.091027],[39.091574,48.091025],[39.091591,48.091115],[39.091698,48.091138],[39.091717,48.091178],[39.091951,48.091403],[39.092081,48.09155]]]}},{"type":"Feature","properties":{"cadnum":"4410345600:01:001:0010"},"geometry":{"type":"Polygon","coordinates":[[[39.089866,48.09545],[39.089866,48.095434],[39.08984,48.095434],[39.08984,48.09545],[39.089866,48.09545]]]}},{"type":"Feature","properties":{"cadnum":"4410345600:01:001:0009"},"geometry":{"type":"Polygon","coordinates":[[[39.090275,48.096088],[39.090297,48.096083],[39.090266,48.096035],[39.090243,48.096041],[39.090275,48.096088]]]}},{"type":"Feature","properties":{"cadnum":"4410345600:01:001:0055"},"geometry":{"type":"Polygon","coordinates":[[[39.09006,48.093845],[39.090347,48.093767],[39.090836,48.093626],[39.090693,48.093452],[39.090343,48.093527],[39.09018,48.093584],[39.0901,48.093602],[39.089956,48.093644],[39.089911,48.093656],[39.089924,48.09368],[39.090027,48.093836],[39.090054,48.09383],[39.09006,48.093845]]]}},{"type":"Feature","properties":{"cadnum":"4410345600:01:001:0011"},"geometry":{"type":"Polygon","coordinates":[[[39.089484,48.094816],[39.089484,48.094799],[39.089457,48.094802],[39.089457,48.094816],[39.089484,48.094816]]]}},{"type":"Feature","properties":{"cadnum":"4410345600:01:001:0005"},"geometry":{"type":"Polygon","coordinates":[[[39.090383,48.096116],[39.090517,48.096074],[39.090482,48.096023],[39.090347,48.096061],[39.090383,48.096116]]]}},{"type":"Feature","properties":{"cadnum":"4410345600:01:001:0069"},"geometry":{"type":"Polygon","coordinates":[[[39.090836,48.093626],[39.091519,48.093428],[39.091442,48.093284],[39.090693,48.093452],[39.090836,48.093626]]]}},{"type":"Feature","properties":{"cadnum":"4410345600:01:001:0006"},"geometry":{"type":"Polygon","coordinates":[[[39.090912,48.096835],[39.090912,48.096812],[39.090876,48.096812],[39.090876,48.096835],[39.090912,48.096835]]]}},{"type":"Feature","properties":{"cadnum":"4410345600:01:007:0045"},"geometry":{"type":"Polygon","coordinates":[[[39.070894,48.088073],[39.071271,48.088058],[39.071236,48.08762],[39.07084,48.087625],[39.070894,48.088073]]]}},{"type":"Feature","properties":{"cadnum":"4410345600:01:007:0003"},"geometry":{"type":"Polygon","coordinates":[[[39.070777,48.088727],[39.070777,48.088703],[39.070741,48.088703],[39.070741,48.088727],[39.070777,48.088727]]]}},{"type":"Feature","properties":{"cadnum":"4410345600:01:007:0044"},"geometry":{"type":"Polygon","coordinates":[[[39.07084,48.087625],[39.071236,48.08762],[39.0712,48.087173],[39.070787,48.087182],[39.07084,48.087625]]]}},{"type":"Feature","properties":{"cadnum":"4410345600:01:005:0002"},"geometry":{"type":"Polygon","coordinates":[[[39.09227,48.073708],[39.092368,48.073663],[39.092431,48.073636],[39.09253,48.073594],[39.092997,48.073525],[39.093603,48.073438],[39.093553,48.073279],[39.092956,48.073387],[39.092966,48.073435],[39.092463,48.073522],[39.0924,48.07354],[39.09231,48.073561],[39.092211,48.073594],[39.092166,48.073615],[39.09227,48.073708]]]}},{"type":"Feature","properties":{"cadnum":"4410345600:01:005:0025"},"geometry":{"type":"Polygon","coordinates":[[[39.09252,48.073051],[39.092899,48.072883],[39.092799,48.072724],[39.092651,48.072763],[39.092669,48.072796],[39.092633,48.072805],[39.092597,48.072765],[39.092584,48.072742],[39.09257,48.07272],[39.092677,48.072691],[39.092719,48.072682],[39.0927,48.072658],[39.092664,48.072667],[39.092247,48.072774],[39.09235,48.072919],[39.09252,48.073051]]]}},{"type":"Feature","properties":{"cadnum":"4410345600:01:003:0015"},"geometry":{"type":"Polygon","coordinates":[[[39.09558,48.079386],[39.095786,48.079371],[39.09579,48.079125],[39.09558,48.079128],[39.09558,48.079386]]]}},{"type":"Feature","properties":{"cadnum":"4410345600:01:003:0014"},"geometry":{"type":"Polygon","coordinates":[[[39.095786,48.079371],[39.096199,48.079344],[39.096496,48.079338],[39.096491,48.079308],[39.096585,48.079299],[39.096572,48.079218],[39.096555,48.079203],[39.096514,48.079091],[39.096289,48.079107],[39.096176,48.079116],[39.09579,48.079125],[39.095786,48.079371]]]}},{"type":"Feature","properties":{"cadnum":"4410345600:01:003:0005"},"geometry":{"type":"Polygon","coordinates":[[[39.089157,48.078717],[39.089205,48.078621],[39.088811,48.078582],[39.088752,48.078663],[39.089157,48.078717]]]}},{"type":"Feature","properties":{"cadnum":"4410345600:01:003:0011"},"geometry":{"type":"Polygon","coordinates":[[[39.088039,48.079779],[39.088079,48.079752],[39.088178,48.079686],[39.088182,48.079683],[39.088191,48.07968],[39.088492,48.079494],[39.088712,48.079359],[39.088545,48.07929],[39.088352,48.079404],[39.08811,48.079548],[39.088088,48.079557],[39.08797,48.079617],[39.08788,48.079668],[39.08789,48.079674],[39.087908,48.079689],[39.087949,48.079716],[39.08802,48.07977],[39.088039,48.079779]]]}},{"type":"Feature","properties":{"cadnum":"4410345600:01:003:0019"},"geometry":{"type":"Polygon","coordinates":[[[39.088474,48.080001],[39.089075,48.079875],[39.089205,48.079845],[39.08922,48.079818],[39.089138,48.079713],[39.089062,48.07962],[39.088977,48.079647],[39.088465,48.079803],[39.088236,48.079872],[39.088253,48.079905],[39.088312,48.07992],[39.088379,48.079923],[39.088442,48.079998],[39.088474,48.080001]]]}},{"type":"Feature","properties":{"cadnum":"4410345600:01:003:0012"},"geometry":{"type":"Polygon","coordinates":[[[39.08776,48.079512],[39.087966,48.079419],[39.088173,48.079271],[39.088303,48.079179],[39.088173,48.079059],[39.087819,48.07923],[39.087576,48.079344],[39.087625,48.079395],[39.087652,48.079419],[39.08776,48.079512]]]}},{"type":"Feature","properties":{"cadnum":"4410345600:01:003:0008"},"geometry":{"type":"Polygon","coordinates":[[[39.088469,48.079983],[39.089048,48.079821],[39.089178,48.079788],[39.089188,48.079758],[39.089089,48.079656],[39.089008,48.079572],[39.088924,48.079602],[39.088433,48.079782],[39.088213,48.079866],[39.088236,48.079896],[39.088295,48.079911],[39.088362,48.079908],[39.088438,48.07998],[39.088469,48.079983]]]}},{"type":"Feature","properties":{"cadnum":"4410345600:01:003:0018"},"geometry":{"type":"Polygon","coordinates":[[[39.088075,48.079776],[39.088115,48.079752],[39.088222,48.079692],[39.088232,48.079689],[39.088236,48.079686],[39.088559,48.079518],[39.088792,48.079395],[39.088635,48.079317],[39.088433,48.079419],[39.088173,48.079548],[39.088146,48.079557],[39.088025,48.079611],[39.087926,48.079656],[39.087935,48.079662],[39.087953,48.07968],[39.087989,48.079707],[39.088052,48.079767],[39.088075,48.079776]]]}},{"type":"Feature","properties":{"cadnum":"4410345600:01:002:0050"},"geometry":{"type":"Polygon","coordinates":[[[39.088232,48.081651],[39.088662,48.081544],[39.088626,48.081208],[39.088163,48.081324],[39.088232,48.081651]]]}},{"type":"Feature","properties":{"cadnum":"4410345600:01:006:0053"},"geometry":{"type":"Polygon","coordinates":[[[39.079307,48.090251],[39.079311,48.090142],[39.079293,48.09014],[39.079289,48.090115],[39.079181,48.090115],[39.079186,48.089522],[39.079248,48.089522],[39.079248,48.089459],[39.079186,48.089459],[39.07897,48.089455],[39.078987,48.089773],[39.078957,48.089773],[39.078983,48.090086],[39.078997,48.090242],[39.079068,48.090242],[39.079203,48.090244],[39.079307,48.090251]]]}},{"type":"Feature","properties":{"cadnum":"4410345600:01:006:0015"},"geometry":{"type":"Polygon","coordinates":[[[39.082325,48.090302],[39.082446,48.090296],[39.082442,48.090269],[39.082437,48.090179],[39.082477,48.089953],[39.082473,48.089873],[39.082213,48.089882],[39.081763,48.089777],[39.081759,48.089737],[39.081763,48.089548],[39.081691,48.089546],[39.081691,48.089657],[39.081696,48.089737],[39.081696,48.089852],[39.08171,48.090104],[39.081683,48.090211],[39.081754,48.090221],[39.082083,48.09028],[39.082325,48.090302]]]}},{"type":"Feature","properties":{"cadnum":"4410345600:01:007:0013"},"geometry":{"type":"Polygon","coordinates":[[[39.081683,48.089815],[39.081683,48.089797],[39.08166,48.089797],[39.08166,48.089815],[39.081683,48.089815]]]}},{"type":"Feature","properties":{"cadnum":"4410345600:01:007:0015"},"geometry":{"type":"Polygon","coordinates":[[[39.081125,48.08963],[39.081125,48.089612],[39.081104,48.089612],[39.081104,48.08963],[39.081125,48.08963]]]}},{"type":"Feature","properties":{"cadnum":"4410345600:01:006:0029"},"geometry":{"type":"Polygon","coordinates":[[[39.082945,48.089891],[39.082958,48.089861],[39.082899,48.089704],[39.082891,48.089575],[39.082891,48.089557],[39.082869,48.089561],[39.082869,48.089546],[39.08228,48.089515],[39.082226,48.089513],[39.082203,48.089515],[39.082213,48.089882],[39.082473,48.089873],[39.082891,48.089891],[39.082945,48.089891]]]}},{"type":"Feature","properties":{"cadnum":"4410345600:01:006:0003"},"geometry":{"type":"Polygon","coordinates":[[[39.083251,48.090002],[39.083182,48.08972],[39.083232,48.089573],[39.083052,48.089528],[39.082976,48.089522],[39.082891,48.089528],[39.082891,48.089537],[39.082909,48.089668],[39.082976,48.089822],[39.082968,48.089849],[39.082913,48.089852],[39.082496,48.089849],[39.082505,48.08993],[39.083062,48.089995],[39.083251,48.090002]]]}},{"type":"Feature","properties":{"cadnum":"4410345600:01:006:0051"},"geometry":{"type":"Polygon","coordinates":[[[39.079549,48.090167],[39.079553,48.09008],[39.079557,48.089984],[39.079527,48.089626],[39.079531,48.089462],[39.079329,48.089459],[39.079293,48.089459],[39.079297,48.089543],[39.079284,48.08987],[39.079293,48.09014],[39.079549,48.090167]]]}},{"type":"Feature","properties":{"cadnum":"4410345600:01:006:0057"},"geometry":{"type":"Polygon","coordinates":[[[39.083169,48.089497],[39.083219,48.089495],[39.083434,48.089479],[39.083547,48.08945],[39.083622,48.089432],[39.083595,48.089393],[39.083547,48.08933],[39.083488,48.089308],[39.083354,48.089213],[39.082832,48.089237],[39.082823,48.089428],[39.082873,48.089435],[39.082869,48.089474],[39.082869,48.089486],[39.082922,48.089492],[39.083102,48.089497],[39.083169,48.089497]]]}},{"type":"Feature","properties":{"cadnum":"4410345600:01:007:0018"},"geometry":{"type":"Polygon","coordinates":[[[39.080573,48.089183],[39.080573,48.089165],[39.080551,48.089165],[39.080551,48.089183],[39.080573,48.089183]]]}},{"type":"Feature","properties":{"cadnum":"4410345600:01:007:0014"},"geometry":{"type":"Polygon","coordinates":[[[39.08127,48.08978],[39.081283,48.089737],[39.08135,48.08975],[39.081354,48.089732],[39.081265,48.08972],[39.081247,48.089777],[39.08127,48.08978]]]}},{"type":"Feature","properties":{"cadnum":"4410345600:01:007:0017"},"geometry":{"type":"Polygon","coordinates":[[[39.080766,48.089339],[39.080766,48.089321],[39.080744,48.089321],[39.080744,48.089339],[39.080766,48.089339]]]}},{"type":"Feature","properties":{"cadnum":"4410345600:01:006:0060"},"geometry":{"type":"Polygon","coordinates":[[[39.080928,48.089737],[39.080924,48.089663],[39.080924,48.089506],[39.080488,48.08951],[39.080442,48.089621],[39.080448,48.089735],[39.080928,48.089737]]]}},{"type":"Feature","properties":{"cadnum":"4410345600:01:006:0055"},"geometry":{"type":"Polygon","coordinates":[[[39.079868,48.090239],[39.079873,48.0902],[39.079877,48.090175],[39.07993,48.090184],[39.079936,48.090175],[39.080048,48.090188],[39.080345,48.090184],[39.080345,48.090011],[39.080106,48.090017],[39.080029,48.090008],[39.079873,48.08996],[39.079796,48.089953],[39.079752,48.089972],[39.07971,48.089984],[39.079557,48.089984],[39.079553,48.09008],[39.079549,48.090167],[39.079683,48.090193],[39.079823,48.090211],[39.079823,48.090236],[39.079868,48.090239]]]}},{"type":"Feature","properties":{"cadnum":"4410345600:01:006:0059"},"geometry":{"type":"Polygon","coordinates":[[[39.080636,48.090197],[39.080654,48.090179],[39.080676,48.090175],[39.080676,48.090155],[39.080717,48.090151],[39.080708,48.090113],[39.080712,48.090068],[39.080807,48.09008],[39.080842,48.090004],[39.080932,48.08999],[39.080932,48.089891],[39.080928,48.089737],[39.080448,48.089735],[39.080448,48.090038],[39.080452,48.090095],[39.080483,48.090124],[39.080469,48.090173],[39.080636,48.090197]]]}},{"type":"Feature","properties":{"cadnum":"4410345600:01:007:0009"},"geometry":{"type":"Polygon","coordinates":[[[39.083628,48.089597],[39.083628,48.089579],[39.083601,48.089579],[39.083601,48.089597],[39.083628,48.089597]]]}},{"type":"Feature","properties":{"cadnum":"4410345600:01:007:0011"},"geometry":{"type":"Polygon","coordinates":[[[39.082599,48.089515],[39.082666,48.089495],[39.082657,48.089477],[39.082586,48.089501],[39.082599,48.089515]]]}},{"type":"Feature","properties":{"cadnum":"4410345600:01:007:0010"},"geometry":{"type":"Polygon","coordinates":[[[39.083188,48.089584],[39.083188,48.089566],[39.083161,48.089566],[39.083161,48.089584],[39.083188,48.089584]]]}},{"type":"Feature","properties":{"cadnum":"4410345600:01:006:0038"},"geometry":{"type":"Polygon","coordinates":[[[39.081687,48.090107],[39.08171,48.090104],[39.081696,48.089852],[39.081696,48.089737],[39.081691,48.089657],[39.081691,48.089546],[39.08167,48.089546],[39.081574,48.089539],[39.081538,48.089543],[39.081498,48.089539],[39.081481,48.089633],[39.081485,48.089702],[39.081485,48.089873],[39.081511,48.090017],[39.081566,48.090104],[39.081687,48.090107]]]}},{"type":"Feature","properties":{"cadnum":"4410345600:01:007:0012"},"geometry":{"type":"Polygon","coordinates":[[[39.082177,48.089849],[39.082177,48.089833],[39.082154,48.089833],[39.082154,48.089849],[39.082177,48.089849]]]}},{"type":"Feature","properties":{"cadnum":"4410345600:01:007:0016"},"geometry":{"type":"Polygon","coordinates":[[[39.080945,48.089483],[39.080945,48.089465],[39.080919,48.089465],[39.080919,48.089483],[39.080945,48.089483]]]}}]}