{"type":"FeatureCollection","features":[{"type":"Feature","properties":{"cadnum":"4411447100:01:001:0079"},"geometry":{"type":"Polygon","coordinates":[[[39.792566,48.3302692145749],[39.792726,48.330288],[39.793063,48.33033],[39.793054,48.330064],[39.792816,48.330071],[39.792806,48.329909],[39.792466,48.329936],[39.792479,48.330259],[39.792566,48.33027],[39.792566,48.3302692145749]]]}},{"type":"Feature","properties":{"cadnum":"4411447100:01:001:0068"},"geometry":{"type":"Polygon","coordinates":[[[39.788518,48.330509],[39.788823,48.330381],[39.788387,48.329969],[39.788082,48.330115],[39.788518,48.330509]]]}},{"type":"Feature","properties":{"cadnum":"4411447100:01:001:0088"},"geometry":{"type":"Polygon","coordinates":[[[39.790701,48.326857],[39.790282,48.326591],[39.789982,48.3268],[39.790053,48.326857],[39.790026,48.326878],[39.790363,48.327084],[39.790701,48.326857]]]}},{"type":"Feature","properties":{"cadnum":"4411447100:01:001:0081"},"geometry":{"type":"Polygon","coordinates":[[[39.788854,48.330145],[39.78934,48.329932],[39.789187,48.32979],[39.789101,48.329676],[39.789083,48.329655],[39.788621,48.329858],[39.788854,48.330145]]]}},{"type":"Feature","properties":{"cadnum":"4411447100:01:001:0054"},"geometry":{"type":"Polygon","coordinates":[[[39.792183,48.329168],[39.792187,48.328837],[39.791613,48.328822],[39.79164,48.329142],[39.792183,48.329168]]]}},{"type":"Feature","properties":{"cadnum":"4411447100:01:001:0066"},"geometry":{"type":"Polygon","coordinates":[[[39.792586,48.328557],[39.792586,48.328566],[39.79264,48.328562],[39.79264,48.328285],[39.792566,48.32828107346939],[39.792566,48.328281],[39.792147,48.328258],[39.792039,48.328263],[39.792053,48.328592],[39.792395,48.328569333333334],[39.792395,48.32857],[39.792586,48.328557]]]}},{"type":"Feature","properties":{"cadnum":"4411447100:01:001:0039"},"geometry":{"type":"Polygon","coordinates":[[[39.787525,48.329121],[39.787961,48.329022],[39.788114,48.329002],[39.788015,48.328712],[39.787422,48.328825],[39.787525,48.329121]]]}},{"type":"Feature","properties":{"cadnum":"4411447100:01:001:0043"},"geometry":{"type":"Polygon","coordinates":[[[39.791032,48.329673],[39.791567,48.329598],[39.791491,48.329291],[39.790889,48.329374],[39.791032,48.329673]]]}},{"type":"Feature","properties":{"cadnum":"4411447100:01:001:0080"},"geometry":{"type":"Polygon","coordinates":[[[39.789397,48.329942],[39.789793,48.329739],[39.78947,48.329452],[39.78921,48.329578],[39.789079,48.329644],[39.789101,48.329661],[39.789196,48.329775],[39.789357,48.329909],[39.789397,48.329942]]]}},{"type":"Feature","properties":{"cadnum":"4411447100:01:001:0069"},"geometry":{"type":"Polygon","coordinates":[[[39.788823,48.330381],[39.788518,48.330509],[39.78865659832637,48.330634],[39.788656,48.330634],[39.788953,48.330901],[39.789236,48.330766],[39.789094,48.330634],[39.78909392370573,48.330634],[39.788823,48.330381]]]}},{"type":"Feature","properties":{"cadnum":"4411447100:02:001:0031"},"geometry":{"type":"Polygon","coordinates":[[[39.812808,48.308216],[39.812857,48.308162],[39.81284,48.308153],[39.813091,48.307845],[39.813117,48.307851],[39.813144,48.307818],[39.813068,48.307798],[39.813024,48.307845],[39.812745,48.307711],[39.812381,48.307973],[39.812637,48.308126],[39.812808,48.308216]]]}},{"type":"Feature","properties":{"cadnum":"4411447100:02:002:0001"},"geometry":{"type":"Polygon","coordinates":[[[39.813396,48.308401],[39.813706,48.308055],[39.813302,48.30789],[39.813226,48.30798],[39.813041,48.308254],[39.813396,48.308401]]]}},{"type":"Feature","properties":{"cadnum":"4411447100:02:001:0001"},"geometry":{"type":"Polygon","coordinates":[[[39.814539,48.306798173913045],[39.814735,48.306877],[39.815035,48.306582],[39.814704,48.306576],[39.814511,48.306495],[39.814299,48.306701],[39.814367,48.306728766666666],[39.814367,48.306729],[39.81440488235317,48.30674423529421],[39.814539,48.306799],[39.814539,48.306798173913045]]]}},{"type":"Feature","properties":{"cadnum":"4411447100:02:002:0002"},"geometry":{"type":"Polygon","coordinates":[[[39.81336,48.308446],[39.813396,48.308401],[39.813041,48.308254],[39.81301,48.3083],[39.813167,48.308347],[39.81336,48.308446]]]}},{"type":"Feature","properties":{"cadnum":"4411447100:01:003:0030"},"geometry":{"type":"Polygon","coordinates":[[[39.801215,48.337242],[39.801368,48.337237],[39.801412,48.337192],[39.801481,48.337102],[39.801525,48.33704],[39.801009,48.336801],[39.80077,48.337034],[39.801215,48.337242]]]}},{"type":"Feature","properties":{"cadnum":"4411447100:01:003:0032"},"geometry":{"type":"Polygon","coordinates":[[[39.799571,48.335941],[39.800204,48.335803],[39.799926,48.335445],[39.799616,48.335565],[39.79972,48.33577],[39.79946,48.335828],[39.799571,48.335941]]]}},{"type":"Feature","properties":{"cadnum":"4411447100:01:003:0033"},"geometry":{"type":"Polygon","coordinates":[[[39.79946,48.335828],[39.79972,48.33577],[39.799616,48.335565],[39.799315,48.335678],[39.79946,48.335828]]]}},{"type":"Feature","properties":{"cadnum":"4411447100:02:004:0013"},"geometry":{"type":"Polygon","coordinates":[[[39.825366,48.296707],[39.825525,48.296707],[39.825918,48.296707],[39.825897,48.296438],[39.825354,48.29648],[39.825354,48.2964803],[39.825165,48.296495],[39.825155,48.296716],[39.825354,48.29670751184834],[39.825354,48.296708],[39.825366,48.296707]]]}},{"type":"Feature","properties":{"cadnum":"4411447100:01:001:0065"},"geometry":{"type":"Polygon","coordinates":[[[39.790655,48.332268],[39.791041,48.332241],[39.791019,48.332038],[39.790687,48.332077],[39.790655,48.332268]]]}},{"type":"Feature","properties":{"cadnum":"4411447100:01:001:0017"},"geometry":{"type":"Polygon","coordinates":[[[39.7889,48.333672],[39.789124,48.333495],[39.7892,48.333427],[39.788707,48.333218],[39.788414,48.333457],[39.7889,48.333672]]]}},{"type":"Feature","properties":{"cadnum":"4411447100:01:001:0052"},"geometry":{"type":"Polygon","coordinates":[[[39.790215,48.333241],[39.790278,48.333167],[39.790395,48.333021],[39.790525,48.332946],[39.790606,48.332794],[39.790202,48.332754],[39.789883,48.333122],[39.790215,48.333241]]]}},{"type":"Feature","properties":{"cadnum":"4411447100:01:001:0064"},"geometry":{"type":"Polygon","coordinates":[[[39.790606,48.332689],[39.791082,48.332659],[39.791041,48.332241],[39.790655,48.332268],[39.790624,48.33248],[39.790606,48.332689]]]}},{"type":"Feature","properties":{"cadnum":"4411447100:01:001:0028"},"geometry":{"type":"Polygon","coordinates":[[[39.792458198529296,48.331583360294125],[39.792566,48.331578],[39.792566,48.33157715183246],[39.792586,48.331576],[39.792655,48.331351],[39.792566,48.33135613461538],[39.792566,48.331356],[39.79207,48.331384],[39.792007,48.331596],[39.791927,48.331596],[39.791957,48.331707],[39.792151,48.331704],[39.792156,48.331751],[39.792254,48.331749],[39.79225,48.331716],[39.792393,48.331707],[39.792385,48.331587],[39.792395,48.33158650276243],[39.792395,48.331587],[39.792458198529296,48.331583360294125]]]}},{"type":"Feature","properties":{"cadnum":"4411447100:01:001:0050"},"geometry":{"type":"Polygon","coordinates":[[[39.794523,48.336018],[39.794594,48.335956],[39.794621,48.335905],[39.794577,48.335884],[39.794607,48.335806],[39.794586,48.335792],[39.794469,48.335753],[39.794491,48.335726],[39.794451,48.335622],[39.794221,48.335493],[39.793917,48.335735],[39.794523,48.336018]]]}},{"type":"Feature","properties":{"cadnum":"4411447100:01:001:0056"},"geometry":{"type":"Polygon","coordinates":[[[39.795906,48.335797],[39.796198,48.335604],[39.796122,48.335523],[39.796077,48.335472],[39.795835,48.335287],[39.795493,48.335514],[39.795772,48.335708],[39.795906,48.335797]]]}},{"type":"Feature","properties":{"cadnum":"4411447100:03:001:0048"},"geometry":{"type":"Polygon","coordinates":[[[39.795829,48.305001],[39.796154,48.304992],[39.796154,48.304999],[39.796225,48.304995],[39.796234,48.304986],[39.796229,48.304917],[39.796122,48.304625],[39.796118,48.304607],[39.796118,48.304589],[39.796081,48.304589],[39.796081,48.304577],[39.795781,48.304634],[39.795829,48.305001]]]}},{"type":"Feature","properties":{"cadnum":"4411447100:03:001:0049"},"geometry":{"type":"Polygon","coordinates":[[[39.798059,48.303012],[39.798059,48.30301180952381],[39.798175,48.302882],[39.797986,48.302811],[39.797869,48.302942],[39.797909,48.302961],[39.797905,48.302966],[39.79799,48.302999],[39.798049,48.303023],[39.798059,48.303012]]]}},{"type":"Feature","properties":{"cadnum":"4411447100:03:001:0050"},"geometry":{"type":"Polygon","coordinates":[[[39.797986,48.302811],[39.798059,48.30284],[39.798059,48.30283842328042],[39.798175,48.302882],[39.798349,48.302683],[39.798291,48.302674],[39.797995866172066,48.30272599628234],[39.797726,48.302773],[39.79773,48.302868],[39.797712,48.302868],[39.797712,48.30288],[39.797747,48.30288],[39.797747,48.302901],[39.797779,48.302901],[39.797869,48.302942],[39.797888,48.30292072649573],[39.797888,48.302922],[39.797986,48.302811]]]}},{"type":"Feature","properties":{"cadnum":"4411447100:03:001:0030"},"geometry":{"type":"Polygon","coordinates":[[[39.797003,48.305028],[39.796651,48.30504],[39.796643,48.305043],[39.79664543478261,48.305064],[39.796645,48.305064],[39.796651,48.305112],[39.796651,48.305154],[39.79667,48.305468],[39.797029,48.305482],[39.79701081818182,48.305178],[39.797011,48.305178],[39.797003,48.305028]]]}},{"type":"Feature","properties":{"cadnum":"4411447100:03:001:0047"},"geometry":{"type":"Polygon","coordinates":[[[39.794078,48.304627],[39.794164,48.304625],[39.794231,48.304622],[39.794231,48.304601],[39.794244,48.304592],[39.794284,48.304589],[39.794235,48.304335],[39.794221,48.304335],[39.794217,48.304323],[39.794235,48.304323],[39.794235,48.304288],[39.794231,48.304197],[39.794227,48.304126],[39.794217,48.30409],[39.794051,48.304093],[39.794078,48.304503],[39.794064,48.304503],[39.794078,48.304627]]]}},{"type":"Feature","properties":{"cadnum":"4411447100:03:001:0035"},"geometry":{"type":"Polygon","coordinates":[[[39.796907,48.303907],[39.797097,48.303899],[39.797078,48.303564],[39.79689,48.303573],[39.796907,48.303907]]]}},{"type":"Feature","properties":{"cadnum":"4411447100:03:001:0031"},"geometry":{"type":"Polygon","coordinates":[[[39.796567,48.304454],[39.796764,48.304448],[39.796724,48.304012],[39.796531,48.304018],[39.796567,48.304454]]]}},{"type":"Feature","properties":{"cadnum":"4411447100:03:001:0032"},"geometry":{"type":"Polygon","coordinates":[[[39.796244,48.304981],[39.796643,48.304965],[39.796611,48.304595],[39.79658,48.304544],[39.796189,48.304559],[39.796144,48.304616],[39.796238,48.304912],[39.796244,48.304981]]]}},{"type":"Feature","properties":{"cadnum":"4411447100:03:001:0042"},"geometry":{"type":"Polygon","coordinates":[[[39.797106,48.302764],[39.797106,48.30245],[39.79689,48.302456],[39.796894,48.302506],[39.796903,48.302578],[39.796913,48.302665],[39.796913,48.3027],[39.796926,48.3027],[39.796926,48.302733],[39.79693,48.30276],[39.79697,48.30276],[39.797106,48.302764]]]}},{"type":"Feature","properties":{"cadnum":"4411447100:04:003:0002"},"geometry":{"type":"Polygon","coordinates":[[[39.815678,48.29983],[39.815678,48.299812],[39.81561,48.299812],[39.81561,48.29983],[39.815678,48.29983]]]}},{"type":"Feature","properties":{"cadnum":"4411447100:02:001:0016"},"geometry":{"type":"Polygon","coordinates":[[[39.81601,48.29931],[39.81606,48.299288],[39.8165,48.299265],[39.816657,48.299265],[39.816981,48.299261],[39.81694,48.298984],[39.816788,48.29898],[39.816186,48.29899],[39.815997,48.298995],[39.81601,48.29931]]]}},{"type":"Feature","properties":{"cadnum":"4411447100:02:001:0040"},"geometry":{"type":"Polygon","coordinates":[[[39.818863,48.299369],[39.819231,48.299301],[39.819339,48.29927],[39.819425,48.299252],[39.819406,48.29916],[39.819419,48.299157],[39.819379,48.299026],[39.819362,48.299011],[39.818822,48.299115],[39.818863,48.299369]]]}},{"type":"Feature","properties":{"cadnum":"4411447100:02:001:0006"},"geometry":{"type":"Polygon","coordinates":[[[39.817241,48.299853],[39.817241,48.299832],[39.817174,48.299832],[39.817174,48.29985],[39.817241,48.299853]]]}},{"type":"Feature","properties":{"cadnum":"4411447100:04:003:0023"},"geometry":{"type":"Polygon","coordinates":[[[39.814605,48.298264],[39.815,48.298249],[39.814955,48.297879],[39.814555,48.297905],[39.814605,48.298264]]]}},{"type":"Feature","properties":{"cadnum":"4411447100:04:003:0022"},"geometry":{"type":"Polygon","coordinates":[[[39.814488,48.297472],[39.814083,48.297496],[39.81412279050279,48.297755],[39.814122,48.297755],[39.814138,48.297854],[39.814539,48.297829],[39.814539,48.29782818857143],[39.814542,48.297828],[39.814488,48.297472]]]}},{"type":"Feature","properties":{"cadnum":"4411447100:04:003:0031"},"geometry":{"type":"Polygon","coordinates":[[[39.814605,48.298264],[39.814555,48.297905],[39.81437757212711,48.29791726894866],[39.814146,48.297932],[39.8142,48.298284],[39.814367,48.29827562536873],[39.814367,48.298276],[39.814605,48.298264]]]}},{"type":"Feature","properties":{"cadnum":"4411447100:02:001:0005"},"geometry":{"type":"Polygon","coordinates":[[[39.818885,48.299874],[39.818885,48.299853],[39.818817,48.299853],[39.818817,48.299874],[39.818885,48.299874]]]}},{"type":"Feature","properties":{"cadnum":"4411447100:04:003:0017"},"geometry":{"type":"Polygon","coordinates":[[[39.81571,48.299238],[39.8157,48.298927],[39.815678,48.298822],[39.815601,48.298649],[39.815364,48.298709],[39.815395,48.2989],[39.81535,48.299235],[39.81571,48.299238]]]}},{"type":"Feature","properties":{"cadnum":"4411447100:02:001:0041"},"geometry":{"type":"Polygon","coordinates":[[[39.819406,48.301261],[39.819415,48.301243],[39.819496,48.301042],[39.819442,48.30103],[39.819203,48.300982],[39.818867,48.300917],[39.818782,48.30113],[39.819136,48.301201],[39.819339,48.301234],[39.819335,48.301245],[39.819406,48.301261]]]}},{"type":"Feature","properties":{"cadnum":"4411447100:03:001:0041"},"geometry":{"type":"Polygon","coordinates":[[[39.793193,48.308347],[39.792861,48.307559],[39.79251432891816,48.307622233995616],[39.792303,48.30766],[39.792074,48.307744],[39.791141,48.307887],[39.790687,48.307926],[39.790229,48.308064],[39.788617,48.308303],[39.78883847826087,48.308717],[39.788838,48.308717],[39.78889278980891,48.30881852229299],[39.7889,48.308832],[39.788900063492065,48.308832],[39.78894,48.308906],[39.78959464550263,48.308832],[39.789597,48.308832],[39.790978,48.308676],[39.792566,48.308441],[39.792566,48.3084405],[39.793193,48.308347]]]}},{"type":"Feature","properties":{"cadnum":"4411447100:03:003:0029"},"geometry":{"type":"Polygon","coordinates":[[[39.798619,48.305477],[39.798848,48.305464],[39.798839,48.305389],[39.798804,48.305393],[39.798789,48.305154],[39.798642,48.305156],[39.798642,48.305139],[39.798592,48.305139],[39.798619,48.305477]]]}},{"type":"Feature","properties":{"cadnum":"4411447100:03:003:0035"},"geometry":{"type":"Polygon","coordinates":[[[39.798278,48.30599],[39.798596,48.305975],[39.798642,48.305975],[39.798637,48.305894],[39.798646,48.305894],[39.798646,48.305862],[39.798637,48.305862],[39.798624,48.305652],[39.798273,48.305659],[39.798291,48.305858],[39.798251,48.305865],[39.798259,48.3059],[39.798269,48.305913],[39.798278,48.30599]]]}},{"type":"Feature","properties":{"cadnum":"4411447100:03:003:0059"},"geometry":{"type":"Polygon","coordinates":[[[39.800362,48.30766],[39.800479,48.307657],[39.800479,48.307651],[39.800766,48.307645],[39.800739,48.307254],[39.800349,48.307254],[39.800349,48.307269],[39.800362,48.307651],[39.800362,48.30766]]]}},{"type":"Feature","properties":{"cadnum":"4411447100:03:003:0055"},"geometry":{"type":"Polygon","coordinates":[[[39.799391,48.306095],[39.799684,48.305891],[39.79946,48.305742],[39.799288,48.305862],[39.799171,48.305945],[39.799185,48.305954],[39.799391,48.306095]]]}},{"type":"Feature","properties":{"cadnum":"4411447100:03:002:0001"},"geometry":{"type":"Polygon","coordinates":[[[39.798179,48.308344],[39.798309,48.308329],[39.798295,48.308263],[39.798165,48.308276],[39.798179,48.308344]]]}},{"type":"Feature","properties":{"cadnum":"4411447100:03:003:0024"},"geometry":{"type":"Polygon","coordinates":[[[39.801611,48.306826],[39.801705,48.306824],[39.801705,48.306788],[39.801611,48.306791],[39.801611,48.306826]]]}},{"type":"Feature","properties":{"cadnum":"4411447100:03:003:0027"},"geometry":{"type":"Polygon","coordinates":[[[39.799827,48.307666],[39.800056,48.307663],[39.800307,48.30766],[39.800294,48.307278],[39.799818,48.30729],[39.799827,48.307666]]]}},{"type":"Feature","properties":{"cadnum":"4411447100:03:003:0034"},"geometry":{"type":"Polygon","coordinates":[[[39.798992,48.306223],[39.799531,48.306205],[39.799391,48.306095],[39.799185,48.305954],[39.799144,48.305931],[39.799118,48.305951],[39.799087,48.305936],[39.799104,48.305924],[39.799081,48.305913],[39.799068,48.305924],[39.798982,48.305933],[39.798992,48.306223]]]}},{"type":"Feature","properties":{"cadnum":"4411447100:03:003:0028"},"geometry":{"type":"Polygon","coordinates":[[[39.801161,48.30879],[39.801143,48.308509],[39.801143,48.308469],[39.800936,48.308473],[39.800941,48.3085],[39.800856,48.308502],[39.80086,48.308547],[39.800946,48.308547],[39.80096708527132,48.308717],[39.800966,48.308717],[39.800978,48.308805],[39.801161,48.30879]]]}},{"type":"Feature","properties":{"cadnum":"4411447100:04:003:0016"},"geometry":{"type":"Polygon","coordinates":[[[39.798798,48.308733],[39.798798,48.308643],[39.798705,48.308643],[39.798705,48.308733],[39.798798,48.308733]]]}},{"type":"Feature","properties":{"cadnum":"4411447100:02:004:0005"},"geometry":{"type":"Polygon","coordinates":[[[39.823264,48.299934],[39.823264,48.299913],[39.823197,48.299913],[39.823197,48.299931],[39.823264,48.299934]]]}},{"type":"Feature","properties":{"cadnum":"4411447100:02:001:0004"},"geometry":{"type":"Polygon","coordinates":[[[39.820066,48.299919],[39.820071,48.299841],[39.819954,48.299841],[39.819949,48.299916],[39.820066,48.299919]]]}},{"type":"Feature","properties":{"cadnum":"4411447100:02:004:0007"},"geometry":{"type":"Polygon","coordinates":[[[39.821081,48.299904],[39.821081,48.299883],[39.821014,48.299883],[39.821014,48.299901],[39.821081,48.299904]]]}},{"type":"Feature","properties":{"cadnum":"4411447100:02:004:0006"},"geometry":{"type":"Polygon","coordinates":[[[39.822281,48.299919],[39.822281,48.299901],[39.822213,48.299898],[39.822213,48.299919],[39.822281,48.299919]]]}},{"type":"Feature","properties":{"cadnum":"4411447100:02:004:0004"},"geometry":{"type":"Polygon","coordinates":[[[39.824545,48.299949],[39.824545,48.299931],[39.824477,48.299931],[39.824477,48.299949],[39.824545,48.299949]]]}},{"type":"Feature","properties":{"cadnum":"4411447100:02:001:0035"},"geometry":{"type":"Polygon","coordinates":[[[39.820951,48.299303],[39.820857,48.298792],[39.820556,48.298811],[39.820551,48.298792],[39.820497,48.298796],[39.820502,48.298813],[39.820591,48.299301],[39.820951,48.299303]]]}},{"type":"Feature","properties":{"cadnum":"4411447100:01:001:0073"},"geometry":{"type":"Polygon","coordinates":[[[39.794617,48.326412],[39.794829,48.326275],[39.794504,48.326023],[39.794235,48.325839],[39.794007,48.325976],[39.794617,48.326412]]]}},{"type":"Feature","properties":{"cadnum":"4411447100:01:001:0057"},"geometry":{"type":"Polygon","coordinates":[[[39.797443,48.327003],[39.797716,48.326771],[39.797397,48.326567],[39.797051,48.326731],[39.797443,48.327003]]]}},{"type":"Feature","properties":{"cadnum":"4411447100:01:001:0025"},"geometry":{"type":"Polygon","coordinates":[[[39.795632,48.326651],[39.795871,48.326547],[39.795305,48.326147],[39.795228,48.326185],[39.79508,48.326269],[39.795416,48.326499],[39.795632,48.326651]]]}},{"type":"Feature","properties":{"cadnum":"4411447100:01:001:0091"},"geometry":{"type":"Polygon","coordinates":[[[39.795412,48.326758],[39.795426,48.326756],[39.795619,48.32666],[39.795399,48.32651],[39.795057,48.326284],[39.795043,48.326278],[39.794856,48.326397],[39.795057,48.326534],[39.795412,48.326758]]]}},{"type":"Feature","properties":{"cadnum":"4411447100:01:001:0045"},"geometry":{"type":"Polygon","coordinates":[[[39.798059,48.32692544339623],[39.798206,48.326986],[39.798471,48.32672],[39.798026,48.326526],[39.797888,48.326635],[39.797888,48.32663506451613],[39.797716,48.326771],[39.797707,48.32678],[39.798059,48.326926],[39.798059,48.32692544339623]]]}},{"type":"Feature","properties":{"cadnum":"4411447100:01:001:0082"},"geometry":{"type":"Polygon","coordinates":[[[39.795668,48.326403],[39.795871,48.32628],[39.795525,48.326032],[39.795515,48.326027],[39.795295,48.32614],[39.795305,48.326147],[39.795668,48.326403]]]}},{"type":"Feature","properties":{"cadnum":"4411447100:01:001:0086"},"geometry":{"type":"Polygon","coordinates":[[[39.794829,48.326275],[39.794994,48.326164],[39.794613,48.325872],[39.794177,48.325603],[39.794033,48.325698],[39.794235,48.325839],[39.794504,48.326023],[39.794829,48.326275]]]}},{"type":"Feature","properties":{"cadnum":"4411447100:01:001:0075"},"geometry":{"type":"Polygon","coordinates":[[[39.796414,48.326986],[39.79641,48.326982],[39.796405,48.326977],[39.79639291666666,48.326982],[39.796391,48.326982],[39.796347,48.327001],[39.796152,48.327096],[39.79615309589041,48.327096],[39.796049,48.327147],[39.796387,48.327395],[39.796747,48.327209],[39.796458,48.327024],[39.796414,48.326986]]]}},{"type":"Feature","properties":{"cadnum":"4411447100:01:001:0074"},"geometry":{"type":"Polygon","coordinates":[[[39.794007,48.325976],[39.794235,48.325839],[39.794033,48.325698],[39.793957,48.325749],[39.793822,48.325844],[39.794007,48.325976]]]}},{"type":"Feature","properties":{"cadnum":"4411447100:01:001:0071"},"geometry":{"type":"Polygon","coordinates":[[[39.792566,48.32479],[39.792372,48.324928],[39.792519,48.325018],[39.793032,48.325316],[39.793252,48.325158],[39.793054,48.325035],[39.793032,48.325051],[39.792726,48.324871],[39.792582,48.324779],[39.792566,48.32479037967914],[39.792566,48.32479]]]}},{"type":"Feature","properties":{"cadnum":"4411447100:01:001:0034"},"geometry":{"type":"Polygon","coordinates":[[[39.797888,48.3258725079365],[39.797888,48.325874],[39.797999,48.325785],[39.797569,48.325543],[39.797361,48.325666],[39.79781,48.325934],[39.797888,48.3258725079365]]]}},{"type":"Feature","properties":{"cadnum":"4411447100:01:001:0072"},"geometry":{"type":"Polygon","coordinates":[[[39.792395,48.324911639175255],[39.792395,48.324912],[39.792582,48.324779],[39.792395,48.324656],[39.792395,48.32465606684492],[39.792192,48.324522],[39.79194,48.324665],[39.792372,48.324928],[39.792395,48.324911639175255]]]}},{"type":"Feature","properties":{"cadnum":"4411447100:04:001:0004"},"geometry":{"type":"Polygon","coordinates":[[[39.817331,48.309746],[39.817421,48.309381],[39.816859,48.309321],[39.816819,48.309602],[39.817282,48.309736],[39.817331,48.309746]]]}},{"type":"Feature","properties":{"cadnum":"4411447100:04:001:0007"},"geometry":{"type":"Polygon","coordinates":[[[39.819425,48.309587],[39.819465,48.30931],[39.818993,48.309217],[39.818953,48.309384],[39.81892,48.309503],[39.819425,48.309587]]]}},{"type":"Feature","properties":{"cadnum":"4411447100:04:001:0003"},"geometry":{"type":"Polygon","coordinates":[[[39.818534,48.30991],[39.818666,48.309476],[39.818494,48.309459],[39.818256,48.309423],[39.818238,48.309476],[39.818108,48.309452],[39.818,48.309835],[39.818534,48.30991]]]}},{"type":"Feature","properties":{"cadnum":"4411447100:02:003:0013"},"geometry":{"type":"Polygon","coordinates":[[[39.816882,48.308643],[39.81659,48.30867],[39.81653458641975,48.308717],[39.816533,48.308717],[39.81636,48.308865],[39.816132,48.308876],[39.81676,48.309031],[39.81682841509439,48.30881179245267],[39.816882,48.308643]]]}},{"type":"Feature","properties":{"cadnum":"4411447100:02:003:0016"},"geometry":{"type":"Polygon","coordinates":[[[39.818387,48.309419],[39.818387,48.3093],[39.818413,48.308914],[39.818175,48.308828],[39.818094,48.309022],[39.818058,48.309405],[39.818387,48.309419]]]}},{"type":"Feature","properties":{"cadnum":"4411447100:02:003:0012"},"geometry":{"type":"Polygon","coordinates":[[[39.816693,48.30925],[39.81676,48.309031],[39.816132,48.308876],[39.815907,48.309109],[39.816693,48.30925]]]}},{"type":"Feature","properties":{"cadnum":"4411447100:04:001:0006"},"geometry":{"type":"Polygon","coordinates":[[[39.819356,48.310014],[39.819425,48.309587],[39.81892,48.309503],[39.818934,48.309746],[39.819056,48.309841],[39.819046,48.309915],[39.8191,48.309922],[39.819092,48.309984],[39.819356,48.310014]]]}},{"type":"Feature","properties":{"cadnum":"4411447100:04:001:0005"},"geometry":{"type":"Polygon","coordinates":[[[39.817991,48.309847],[39.818,48.309835],[39.818108,48.309452],[39.817421,48.309381],[39.817331,48.309746],[39.817991,48.309847]]]}},{"type":"Feature","properties":{"cadnum":"4411447100:04:001:0002"},"geometry":{"type":"Polygon","coordinates":[[[39.819083,48.309993],[39.819092,48.309984],[39.8191,48.309922],[39.819046,48.309915],[39.819056,48.309841],[39.818934,48.309746],[39.81892,48.309503],[39.818666,48.309476],[39.818534,48.30991],[39.818651,48.309924],[39.818647,48.309952],[39.819083,48.309993]]]}},{"type":"Feature","properties":{"cadnum":"4411447100:02:001:0029"},"geometry":{"type":"Polygon","coordinates":[[[39.814897,48.306578],[39.815081,48.306385],[39.814752,48.30625],[39.814511,48.306495],[39.814704,48.306576],[39.814897,48.306578]]]}},{"type":"Feature","properties":{"cadnum":"4411447100:02:001:0027"},"geometry":{"type":"Polygon","coordinates":[[[39.813513,48.309841],[39.813563,48.309814],[39.813652,48.309746],[39.81385,48.309525],[39.813504,48.309336],[39.813154,48.309647],[39.813513,48.309841]]]}},{"type":"Feature","properties":{"cadnum":"4411447100:02:003:0009"},"geometry":{"type":"Polygon","coordinates":[[[39.813311,48.312302],[39.813077,48.312132],[39.812743,48.312485],[39.812743279661014,48.312485],[39.812628,48.312607],[39.812737,48.31272],[39.8131505309838,48.31241807047417],[39.813311,48.312302]]]}},{"type":"Feature","properties":{"cadnum":"4411447100:02:001:0028"},"geometry":{"type":"Polygon","coordinates":[[[39.813163,48.309981],[39.813387,48.309915],[39.813513,48.309841],[39.813154,48.309647],[39.812844,48.309922],[39.81293,48.309961],[39.81296,48.309972],[39.813163,48.309981]]]}},{"type":"Feature","properties":{"cadnum":"4411447100:02:003:0008"},"geometry":{"type":"Polygon","coordinates":[[[39.813077,48.312132],[39.812893,48.311994],[39.812388071979434,48.312371],[39.812388,48.312371],[39.812372,48.312383],[39.812487,48.312485],[39.812488571428574,48.312485],[39.812628,48.312607],[39.812851,48.312371],[39.812850864022664,48.312371],[39.813077,48.312132]]]}},{"type":"Feature","properties":{"cadnum":"4411447100:02:003:0017"},"geometry":{"type":"Polygon","coordinates":[[[39.82596,48.290377],[39.82594868852459,48.290446],[39.825948,48.290446],[39.825914,48.290661],[39.825932,48.290667],[39.82627,48.290758],[39.826633,48.290814],[39.826673,48.29059],[39.826417,48.29056],[39.82596,48.290377]]]}},{"type":"Feature","properties":{"cadnum":"4411447100:02:004:0011"},"geometry":{"type":"Polygon","coordinates":[[[39.82604,48.291157],[39.825698,48.290981],[39.825587,48.290957],[39.825384,48.291301],[39.825878,48.291432],[39.82604,48.291157]]]}},{"type":"Feature","properties":{"cadnum":"4411447100:01:003:0019"},"geometry":{"type":"Polygon","coordinates":[[[39.803852,48.33531],[39.804098,48.334881],[39.803699,48.334761],[39.803636,48.335084],[39.803685,48.335275],[39.803852,48.33531]]]}},{"type":"Feature","properties":{"cadnum":"4411447100:01:003:0018"},"geometry":{"type":"Polygon","coordinates":[[[39.804234,48.335392],[39.804477,48.334998],[39.804098,48.334881],[39.803852,48.33531],[39.804234,48.335392]]]}},{"type":"Feature","properties":{"cadnum":"4411447100:01:003:0024"},"geometry":{"type":"Polygon","coordinates":[[[39.803452,48.330438],[39.803299,48.330521],[39.803381,48.33057200787402],[39.803381,48.330573],[39.803630039999504,48.3307269999997],[39.803722,48.330784],[39.803955,48.330638],[39.803947,48.330634],[39.803946666666675,48.330634],[39.803905,48.330614],[39.803986,48.330542],[39.804081,48.330587],[39.804125,48.330545],[39.803842,48.330408],[39.803519,48.330336],[39.803452,48.330438]]]}},{"type":"Feature","properties":{"cadnum":"4411447100:01:003:0036"},"geometry":{"type":"Polygon","coordinates":[[[39.804727,48.330512],[39.804701,48.330527],[39.80455741880341,48.330634],[39.804556,48.330634],[39.804544,48.330644],[39.804503,48.330689],[39.804462,48.330727],[39.804499,48.330748],[39.80449966548042,48.330748],[39.804966,48.331008],[39.805213,48.330787],[39.805144176470584,48.330748],[39.805145,48.330748],[39.804727,48.330512]]]}},{"type":"Feature","properties":{"cadnum":"4411447100:01:003:0037"},"geometry":{"type":"Polygon","coordinates":[[[39.805271,48.330718],[39.80514,48.330649],[39.805173,48.330626],[39.804863,48.330441],[39.804777,48.330488],[39.804727,48.330512],[39.80494308474577,48.330634],[39.804943,48.330634],[39.805213,48.330787],[39.805284,48.330724],[39.805271,48.330718]]]}},{"type":"Feature","properties":{"cadnum":"4411447100:03:003:0017"},"geometry":{"type":"Polygon","coordinates":[[[39.803622,48.310815],[39.80345810314635,48.31081636013987],[39.803026,48.310818],[39.802787,48.310827],[39.802806,48.311021],[39.803182,48.311012],[39.803381,48.311012],[39.803553,48.311012],[39.803645,48.311012],[39.803622,48.310815]]]}},{"type":"Feature","properties":{"cadnum":"4411447100:02:001:0003"},"geometry":{"type":"Polygon","coordinates":[[[39.806196,48.309461],[39.806272,48.309432],[39.80625,48.309378],[39.806165,48.309369],[39.806133,48.309423],[39.806196,48.309461]]]}},{"type":"Feature","properties":{"cadnum":"4411447100:02:001:0002"},"geometry":{"type":"Polygon","coordinates":[[[39.805752,48.309405],[39.805828,48.309384],[39.805819,48.30933],[39.805729,48.309315],[39.805697,48.309366],[39.805752,48.309405]]]}},{"type":"Feature","properties":{"cadnum":"4411447100:03:003:0016"},"geometry":{"type":"Polygon","coordinates":[[[39.803645,48.311188],[39.803645,48.311012],[39.803553,48.311012],[39.803381,48.311012],[39.803182,48.311012],[39.802806,48.311021],[39.802827,48.311203],[39.803553,48.31119],[39.803553,48.31118974242425],[39.803645,48.311188]]]}},{"type":"Feature","properties":{"cadnum":"4411447100:02:001:0014"},"geometry":{"type":"Polygon","coordinates":[[[39.823803,48.288809],[39.823893,48.288519],[39.823291,48.288465],[39.823211,48.288752],[39.823803,48.288809]]]}},{"type":"Feature","properties":{"cadnum":"4411447100:03:001:0029"},"geometry":{"type":"Polygon","coordinates":[[[39.794666,48.305871],[39.79498,48.305862],[39.794972,48.305739],[39.794936,48.305557],[39.794959,48.305554],[39.794949,48.305375],[39.794653,48.305389],[39.794666,48.305602],[39.794666,48.305871]]]}},{"type":"Feature","properties":{"cadnum":"4411447100:03:001:0043"},"geometry":{"type":"Polygon","coordinates":[[[39.793359,48.305924],[39.793575,48.305913],[39.793565,48.305793],[39.793544,48.305417],[39.793319,48.305417],[39.793351,48.305918],[39.793359,48.305918],[39.793359,48.305924]]]}},{"type":"Feature","properties":{"cadnum":"4411447100:03:001:0026"},"geometry":{"type":"Polygon","coordinates":[[[39.797213,48.306403],[39.797384,48.306394],[39.797496,48.306387],[39.797492,48.306211],[39.797483,48.306095],[39.797473,48.305973],[39.797177,48.305982],[39.7972,48.306274],[39.797213,48.306403]]]}},{"type":"Feature","properties":{"cadnum":"4411447100:03:001:0046"},"geometry":{"type":"Polygon","coordinates":[[[39.793974,48.30689],[39.794257,48.306883],[39.794231,48.306531],[39.794257,48.306527],[39.794257,48.306474],[39.794204,48.306477],[39.794204,48.306468],[39.793961,48.306471],[39.793974,48.30689]]]}},{"type":"Feature","properties":{"cadnum":"4411447100:03:001:0019"},"geometry":{"type":"Polygon","coordinates":[[[39.797712,48.30846],[39.797819,48.308455],[39.797806,48.308338],[39.797793,48.308341],[39.797783,48.308195],[39.797703,48.308198],[39.797712,48.308344],[39.797699,48.308344],[39.797712,48.30846]]]}},{"type":"Feature","properties":{"cadnum":"4411447100:03:001:0021"},"geometry":{"type":"Polygon","coordinates":[[[39.796818,48.307173],[39.797064,48.307164],[39.797038,48.306812],[39.796787,48.306815],[39.796818,48.307173]]]}},{"type":"Feature","properties":{"cadnum":"4411447100:03:001:0020"},"geometry":{"type":"Polygon","coordinates":[[[39.793588,48.307266],[39.79384,48.307257],[39.793835,48.307147],[39.793808,48.30691],[39.793638,48.306919],[39.793535,48.306919],[39.793588,48.307248],[39.793584,48.307248],[39.793588,48.307266]]]}},{"type":"Feature","properties":{"cadnum":"4411447100:03:001:0044"},"geometry":{"type":"Polygon","coordinates":[[[39.79777,48.308446],[39.79777,48.308443],[39.797819,48.308443],[39.79781,48.308365],[39.797846,48.308362],[39.797846,48.308353],[39.797837,48.308353],[39.797837,48.308341],[39.79781,48.308341],[39.79781,48.308323],[39.797797,48.308323],[39.797789,48.308245],[39.797703,48.308249],[39.797707,48.308327],[39.797693,48.308327],[39.797703,48.308446],[39.797752,48.308443],[39.797752,48.308446],[39.79777,48.308446]]]}},{"type":"Feature","properties":{"cadnum":"4411447100:03:003:0031"},"geometry":{"type":"Polygon","coordinates":[[[39.796032,48.306653],[39.796154,48.306555],[39.796257,48.306414],[39.795991,48.306411],[39.795991,48.306444],[39.795695,48.306438],[39.795448,48.306438],[39.795462,48.306596],[39.795987,48.306596],[39.795978,48.306653],[39.796032,48.306653]]]}},{"type":"Feature","properties":{"cadnum":"4411447100:03:001:0022"},"geometry":{"type":"Polygon","coordinates":[[[39.795435,48.306456],[39.795678,48.30645],[39.795678,48.306262],[39.795645,48.306011],[39.795389,48.30602],[39.795435,48.306456]]]}},{"type":"Feature","properties":{"cadnum":"4411447100:03:001:0052"},"geometry":{"type":"Polygon","coordinates":[[[39.792758,48.307251],[39.792762,48.307197],[39.792668,48.307194],[39.792663,48.307248],[39.792758,48.307251]]]}},{"type":"Feature","properties":{"cadnum":"4411447100:04:003:0010"},"geometry":{"type":"Polygon","coordinates":[[[39.80519,48.299689],[39.80519,48.299671],[39.805163,48.299671],[39.805163,48.299689],[39.80519,48.299689]]]}},{"type":"Feature","properties":{"cadnum":"4411447100:04:003:0028"},"geometry":{"type":"Polygon","coordinates":[[[39.804584,48.299339],[39.805123,48.29933],[39.805374,48.299327],[39.805387,48.299151],[39.804601,48.299145],[39.804584,48.299339]]]}},{"type":"Feature","properties":{"cadnum":"4411447100:04:003:0037"},"geometry":{"type":"Polygon","coordinates":[[[39.806156,48.300349],[39.806165,48.30014],[39.80616,48.300045],[39.805913,48.300054],[39.805559,48.300032],[39.805527,48.300319],[39.805769,48.30034],[39.805779,48.300331],[39.806142,48.300349],[39.806156,48.300349]]]}},{"type":"Feature","properties":{"cadnum":"4411447100:04:003:0029"},"geometry":{"type":"Polygon","coordinates":[[[39.805504,48.297678],[39.805419,48.297654],[39.80489,48.297654],[39.80488812962963,48.297755],[39.804887,48.297755],[39.804884,48.297974],[39.80546,48.297932],[39.8055,48.297917],[39.805503,48.297755],[39.80550239583334,48.297755],[39.805504,48.297678]]]}},{"type":"Feature","properties":{"cadnum":"4411447100:04:003:0018"},"geometry":{"type":"Polygon","coordinates":[[[39.803553,48.298718951807224],[39.803879,48.298825],[39.803964,48.298703],[39.804009,48.298637],[39.80345306557233,48.29847588524548],[39.803299,48.298431],[39.803165,48.298592],[39.803381,48.29866270103093],[39.803381,48.298663],[39.803529123076835,48.29871118461536],[39.803553,48.298719],[39.803553,48.298718951807224]]]}},{"type":"Feature","properties":{"cadnum":"4411447100:04:003:0008"},"geometry":{"type":"Polygon","coordinates":[[[39.807836,48.299724],[39.807836,48.299707],[39.807768,48.299704],[39.807768,48.299724],[39.807836,48.299724]]]}},{"type":"Feature","properties":{"cadnum":"4411447100:04:003:0021"},"geometry":{"type":"Polygon","coordinates":[[[39.807804,48.299489],[39.8082,48.299456],[39.808177,48.299109],[39.807741,48.299139],[39.807804,48.299489]]]}},{"type":"Feature","properties":{"cadnum":"4411447100:04:003:0034"},"geometry":{"type":"Polygon","coordinates":[[[39.805284,48.300385],[39.805307,48.300238],[39.805316,48.3002],[39.805154,48.300188],[39.804498,48.300143],[39.804301,48.300129],[39.804278,48.300311],[39.804477,48.300322],[39.804691,48.300331],[39.805064,48.300361],[39.805284,48.300385]]]}},{"type":"Feature","properties":{"cadnum":"4411447100:04:003:0027"},"geometry":{"type":"Polygon","coordinates":[[[39.806821,48.298628],[39.807221,48.298604],[39.807153,48.298231],[39.806812,48.298258],[39.806771,48.29826],[39.806821,48.298628]]]}},{"type":"Feature","properties":{"cadnum":"4411447100:04:003:0009"},"geometry":{"type":"Polygon","coordinates":[[[39.806488,48.299707],[39.806488,48.299689],[39.806421,48.299686],[39.806421,48.299707],[39.806488,48.299707]]]}},{"type":"Feature","properties":{"cadnum":"4411447100:04:003:0011"},"geometry":{"type":"Polygon","coordinates":[[[39.803766,48.299671],[39.803766,48.29965],[39.803699,48.29965],[39.803699,48.299668],[39.803766,48.299671]]]}},{"type":"Feature","properties":{"cadnum":"4411447100:04:003:0007"},"geometry":{"type":"Polygon","coordinates":[[[39.809183,48.299743],[39.809183,48.299724],[39.809116,48.299722],[39.809116,48.299743],[39.809183,48.299743]]]}},{"type":"Feature","properties":{"cadnum":"4411447100:04:003:0020"},"geometry":{"type":"Polygon","coordinates":[[[39.810383,48.300344],[39.810652,48.300335],[39.810603,48.299817],[39.810337,48.299817],[39.810383,48.300344]]]}},{"type":"Feature","properties":{"cadnum":"4411447100:04:003:0038"},"geometry":{"type":"Polygon","coordinates":[[[39.812997,48.298258],[39.8134,48.298243],[39.813343,48.297884],[39.813343,48.297881],[39.812938,48.297902],[39.812997,48.298258]]]}},{"type":"Feature","properties":{"cadnum":"4411447100:04:003:0006"},"geometry":{"type":"Polygon","coordinates":[[[39.810396,48.299761],[39.810396,48.29974],[39.810328,48.29974],[39.810328,48.299757],[39.810396,48.299761]]]}},{"type":"Feature","properties":{"cadnum":"4411447100:04:003:0026"},"geometry":{"type":"Polygon","coordinates":[[[39.81093,48.298419],[39.811272,48.298401],[39.811213,48.298061],[39.810886,48.298078],[39.81093,48.298419]]]}},{"type":"Feature","properties":{"cadnum":"4411447100:04:003:0019"},"geometry":{"type":"Polygon","coordinates":[[[39.81315,48.298811],[39.81358,48.298796],[39.813559,48.298628],[39.813544,48.298431],[39.813131,48.29844],[39.81315,48.298811]]]}},{"type":"Feature","properties":{"cadnum":"4411447100:04:003:0024"},"geometry":{"type":"Polygon","coordinates":[[[39.81349,48.298774],[39.81389,48.298756],[39.813868,48.298401],[39.813454,48.298419],[39.81349,48.298774]]]}},{"type":"Feature","properties":{"cadnum":"4411447100:04:003:0025"},"geometry":{"type":"Polygon","coordinates":[[[39.810221,48.298939],[39.810603,48.298909],[39.810563,48.298548],[39.810163,48.298568],[39.810221,48.298939]]]}},{"type":"Feature","properties":{"cadnum":"4411447100:04:003:0035"},"geometry":{"type":"Polygon","coordinates":[[[39.813792,48.298306],[39.8142,48.298284],[39.814146,48.297932],[39.813737,48.297956],[39.813792,48.298306]]]}},{"type":"Feature","properties":{"cadnum":"4411447100:04:003:0004"},"geometry":{"type":"Polygon","coordinates":[[[39.813091,48.299797],[39.813091,48.299775],[39.813024,48.299775],[39.813024,48.299797],[39.813091,48.299797]]]}},{"type":"Feature","properties":{"cadnum":"4411447100:04:003:0003"},"geometry":{"type":"Polygon","coordinates":[[[39.814344,48.299812],[39.814344,48.299793],[39.814276,48.299793],[39.814276,48.299812],[39.814344,48.299812]]]}},{"type":"Feature","properties":{"cadnum":"4411447100:04:003:0005"},"geometry":{"type":"Polygon","coordinates":[[[39.811743,48.299779],[39.811743,48.299757],[39.811676,48.299757],[39.811676,48.299775],[39.811743,48.299779]]]}},{"type":"Feature","properties":{"cadnum":"4411447100:01:001:0020"},"geometry":{"type":"Polygon","coordinates":[[[39.798471,48.327547],[39.798435,48.327526],[39.798458,48.327497],[39.798452,48.327493],[39.798452,48.327469],[39.798462,48.32746],[39.798515,48.327455],[39.798592,48.327368],[39.798349,48.327266],[39.798183,48.327198],[39.798059,48.32733621656051],[39.798059,48.327336],[39.798026,48.327373],[39.79803,48.327377],[39.797927,48.327553],[39.798223,48.327616],[39.798395,48.327657],[39.798471,48.327547]]]}},{"type":"Feature","properties":{"cadnum":"4411447100:01:003:0038"},"geometry":{"type":"Polygon","coordinates":[[[39.802275,48.330199],[39.802554,48.329974],[39.802158,48.329735],[39.801817,48.329921],[39.8021,48.330154],[39.802275,48.330199]]]}},{"type":"Feature","properties":{"cadnum":"4411447100:01:003:0025"},"geometry":{"type":"Polygon","coordinates":[[[39.797909,48.329987],[39.797842,48.329969],[39.797797,48.330056],[39.797716,48.330208],[39.797888,48.33024962099125],[39.797888,48.33025],[39.798309,48.330351],[39.798408,48.330025],[39.797932,48.329945],[39.797909,48.329987]]]}},{"type":"Feature","properties":{"cadnum":"4411447100:01:003:0028"},"geometry":{"type":"Polygon","coordinates":[[[39.801624,48.330467],[39.802077,48.330208],[39.801785,48.329996],[39.801381,48.330226],[39.801624,48.330467]]]}},{"type":"Feature","properties":{"cadnum":"4411447100:01:003:0026"},"geometry":{"type":"Polygon","coordinates":[[[39.798678,48.330244],[39.798691,48.330115],[39.798637,48.330064],[39.798408,48.330025],[39.798309,48.330351],[39.798059,48.33029102375297],[39.798059,48.330291],[39.797716,48.330208],[39.797672,48.330286],[39.797888,48.330358626086955],[39.797888,48.330359],[39.798017,48.330402],[39.79803,48.330375],[39.798228,48.330417],[39.798238,48.330402],[39.798578,48.330479],[39.798678,48.330244]]]}},{"type":"Feature","properties":{"cadnum":"4411447100:01:001:0053"},"geometry":{"type":"Polygon","coordinates":[[[39.798059,48.327849539419084],[39.798129,48.327869],[39.798169,48.327822],[39.798196,48.327794],[39.798228,48.327777],[39.798273,48.327759],[39.798336,48.327657],[39.79795762162122,48.32756747297288],[39.797873,48.327547],[39.797815,48.327657],[39.797766,48.327768],[39.798059,48.327851],[39.798059,48.327849539419084]]]}},{"type":"Feature","properties":{"cadnum":"4411447100:03:003:0025"},"geometry":{"type":"Polygon","coordinates":[[[39.803668,48.313515],[39.803659,48.313387],[39.803659,48.313327],[39.803461690679526,48.31332841949152],[39.8029,48.313331],[39.802913,48.313528],[39.803553,48.313518],[39.803553,48.31351700348432],[39.803668,48.313515]]]}},{"type":"Feature","properties":{"cadnum":"4411447100:03:003:0053"},"geometry":{"type":"Polygon","coordinates":[[[39.803718,48.314137],[39.803689,48.313951],[39.80343308823546,48.313955985294115],[39.802949,48.313964],[39.802963,48.314148],[39.803381,48.314141623728815],[39.803381,48.314142],[39.803718,48.314137]]]}},{"type":"Feature","properties":{"cadnum":"4411447100:03:003:0026"},"geometry":{"type":"Polygon","coordinates":[[[39.8034981798374,48.313002168937324],[39.803553,48.313002],[39.803553,48.313001780141846],[39.803663,48.313001],[39.803649,48.312822],[39.803553,48.312822],[39.803381,48.312822],[39.80289,48.312822],[39.802904,48.313004],[39.803381,48.31300253004622],[39.803381,48.313003],[39.8034981798374,48.313002168937324]]]}},{"type":"Feature","properties":{"cadnum":"4411447100:02:001:0034"},"geometry":{"type":"Polygon","coordinates":[[[39.806376,48.315983],[39.806372,48.315696],[39.805823,48.315588],[39.805743,48.315878],[39.806376,48.315983]]]}},{"type":"Feature","properties":{"cadnum":"4411447100:01:003:0006"},"geometry":{"type":"MultiPolygon","coordinates":[[[[39.808196,48.329157],[39.8081,48.3291],[39.808383,48.328903],[39.808415,48.328879],[39.80811,48.328774],[39.807656,48.329046],[39.807588,48.329085],[39.807804,48.32924],[39.807706,48.329309],[39.807844,48.329401],[39.808196,48.329157]]],[[[39.808796,48.329106],[39.808599,48.329273],[39.808465,48.329204],[39.808383,48.329267],[39.808576,48.329381],[39.808666,48.329315],[39.808874,48.32944636842105],[39.808874,48.329447],[39.809399,48.329777],[39.809601,48.329626],[39.808874,48.329145],[39.808874,48.32914505],[39.808806,48.3291],[39.808796,48.329106]]]]}},{"type":"Feature","properties":{"cadnum":"4411447100:01:003:0047"},"geometry":{"type":"Polygon","coordinates":[[[39.809046,48.32977588073394],[39.809201,48.329874],[39.809521,48.329571],[39.809318,48.329447],[39.809048,48.329644],[39.808874,48.329533],[39.808874,48.3295330113852],[39.808519,48.329306],[39.808419,48.329378],[39.808874,48.32966681977672],[39.808874,48.329667],[39.80897750419992,48.32973252100729],[39.809046,48.329776],[39.809046,48.32977588073394]]]}},{"type":"Feature","properties":{"cadnum":"4411447100:01:003:0029"},"geometry":{"type":"Polygon","coordinates":[[[39.805271,48.329091],[39.805316,48.329079],[39.805316,48.329028],[39.805419,48.328867],[39.804974,48.328739],[39.804827,48.328914],[39.805226,48.329058],[39.805271,48.329091]]]}},{"type":"Feature","properties":{"cadnum":"4411447100:01:003:0048"},"geometry":{"type":"Polygon","coordinates":[[[39.809046,48.32964272413793],[39.809048,48.329644],[39.809318,48.329447],[39.809046,48.32927546846847],[39.809046,48.329275],[39.808783,48.329109],[39.808693,48.329175],[39.808519,48.329306],[39.809046,48.329643],[39.809046,48.32964272413793]]]}},{"type":"Feature","properties":{"cadnum":"4411447100:01:003:0005"},"geometry":{"type":"Polygon","coordinates":[[[39.808209,48.329649],[39.808303,48.329584],[39.808576,48.329381],[39.808383,48.329267],[39.808196,48.329157],[39.807844,48.329401],[39.808209,48.329649]]]}},{"type":"Feature","properties":{"cadnum":"4411447100:02:004:0016"},"geometry":{"type":"Polygon","coordinates":[[[39.82409,48.29269],[39.824136,48.292637],[39.824199,48.292658],[39.824463,48.292497],[39.824069,48.29226],[39.823633,48.29253],[39.823826,48.292598],[39.82409,48.29269]]]}},{"type":"Feature","properties":{"cadnum":"4411447100:02:001:0015"},"geometry":{"type":"Polygon","coordinates":[[[39.823327,48.291445],[39.823587,48.291128],[39.823111,48.29105],[39.822924,48.29102],[39.822855,48.291161],[39.822828,48.291223],[39.823031,48.291268],[39.822999,48.291331],[39.823327,48.291445]]]}},{"type":"Feature","properties":{"cadnum":"4411447100:02:003:0029"},"geometry":{"type":"Polygon","coordinates":[[[39.823547,48.29307],[39.823614,48.29275],[39.82344,48.292709],[39.823461,48.292607],[39.82335,48.292574],[39.823188,48.292565],[39.823102,48.292993],[39.823547,48.29307]]]}},{"type":"Feature","properties":{"cadnum":"4411447100:02:003:0011"},"geometry":{"type":"Polygon","coordinates":[[[39.802406,48.321792],[39.802643,48.321756],[39.802531,48.321257],[39.802481,48.320881],[39.802334,48.32086],[39.802347,48.321045],[39.80237,48.321311],[39.802383,48.321535],[39.802406,48.321792]]]}},{"type":"Feature","properties":{"cadnum":"4411447100:02:003:0025"},"geometry":{"type":"Polygon","coordinates":[[[39.802859,48.321687],[39.803097,48.321651],[39.802993,48.321129],[39.802724,48.32115],[39.802737,48.321299],[39.802859,48.321687]]]}},{"type":"Feature","properties":{"cadnum":"4411447100:02:003:0020"},"geometry":{"type":"Polygon","coordinates":[[[39.801674,48.321815],[39.802203,48.321789],[39.802181,48.321627],[39.802271,48.321618],[39.802261,48.321518],[39.802257,48.321469],[39.801695,48.321463],[39.801674,48.321815]]]}},{"type":"Feature","properties":{"cadnum":"4411447100:02:003:0022"},"geometry":{"type":"Polygon","coordinates":[[[39.802607,48.321735],[39.802859,48.321687],[39.802737,48.321299],[39.802706,48.320985],[39.802464,48.320914],[39.8025,48.321239],[39.802607,48.321735]]]}},{"type":"Feature","properties":{"cadnum":"4411447100:02:001:0025"},"geometry":{"type":"Polygon","coordinates":[[[39.803097,48.320263],[39.803156,48.320035],[39.802374,48.319946],[39.802316,48.320173],[39.803097,48.320263]]]}},{"type":"Feature","properties":{"cadnum":"4411447100:03:003:0021"},"geometry":{"type":"Polygon","coordinates":[[[39.801898,48.313064],[39.80271,48.313025],[39.802697,48.312846],[39.801894,48.312882],[39.801898,48.312935],[39.801898,48.313064]]]}},{"type":"Feature","properties":{"cadnum":"4411447100:03:003:0060"},"geometry":{"type":"Polygon","coordinates":[[[39.801984,48.313841],[39.802792,48.313811],[39.802783,48.313617],[39.801965,48.31365],[39.80197,48.313688],[39.801984,48.313841]]]}},{"type":"Feature","properties":{"cadnum":"4411447100:03:003:0023"},"geometry":{"type":"Polygon","coordinates":[[[39.799877,48.312371],[39.799877,48.312273],[39.798955,48.312266],[39.798955,48.312371],[39.798955,48.312422],[39.799877,48.312434],[39.799877,48.312371]]]}},{"type":"Feature","properties":{"cadnum":"4411447100:03:003:0057"},"geometry":{"type":"Polygon","coordinates":[[[39.799728,48.313796],[39.80003,48.313787],[39.80007,48.313787],[39.80006,48.313677],[39.800052,48.31353],[39.799706,48.313542],[39.799728,48.313796]]]}},{"type":"Feature","properties":{"cadnum":"4411447100:03:003:0019"},"geometry":{"type":"Polygon","coordinates":[[[39.801139,48.313136],[39.801902,48.313112],[39.801898,48.313064],[39.801898,48.312935],[39.801269,48.312948],[39.801125,48.312954],[39.801139,48.313136]]]}},{"type":"Feature","properties":{"cadnum":"4411447100:03:003:0020"},"geometry":{"type":"Polygon","coordinates":[[[39.802005,48.314465],[39.802446,48.31445],[39.802446,48.314459],[39.8025,48.314459],[39.8025,48.31445],[39.802796,48.314438],[39.802787,48.314223],[39.801997,48.314256],[39.802005,48.314465]]]}},{"type":"Feature","properties":{"cadnum":"4411447100:03:003:0056"},"geometry":{"type":"Polygon","coordinates":[[[39.799024,48.313814],[39.799728,48.313796],[39.799706,48.313542],[39.799018,48.313566],[39.798982,48.313569],[39.799001,48.313814],[39.799024,48.313814]]]}},{"type":"Feature","properties":{"cadnum":"4411447100:03:003:0022"},"geometry":{"type":"Polygon","coordinates":[[[39.799045,48.314221],[39.799913,48.314197],[39.799899,48.314026],[39.799037,48.314056],[39.799045,48.314221]]]}},{"type":"Feature","properties":{"cadnum":"4411447100:02:004:0003"},"geometry":{"type":"Polygon","coordinates":[[[39.825622,48.299963],[39.825622,48.299946],[39.825555,48.299943],[39.825555,48.299963],[39.825622,48.299963]]]}},{"type":"Feature","properties":{"cadnum":"4411447100:02:004:0002"},"geometry":{"type":"Polygon","coordinates":[[[39.827119,48.299985],[39.827119,48.299963],[39.827046,48.299963],[39.827046,48.299981],[39.827119,48.299985]]]}},{"type":"Feature","properties":{"cadnum":"4411447100:01:003:0042"},"geometry":{"type":"Polygon","coordinates":[[[39.802571,48.324668],[39.802567,48.324363],[39.802527,48.324358],[39.802423,48.324303],[39.802351,48.324294],[39.80223,48.324283],[39.802136,48.324265],[39.802123,48.324298],[39.802033,48.324542],[39.802571,48.324668]]]}},{"type":"Feature","properties":{"cadnum":"4411447100:01:003:0043"},"geometry":{"type":"Polygon","coordinates":[[[39.801188,48.326501],[39.801521,48.326242],[39.800923,48.326069],[39.800708,48.326287],[39.801188,48.326501]]]}},{"type":"Feature","properties":{"cadnum":"4411447100:01:003:0046"},"geometry":{"type":"Polygon","coordinates":[[[39.801305,48.324928],[39.801364,48.324812],[39.800986,48.324668],[39.800811,48.324602],[39.800722,48.32471],[39.801305,48.324928]]]}},{"type":"Feature","properties":{"cadnum":"4411447100:01:003:0044"},"geometry":{"type":"Polygon","coordinates":[[[39.801116,48.326833],[39.801745,48.326346],[39.801538,48.32623],[39.801521,48.326242],[39.801188,48.326501],[39.800708,48.326287],[39.800659,48.326335],[39.801129,48.326547],[39.800909,48.326716],[39.801116,48.326833]]]}},{"type":"Feature","properties":{"cadnum":"4411447100:01:003:0045"},"geometry":{"type":"Polygon","coordinates":[[[39.801179,48.325173],[39.801305,48.324928],[39.800722,48.32471],[39.800536,48.324936],[39.800703,48.325],[39.800842,48.325044],[39.80086,48.325071],[39.801179,48.325173]]]}},{"type":"Feature","properties":{"cadnum":"4411447100:01:001:0035"},"geometry":{"type":"Polygon","coordinates":[[[39.798448,48.325412],[39.798695,48.325235],[39.798336,48.325044],[39.798098,48.325211],[39.798148,48.325241],[39.798161,48.325233],[39.798448,48.325412]]]}},{"type":"Feature","properties":{"cadnum":"4411447100:04:003:0036"},"geometry":{"type":"Polygon","coordinates":[[[39.803079,48.299797],[39.803133,48.299731],[39.803209,48.299638],[39.803106,48.299605],[39.802433,48.299381],[39.802284,48.299545],[39.802437,48.299596],[39.802594,48.29965],[39.80263,48.299662],[39.802634,48.299624],[39.802747,48.299626],[39.802747,48.299698],[39.802854,48.299728],[39.803079,48.299797]]]}},{"type":"Feature","properties":{"cadnum":"4411447100:03:001:0014"},"geometry":{"type":"Polygon","coordinates":[[[39.801355,48.29965],[39.801372,48.299635],[39.801318,48.299605],[39.801301,48.29962],[39.801355,48.29965]]]}},{"type":"Feature","properties":{"cadnum":"4411447100:04:003:0012"},"geometry":{"type":"Polygon","coordinates":[[[39.802747,48.299704],[39.802747,48.299626],[39.802634,48.299624],[39.80263,48.299701],[39.802747,48.299704]]]}},{"type":"Feature","properties":{"cadnum":"4411447100:02:003:0018"},"geometry":{"type":"Polygon","coordinates":[[[39.806376,48.320645],[39.806448,48.320615],[39.806416,48.320586],[39.806555,48.320529],[39.806475,48.320496],[39.80598,48.320182],[39.805819,48.320323],[39.806345,48.320618],[39.806376,48.320645]]]}},{"type":"Feature","properties":{"cadnum":"4411447100:02:003:0023"},"geometry":{"type":"Polygon","coordinates":[[[39.806102,48.321075],[39.806205,48.320797],[39.806345,48.320618],[39.806056,48.320457],[39.80576,48.321004],[39.805999,48.321066],[39.806102,48.321075]]]}},{"type":"Feature","properties":{"cadnum":"4411447100:02:003:0024"},"geometry":{"type":"Polygon","coordinates":[[[39.80576,48.321004],[39.806056,48.320457],[39.805936,48.320389],[39.805639,48.320797],[39.80576,48.321004]]]}},{"type":"Feature","properties":{"cadnum":"4411447100:02:003:0019"},"geometry":{"type":"Polygon","coordinates":[[[39.80475,48.321815],[39.804848,48.321613],[39.804597,48.321571],[39.804414,48.321556],[39.804324,48.321518],[39.804135,48.321481],[39.804022,48.321637],[39.80475,48.321815]]]}},{"type":"Feature","properties":{"cadnum":"4411447100:02:001:0021"},"geometry":{"type":"Polygon","coordinates":[[[39.806236,48.319654],[39.806209,48.319555],[39.806129,48.319564],[39.806129,48.319468],[39.806062,48.319429],[39.80594,48.319409],[39.8059,48.319528],[39.805819,48.319621],[39.80578045882353,48.319677],[39.80578,48.319677],[39.80573583132535,48.31974184337343],[39.805702,48.319791],[39.805702347826085,48.319791],[39.805639,48.319884],[39.805613,48.320003],[39.806223,48.319796],[39.806115,48.319701],[39.806236,48.319654]]]}},{"type":"Feature","properties":{"cadnum":"4411447100:01:001:0089"},"geometry":{"type":"Polygon","coordinates":[[[39.789982,48.3268],[39.790282,48.326591],[39.790256,48.326574],[39.790099,48.326472],[39.78995,48.326379],[39.789686,48.326603],[39.789932,48.326758],[39.789982,48.3268]]]}},{"type":"Feature","properties":{"cadnum":"4411447100:01:001:0087"},"geometry":{"type":"Polygon","coordinates":[[[39.790701,48.326857],[39.790929,48.326707],[39.790341,48.326335],[39.790296,48.326304],[39.790099,48.326472],[39.790256,48.326574],[39.790282,48.326591],[39.790701,48.326857]]]}},{"type":"Feature","properties":{"cadnum":"4411447100:02:001:0020"},"geometry":{"type":"Polygon","coordinates":[[[39.824845,48.283727],[39.824832,48.283411],[39.824212,48.283453],[39.824153,48.283453],[39.824153,48.283474],[39.824172,48.283474],[39.824167,48.28368],[39.824845,48.283727]]]}},{"type":"Feature","properties":{"cadnum":"4411447100:02:001:0037"},"geometry":{"type":"Polygon","coordinates":[[[39.824442,48.284723],[39.824612,48.284624],[39.824696,48.284296],[39.824257,48.28426],[39.824176,48.284699],[39.824442,48.284723]]]}},{"type":"Feature","properties":{"cadnum":"4411447100:02:001:0038"},"geometry":{"type":"Polygon","coordinates":[[[39.824409,48.284899],[39.824442,48.284723],[39.824176,48.284699],[39.824257,48.28426],[39.824696,48.284296],[39.82476,48.28405],[39.823987,48.284009],[39.823866,48.284866],[39.824409,48.284899]]]}},{"type":"Feature","properties":{"cadnum":"4411447100:02:001:0019"},"geometry":{"type":"Polygon","coordinates":[[[39.824872,48.283988],[39.824845,48.283727],[39.824167,48.28368],[39.824167,48.283949],[39.824872,48.283988]]]}},{"type":"Feature","properties":{"cadnum":"4411447100:02:001:0024"},"geometry":{"type":"Polygon","coordinates":[[[39.818633,48.303241],[39.8188,48.302928],[39.81862,48.302838],[39.818324,48.302824],[39.818148,48.303146],[39.818633,48.303241]]]}},{"type":"Feature","properties":{"cadnum":"4411447100:02:001:0042"},"geometry":{"type":"Polygon","coordinates":[[[39.819528,48.301981],[39.819603,48.301816],[39.819113,48.301763],[39.8191,48.301816],[39.819056,48.301808],[39.81902,48.30187],[39.81901,48.30187],[39.818966,48.301939],[39.819127,48.301954],[39.819528,48.301981]]]}},{"type":"Feature","properties":{"cadnum":"4411447100:02:003:0026"},"geometry":{"type":"Polygon","coordinates":[[[39.812215,48.31747],[39.812255,48.317022],[39.811851,48.317007],[39.811811,48.317455],[39.812215,48.31747]]]}},{"type":"Feature","properties":{"cadnum":"4411447100:02:003:0027"},"geometry":{"type":"Polygon","coordinates":[[[39.812201,48.317649],[39.812215,48.31747],[39.811811,48.317455],[39.811798,48.317635],[39.812201,48.317649]]]}},{"type":"Feature","properties":{"cadnum":"4411447100:02:001:0039"},"geometry":{"type":"Polygon","coordinates":[[[39.823044,48.296671],[39.82308,48.296617],[39.823062,48.296513],[39.822999,48.296459],[39.823188,48.296375],[39.823201,48.296336],[39.822878,48.296154],[39.822541,48.296543],[39.822869,48.296635],[39.822924,48.296638],[39.822932,48.296638],[39.822945,48.296626],[39.823044,48.296671]]]}},{"type":"Feature","properties":{"cadnum":"4411447100:02:004:0014"},"geometry":{"type":"Polygon","coordinates":[[[39.824635,48.296521],[39.825075,48.296474],[39.825083,48.296065],[39.8248,48.296065],[39.824648,48.296163],[39.824635,48.296521]]]}},{"type":"Feature","properties":{"cadnum":"4411447100:02:003:0030"},"geometry":{"type":"Polygon","coordinates":[[[39.824635,48.295431],[39.825124,48.295395],[39.825228,48.295296],[39.825344,48.295159],[39.825195,48.295147],[39.825132,48.295138],[39.825119,48.295135],[39.825065,48.29512],[39.824979,48.295088],[39.824945,48.295064],[39.824886,48.295051],[39.824725,48.295024],[39.824635,48.295431]]]}},{"type":"Feature","properties":{"cadnum":"4411447100:02:004:0015"},"geometry":{"type":"Polygon","coordinates":[[[39.824275,48.296561],[39.824635,48.296521],[39.824648,48.296163],[39.824279,48.296402],[39.824275,48.296561]]]}},{"type":"Feature","properties":{"cadnum":"4411447100:01:001:0040"},"geometry":{"type":"Polygon","coordinates":[[[39.797437,48.329545],[39.797563,48.329381],[39.797532,48.329363],[39.797563,48.329225],[39.797447,48.329192],[39.797343,48.329171],[39.79711,48.329124],[39.79707,48.32921],[39.796948,48.329419],[39.797437,48.329545]]]}},{"type":"Feature","properties":{"cadnum":"4411447100:01:001:0090"},"geometry":{"type":"Polygon","coordinates":[[[39.795573,48.327971],[39.795911,48.32781],[39.795695,48.327652],[39.795435,48.327469],[39.795408,48.327484],[39.795443,48.327508],[39.795173,48.327663],[39.795573,48.327971]]]}},{"type":"Feature","properties":{"cadnum":"4411447100:01:001:0016"},"geometry":{"type":"Polygon","coordinates":[[[39.796657,48.330259],[39.796728,48.330166],[39.796714,48.330163],[39.796777,48.330082],[39.796705,48.330058],[39.796643,48.330139],[39.796634,48.330133],[39.796561,48.330226],[39.796657,48.330259]]]}},{"type":"Feature","properties":{"cadnum":"4411447100:01:003:0023"},"geometry":{"type":"Polygon","coordinates":[[[39.797829,48.330056],[39.797869,48.329969],[39.797936,48.329983],[39.797955,48.329942],[39.797739,48.329879],[39.797747,48.329874],[39.797577,48.329817],[39.797546,48.329858],[39.797527,48.329852],[39.797514,48.32987],[39.797532,48.329876],[39.797473,48.329954],[39.797636,48.330007],[39.797829,48.330056]]]}},{"type":"Feature","properties":{"cadnum":"4411447100:01:001:0041"},"geometry":{"type":"Polygon","coordinates":[[[39.797343,48.329171],[39.797451,48.328971],[39.797204,48.328903],[39.79711,48.329124],[39.797343,48.329171]]]}},{"type":"Feature","properties":{"cadnum":"4411447100:03:001:0023"},"geometry":{"type":"Polygon","coordinates":[[[39.797586,48.329876],[39.79764,48.329801],[39.797573,48.329781],[39.797523,48.329852],[39.797586,48.329876]]]}},{"type":"Feature","properties":{"cadnum":"4411447100:01:001:0031"},"geometry":{"type":"Polygon","coordinates":[[[39.797603,48.329237],[39.797657,48.329151],[39.797636,48.329144],[39.797653,48.329121],[39.797672,48.329126],[39.79772,48.329049],[39.797464,48.328978],[39.797366,48.329171],[39.797603,48.329237]]]}},{"type":"Feature","properties":{"cadnum":"4411447100:01:001:0078"},"geometry":{"type":"Polygon","coordinates":[[[39.793674,48.330136],[39.793634,48.329879],[39.793041,48.32985],[39.793045,48.329888],[39.792806,48.329909],[39.792816,48.330071],[39.793054,48.330064],[39.793674,48.330136]]]}},{"type":"Feature","properties":{"cadnum":"4411447100:01:001:0010"},"geometry":{"type":"Polygon","coordinates":[[[39.796181,48.327639],[39.796504,48.327481],[39.796049,48.327147],[39.795722,48.327311],[39.796181,48.327639]]]}},{"type":"Feature","properties":{"cadnum":"4411447100:01:001:0014"},"geometry":{"type":"Polygon","coordinates":[[[39.797146,48.329034],[39.797204,48.328903],[39.796791,48.328786],[39.796733,48.328912],[39.797146,48.329034]]]}},{"type":"Feature","properties":{"cadnum":"4411447100:01:001:0013"},"geometry":{"type":"Polygon","coordinates":[[[39.796948,48.329419],[39.79707,48.32921],[39.797146,48.329034],[39.796733,48.328912],[39.796598,48.32921],[39.79654,48.329291],[39.796948,48.329419]]]}},{"type":"Feature","properties":{"cadnum":"4411447100:01:001:0049"},"geometry":{"type":"Polygon","coordinates":[[[39.797299,48.328165],[39.797443,48.328004],[39.797559,48.328031],[39.797586,48.32798],[39.797703,48.32772],[39.797361,48.327604],[39.79733,48.327654],[39.797299,48.327645],[39.797204,48.327849],[39.797217,48.32792],[39.797097,48.328084],[39.797299,48.328165]]]}},{"type":"Feature","properties":{"cadnum":"4411447100:01:001:0027"},"geometry":{"type":"Polygon","coordinates":[[[39.793777,48.329832],[39.794208,48.329793],[39.794636,48.329757],[39.794559,48.329416],[39.79437,48.329416],[39.794388,48.3297],[39.793759,48.329718],[39.793777,48.329832]]]}},{"type":"Feature","properties":{"cadnum":"4411447100:01:001:0011"},"geometry":{"type":"Polygon","coordinates":[[[39.796028,48.327822],[39.796257,48.327694],[39.79658,48.327535],[39.796504,48.327481],[39.796181,48.327639],[39.795722,48.327311],[39.795489,48.327431],[39.796028,48.327822]]]}},{"type":"Feature","properties":{"cadnum":"4411447100:01:001:0026"},"geometry":{"type":"Polygon","coordinates":[[[39.793759,48.329718],[39.794388,48.3297],[39.79437,48.329416],[39.793795,48.329414],[39.793795,48.329458],[39.79375,48.32947],[39.793759,48.329718]]]}},{"type":"Feature","properties":{"cadnum":"4411447100:01:001:0033"},"geometry":{"type":"Polygon","coordinates":[[[39.796257,48.329264],[39.79627,48.329219],[39.796288,48.329184],[39.796355,48.328929],[39.796485,48.328557],[39.796284,48.328488],[39.796104,48.328989],[39.795978,48.329195],[39.796257,48.329264]]]}},{"type":"Feature","properties":{"cadnum":"4411447100:02:001:0032"},"geometry":{"type":"Polygon","coordinates":[[[39.80585,48.316929],[39.805945,48.316696],[39.805599,48.316613],[39.805307,48.316484],[39.805083,48.316661],[39.805532,48.316843],[39.80585,48.316929]]]}},{"type":"Feature","properties":{"cadnum":"4411447100:02:003:0015"},"geometry":{"type":"Polygon","coordinates":[[[39.807387,48.319143],[39.808006,48.319035],[39.807947,48.318847],[39.807284,48.318928],[39.807387,48.319143]]]}},{"type":"Feature","properties":{"cadnum":"4411447100:02:001:0023"},"geometry":{"type":"Polygon","coordinates":[[[39.805379,48.319196],[39.805423,48.318859],[39.805284,48.318856],[39.80524,48.319185],[39.805379,48.319196]]]}},{"type":"Feature","properties":{"cadnum":"4411447100:02:001:0033"},"geometry":{"type":"Polygon","coordinates":[[[39.805967,48.31696],[39.806062,48.316727],[39.805945,48.316696],[39.80585,48.316929],[39.805967,48.31696]]]}},{"type":"Feature","properties":{"cadnum":"4411447100:02:001:0036"},"geometry":{"type":"Polygon","coordinates":[[[39.80519,48.317775],[39.805253,48.317494],[39.804714,48.317365],[39.804634,48.317721],[39.80519,48.317775]]]}},{"type":"Feature","properties":{"cadnum":"4411447100:02:001:0022"},"geometry":{"type":"Polygon","coordinates":[[[39.805892,48.319269],[39.805926,48.319026],[39.805922,48.318939],[39.805837,48.318937],[39.805842,48.318874],[39.805423,48.318859],[39.805379,48.319196],[39.80555,48.319214],[39.805892,48.319269]]]}},{"type":"Feature","properties":{"cadnum":"4411447100:02:003:0002"},"geometry":{"type":"Polygon","coordinates":[[[39.807387,48.31937],[39.807993,48.319343],[39.808096,48.319232],[39.80802,48.319125],[39.808006,48.319035],[39.807387,48.319143],[39.80732,48.319154],[39.807387,48.31937]]]}},{"type":"Feature","properties":{"cadnum":"4411447100:02:001:0026"},"geometry":{"type":"Polygon","coordinates":[[[39.804395,48.318691],[39.804444,48.318348],[39.803919,48.318304],[39.803874,48.318653],[39.804395,48.318691]]]}},{"type":"Feature","properties":{"cadnum":"4411447100:01:001:0077"},"geometry":{"type":"Polygon","coordinates":[[[39.793917,48.333337],[39.793993,48.333289],[39.793661,48.332943],[39.793575,48.332979],[39.793917,48.333337]]]}},{"type":"Feature","properties":{"cadnum":"4411447100:01:001:0051"},"geometry":{"type":"Polygon","coordinates":[[[39.79781,48.334053],[39.797649,48.334212],[39.797995,48.334305],[39.798022,48.334314],[39.79808,48.334248],[39.798368,48.333922],[39.798009,48.3338],[39.79781,48.334053]]]}},{"type":"Feature","properties":{"cadnum":"4411447100:01:001:0085"},"geometry":{"type":"Polygon","coordinates":[[[39.794204,48.333119],[39.79437,48.332785],[39.793997,48.33271],[39.793961,48.332836],[39.794253,48.332877],[39.794137,48.333107],[39.794204,48.333119]]]}},{"type":"Feature","properties":{"cadnum":"4411447100:01:001:0076"},"geometry":{"type":"Polygon","coordinates":[[[39.793993,48.333289],[39.794388,48.333048],[39.794263,48.332984],[39.794284,48.332949],[39.794213,48.332919],[39.794087,48.332803],[39.793867,48.332856],[39.793661,48.332943],[39.793993,48.333289]]]}},{"type":"Feature","properties":{"cadnum":"4411447100:01:001:0084"},"geometry":{"type":"Polygon","coordinates":[[[39.794137,48.333107],[39.794253,48.332877],[39.793961,48.332836],[39.793997,48.33271],[39.793682,48.332647],[39.793661,48.332686],[39.793651,48.332689],[39.793607,48.333008],[39.794137,48.333107]]]}},{"type":"Feature","properties":{"cadnum":"4411447100:01:001:0029"},"geometry":{"type":"Polygon","coordinates":[[[39.792586,48.331576],[39.792959,48.331554],[39.793005,48.331372],[39.792776,48.331346],[39.792655,48.331351],[39.792586,48.331576]]]}},{"type":"Feature","properties":{"cadnum":"4411447100:03:001:0034"},"geometry":{"type":"Polygon","coordinates":[[[39.787982,48.311389],[39.788154,48.311376],[39.788082,48.31111],[39.788028,48.310979],[39.787875,48.310997],[39.787911,48.311113],[39.787956,48.311266],[39.787982,48.311389]]]}},{"type":"Feature","properties":{"cadnum":"4411447100:03:001:0033"},"geometry":{"type":"Polygon","coordinates":[[[39.788558,48.311367],[39.788707,48.311352],[39.788634,48.311033],[39.788603,48.310913],[39.788468,48.310931],[39.788487,48.310994],[39.788464,48.310994],[39.788495,48.311126],[39.788558,48.311367]]]}},{"type":"Feature","properties":{"cadnum":"4411447100:03:001:0051"},"geometry":{"type":"Polygon","coordinates":[[[39.789497,48.308996],[39.789932,48.308969],[39.78991,48.30879],[39.789879,48.308783],[39.78947,48.308781],[39.789497,48.308996]]]}},{"type":"Feature","properties":{"cadnum":"4411447100:03:001:0018"},"geometry":{"type":"Polygon","coordinates":[[[39.788783,48.310887],[39.788931,48.310865],[39.788868,48.310672],[39.788764,48.310379],[39.788585,48.310411],[39.788571,48.310426],[39.788707,48.310698],[39.788783,48.310887]]]}},{"type":"Feature","properties":{"cadnum":"4411447100:03:001:0040"},"geometry":{"type":"Polygon","coordinates":[[[39.790183,48.310068],[39.790535,48.30988],[39.790152,48.309567],[39.789802,48.309755],[39.790183,48.310068]]]}},{"type":"Feature","properties":{"cadnum":"4411447100:03:001:0028"},"geometry":{"type":"Polygon","coordinates":[[[39.788351,48.311383],[39.788324,48.31126],[39.788244,48.310955],[39.788091,48.310973],[39.788118,48.311108],[39.788181,48.311383],[39.788351,48.311383]]]}},{"type":"Feature","properties":{"cadnum":"4411447100:01:003:0021"},"geometry":{"type":"Polygon","coordinates":[[[39.802716,48.331913],[39.802972,48.331883],[39.803236,48.331793],[39.803097,48.331689],[39.802549,48.331235],[39.801902,48.331578],[39.801974,48.331594],[39.80211,48.331641],[39.802154,48.331665],[39.802517,48.331483],[39.802972,48.331751],[39.802643,48.331907],[39.802716,48.331913]]]}},{"type":"Feature","properties":{"cadnum":"4411447100:01:003:0031"},"geometry":{"type":"Polygon","coordinates":[[[39.801202,48.333642],[39.801322,48.333526],[39.801462,48.333615],[39.801624,48.333498],[39.801332,48.333272],[39.801381,48.333236],[39.801188,48.333152],[39.800946,48.333387],[39.800995,48.33346],[39.801202,48.333642]]]}},{"type":"Feature","properties":{"cadnum":"4411447100:01:003:0034"},"geometry":{"type":"Polygon","coordinates":[[[39.799886,48.333179],[39.799936,48.333161],[39.800156,48.333134],[39.800173,48.333077],[39.800223,48.332934],[39.799567,48.332842],[39.799513,48.333176],[39.799886,48.333179]]]}},{"type":"Feature","properties":{"cadnum":"4411447100:01:003:0035"},"geometry":{"type":"Polygon","coordinates":[[[39.800946,48.333218],[39.801081,48.333026],[39.801045,48.332958],[39.80011,48.332794],[39.799751,48.332689],[39.799531,48.332704],[39.799414,48.33282],[39.799351,48.333176],[39.799513,48.333176],[39.799567,48.332842],[39.800223,48.332934],[39.800173,48.333077],[39.800946,48.333218]]]}},{"type":"Feature","properties":{"cadnum":"4411447100:01:003:0009"},"geometry":{"type":"Polygon","coordinates":[[[39.801228,48.332238],[39.801261,48.332211],[39.800838,48.332101],[39.800833,48.332196],[39.801228,48.332238]]]}},{"type":"Feature","properties":{"cadnum":"4411447100:01:003:0008"},"geometry":{"type":"Polygon","coordinates":[[[39.801261,48.332211],[39.801296,48.331999],[39.801269,48.331886],[39.801238,48.331751],[39.801228,48.331731],[39.801198,48.331749],[39.801139,48.33174],[39.800999,48.331707],[39.800856,48.331725],[39.800838,48.332101],[39.801261,48.332211]]]}},{"type":"Feature","properties":{"cadnum":"4411447100:02:003:0010"},"geometry":{"type":"Polygon","coordinates":[[[39.824517,48.31008],[39.824562,48.309811],[39.823889,48.309764],[39.823848,48.310029],[39.824517,48.31008]]]}},{"type":"Feature","properties":{"cadnum":"4411447100:03:003:0058"},"geometry":{"type":"Polygon","coordinates":[[[39.802697,48.312315],[39.80268,48.312126],[39.801894,48.312142],[39.801902,48.312315],[39.802697,48.312315]]]}},{"type":"Feature","properties":{"cadnum":"4411447100:03:003:0061"},"geometry":{"type":"Polygon","coordinates":[[[39.801089,48.312213],[39.801894,48.312189],[39.801894,48.312186],[39.801898,48.312022],[39.801068,48.312031],[39.801062,48.312031],[39.801072,48.312177],[39.801089,48.312213]]]}},{"type":"Feature","properties":{"cadnum":"4411447100:03:003:0030"},"geometry":{"type":"Polygon","coordinates":[[[39.801026,48.311119],[39.801821,48.311099],[39.801808,48.310925],[39.801336,48.310937],[39.801332,48.310916],[39.801022,48.310925],[39.801026,48.311119]]]}},{"type":"Feature","properties":{"cadnum":"4411447100:03:003:0036"},"geometry":{"type":"Polygon","coordinates":[[[39.799967,48.312018],[39.799962,48.311956],[39.799953,48.311866],[39.799338,48.311863],[39.798955,48.311861],[39.798955,48.31201],[39.799338,48.312013],[39.799967,48.312018]]]}},{"type":"Feature","properties":{"cadnum":"4411447100:03:003:0032"},"geometry":{"type":"Polygon","coordinates":[[[39.799517,48.311484],[39.799531,48.311221],[39.798969,48.311227],[39.798961,48.311484],[39.799517,48.311484]]]}},{"type":"Feature","properties":{"cadnum":"4411447100:03:003:0033"},"geometry":{"type":"Polygon","coordinates":[[[39.801072,48.312007],[39.801871,48.311985],[39.801861,48.311812],[39.801844,48.311806],[39.80184,48.311801],[39.801062,48.31183],[39.801072,48.312007]]]}}]}