{"type":"FeatureCollection","features":[{"type":"Feature","properties":{"cadnum":"4411647600:01:008:0002"},"geometry":{"type":"Polygon","coordinates":[[[38.939565,48.307344],[38.939559,48.306985],[38.939533,48.306791],[38.939366,48.306794],[38.939201,48.306815],[38.939219,48.306982],[38.939246,48.307344],[38.939565,48.307344]]]}},{"type":"Feature","properties":{"cadnum":"4411647600:01:008:0011"},"geometry":{"type":"Polygon","coordinates":[[[38.951427,48.311113],[38.951427,48.311099],[38.9514,48.311099],[38.9514,48.311113],[38.951427,48.311113]]]}},{"type":"Feature","properties":{"cadnum":"4411647600:01:008:0015"},"geometry":{"type":"Polygon","coordinates":[[[38.949289,48.311427],[38.949289,48.311409],[38.949266,48.311409],[38.949266,48.311427],[38.949289,48.311427]]]}},{"type":"Feature","properties":{"cadnum":"4411647600:01:008:0012"},"geometry":{"type":"Polygon","coordinates":[[[38.950861,48.311197],[38.950861,48.311182],[38.950834,48.311182],[38.950834,48.311197],[38.950861,48.311197]]]}},{"type":"Feature","properties":{"cadnum":"4411647600:01:008:0014"},"geometry":{"type":"Polygon","coordinates":[[[38.949823,48.311341],[38.949823,48.311325],[38.949796,48.311325],[38.949796,48.311341],[38.949823,48.311341]]]}},{"type":"Feature","properties":{"cadnum":"4411647600:01:008:0021"},"geometry":{"type":"Polygon","coordinates":[[[38.946779,48.311568],[38.946873,48.311538],[38.946827,48.311475],[38.946733,48.311505],[38.946779,48.311568]]]}},{"type":"Feature","properties":{"cadnum":"4411647600:01:008:0013"},"geometry":{"type":"Polygon","coordinates":[[[38.950272,48.311278],[38.950272,48.311263],[38.950245,48.311263],[38.950245,48.311278],[38.950272,48.311278]]]}},{"type":"Feature","properties":{"cadnum":"4411647600:01:008:0019"},"geometry":{"type":"Polygon","coordinates":[[[38.946972,48.31183],[38.946993,48.311825],[38.946962,48.311774],[38.946944,48.311779],[38.946972,48.31183]]]}},{"type":"Feature","properties":{"cadnum":"4411647600:01:008:0018"},"geometry":{"type":"Polygon","coordinates":[[[38.94729,48.311714],[38.94729,48.311696],[38.947268,48.311696],[38.947268,48.311714],[38.94729,48.311714]]]}},{"type":"Feature","properties":{"cadnum":"4411647600:01:008:0020"},"geometry":{"type":"Polygon","coordinates":[[[38.946873,48.311624],[38.946873,48.311609],[38.946846,48.311609],[38.946846,48.311624],[38.946873,48.311624]]]}},{"type":"Feature","properties":{"cadnum":"4411647600:01:008:0016"},"geometry":{"type":"Polygon","coordinates":[[[38.948544,48.31154],[38.948544,48.311523],[38.948517,48.311523],[38.948517,48.31154],[38.948544,48.31154]]]}},{"type":"Feature","properties":{"cadnum":"4411647600:01:008:0017"},"geometry":{"type":"Polygon","coordinates":[[[38.947945,48.31163],[38.947945,48.311615],[38.947924,48.311615],[38.947924,48.31163],[38.947945,48.31163]]]}},{"type":"Feature","properties":{"cadnum":"4411647600:01:005:0001"},"geometry":{"type":"Polygon","coordinates":[[[38.925955,48.31574],[38.926498,48.315523],[38.926611,48.314901],[38.925489,48.314976],[38.925955,48.31574]]]}},{"type":"Feature","properties":{"cadnum":"4411647600:01:008:0056"},"geometry":{"type":"Polygon","coordinates":[[[38.929968,48.309688756756756],[38.929968,48.309689],[38.930064,48.30968],[38.929968,48.309529],[38.929968,48.30952927102803],[38.929957,48.309512],[38.929944,48.30933],[38.929477,48.309339],[38.929548,48.309593],[38.929657,48.309676],[38.929674,48.309695],[38.929701,48.309707],[38.929768,48.309707],[38.929968,48.309688756756756]]]}},{"type":"Feature","properties":{"cadnum":"4411647600:01:008:0049"},"geometry":{"type":"Polygon","coordinates":[[[38.956578,48.308754],[38.956597,48.308741],[38.956547,48.308697],[38.95648,48.308733],[38.956494,48.308745],[38.956543,48.308721],[38.956578,48.308754]]]}},{"type":"Feature","properties":{"cadnum":"4411647600:01:008:0048"},"geometry":{"type":"Polygon","coordinates":[[[38.95671,48.308754],[38.956758,48.308708],[38.95674,48.3087],[38.956691,48.308745],[38.95671,48.308754]]]}},{"type":"Feature","properties":{"cadnum":"4411647600:01:008:0001"},"geometry":{"type":"Polygon","coordinates":[[[38.956681,48.308619],[38.956681,48.308511],[38.956534,48.308511],[38.956534,48.308619],[38.956681,48.308619]]]}},{"type":"Feature","properties":{"cadnum":"4411647600:01:008:0047"},"geometry":{"type":"Polygon","coordinates":[[[38.957064,48.308703],[38.957086,48.308697],[38.95706,48.308646],[38.957037,48.308652],[38.957064,48.308703]]]}},{"type":"Feature","properties":{"cadnum":"4411647600:01:006:0008"},"geometry":{"type":"Polygon","coordinates":[[[38.935171,48.316836],[38.935198,48.316834],[38.935198,48.316819],[38.935171,48.316819],[38.935171,48.316836]]]}},{"type":"Feature","properties":{"cadnum":"4411647600:01:006:0010"},"geometry":{"type":"Polygon","coordinates":[[[38.934664,48.316873],[38.934664,48.316804],[38.934561,48.316804],[38.934561,48.316873],[38.934664,48.316873]]]}},{"type":"Feature","properties":{"cadnum":"4411647600:01:006:0009"},"geometry":{"type":"Polygon","coordinates":[[[38.934804,48.316878],[38.934799,48.316822],[38.934777,48.316825],[38.934777,48.316878],[38.934804,48.316878]]]}},{"type":"Feature","properties":{"cadnum":"4411647600:01:008:0044"},"geometry":{"type":"Polygon","coordinates":[[[38.959633,48.308189],[38.959633,48.308174],[38.95961,48.308174],[38.95961,48.308189],[38.959633,48.308189]]]}},{"type":"Feature","properties":{"cadnum":"4411647600:01:008:0054"},"geometry":{"type":"Polygon","coordinates":[[[38.957792,48.308557],[38.957813,48.308553],[38.9578,48.308515],[38.957859,48.308506],[38.957849,48.308491],[38.957769,48.308502],[38.957792,48.308557]]]}},{"type":"Feature","properties":{"cadnum":"4411647600:01:008:0040"},"geometry":{"type":"Polygon","coordinates":[[[38.962,48.307753],[38.962,48.307738],[38.961977,48.307738],[38.961977,48.307753],[38.962,48.307753]]]}},{"type":"Feature","properties":{"cadnum":"4411647600:01:008:0046"},"geometry":{"type":"Polygon","coordinates":[[[38.958402,48.308407],[38.958402,48.308389],[38.958375,48.308389],[38.958375,48.308407],[38.958402,48.308407]]]}},{"type":"Feature","properties":{"cadnum":"4411647600:01:008:0041"},"geometry":{"type":"Polygon","coordinates":[[[38.961367,48.307878],[38.961444,48.307864],[38.961438,48.307849],[38.961358,48.307864],[38.961367,48.307878]]]}},{"type":"Feature","properties":{"cadnum":"4411647600:01:008:0042"},"geometry":{"type":"Polygon","coordinates":[[[38.960815,48.30798],[38.960815,48.307964],[38.960792,48.307964],[38.960792,48.30798],[38.960815,48.30798]]]}},{"type":"Feature","properties":{"cadnum":"4411647600:01:008:0039"},"geometry":{"type":"Polygon","coordinates":[[[38.962543,48.307654],[38.962543,48.307636],[38.962521,48.307636],[38.962521,48.307654],[38.962543,48.307654]]]}},{"type":"Feature","properties":{"cadnum":"4411647600:01:008:0045"},"geometry":{"type":"Polygon","coordinates":[[[38.958987,48.308309],[38.958987,48.308294],[38.958964,48.308294],[38.958964,48.308309],[38.958987,48.308309]]]}},{"type":"Feature","properties":{"cadnum":"4411647600:01:008:0043"},"geometry":{"type":"Polygon","coordinates":[[[38.960216,48.308081],[38.960216,48.308066],[38.960195,48.308066],[38.960195,48.308081],[38.960216,48.308081]]]}},{"type":"Feature","properties":{"cadnum":"4411647600:01:003:0011"},"geometry":{"type":"Polygon","coordinates":[[[38.939691,48.318581],[38.939691,48.318563],[38.939663,48.318563],[38.939663,48.318581],[38.939691,48.318581]]]}},{"type":"Feature","properties":{"cadnum":"4411647600:01:003:0012"},"geometry":{"type":"Polygon","coordinates":[[[38.939735,48.318963],[38.939735,48.318946],[38.939649,48.318948],[38.939649,48.318963],[38.939735,48.318963]]]}},{"type":"Feature","properties":{"cadnum":"4411647600:01:005:0003"},"geometry":{"type":"Polygon","coordinates":[[[38.938666,48.317446],[38.938666,48.317431],[38.938639,48.317431],[38.938639,48.317446],[38.938666,48.317446]]]}},{"type":"Feature","properties":{"cadnum":"4411647600:01:003:0019"},"geometry":{"type":"Polygon","coordinates":[[[38.939012,48.317718],[38.939039,48.317715],[38.939035,48.3177],[38.939012,48.3177],[38.939012,48.317718]]]}},{"type":"Feature","properties":{"cadnum":"4411647600:01:003:0014"},"geometry":{"type":"Polygon","coordinates":[[[38.939649,48.319731],[38.939649,48.319714],[38.939628,48.319714],[38.939628,48.319731],[38.939649,48.319731]]]}},{"type":"Feature","properties":{"cadnum":"4411647600:01:006:0003"},"geometry":{"type":"Polygon","coordinates":[[[38.936219,48.31684],[38.936219,48.316825],[38.936192,48.316825],[38.936192,48.31684],[38.936219,48.31684]]]}},{"type":"Feature","properties":{"cadnum":"4411647600:01:003:0009"},"geometry":{"type":"Polygon","coordinates":[[[38.940691,48.317874],[38.940691,48.317859],[38.94067,48.317859],[38.94067,48.317874],[38.940691,48.317874]]]}},{"type":"Feature","properties":{"cadnum":"4411647600:01:003:0013"},"geometry":{"type":"Polygon","coordinates":[[[38.939663,48.319346],[38.939663,48.319331],[38.939641,48.319331],[38.939641,48.319346],[38.939663,48.319346]]]}},{"type":"Feature","properties":{"cadnum":"4411647600:01:005:0004"},"geometry":{"type":"Polygon","coordinates":[[[38.938469,48.317306],[38.938464,48.317249],[38.938437,48.317249],[38.938442,48.317306],[38.938469,48.317306]]]}},{"type":"Feature","properties":{"cadnum":"4411647600:01:003:0018"},"geometry":{"type":"Polygon","coordinates":[[[38.939335,48.317945],[38.939399,48.317909],[38.93938,48.317897],[38.939318,48.317933],[38.939335,48.317945]]]}},{"type":"Feature","properties":{"cadnum":"4411647600:01:006:0002"},"geometry":{"type":"Polygon","coordinates":[[[38.936753,48.316852],[38.936753,48.316834],[38.93673,48.316834],[38.93673,48.316852],[38.936753,48.316852]]]}},{"type":"Feature","properties":{"cadnum":"4411647600:01:003:0010"},"geometry":{"type":"Polygon","coordinates":[[[38.940198,48.318034],[38.940198,48.31802],[38.940175,48.31802],[38.940175,48.318034],[38.940198,48.318034]]]}},{"type":"Feature","properties":{"cadnum":"4411647600:01:006:0001"},"geometry":{"type":"Polygon","coordinates":[[[38.937288,48.316861],[38.937288,48.316845],[38.937265,48.316845],[38.937265,48.316861],[38.937288,48.316861]]]}},{"type":"Feature","properties":{"cadnum":"4411647600:01:006:0005"},"geometry":{"type":"Polygon","coordinates":[[[38.935837,48.316424],[38.935837,48.316409],[38.935814,48.316409],[38.935814,48.316424],[38.935837,48.316424]]]}},{"type":"Feature","properties":{"cadnum":"4411647600:01:006:0004"},"geometry":{"type":"Polygon","coordinates":[[[38.93567,48.316869],[38.935684,48.316813],[38.935657,48.316813],[38.935647,48.316867],[38.93567,48.316869]]]}},{"type":"Feature","properties":{"cadnum":"4411647600:01:003:0002"},"geometry":{"type":"Polygon","coordinates":[[[38.943171,48.317067],[38.943171,48.317052],[38.943144,48.317052],[38.943144,48.317067],[38.943171,48.317067]]]}},{"type":"Feature","properties":{"cadnum":"4411647600:01:003:0004"},"geometry":{"type":"Polygon","coordinates":[[[38.943611,48.317557],[38.943687,48.317512],[38.94362,48.317461],[38.943544,48.317506],[38.943611,48.317557]]]}},{"type":"Feature","properties":{"cadnum":"4411647600:01:008:0038"},"geometry":{"type":"Polygon","coordinates":[[[38.944079,48.316407],[38.944079,48.316391],[38.944052,48.316391],[38.944052,48.316407],[38.944079,48.316407]]]}},{"type":"Feature","properties":{"cadnum":"4411647600:01:003:0003"},"geometry":{"type":"Polygon","coordinates":[[[38.9435,48.31733],[38.9435,48.317315],[38.943477,48.317315],[38.943477,48.31733],[38.9435,48.31733]]]}},{"type":"Feature","properties":{"cadnum":"4411647600:01:003:0005"},"geometry":{"type":"Polygon","coordinates":[[[38.942678,48.317228],[38.942672,48.317213],[38.942651,48.317213],[38.942651,48.317228],[38.942678,48.317228]]]}},{"type":"Feature","properties":{"cadnum":"4411647600:01:003:0001"},"geometry":{"type":"Polygon","coordinates":[[[38.943666,48.316905],[38.943666,48.316891],[38.943643,48.316891],[38.943643,48.316905],[38.943666,48.316905]]]}},{"type":"Feature","properties":{"cadnum":"4411647600:01:003:0008"},"geometry":{"type":"Polygon","coordinates":[[[38.94119,48.317712],[38.94119,48.317697],[38.941163,48.317697],[38.941163,48.317712],[38.94119,48.317712]]]}},{"type":"Feature","properties":{"cadnum":"4411647600:01:003:0007"},"geometry":{"type":"Polygon","coordinates":[[[38.941685,48.317551],[38.941685,48.317536],[38.941662,48.317536],[38.941662,48.317551],[38.941685,48.317551]]]}},{"type":"Feature","properties":{"cadnum":"4411647600:01:003:0006"},"geometry":{"type":"Polygon","coordinates":[[[38.942179,48.317389],[38.942179,48.317374],[38.942156,48.317374],[38.942156,48.317389],[38.942179,48.317389]]]}},{"type":"Feature","properties":{"cadnum":"4411647600:01:004:0001"},"geometry":{"type":"Polygon","coordinates":[[[38.95753,48.310041],[38.957562,48.309901],[38.957605,48.309819],[38.957605,48.30981837857143],[38.957702,48.309632],[38.957953,48.309142],[38.957605,48.30915406936416],[38.957605,48.309154],[38.957167,48.309169],[38.956956,48.309175],[38.956929,48.309193],[38.956744,48.309181],[38.956538,48.309187],[38.956534,48.309494],[38.956534,48.309724],[38.956471,48.309746],[38.956511,48.309802],[38.956494,48.310218],[38.957406,48.310247],[38.957434,48.310200483870965],[38.957434,48.310201],[38.95753,48.310041]]]}},{"type":"Feature","properties":{"cadnum":"4411647600:01:008:0006"},"geometry":{"type":"Polygon","coordinates":[[[38.954266,48.310304],[38.954266,48.310289],[38.954239,48.310289],[38.954239,48.310304],[38.954266,48.310304]]]}},{"type":"Feature","properties":{"cadnum":"4411647600:01:008:0007"},"geometry":{"type":"Polygon","coordinates":[[[38.953673,48.310803],[38.953777,48.310794],[38.953763,48.310725],[38.953658,48.310734],[38.953673,48.310803]]]}},{"type":"Feature","properties":{"cadnum":"4411647600:01:008:0003"},"geometry":{"type":"Polygon","coordinates":[[[38.955523,48.309226],[38.955523,48.309208],[38.955496,48.309208],[38.955496,48.309226],[38.955523,48.309226]]]}},{"type":"Feature","properties":{"cadnum":"4411647600:01:008:0010"},"geometry":{"type":"Polygon","coordinates":[[[38.952056,48.311018],[38.952056,48.311003],[38.952029,48.311003],[38.952029,48.311018],[38.952056,48.311018]]]}},{"type":"Feature","properties":{"cadnum":"4411647600:01:004:0003"},"geometry":{"type":"Polygon","coordinates":[[[38.95419,48.312186],[38.954356,48.312177],[38.954224,48.311358],[38.95418,48.311143],[38.954176,48.311117],[38.954068,48.311126],[38.954073,48.311135],[38.953991,48.311143],[38.954,48.311176],[38.954023,48.311248],[38.954046,48.311314],[38.954054,48.311385],[38.95419,48.312186]]]}},{"type":"Feature","properties":{"cadnum":"4411647600:01:008:0008"},"geometry":{"type":"Polygon","coordinates":[[[38.953318,48.310827],[38.953318,48.310809],[38.953295,48.310809],[38.953295,48.310827],[38.953318,48.310827]]]}},{"type":"Feature","properties":{"cadnum":"4411647600:01:008:0050"},"geometry":{"type":"Polygon","coordinates":[[[38.954629,48.309689],[38.954652,48.309653],[38.954706,48.309667],[38.954715,48.309653],[38.954639,48.309629],[38.954607,48.309682],[38.954629,48.309689]]]}},{"type":"Feature","properties":{"cadnum":"4411647600:01:008:0009"},"geometry":{"type":"Polygon","coordinates":[[[38.952631,48.310937],[38.952631,48.310922],[38.952608,48.310922],[38.952608,48.310937],[38.952631,48.310937]]]}},{"type":"Feature","properties":{"cadnum":"4411647600:01:008:0005"},"geometry":{"type":"Polygon","coordinates":[[[38.95449,48.309919],[38.95449,48.309904],[38.954467,48.309904],[38.954467,48.309919],[38.95449,48.309919]]]}},{"type":"Feature","properties":{"cadnum":"4411647600:01:004:0002"},"geometry":{"type":"Polygon","coordinates":[[[38.955757,48.310871],[38.956413,48.31074],[38.956516,48.310232],[38.956524,48.309769],[38.95652,48.309193],[38.956071,48.309127],[38.954962,48.309736],[38.955169,48.310071],[38.955515,48.310636],[38.955757,48.310871]]]}},{"type":"Feature","properties":{"cadnum":"4411647600:01:008:0004"},"geometry":{"type":"Polygon","coordinates":[[[38.955029,48.309474],[38.955029,48.309456],[38.955006,48.309456],[38.955006,48.309474],[38.955029,48.309474]]]}},{"type":"Feature","properties":{"cadnum":"4411647600:01:008:0051"},"geometry":{"type":"Polygon","coordinates":[[[38.95401,48.310707],[38.954046,48.310654],[38.954023,48.310648],[38.954,48.310686],[38.953941,48.310668],[38.953933,48.310683],[38.95401,48.310707]]]}},{"type":"Feature","properties":{"cadnum":"4411647600:01:007:0001"},"geometry":{"type":"Polygon","coordinates":[[[38.942628,48.312906],[38.942695,48.312885],[38.942672,48.312846],[38.942601,48.312864],[38.942628,48.312906]]]}},{"type":"Feature","properties":{"cadnum":"4411647600:01:008:0026"},"geometry":{"type":"Polygon","coordinates":[[[38.943949,48.312494],[38.943949,48.312479],[38.943926,48.312479],[38.943926,48.312494],[38.943949,48.312494]]]}},{"type":"Feature","properties":{"cadnum":"4411647600:01:008:0031"},"geometry":{"type":"Polygon","coordinates":[[[38.943481,48.314038],[38.943481,48.314024],[38.943459,48.314024],[38.943459,48.314038],[38.943481,48.314038]]]}},{"type":"Feature","properties":{"cadnum":"4411647600:01:008:0028"},"geometry":{"type":"Polygon","coordinates":[[[38.943144,48.312685],[38.943144,48.312667],[38.943117,48.312667],[38.943117,48.312685],[38.943144,48.312685]]]}},{"type":"Feature","properties":{"cadnum":"4411647600:01:008:0037"},"geometry":{"type":"Polygon","coordinates":[[[38.943993,48.31607],[38.943993,48.316054],[38.943966,48.316054],[38.943966,48.31607],[38.943993,48.31607]]]}},{"type":"Feature","properties":{"cadnum":"4411647600:01:008:0030"},"geometry":{"type":"Polygon","coordinates":[[[38.943364,48.313736],[38.9434,48.313685],[38.943378,48.313679],[38.943347,48.31373],[38.943364,48.313736]]]}},{"type":"Feature","properties":{"cadnum":"4411647600:01:008:0027"},"geometry":{"type":"Polygon","coordinates":[[[38.943549,48.312628],[38.943571,48.312622],[38.94354,48.312571],[38.943517,48.312578],[38.943549,48.312628]]]}},{"type":"Feature","properties":{"cadnum":"4411647600:01:008:0036"},"geometry":{"type":"Polygon","coordinates":[[[38.943907,48.315731],[38.943907,48.315714],[38.94388,48.315714],[38.94388,48.315731],[38.943907,48.315731]]]}},{"type":"Feature","properties":{"cadnum":"4411647600:01:008:0032"},"geometry":{"type":"Polygon","coordinates":[[[38.943567,48.314378],[38.943567,48.314361],[38.943544,48.314361],[38.943544,48.314378],[38.943567,48.314378]]]}},{"type":"Feature","properties":{"cadnum":"4411647600:01:008:0029"},"geometry":{"type":"Polygon","coordinates":[[[38.943297,48.313402],[38.943324,48.313399],[38.943311,48.313342],[38.943284,48.313345],[38.943297,48.313402]]]}},{"type":"Feature","properties":{"cadnum":"4411647600:01:008:0033"},"geometry":{"type":"Polygon","coordinates":[[[38.943653,48.314717],[38.943653,48.314698],[38.94363,48.314698],[38.94363,48.314717],[38.943653,48.314717]]]}},{"type":"Feature","properties":{"cadnum":"4411647600:01:008:0035"},"geometry":{"type":"Polygon","coordinates":[[[38.9438,48.315394],[38.943823,48.315391],[38.943809,48.315337],[38.943787,48.31534],[38.9438,48.315394]]]}},{"type":"Feature","properties":{"cadnum":"4411647600:01:008:0034"},"geometry":{"type":"Polygon","coordinates":[[[38.943724,48.315093],[38.943746,48.315089],[38.943733,48.315036],[38.94371,48.315038],[38.943724,48.315093]]]}},{"type":"Feature","properties":{"cadnum":"4411647600:01:006:0006"},"geometry":{"type":"Polygon","coordinates":[[[38.936012,48.315983],[38.936012,48.315968],[38.935985,48.315968],[38.935985,48.315983],[38.936012,48.315983]]]}},{"type":"Feature","properties":{"cadnum":"4411647600:01:003:0021"},"geometry":{"type":"Polygon","coordinates":[[[38.938414,48.315295],[38.938491,48.315293],[38.938483,48.315245],[38.938469,48.315248],[38.93841,48.315251],[38.938414,48.315295]]]}},{"type":"Feature","properties":{"cadnum":"4411647600:01:006:0007"},"geometry":{"type":"Polygon","coordinates":[[[38.936079,48.315693],[38.936179,48.31569],[38.936179,48.315624],[38.936075,48.315624],[38.936079,48.315693]]]}},{"type":"Feature","properties":{"cadnum":"4411647600:01:003:0015"},"geometry":{"type":"Polygon","coordinates":[[[38.939636,48.320113],[38.939636,48.320099],[38.939614,48.320099],[38.939614,48.320113],[38.939636,48.320113]]]}},{"type":"Feature","properties":{"cadnum":"4411647600:01:005:0002"},"geometry":{"type":"Polygon","coordinates":[[[38.93947,48.321777],[38.93947,48.321732],[38.939399,48.321732],[38.939399,48.321777],[38.93947,48.321777]]]}},{"type":"Feature","properties":{"cadnum":"4411647600:01:003:0016"},"geometry":{"type":"Polygon","coordinates":[[[38.939622,48.320498],[38.939622,48.32048],[38.939601,48.32048],[38.939601,48.320498],[38.939622,48.320498]]]}},{"type":"Feature","properties":{"cadnum":"4411647600:01:003:0017"},"geometry":{"type":"Polygon","coordinates":[[[38.939614,48.320881],[38.939614,48.320866],[38.939588,48.320866],[38.939588,48.320881],[38.939614,48.320881]]]}},{"type":"Feature","properties":{"cadnum":"4411647600:01:007:0003"},"geometry":{"type":"Polygon","coordinates":[[[38.94142,48.311152],[38.941397,48.311113],[38.94146,48.311102],[38.94142,48.311018],[38.941389,48.311018],[38.941334,48.311027],[38.941307,48.310979],[38.941312,48.310976],[38.941209,48.310929],[38.941114,48.310949],[38.941127,48.310985],[38.941154,48.311033],[38.940984,48.311069],[38.94076,48.311104],[38.940458,48.311221],[38.940678,48.311389],[38.940854,48.311287],[38.941106,48.311224],[38.941126,48.311219],[38.941126,48.31121873684211],[38.941163,48.311209],[38.94142,48.311152]]]}},{"type":"Feature","properties":{"cadnum":"4411647600:01:008:0022"},"geometry":{"type":"Polygon","coordinates":[[[38.945961,48.312018],[38.945961,48.312003],[38.945938,48.312003],[38.945938,48.312018],[38.945961,48.312018]]]}},{"type":"Feature","properties":{"cadnum":"4411647600:01:008:0025"},"geometry":{"type":"Polygon","coordinates":[[[38.944326,48.312401],[38.944353,48.312398],[38.944353,48.312383],[38.944326,48.312383],[38.944326,48.312401]]]}},{"type":"Feature","properties":{"cadnum":"4411647600:01:008:0023"},"geometry":{"type":"Polygon","coordinates":[[[38.945157,48.31221],[38.945157,48.312195],[38.945134,48.312195],[38.945134,48.31221],[38.945157,48.31221]]]}},{"type":"Feature","properties":{"cadnum":"4411647600:01:008:0024"},"geometry":{"type":"Polygon","coordinates":[[[38.944752,48.312306],[38.944752,48.312288],[38.944729,48.312288],[38.944729,48.312306],[38.944752,48.312306]]]}},{"type":"Feature","properties":{"cadnum":"4411647600:01:008:0053"},"geometry":{"type":"Polygon","coordinates":[[[38.945557,48.312156],[38.945584,48.312151],[38.945561,48.312114],[38.945619,48.3121],[38.945611,48.312085],[38.94553,48.312102],[38.945557,48.312156]]]}},{"type":"Feature","properties":{"cadnum":"4411647600:01:008:0055"},"geometry":{"type":"Polygon","coordinates":[[[38.945651,48.311806],[38.945844,48.311783],[38.94584,48.311777],[38.945817,48.311708],[38.945812,48.311562],[38.945817,48.311562],[38.945826,48.311466],[38.945911,48.310907],[38.945723,48.310911],[38.945633,48.311403],[38.945633,48.311487],[38.945628,48.311582],[38.945628,48.311732],[38.945633,48.311732],[38.945651,48.311806]]]}},{"type":"Feature","properties":{"cadnum":"4411647600:01:008:0052"},"geometry":{"type":"Polygon","coordinates":[[[38.946343,48.311932],[38.946364,48.311929],[38.946356,48.31189],[38.946414,48.311881],[38.94641,48.311866],[38.946329,48.311878],[38.946343,48.311932]]]}}]}