{"type":"FeatureCollection","features":[{"type":"Feature","properties":{"cadnum":"4411045300:03:001:0016"},"geometry":{"type":"Polygon","coordinates":[[[38.682282,48.683603],[38.682324,48.683345],[38.682337,48.683206],[38.682413,48.682675],[38.682202,48.68266],[38.682188,48.682779],[38.682157,48.683135],[38.682144,48.683191],[38.682134,48.6833],[38.682125,48.683378],[38.682125,48.683396],[38.682098,48.683467],[38.682102,48.683469],[38.682075,48.683574],[38.682282,48.683603]]]}},{"type":"Feature","properties":{"cadnum":"4411045300:03:001:0017"},"geometry":{"type":"Polygon","coordinates":[[[38.682413,48.682675],[38.682467,48.682289],[38.682521,48.681877],[38.682561,48.681533],[38.682341,48.681554],[38.682278,48.682034],[38.682251,48.682298],[38.682202,48.68266],[38.682413,48.682675]]]}},{"type":"Feature","properties":{"cadnum":"4411045300:01:007:0062"},"geometry":{"type":"Polygon","coordinates":[[[38.664311,48.694563],[38.664294,48.694554],[38.664244,48.694592],[38.664267,48.694603],[38.664311,48.694563]]]}},{"type":"Feature","properties":{"cadnum":"4411045300:02:003:0038"},"geometry":{"type":"Polygon","coordinates":[[[38.681263,48.69018],[38.68129,48.690174],[38.681276,48.690157],[38.681253,48.690165],[38.681263,48.69018]]]}},{"type":"Feature","properties":{"cadnum":"4411045300:03:001:0009"},"geometry":{"type":"Polygon","coordinates":[[[38.683113,48.683823],[38.683123,48.683778],[38.68306,48.683772],[38.68305,48.683816],[38.683113,48.683823]]]}},{"type":"Feature","properties":{"cadnum":"4411045300:01:001:0038"},"geometry":{"type":"Polygon","coordinates":[[[38.681209,48.704324],[38.682332,48.704146],[38.681928,48.703117],[38.679201,48.703473],[38.679515,48.704205],[38.681083,48.703978],[38.681209,48.704324]]]}},{"type":"Feature","properties":{"cadnum":"4411045300:01:001:0036"},"geometry":{"type":"Polygon","coordinates":[[[38.679201,48.703473],[38.681928,48.703117],[38.681609,48.702309],[38.678829,48.702593],[38.679201,48.703473]]]}},{"type":"Feature","properties":{"cadnum":"4411045300:01:001:0037"},"geometry":{"type":"Polygon","coordinates":[[[38.68129,48.7015],[38.678456,48.701722],[38.67848138372093,48.701781],[38.67848,48.701781],[38.678829,48.702593],[38.681609,48.702309],[38.681444729166664,48.701894],[38.681445,48.701894],[38.68129,48.7015]]]}},{"type":"Feature","properties":{"cadnum":"4411045300:01:001:0039"},"geometry":{"type":"Polygon","coordinates":[[[38.66729,48.70661],[38.66772,48.706604],[38.667707,48.706485],[38.66768,48.706364],[38.667294,48.706349],[38.66728,48.706467],[38.666845,48.706452],[38.666724,48.706446],[38.66671,48.706582],[38.66729,48.70661]]]}},{"type":"Feature","properties":{"cadnum":"4411045300:01:001:0040"},"geometry":{"type":"Polygon","coordinates":[[[38.666468,48.706572647342995],[38.66671,48.706582],[38.666724,48.706446],[38.666468,48.70643523364486],[38.666468,48.706435],[38.666081,48.706417],[38.665143,48.70636],[38.665192,48.705966],[38.664303,48.705928],[38.664181,48.706135],[38.66463,48.706373],[38.664936,48.706467],[38.665632,48.706538],[38.666296,48.70656579904306],[38.666296,48.706566],[38.66635843447109,48.70656841292642],[38.666468,48.706573],[38.666468,48.706572647342995]]]}},{"type":"Feature","properties":{"cadnum":"4411045300:01:006:0053"},"geometry":{"type":"Polygon","coordinates":[[[38.671471,48.692908],[38.671494,48.692902],[38.671485,48.692884],[38.671462,48.69289],[38.671471,48.692908]]]}},{"type":"Feature","properties":{"cadnum":"4411045300:01:006:0049"},"geometry":{"type":"Polygon","coordinates":[[[38.669091,48.693572],[38.669118,48.693566],[38.669104,48.693552],[38.669081,48.693557],[38.669091,48.693572]]]}},{"type":"Feature","properties":{"cadnum":"4411045300:01:006:0052"},"geometry":{"type":"Polygon","coordinates":[[[38.670919,48.693062],[38.670942,48.693056],[38.670932,48.693041],[38.670909,48.693047],[38.670919,48.693062]]]}},{"type":"Feature","properties":{"cadnum":"4411045300:02:003:0041"},"geometry":{"type":"Polygon","coordinates":[[[38.683091,48.689667],[38.683117,48.689661],[38.683109,48.689647],[38.683083,48.689652],[38.683091,48.689667]]]}},{"type":"Feature","properties":{"cadnum":"4411045300:01:005:0002"},"geometry":{"type":"Polygon","coordinates":[[[38.673462,48.696521],[38.674198,48.696385],[38.674081,48.69592],[38.674041,48.695866],[38.673209,48.696042],[38.673462,48.696521]]]}},{"type":"Feature","properties":{"cadnum":"4411045300:02:001:0045"},"geometry":{"type":"Polygon","coordinates":[[[38.677072,48.698123],[38.676592,48.698235],[38.67661,48.698269],[38.676610888888895,48.698269],[38.676637,48.698316],[38.676677,48.698384],[38.676749,48.698511],[38.676771,48.698549],[38.67683,48.698672],[38.677117,48.698606],[38.676982,48.698375],[38.67718,48.698325],[38.67718,48.698321],[38.67713431872503,48.69823817131461],[38.677072,48.698123]]]}},{"type":"Feature","properties":{"cadnum":"4411045300:01:004:0008"},"geometry":{"type":"Polygon","coordinates":[[[38.674135,48.69573],[38.674863,48.695585],[38.674858,48.695576],[38.674135,48.695721],[38.673511,48.695514],[38.673502,48.695523],[38.674135,48.69573]]]}},{"type":"Feature","properties":{"cadnum":"4411045300:01:005:0001"},"geometry":{"type":"Polygon","coordinates":[[[38.673582,48.69675],[38.674284,48.696631],[38.674221,48.69648],[38.674198,48.696385],[38.673462,48.696521],[38.673582,48.69675]]]}},{"type":"Feature","properties":{"cadnum":"4411045300:02:001:0034"},"geometry":{"type":"Polygon","coordinates":[[[38.677804,48.697785],[38.677714,48.697637],[38.677657,48.697651],[38.677651,48.697642],[38.677603,48.697654],[38.677553,48.697569],[38.67728200000028,48.69763699999993],[38.677154,48.697669],[38.677144,48.697651],[38.677117,48.697657],[38.677265,48.697921],[38.677282,48.697916682539685],[38.677282,48.697917],[38.677804,48.697785]]]}},{"type":"Feature","properties":{"cadnum":"4411045300:02:001:0044"},"geometry":{"type":"Polygon","coordinates":[[[38.678133,48.697859],[38.678662,48.697728],[38.678699,48.697785],[38.678802,48.697758],[38.678762,48.697687],[38.678658,48.697716],[38.678658,48.697719],[38.678127,48.697853],[38.677764,48.697956],[38.677382125602996,48.698051864734516],[38.677108,48.69812],[38.677045,48.698079],[38.676727887573975,48.698156],[38.676727,48.698156],[38.676349,48.698248],[38.676305,48.698262],[38.676278,48.698269],[38.67627816666665,48.698269],[38.676259,48.698274],[38.676219,48.6982],[38.676205,48.698202],[38.676244,48.698269],[38.676245025974026,48.698269],[38.676251,48.698279],[38.676255,48.698294],[38.675932,48.698502],[38.676354,48.699709],[38.676255,48.699727],[38.676259,48.699735],[38.676368,48.699718],[38.675945,48.698505],[38.676272,48.698298],[38.676264,48.698283],[38.676309,48.698271],[38.676354,48.698253],[38.676758,48.698156],[38.676755439759056,48.698156],[38.677041,48.698087],[38.677104,48.698132],[38.677454,48.698045],[38.677454,48.69804391170432],[38.677769,48.697965],[38.678133,48.697859]]]}},{"type":"Feature","properties":{"cadnum":"4411045300:02:002:0055"},"geometry":{"type":"Polygon","coordinates":[[[38.676727,48.693996],[38.676609,48.693729],[38.676754,48.693664],[38.676785,48.693697],[38.676879,48.693655],[38.676817,48.693592],[38.676722,48.693634],[38.676745,48.693658],[38.676596,48.693723],[38.676712,48.693999],[38.67706103125471,48.694614825008316],[38.677278,48.694998],[38.677282,48.69500552380951],[38.677282,48.695006],[38.677404,48.695235],[38.675204,48.695715],[38.675173,48.695733],[38.675119,48.695742],[38.675016,48.695543],[38.674858,48.695576],[38.674863,48.695585],[38.675006,48.695556],[38.675104,48.695748],[38.675114,48.695765],[38.675204,48.695914],[38.675316,48.69611],[38.675509,48.696477],[38.675617,48.696637],[38.675743,48.696949],[38.675729,48.697022],[38.675788,48.697479],[38.676205,48.698202],[38.676219,48.6982],[38.675802,48.697477],[38.675743,48.697022],[38.675756,48.696949],[38.67563,48.696635],[38.675523,48.696475],[38.67533,48.696106],[38.675213,48.695911],[38.675127,48.695763],[38.675123,48.695751],[38.675181,48.695739],[38.675213,48.695721],[38.677282,48.695272606996824],[38.677282,48.695273],[38.677414,48.695244],[38.677454,48.695235],[38.677454,48.69523463345196],[38.678819,48.694915],[38.678892,48.694864],[38.679108,48.694817],[38.679169,48.694856],[38.679291,48.694998],[38.679574,48.695306],[38.679714,48.695558],[38.679897,48.695653],[38.679907,48.695653],[38.67992,48.695688],[38.680028,48.695671],[38.680005,48.6956],[38.679893,48.695615],[38.679907,48.695644],[38.679722,48.695552],[38.679584,48.695303],[38.679305,48.694992],[38.679184,48.694849],[38.679112,48.694805],[38.678882,48.694858],[38.678811,48.694909],[38.677418,48.695232],[38.677288,48.694995],[38.677026,48.69453],[38.67702577588872,48.69453],[38.676727,48.693996]]]}},{"type":"Feature","properties":{"cadnum":"4411045300:02:003:0050"},"geometry":{"type":"Polygon","coordinates":[[[38.683037,48.693198],[38.683113,48.693196],[38.683154,48.693196],[38.68323,48.693192],[38.683396,48.693187],[38.683446,48.693187],[38.683437,48.692742],[38.68341,48.692608],[38.683316,48.692618],[38.68319,48.692735],[38.683144,48.692739],[38.683172,48.692937],[38.68301,48.692946],[38.683033,48.693124],[38.683037,48.693198]]]}},{"type":"Feature","properties":{"cadnum":"4411045300:02:001:0046"},"geometry":{"type":"Polygon","coordinates":[[[38.681371,48.699389],[38.681429,48.699377],[38.681429,48.699371],[38.681685,48.699311],[38.681636,48.699219],[38.681532,48.699042],[38.681218,48.699107],[38.681253,48.699163],[38.681371,48.699389]]]}},{"type":"Feature","properties":{"cadnum":"4411045300:02:001:0041"},"geometry":{"type":"Polygon","coordinates":[[[38.680337,48.699173],[38.680356,48.699169],[38.68067,48.699107],[38.680733,48.699092],[38.680733,48.699095],[38.680813,48.699074],[38.68071,48.698896],[38.680689,48.698855],[38.680226,48.698971],[38.680337,48.699173]]]}},{"type":"Feature","properties":{"cadnum":"4411045300:03:001:0011"},"geometry":{"type":"Polygon","coordinates":[[[38.684335,48.682734],[38.684389,48.682361],[38.684412,48.682207],[38.684519,48.681453],[38.684375,48.6814],[38.684358,48.681418],[38.684308,48.681605],[38.684291,48.681735],[38.684192,48.682399],[38.684142,48.682717],[38.684335,48.682734]]]}},{"type":"Feature","properties":{"cadnum":"4411045300:03:001:0010"},"geometry":{"type":"Polygon","coordinates":[[[38.683999,48.683689],[38.684075,48.683683],[38.684155,48.683677],[38.684178,48.683674],[38.684188,48.683677],[38.684196,48.683639],[38.684219,48.683469],[38.684282,48.683073],[38.684331,48.682746],[38.684335,48.682734],[38.684142,48.682717],[38.684056,48.683286],[38.684035,48.683405],[38.684029,48.683491],[38.684021,48.683517],[38.684012,48.683621],[38.684003,48.683677],[38.683999,48.683689]]]}},{"type":"Feature","properties":{"cadnum":"4411045300:03:001:0013"},"geometry":{"type":"Polygon","coordinates":[[[38.694675,48.68363],[38.694595,48.683624],[38.69458767142857,48.683651],[38.694587,48.683651],[38.6945740344827,48.68370124137953],[38.694557,48.683764],[38.69455783870968,48.683764],[38.694499,48.683992],[38.694392,48.684419],[38.694683,48.684445],[38.694765,48.684084],[38.694612,48.684071],[38.69465714574903,48.68374962348149],[38.694675,48.68363]]]}},{"type":"Feature","properties":{"cadnum":"4411045300:01:001:0035"},"geometry":{"type":"Polygon","coordinates":[[[38.677251,48.708827],[38.676844,48.708827],[38.67686003773585,48.709031],[38.67686,48.709031],[38.67686038225261,48.70903538225323],[38.676869,48.709145],[38.67686994392523,48.709145],[38.676888,48.709352],[38.677288,48.709375],[38.677265,48.709031],[38.677264471698116,48.709031],[38.677251,48.708827]]]}},{"type":"Feature","properties":{"cadnum":"4411045300:01:007:0065"},"geometry":{"type":"Polygon","coordinates":[[[38.662147,48.698108],[38.662173,48.698105],[38.662165,48.698052],[38.662137,48.698055],[38.662147,48.698108]]]}},{"type":"Feature","properties":{"cadnum":"4411045300:01:007:0056"},"geometry":{"type":"Polygon","coordinates":[[[38.662946,48.696664],[38.662973,48.696661],[38.662969,48.696644],[38.662942,48.696649],[38.662946,48.696664]]]}},{"type":"Feature","properties":{"cadnum":"4411045300:01:007:0061"},"geometry":{"type":"Polygon","coordinates":[[[38.663934,48.694763],[38.663957,48.694761],[38.663938,48.69471],[38.663867,48.694725],[38.663871,48.69474],[38.663921,48.694731],[38.663934,48.694763]]]}},{"type":"Feature","properties":{"cadnum":"4411045300:01:003:0053"},"geometry":{"type":"Polygon","coordinates":[[[38.662452,48.697773],[38.662466,48.697761],[38.662443,48.697752],[38.66243,48.697764],[38.662452,48.697773]]]}},{"type":"Feature","properties":{"cadnum":"4411045300:02:003:0030"},"geometry":{"type":"Polygon","coordinates":[[[38.682767,48.693842],[38.6828,48.693643],[38.682817,48.693489],[38.682821,48.693447],[38.682808,48.693379],[38.682794,48.693314],[38.682328,48.693355],[38.682385,48.693528],[38.682408,48.693545],[38.68248,48.693563],[38.682507,48.693578],[38.682548,48.69362],[38.682561,48.693637],[38.682408,48.69383],[38.682767,48.693842]]]}},{"type":"Feature","properties":{"cadnum":"4411045300:01:002:0038"},"geometry":{"type":"Polygon","coordinates":[[[38.67184,48.700467],[38.671961,48.700452],[38.671961,48.70045084901532],[38.672297,48.700406],[38.67245,48.70039],[38.672676,48.700355],[38.673089,48.700283],[38.673731,48.700171],[38.674112,48.700103],[38.674498,48.700035],[38.674898,48.699969],[38.675406,48.699887],[38.676259,48.699735],[38.676255,48.699727],[38.675402,48.699878],[38.674898,48.69996],[38.674498,48.700026],[38.673726,48.700162],[38.673089,48.700275],[38.672676,48.700346],[38.67245,48.700382],[38.672293,48.700397],[38.671835,48.700459],[38.671789,48.700467],[38.671789,48.70046735618878],[38.670712,48.700663],[38.670429,48.700716],[38.669729,48.700844],[38.669464,48.700874],[38.669185,48.700927],[38.66897,48.700948],[38.668605,48.701019],[38.668309,48.701076],[38.667976,48.701146],[38.6679,48.701179],[38.667622,48.70123],[38.667384,48.701259],[38.667114,48.701307],[38.667079,48.701292],[38.66684,48.701336],[38.666674,48.701283],[38.666737,48.701274],[38.666706,48.701199],[38.666598,48.701217],[38.666625,48.701292],[38.666665,48.701285],[38.666665,48.701289],[38.66684,48.701345],[38.667079,48.7013],[38.667114,48.701315],[38.667389,48.701268],[38.667626,48.701238],[38.667905,48.701185],[38.667986,48.701155],[38.668314,48.701084],[38.668611,48.701028],[38.66897,48.700957],[38.66919,48.700936],[38.669464,48.700883],[38.669733,48.700853],[38.670433,48.700725],[38.670712,48.700672],[38.671789,48.700476268617024],[38.671789,48.700477],[38.67184,48.700467]]]}},{"type":"Feature","properties":{"cadnum":"4411045300:01:007:0051"},"geometry":{"type":"Polygon","coordinates":[[[38.655787,48.699596],[38.655805,48.699549],[38.655782,48.699546],[38.65576,48.69959],[38.655787,48.699596]]]}},{"type":"Feature","properties":{"cadnum":"4411045300:01:007:0053"},"geometry":{"type":"Polygon","coordinates":[[[38.656793,48.700044],[38.656806,48.700028],[38.656747,48.700008],[38.656734,48.700023],[38.656793,48.700044]]]}},{"type":"Feature","properties":{"cadnum":"4411045300:01:003:0055"},"geometry":{"type":"Polygon","coordinates":[[[38.659389,48.69889],[38.659407,48.698879],[38.659389,48.698867],[38.659371,48.698879],[38.659389,48.69889]]]}},{"type":"Feature","properties":{"cadnum":"4411045300:02:002:0050"},"geometry":{"type":"Polygon","coordinates":[[[38.675945,48.691662],[38.675968,48.691654],[38.675959,48.691638],[38.675936,48.691645],[38.675945,48.691662]]]}},{"type":"Feature","properties":{"cadnum":"4411045300:01:006:0055"},"geometry":{"type":"Polygon","coordinates":[[[38.672896,48.692519],[38.672922,48.69251],[38.672909,48.692495],[38.672886,48.692502],[38.672896,48.692519]]]}},{"type":"Feature","properties":{"cadnum":"4411045300:02:002:0051"},"geometry":{"type":"Polygon","coordinates":[[[38.676561,48.691491],[38.676582,48.691484],[38.676574,48.691469],[38.676551,48.691476],[38.676561,48.691491]]]}},{"type":"Feature","properties":{"cadnum":"4411045300:02:002:0048"},"geometry":{"type":"Polygon","coordinates":[[[38.674691,48.692009],[38.674714,48.692003],[38.674705,48.691988],[38.674683,48.691994],[38.674691,48.692009]]]}},{"type":"Feature","properties":{"cadnum":"4411045300:02:002:0041"},"geometry":{"type":"Polygon","coordinates":[[[38.678886,48.697189],[38.678982,48.697165],[38.678959,48.697127],[38.678865,48.697147],[38.678886,48.697189]]]}},{"type":"Feature","properties":{"cadnum":"4411045300:02:002:0046"},"geometry":{"type":"Polygon","coordinates":[[[38.679741,48.69573],[38.679848,48.69571],[38.679808,48.695624],[38.6797,48.695644],[38.679741,48.69573]]]}},{"type":"Feature","properties":{"cadnum":"4411045300:02:002:0054"},"geometry":{"type":"Polygon","coordinates":[[[38.679704,48.697343],[38.679798,48.697319],[38.679915,48.697292],[38.679884,48.697246],[38.679853,48.697177],[38.679798,48.697088],[38.679722,48.696967],[38.679511,48.69702],[38.679525,48.697044],[38.679624,48.697215],[38.679691,48.697316],[38.679704,48.697343]]]}},{"type":"Feature","properties":{"cadnum":"4411045300:02:002:0053"},"geometry":{"type":"Polygon","coordinates":[[[38.682297,48.696699],[38.682385,48.696682],[38.682511,48.696649],[38.682494,48.696602],[38.682454,48.696534],[38.682413,48.696457],[38.682385,48.696398],[38.682391,48.696394],[38.682385,48.696385],[38.682358,48.696365],[38.682242,48.696391],[38.682144,48.696415],[38.682297,48.696699]]]}},{"type":"Feature","properties":{"cadnum":"4411045300:02:001:0035"},"geometry":{"type":"Polygon","coordinates":[[[38.687865,48.696308],[38.687951,48.696282],[38.687911,48.696222],[38.687821,48.696252],[38.687865,48.696308]]]}},{"type":"Feature","properties":{"cadnum":"4411045300:02:001:0042"},"geometry":{"type":"Polygon","coordinates":[[[38.684591,48.698241],[38.684587,48.698239],[38.684614,48.698233],[38.684748,48.698197],[38.684904,48.698156],[38.684900491228085,48.698156],[38.68496,48.69814],[38.685108,48.698102],[38.685135,48.698096],[38.685112,48.698057],[38.68509,48.698061],[38.684964,48.697859],[38.684587,48.697963],[38.684412,48.698007],[38.684500635897436,48.698156],[38.6845,48.698156],[38.684528,48.698202],[38.684542,48.698224],[38.684559,48.69825],[38.684591,48.698241]]]}},{"type":"Feature","properties":{"cadnum":"4411045300:02:001:0047"},"geometry":{"type":"Polygon","coordinates":[[[38.685417,48.696382],[38.685444,48.696376],[38.685773,48.696293],[38.685678,48.696125],[38.685633,48.696044],[38.685278,48.696128],[38.68535,48.696261],[38.685387,48.696326],[38.685408,48.696362],[38.685417,48.696382]]]}},{"type":"Feature","properties":{"cadnum":"4411045300:02:001:0043"},"geometry":{"type":"Polygon","coordinates":[[[38.685108,48.698102],[38.68496,48.69814],[38.684748,48.698197],[38.68479,48.698269],[38.684790387096776,48.698269],[38.684821,48.698321],[38.684848,48.698378],[38.684861,48.698395],[38.684874,48.698422],[38.684865,48.698443],[38.684897,48.698499],[38.684915,48.698496],[38.685167,48.698434],[38.685283,48.698402],[38.685144,48.698167],[38.685108,48.698102]]]}},{"type":"Feature","properties":{"cadnum":"4411045300:02:001:0048"},"geometry":{"type":"Polygon","coordinates":[[[38.683477,48.698769],[38.683926,48.698633],[38.683863,48.698487],[38.683815,48.698416],[38.683809,48.698416],[38.683756,48.698327],[38.683532,48.698387],[38.683406,48.698413],[38.683221,48.698464],[38.683293,48.698579],[38.683316,48.698615],[38.683366,48.698612],[38.683477,48.698769]]]}},{"type":"Feature","properties":{"cadnum":"4411045300:03:001:0012"},"geometry":{"type":"Polygon","coordinates":[[[38.694243,48.685104],[38.694566,48.68499],[38.694572,48.684926],[38.694595,48.684807],[38.694648,48.684588],[38.694683,48.684445],[38.694392,48.684419],[38.694325,48.684689],[38.694302,48.684783],[38.694284,48.684867],[38.694243,48.685104]]]}},{"type":"Feature","properties":{"cadnum":"4411045300:01:002:0037"},"geometry":{"type":"Polygon","coordinates":[[[38.674131,48.702848],[38.674175,48.702845],[38.674274,48.70283],[38.674395,48.702807],[38.674382,48.702717],[38.674382,48.702679],[38.674427,48.702664],[38.67458,48.702634],[38.674597,48.702614],[38.674467,48.702451],[38.674427,48.702412],[38.674404,48.702392],[38.674202,48.702416],[38.674099,48.702433],[38.673974,48.70246],[38.674054,48.702638],[38.674108,48.702788],[38.674131,48.702848]]]}}]}