{"type":"FeatureCollection","features":[{"type":"Feature","properties":{"cadnum":"4411045500:01:003:0030"},"geometry":{"type":"Polygon","coordinates":[[[38.634551,48.724207],[38.634551,48.724163],[38.63456,48.724163],[38.63465,48.724159],[38.634645,48.723845],[38.634402,48.723845],[38.634411,48.724207],[38.634551,48.724207]]]}},{"type":"Feature","properties":{"cadnum":"4411045500:01:001:0033"},"geometry":{"type":"Polygon","coordinates":[[[38.63013,48.724159],[38.63013,48.724115],[38.630063,48.724115],[38.630063,48.724159],[38.63013,48.724159]]]}},{"type":"Feature","properties":{"cadnum":"4411045500:01:001:0032"},"geometry":{"type":"Polygon","coordinates":[[[38.629583,48.724139],[38.629583,48.7241],[38.629551,48.7241],[38.629551,48.724136],[38.629583,48.724139]]]}},{"type":"Feature","properties":{"cadnum":"4411045500:01:002:0001"},"geometry":{"type":"Polygon","coordinates":[[[38.629574,48.724204],[38.629578,48.724174],[38.629547,48.724174],[38.629547,48.724204],[38.629574,48.724204]]]}},{"type":"Feature","properties":{"cadnum":"4411045500:02:002:0012"},"geometry":{"type":"Polygon","coordinates":[[[38.677387,48.694977],[38.677301,48.694963],[38.677293,48.69498],[38.677378,48.694992],[38.677387,48.694977]]]}},{"type":"Feature","properties":{"cadnum":"4411045500:02:001:0006"},"geometry":{"type":"Polygon","coordinates":[[[38.679965,48.701245],[38.679987,48.701238],[38.679978,48.701223],[38.679956,48.70123],[38.679965,48.701245]]]}},{"type":"Feature","properties":{"cadnum":"4411045500:01:002:0007"},"geometry":{"type":"Polygon","coordinates":[[[38.632323,48.723193],[38.632327,48.723107],[38.63218,48.723105],[38.632174,48.72312],[38.632278,48.723122],[38.632274,48.723191],[38.632323,48.723193]]]}}]}