{"type":"FeatureCollection","features":[{"type":"Feature","properties":{"cadnum":"4411447400:02:002:0051"},"geometry":{"type":"Polygon","coordinates":[[[39.62223,48.297708],[39.62218,48.297693],[39.622172,48.297708],[39.622222,48.297722],[39.62223,48.297708]]]}},{"type":"Feature","properties":{"cadnum":"4411447400:03:002:0080"},"geometry":{"type":"Polygon","coordinates":[[[39.622536,48.296333],[39.622931,48.296256],[39.622841,48.295972],[39.622419,48.296056],[39.622536,48.296333]]]}},{"type":"Feature","properties":{"cadnum":"4411447400:05:002:0005"},"geometry":{"type":"Polygon","coordinates":[[[39.606177,48.275726],[39.606182,48.275684],[39.606155,48.275684],[39.606155,48.275723],[39.606177,48.275726]]]}},{"type":"Feature","properties":{"cadnum":"4411447400:05:002:0001"},"geometry":{"type":"Polygon","coordinates":[[[39.610202,48.275875],[39.610238,48.275884],[39.610261,48.275849],[39.610171,48.275828],[39.610148,48.275864],[39.610179,48.275869],[39.610171,48.27589],[39.610194,48.275893],[39.610202,48.275875]]]}},{"type":"Feature","properties":{"cadnum":"4411447400:05:002:0003"},"geometry":{"type":"Polygon","coordinates":[[[39.608194,48.2758],[39.608194,48.275762],[39.608171,48.275758],[39.608167,48.2758],[39.608194,48.2758]]]}},{"type":"Feature","properties":{"cadnum":"4411447400:05:002:0002"},"geometry":{"type":"Polygon","coordinates":[[[39.609213,48.27584],[39.609219,48.275798],[39.609192,48.275798],[39.609192,48.27584],[39.609213,48.27584]]]}},{"type":"Feature","properties":{"cadnum":"4411447400:05:002:0004"},"geometry":{"type":"Polygon","coordinates":[[[39.607192,48.275762],[39.607197,48.275723],[39.607171,48.275723],[39.607165,48.275762],[39.607192,48.275762]]]}},{"type":"Feature","properties":{"cadnum":"4411447400:01:001:0044"},"geometry":{"type":"Polygon","coordinates":[[[39.58526,48.312207],[39.586384,48.312078],[39.586302,48.31181],[39.585256,48.311932],[39.585238,48.311935],[39.58526,48.312207]]]}},{"type":"Feature","properties":{"cadnum":"4411447400:01:002:0045"},"geometry":{"type":"Polygon","coordinates":[[[39.585215,48.309814],[39.585215,48.309832],[39.585242,48.309832],[39.585242,48.309817],[39.585215,48.309814]]]}},{"type":"Feature","properties":{"cadnum":"4411447400:01:001:0034"},"geometry":{"type":"Polygon","coordinates":[[[39.588026,48.311416],[39.588036,48.3114],[39.588013,48.311391],[39.588,48.311409],[39.588026,48.311416]]]}},{"type":"Feature","properties":{"cadnum":"4411447400:01:002:0008"},"geometry":{"type":"Polygon","coordinates":[[[39.584021,48.309829],[39.584424,48.309784],[39.58499,48.30974],[39.584977,48.30945],[39.584604,48.309476],[39.584223,48.309516],[39.584003,48.309527],[39.584021,48.309829]]]}},{"type":"Feature","properties":{"cadnum":"4411447400:01:002:0039"},"geometry":{"type":"Polygon","coordinates":[[[39.585197,48.312069],[39.585202,48.312087],[39.585225,48.312087],[39.585225,48.312069],[39.585197,48.312069]]]}},{"type":"Feature","properties":{"cadnum":"4411447400:01:001:0032"},"geometry":{"type":"Polygon","coordinates":[[[39.589074,48.310842],[39.589078,48.310824],[39.589051,48.310821],[39.589051,48.310838],[39.589074,48.310842]]]}},{"type":"Feature","properties":{"cadnum":"4411447400:01:002:0043"},"geometry":{"type":"Polygon","coordinates":[[[39.585225,48.310519],[39.585225,48.310501],[39.585197,48.310501],[39.585197,48.310516],[39.585225,48.310519]]]}},{"type":"Feature","properties":{"cadnum":"4411447400:01:002:0042"},"geometry":{"type":"Polygon","coordinates":[[[39.585189,48.310842],[39.585189,48.31086],[39.585215,48.31086],[39.585215,48.310842],[39.585189,48.310842]]]}},{"type":"Feature","properties":{"cadnum":"4411447400:01:001:0033"},"geometry":{"type":"Polygon","coordinates":[[[39.588435,48.31083],[39.588458,48.310821],[39.588435,48.310788],[39.588458,48.310782],[39.588449,48.310767],[39.588372,48.310791],[39.588382,48.310805],[39.588413,48.310797],[39.588435,48.31083]]]}},{"type":"Feature","properties":{"cadnum":"4411447400:01:001:0035"},"geometry":{"type":"Polygon","coordinates":[[[39.587717,48.311894],[39.587726,48.311878],[39.587703,48.311872],[39.587695,48.311887],[39.587717,48.311894]]]}},{"type":"Feature","properties":{"cadnum":"4411447400:01:002:0041"},"geometry":{"type":"Polygon","coordinates":[[[39.585179,48.311209],[39.585265,48.311201],[39.58526,48.311185],[39.585175,48.311192],[39.585179,48.311209]]]}},{"type":"Feature","properties":{"cadnum":"4411447400:01:002:0070"},"geometry":{"type":"Polygon","coordinates":[[[39.58513,48.309162],[39.585202,48.30916],[39.585202,48.309145],[39.58513,48.309145],[39.58513,48.309162]]]}},{"type":"Feature","properties":{"cadnum":"4411447400:01:002:0044"},"geometry":{"type":"Polygon","coordinates":[[[39.585206,48.310158],[39.585206,48.310176],[39.585233,48.310176],[39.585233,48.310158],[39.585206,48.310158]]]}},{"type":"Feature","properties":{"cadnum":"4411447400:01:001:0047"},"geometry":{"type":"Polygon","coordinates":[[[39.58407,48.311358],[39.58468,48.311251],[39.58491,48.311221],[39.584955,48.311218],[39.584955,48.31111],[39.58495,48.311069],[39.584869,48.311072],[39.584367,48.311141],[39.584021,48.311203],[39.58407,48.311358]]]}},{"type":"Feature","properties":{"cadnum":"4411447400:01:001:0045"},"geometry":{"type":"Polygon","coordinates":[[[39.586384,48.312078],[39.586648,48.312016],[39.586577,48.311774],[39.586451,48.311792],[39.586302,48.31181],[39.586384,48.312078]]]}},{"type":"Feature","properties":{"cadnum":"4411447400:01:002:0075"},"geometry":{"type":"Polygon","coordinates":[[[39.5849,48.308694],[39.58466118333334,48.308717],[39.584659,48.308717],[39.584484391247436,48.30873402652513],[39.583654,48.308814],[39.583654,48.30881493822394],[39.583567,48.308823],[39.583594,48.308942],[39.583654,48.308937086206896],[39.583654,48.308938],[39.5837330383273,48.308930613240435],[39.583826,48.308923],[39.583826,48.30892192523364],[39.583868,48.308918],[39.584137,48.308897],[39.584451,48.308885],[39.584564,48.308879],[39.584564,48.308876],[39.584604,48.308867],[39.584914,48.308846],[39.584902,48.308717],[39.5849,48.308694]]]}},{"type":"Feature","properties":{"cadnum":"4411447400:01:002:0009"},"geometry":{"type":"Polygon","coordinates":[[[39.584021,48.309829],[39.584003,48.309527],[39.583654,48.309553],[39.583654,48.3095536278481],[39.583036,48.309599],[39.583131,48.309919],[39.583826,48.309849],[39.583826,48.309848659400544],[39.584021,48.309829]]]}},{"type":"Feature","properties":{"cadnum":"4411447400:01:002:0046"},"geometry":{"type":"Polygon","coordinates":[[[39.585225,48.309474],[39.585225,48.309488],[39.585252,48.309488],[39.585252,48.30947],[39.585225,48.309474]]]}},{"type":"Feature","properties":{"cadnum":"4411447400:01:001:0036"},"geometry":{"type":"Polygon","coordinates":[[[39.587483,48.312258],[39.587493,48.312242],[39.58747,48.312233],[39.58746,48.312251],[39.587483,48.312258]]]}},{"type":"Feature","properties":{"cadnum":"4411447400:01:002:0040"},"geometry":{"type":"Polygon","coordinates":[[[39.585189,48.31169],[39.585189,48.311705],[39.585215,48.311705],[39.585215,48.31169],[39.585189,48.31169]]]}},{"type":"Feature","properties":{"cadnum":"4411447400:03:001:0003"},"geometry":{"type":"Polygon","coordinates":[[[39.600284,48.297582],[39.598686,48.296967],[39.598565,48.297117],[39.600134,48.29772083917397],[39.600134,48.297721],[39.600163,48.297732],[39.600284,48.297582]]]}},{"type":"Feature","properties":{"cadnum":"4411447400:03:001:0050"},"geometry":{"type":"Polygon","coordinates":[[[39.600306,48.297349],[39.599697,48.297134],[39.599557,48.297301],[39.600284,48.297582],[39.600428,48.297636],[39.600546,48.297433],[39.600306,48.297349116504854],[39.600306,48.297349]]]}},{"type":"Feature","properties":{"cadnum":"4411447400:03:001:0049"},"geometry":{"type":"Polygon","coordinates":[[[39.599557,48.297301],[39.599697,48.297134],[39.599597,48.297101],[39.598806,48.296818],[39.598686,48.296967],[39.599462,48.297266],[39.599557,48.297301]]]}},{"type":"Feature","properties":{"cadnum":"4411447400:01:002:0037"},"geometry":{"type":"Polygon","coordinates":[[[39.585592,48.3129],[39.585615,48.312891],[39.585602,48.312876],[39.585579,48.312885],[39.585592,48.3129]]]}},{"type":"Feature","properties":{"cadnum":"4411447400:01:001:0038"},"geometry":{"type":"Polygon","coordinates":[[[39.586967,48.313067],[39.586994,48.313058],[39.586963,48.313017],[39.58694,48.313023],[39.586949,48.313037],[39.5869,48.313052],[39.586908,48.313067],[39.586963,48.313052],[39.586967,48.313067]]]}},{"type":"Feature","properties":{"cadnum":"4411447400:01:001:0043"},"geometry":{"type":"Polygon","coordinates":[[[39.584573,48.314131],[39.584586,48.314115],[39.584497,48.314089],[39.584487,48.314104],[39.584573,48.314131]]]}},{"type":"Feature","properties":{"cadnum":"4411447400:01:001:0037"},"geometry":{"type":"Polygon","coordinates":[[[39.587236,48.312646],[39.587246,48.312631],[39.587223,48.312622],[39.58721,48.31264],[39.587236,48.312646]]]}},{"type":"Feature","properties":{"cadnum":"4411447400:01:001:0040"},"geometry":{"type":"Polygon","coordinates":[[[39.586028,48.313351],[39.586051,48.313342],[39.586042,48.313327],[39.586019,48.313336],[39.586028,48.313351]]]}},{"type":"Feature","properties":{"cadnum":"4411447400:01:001:0041"},"geometry":{"type":"Polygon","coordinates":[[[39.585516,48.313512],[39.585583,48.313495],[39.585575,48.313479],[39.585508,48.313497],[39.585516,48.313512]]]}},{"type":"Feature","properties":{"cadnum":"4411447400:01:002:0036"},"geometry":{"type":"Polygon","coordinates":[[[39.585942,48.313265],[39.585965,48.313256],[39.585925,48.313207],[39.585902,48.313214],[39.585942,48.313265]]]}},{"type":"Feature","properties":{"cadnum":"4411447400:01:002:0038"},"geometry":{"type":"Polygon","coordinates":[[[39.585215,48.312512],[39.585292,48.312497],[39.585283,48.312481],[39.585206,48.312494],[39.585215,48.312512]]]}},{"type":"Feature","properties":{"cadnum":"4411447400:01:001:0039"},"geometry":{"type":"Polygon","coordinates":[[[39.586514,48.313196],[39.586535,48.313187],[39.586527,48.313172],[39.586504,48.313181],[39.586514,48.313196]]]}},{"type":"Feature","properties":{"cadnum":"4411447400:01:001:0046"},"geometry":{"type":"Polygon","coordinates":[[[39.584497,48.313139],[39.585323,48.312992],[39.585256,48.312793],[39.58447,48.312915],[39.584497,48.313139]]]}},{"type":"Feature","properties":{"cadnum":"4411447400:01:001:0042"},"geometry":{"type":"Polygon","coordinates":[[[39.585045,48.313796],[39.585067,48.313787],[39.585049,48.313772],[39.585032,48.313784],[39.585045,48.313796]]]}},{"type":"Feature","properties":{"cadnum":"4411447400:05:002:0007"},"geometry":{"type":"Polygon","coordinates":[[[39.604161,48.275649],[39.604165,48.275609],[39.604142,48.275607],[39.604138,48.275649],[39.604161,48.275649]]]}},{"type":"Feature","properties":{"cadnum":"4411447400:05:002:0009"},"geometry":{"type":"Polygon","coordinates":[[[39.602154,48.275574],[39.602158,48.275532],[39.602131,48.275532],[39.602125,48.275574],[39.602154,48.275574]]]}},{"type":"Feature","properties":{"cadnum":"4411447400:05:002:0006"},"geometry":{"type":"Polygon","coordinates":[[[39.605175,48.275687],[39.605175,48.275645],[39.605154,48.275645],[39.605148,48.275687],[39.605175,48.275687]]]}},{"type":"Feature","properties":{"cadnum":"4411447400:05:002:0008"},"geometry":{"type":"Polygon","coordinates":[[[39.603159,48.275612],[39.603159,48.27557],[39.603137,48.27557],[39.603133,48.275609],[39.603159,48.275612]]]}},{"type":"Feature","properties":{"cadnum":"4411447400:05:002:0010"},"geometry":{"type":"Polygon","coordinates":[[[39.601133,48.275534],[39.601138,48.275492],[39.601112,48.275492],[39.601112,48.275534],[39.601133,48.275534]]]}},{"type":"Feature","properties":{"cadnum":"4411447400:05:002:0016"},"geometry":{"type":"Polygon","coordinates":[[[39.600563,48.272432],[39.60058,48.272419],[39.600563,48.272408],[39.600546,48.272419],[39.600563,48.272432]]]}},{"type":"Feature","properties":{"cadnum":"4411447400:02:002:0004"},"geometry":{"type":"Polygon","coordinates":[[[39.617954,48.30251],[39.618004,48.302339],[39.61693,48.302217],[39.616916,48.302384],[39.617954,48.30251]]]}},{"type":"Feature","properties":{"cadnum":"4411447400:02:002:0005"},"geometry":{"type":"Polygon","coordinates":[[[39.618129,48.30253],[39.618152,48.302444],[39.618174,48.302447],[39.618201,48.30236],[39.618004,48.302339],[39.617954,48.30251],[39.618129,48.30253]]]}},{"type":"Feature","properties":{"cadnum":"4411447400:02:002:0016"},"geometry":{"type":"Polygon","coordinates":[[[39.617482,48.304765],[39.617572,48.30452],[39.617389,48.304505],[39.617299,48.304742],[39.617482,48.304765]]]}},{"type":"Feature","properties":{"cadnum":"4411447400:02:002:0015"},"geometry":{"type":"Polygon","coordinates":[[[39.616785,48.304448],[39.616597,48.30443],[39.616553,48.304651],[39.616613,48.3046585],[39.616613,48.30466],[39.617299,48.304742],[39.617389,48.304505],[39.616785,48.30444818041237],[39.616785,48.304448]]]}},{"type":"Feature","properties":{"cadnum":"4411447400:04:001:0019"},"geometry":{"type":"Polygon","coordinates":[[[39.585489,48.279531],[39.585512,48.279525],[39.585502,48.279511],[39.58548,48.279516],[39.585489,48.279531]]]}},{"type":"Feature","properties":{"cadnum":"4411447400:04:001:0014"},"geometry":{"type":"Polygon","coordinates":[[[39.588827,48.278751],[39.588894,48.278736],[39.588885,48.278718],[39.588818,48.278736],[39.588827,48.278751]]]}},{"type":"Feature","properties":{"cadnum":"4411447400:04:001:0015"},"geometry":{"type":"Polygon","coordinates":[[[39.587978,48.278951],[39.58804,48.278933],[39.588032,48.278919],[39.587965,48.278937],[39.587978,48.278951]]]}},{"type":"Feature","properties":{"cadnum":"4411447400:04:001:0016"},"geometry":{"type":"Polygon","coordinates":[[[39.587546,48.27905],[39.587573,48.279044],[39.587564,48.279029],[39.587537,48.279035],[39.587546,48.27905]]]}},{"type":"Feature","properties":{"cadnum":"4411447400:04:001:0017"},"geometry":{"type":"Polygon","coordinates":[[[39.586936,48.279194],[39.586958,48.279187],[39.586949,48.279172],[39.586927,48.279179],[39.586936,48.279194]]]}},{"type":"Feature","properties":{"cadnum":"4411447400:04:001:0018"},"geometry":{"type":"Polygon","coordinates":[[[39.586217,48.279361],[39.586239,48.279355],[39.586235,48.27934],[39.586208,48.279345],[39.586217,48.279361]]]}},{"type":"Feature","properties":{"cadnum":"4411447400:03:002:0036"},"geometry":{"type":"Polygon","coordinates":[[[39.617639,48.293644],[39.618102,48.293516],[39.618026,48.293366],[39.617541,48.2935],[39.617639,48.293644]]]}},{"type":"Feature","properties":{"cadnum":"4411447400:03:002:0035"},"geometry":{"type":"Polygon","coordinates":[[[39.617874,48.29399],[39.618291,48.293877],[39.618102,48.293516],[39.617639,48.293644],[39.617874,48.29399]]]}},{"type":"Feature","properties":{"cadnum":"4411447400:03:002:0010"},"geometry":{"type":"Polygon","coordinates":[[[39.620721,48.294012],[39.6204825597015,48.294101],[39.620482,48.294101],[39.620362,48.294146],[39.620419,48.294215],[39.62041992368421,48.294215],[39.620681,48.294526],[39.620932,48.294451],[39.620937,48.29446],[39.621044,48.294421],[39.62083873584872,48.294161377358066],[39.620721,48.294012]]]}},{"type":"Feature","properties":{"cadnum":"4411447400:03:002:0065"},"geometry":{"type":"Polygon","coordinates":[[[39.61676,48.298903],[39.616769,48.298957],[39.616796,48.298957],[39.616786,48.298903],[39.61676,48.298903]]]}},{"type":"Feature","properties":{"cadnum":"4411447400:03:002:0066"},"geometry":{"type":"Polygon","coordinates":[[[39.616819,48.299256],[39.61684,48.299252],[39.61684,48.299238],[39.616813,48.299238],[39.616819,48.299256]]]}},{"type":"Feature","properties":{"cadnum":"4411447400:03:002:0067"},"geometry":{"type":"Polygon","coordinates":[[[39.617488,48.298466],[39.617509,48.298464],[39.617505,48.298446],[39.617478,48.298452],[39.617488,48.298466]]]}},{"type":"Feature","properties":{"cadnum":"4411447400:03:002:0077"},"geometry":{"type":"Polygon","coordinates":[[[39.616863,48.299545],[39.616867,48.29956],[39.61689,48.29956],[39.61689,48.299542],[39.616863,48.299545]]]}},{"type":"Feature","properties":{"cadnum":"4411447400:02:002:0062"},"geometry":{"type":"Polygon","coordinates":[[[39.616939,48.300023],[39.616949,48.300078],[39.616975,48.300078],[39.616966,48.300023],[39.616939,48.300023]]]}},{"type":"Feature","properties":{"cadnum":"4411447400:03:002:0069"},"geometry":{"type":"Polygon","coordinates":[[[39.619077,48.298174],[39.619104,48.298171],[39.619096,48.298153],[39.619073,48.298159],[39.619077,48.298174]]]}},{"type":"Feature","properties":{"cadnum":"4411447400:03:002:0070"},"geometry":{"type":"Polygon","coordinates":[[[39.619882,48.298028],[39.619903,48.298025],[39.619899,48.298007],[39.619872,48.298012],[39.619882,48.298028]]]}},{"type":"Feature","properties":{"cadnum":"4411447400:03:002:0071"},"geometry":{"type":"Polygon","coordinates":[[[39.620712,48.297875],[39.620735,48.297872],[39.620731,48.297854],[39.620704,48.297861],[39.620712,48.297875]]]}},{"type":"Feature","properties":{"cadnum":"4411447400:02:002:0031"},"geometry":{"type":"Polygon","coordinates":[[[39.621926,48.29789],[39.621974,48.297848],[39.621916,48.297815],[39.621862,48.297857],[39.621926,48.29789]]]}},{"type":"Feature","properties":{"cadnum":"4411447400:03:002:0068"},"geometry":{"type":"Polygon","coordinates":[[[39.618278,48.298324],[39.6183,48.298317],[39.618295,48.298302],[39.618268,48.298306],[39.618278,48.298324]]]}},{"type":"Feature","properties":{"cadnum":"4411447400:02:002:0033"},"geometry":{"type":"Polygon","coordinates":[[[39.616984,48.30017],[39.616989,48.30012],[39.616912,48.300116],[39.616908,48.30017],[39.616984,48.30017]]]}},{"type":"Feature","properties":{"cadnum":"4411447400:02:002:0061"},"geometry":{"type":"Polygon","coordinates":[[[39.616916,48.299874],[39.616943,48.299872],[39.616939,48.299856],[39.616912,48.299856],[39.616916,48.299874]]]}},{"type":"Feature","properties":{"cadnum":"4411447400:03:002:0064"},"geometry":{"type":"Polygon","coordinates":[[[39.616729,48.298634],[39.61675,48.298628],[39.616733,48.298586],[39.616706,48.298592],[39.616729,48.298634]]]}},{"type":"Feature","properties":{"cadnum":"4411447400:03:002:0011"},"geometry":{"type":"Polygon","coordinates":[[[39.617069,48.297427],[39.616886,48.297057],[39.616785,48.2971252874494],[39.616785,48.297125],[39.616639,48.297224],[39.616613,48.297246],[39.616613,48.2972466744186],[39.616553,48.297299],[39.616446,48.297343],[39.616436,48.297403],[39.616526,48.297549],[39.61653,48.297556],[39.616785,48.297495],[39.616785,48.297494885964916],[39.617069,48.297427]]]}},{"type":"Feature","properties":{"cadnum":"4411447400:03:002:0063"},"geometry":{"type":"Polygon","coordinates":[[[39.615991,48.298756],[39.616014,48.298754],[39.61601,48.298736],[39.615983,48.298742],[39.615991,48.298756]]]}},{"type":"Feature","properties":{"cadnum":"4411447400:03:002:0050"},"geometry":{"type":"Polygon","coordinates":[[[39.61305,48.298545],[39.613085,48.298508],[39.613072,48.298503],[39.613072,48.298499],[39.613041,48.298485],[39.613014,48.298488],[39.612995,48.298506],[39.612995,48.298524],[39.613027,48.298539],[39.613037,48.298539],[39.61305,48.298545]]]}},{"type":"Feature","properties":{"cadnum":"4411447400:03:002:0059"},"geometry":{"type":"Polygon","coordinates":[[[39.613517,48.299109],[39.613534,48.29907],[39.613507,48.299064],[39.61349,48.299103],[39.613517,48.299109]]]}},{"type":"Feature","properties":{"cadnum":"4411447400:03:002:0058"},"geometry":{"type":"Polygon","coordinates":[[[39.613072,48.29896],[39.613081,48.298945],[39.613058,48.298939],[39.61305,48.298954],[39.613072,48.29896]]]}},{"type":"Feature","properties":{"cadnum":"4411447400:03:002:0025"},"geometry":{"type":"Polygon","coordinates":[[[39.61112819512242,48.299627118466795],[39.611292,48.299591],[39.611292,48.299589510204086],[39.611316,48.299584],[39.611292,48.2995252063492],[39.611292,48.299525],[39.611127,48.299121],[39.610763,48.299202],[39.610844,48.299411],[39.61097,48.299659],[39.61097,48.299662],[39.61112,48.29962892546584],[39.61112,48.299629],[39.61112819512242,48.299627118466795]]]}},{"type":"Feature","properties":{"cadnum":"4411447400:03:002:0079"},"geometry":{"type":"Polygon","coordinates":[[[39.612542,48.299564],[39.612609,48.299549],[39.612654,48.29954],[39.612722,48.299522],[39.61287,48.299495],[39.612852,48.299456],[39.612834,48.299411],[39.612829,48.299393],[39.612825,48.299384],[39.612762,48.299396],[39.612767,48.299402],[39.612546,48.299447],[39.612498,48.299456],[39.612542,48.299564]]]}},{"type":"Feature","properties":{"cadnum":"4411447400:02:001:0018"},"geometry":{"type":"Polygon","coordinates":[[[39.614949,48.301318],[39.615291,48.301263],[39.615807,48.301171],[39.615722,48.300962],[39.614941,48.301102],[39.614949,48.301318]]]}},{"type":"Feature","properties":{"cadnum":"4411447400:03:002:0055"},"geometry":{"type":"Polygon","coordinates":[[[39.612142,48.298673],[39.612165,48.298667],[39.612142,48.298623],[39.612115,48.298628],[39.612142,48.298673]]]}},{"type":"Feature","properties":{"cadnum":"4411447400:03:002:0007"},"geometry":{"type":"Polygon","coordinates":[[[39.614159,48.29919],[39.614217,48.299178],[39.614186,48.2991],[39.614127,48.299109],[39.614159,48.29919]]]}},{"type":"Feature","properties":{"cadnum":"4411447400:02:002:0063"},"geometry":{"type":"Polygon","coordinates":[[[39.615331,48.300385],[39.615507,48.300355],[39.615479,48.300284],[39.615488,48.30028],[39.615368,48.299988],[39.615295,48.300003],[39.615286,48.299979],[39.615192,48.299996],[39.615201,48.300021],[39.615129,48.300032],[39.615174,48.30014],[39.615161,48.300143],[39.615174,48.300178],[39.615188,48.300176],[39.615205,48.300215],[39.615196,48.300218],[39.615205,48.300238],[39.615215,48.300238],[39.615255,48.300326],[39.615268,48.300322],[39.615331,48.300385]]]}},{"type":"Feature","properties":{"cadnum":"4411447400:03:002:0060"},"geometry":{"type":"Polygon","coordinates":[[[39.613727,48.299103],[39.61375,48.2991],[39.61375,48.299086],[39.613723,48.299086],[39.613727,48.299103]]]}},{"type":"Feature","properties":{"cadnum":"4411447400:03:002:0062"},"geometry":{"type":"Polygon","coordinates":[[[39.615178,48.298924],[39.615205,48.298918],[39.615196,48.298903],[39.615174,48.298906],[39.615178,48.298924]]]}},{"type":"Feature","properties":{"cadnum":"4411447400:03:002:0054"},"geometry":{"type":"Polygon","coordinates":[[[39.61136,48.298813],[39.611383,48.298811],[39.611374,48.298792],[39.611352,48.298798],[39.61136,48.298813]]]}},{"type":"Feature","properties":{"cadnum":"4411447400:03:002:0061"},"geometry":{"type":"Polygon","coordinates":[[[39.614402,48.299088],[39.614419,48.29904],[39.614393,48.299037],[39.614383,48.299064],[39.614339,48.299055],[39.614329,48.29907],[39.614402,48.299088]]]}},{"type":"Feature","properties":{"cadnum":"4411447400:03:002:0056"},"geometry":{"type":"Polygon","coordinates":[[[39.612928,48.298491],[39.612947,48.298452],[39.612878,48.298437],[39.61287,48.298455],[39.612915,48.298464],[39.612901,48.298488],[39.612928,48.298491]]]}},{"type":"Feature","properties":{"cadnum":"4411447400:03:002:0074"},"geometry":{"type":"Polygon","coordinates":[[[39.614685,48.298855],[39.614918,48.298807],[39.614928,48.298829],[39.615079,48.298796],[39.614989,48.298607],[39.615071,48.29859],[39.615017,48.298466],[39.614936,48.298482],[39.614855,48.298315],[39.614465,48.298398],[39.614685,48.298855]]]}},{"type":"Feature","properties":{"cadnum":"4411447400:02:001:0006"},"geometry":{"type":"Polygon","coordinates":[[[39.613727,48.300767],[39.61411,48.300648],[39.614029,48.300486],[39.613989,48.300451],[39.613886,48.300257],[39.613498,48.300335],[39.613727,48.300767]]]}},{"type":"Feature","properties":{"cadnum":"4411447400:02:001:0007"},"geometry":{"type":"Polygon","coordinates":[[[39.61376,48.300827],[39.61414,48.300708],[39.61411,48.300648],[39.613727,48.300767],[39.61376,48.300827]]]}},{"type":"Feature","properties":{"cadnum":"4411447400:03:002:0004"},"geometry":{"type":"Polygon","coordinates":[[[39.612084,48.29942],[39.612412,48.299348],[39.612412,48.299351],[39.612479,48.299339],[39.612479,48.299334],[39.612282,48.298924],[39.611877,48.299013],[39.612084,48.29942]]]}},{"type":"Feature","properties":{"cadnum":"4411447400:03:002:0057"},"geometry":{"type":"Polygon","coordinates":[[[39.612565,48.298789],[39.612578,48.298774],[39.612551,48.298765],[39.612542,48.29878],[39.612565,48.298789]]]}},{"type":"Feature","properties":{"cadnum":"4411447400:03:002:0008"},"geometry":{"type":"Polygon","coordinates":[[[39.614429,48.299334],[39.614505,48.299321],[39.614478,48.299247],[39.614402,48.299259],[39.614429,48.299334]]]}},{"type":"Feature","properties":{"cadnum":"4411447400:03:002:0005"},"geometry":{"type":"Polygon","coordinates":[[[39.611877,48.299013],[39.612282,48.298924],[39.612165,48.298691],[39.611756,48.298783],[39.611877,48.299013]]]}},{"type":"Feature","properties":{"cadnum":"4411447400:05:002:0026"},"geometry":{"type":"Polygon","coordinates":[[[39.611702,48.270985],[39.611747,48.27082],[39.611329,48.270775],[39.611284,48.270925],[39.611154,48.271457],[39.611292,48.271457],[39.611572,48.271457],[39.611702,48.270985]]]}},{"type":"Feature","properties":{"cadnum":"4411447400:05:002:0027"},"geometry":{"type":"Polygon","coordinates":[[[39.61106,48.270318],[39.61093,48.270761],[39.61112,48.27078094475138],[39.61112,48.270781],[39.611329,48.270803],[39.611464,48.270369],[39.611257,48.270342],[39.61106,48.270318]]]}},{"type":"Feature","properties":{"cadnum":"4411447400:05:002:0028"},"geometry":{"type":"Polygon","coordinates":[[[39.611284,48.270952],[39.611292,48.270926],[39.611292,48.27092551111111],[39.611329,48.270803],[39.611292,48.27079910526316],[39.611292,48.270799],[39.61093,48.270761],[39.610759,48.271427],[39.611154,48.271484],[39.611284,48.270952]]]}},{"type":"Feature","properties":{"cadnum":"4411447400:05:001:0004"},"geometry":{"type":"Polygon","coordinates":[[[39.597351,48.275791],[39.597374,48.275782],[39.597324,48.275738],[39.597307,48.275749],[39.597351,48.275791]]]}},{"type":"Feature","properties":{"cadnum":"4411447400:05:001:0011"},"geometry":{"type":"Polygon","coordinates":[[[39.596749,48.27508],[39.596754,48.275065],[39.596732,48.275062],[39.596722,48.275077],[39.596749,48.27508]]]}},{"type":"Feature","properties":{"cadnum":"4411447400:05:002:0014"},"geometry":{"type":"Polygon","coordinates":[[[39.599368,48.27314],[39.599386,48.273131],[39.599368,48.273116],[39.599351,48.273128],[39.599368,48.27314]]]}},{"type":"Feature","properties":{"cadnum":"4411447400:05:001:0002"},"geometry":{"type":"Polygon","coordinates":[[[39.599121,48.275454],[39.599125,48.275415],[39.599099,48.275415],[39.599099,48.275454],[39.599121,48.275454]]]}},{"type":"Feature","properties":{"cadnum":"4411447400:05:001:0010"},"geometry":{"type":"Polygon","coordinates":[[[39.596601,48.275558],[39.596605,48.275543],[39.596579,48.275541],[39.596575,48.275556],[39.596601,48.275558]]]}},{"type":"Feature","properties":{"cadnum":"4411447400:05:001:0001"},"geometry":{"type":"Polygon","coordinates":[[[39.600123,48.275496],[39.600127,48.275457],[39.6001,48.275454],[39.600096,48.275496],[39.600123,48.275496]]]}},{"type":"Feature","properties":{"cadnum":"4411447400:05:001:0012"},"geometry":{"type":"Polygon","coordinates":[[[39.596929,48.274626],[39.596942,48.27461],[39.596907,48.274596],[39.596915,48.274584],[39.596894,48.274575],[39.596858,48.274617],[39.59688,48.274626],[39.596894,48.27461],[39.596929,48.274626]]]}},{"type":"Feature","properties":{"cadnum":"4411447400:05:001:0003"},"geometry":{"type":"Polygon","coordinates":[[[39.598097,48.275451],[39.598142,48.275441],[39.598133,48.275421],[39.598169,48.275415],[39.598146,48.275361],[39.59803,48.275385],[39.598053,48.275436],[39.598089,48.27543],[39.598097,48.275451]]]}},{"type":"Feature","properties":{"cadnum":"4411447400:05:002:0015"},"geometry":{"type":"Polygon","coordinates":[[[39.599965,48.272787],[39.599984,48.272775],[39.599965,48.272764],[39.599947,48.272773],[39.599965,48.272787]]]}},{"type":"Feature","properties":{"cadnum":"4411447400:05:001:0015"},"geometry":{"type":"Polygon","coordinates":[[[39.59789,48.274016],[39.597909,48.274004],[39.59789,48.273992],[39.597873,48.274004],[39.59789,48.274016]]]}},{"type":"Feature","properties":{"cadnum":"4411447400:05:001:0014"},"geometry":{"type":"Polygon","coordinates":[[[39.597397,48.274309],[39.597418,48.274297],[39.597401,48.274285],[39.597383,48.274297],[39.597397,48.274309]]]}},{"type":"Feature","properties":{"cadnum":"4411447400:05:002:0013"},"geometry":{"type":"Polygon","coordinates":[[[39.598766,48.273496],[39.598789,48.273484],[39.598771,48.273472],[39.598753,48.273484],[39.598766,48.273496]]]}},{"type":"Feature","properties":{"cadnum":"4411447400:01:002:0003"},"geometry":{"type":"Polygon","coordinates":[[[39.588462,48.307152],[39.588718,48.307083],[39.588674,48.307009],[39.588413,48.307078],[39.588462,48.307152]]]}},{"type":"Feature","properties":{"cadnum":"4411447400:01:002:0072"},"geometry":{"type":"Polygon","coordinates":[[[39.584919,48.308497],[39.584946,48.308491],[39.584923,48.308446],[39.5849,48.308452],[39.584919,48.308497]]]}},{"type":"Feature","properties":{"cadnum":"4411447400:01:002:0035"},"geometry":{"type":"Polygon","coordinates":[[[39.584869,48.30844],[39.584946,48.308437],[39.584942,48.308374],[39.584865,48.308377],[39.584869,48.30844]]]}},{"type":"Feature","properties":{"cadnum":"4411447400:01:002:0002"},"geometry":{"type":"Polygon","coordinates":[[[39.583826,48.307609],[39.583644,48.307687],[39.583654,48.307697714285716],[39.583654,48.307699],[39.584151,48.308228],[39.584919,48.308028],[39.584739,48.307711],[39.584277,48.307424],[39.584106,48.307487],[39.584057,48.30751],[39.583826,48.30760916377171],[39.583826,48.307609]]]}},{"type":"Feature","properties":{"cadnum":"4411447400:03:001:0001"},"geometry":{"type":"Polygon","coordinates":[[[39.589015,48.305118],[39.589118,48.305085],[39.588795,48.30464],[39.588468,48.304687],[39.588368,48.304702],[39.588671,48.305178],[39.58867259493671,48.305178],[39.588701,48.305222],[39.588791,48.305196],[39.589015,48.305123],[39.589015,48.305118]]]}},{"type":"Feature","properties":{"cadnum":"4411447400:01:002:0023"},"geometry":{"type":"Polygon","coordinates":[[[39.588382,48.307419],[39.588835,48.307308],[39.588768,48.307147],[39.588718,48.307083],[39.588462,48.307152],[39.588248,48.307206],[39.588382,48.307419]]]}},{"type":"Feature","properties":{"cadnum":"4411447400:01:002:0071"},"geometry":{"type":"Polygon","coordinates":[[[39.584982,48.308664],[39.585009,48.308658],[39.585,48.308643],[39.584977,48.308646],[39.584982,48.308664]]]}},{"type":"Feature","properties":{"cadnum":"4411447400:01:002:0005"},"geometry":{"type":"Polygon","coordinates":[[[39.584151,48.307377],[39.5842,48.307361],[39.584155,48.307299],[39.58411,48.307313],[39.584151,48.307377]]]}},{"type":"Feature","properties":{"cadnum":"4411447400:01:002:0004"},"geometry":{"type":"Polygon","coordinates":[[[39.585529,48.30769],[39.585678,48.307651],[39.585655,48.307609],[39.585502,48.307651],[39.585529,48.30769]]]}},{"type":"Feature","properties":{"cadnum":"4411447400:03:001:0027"},"geometry":{"type":"Polygon","coordinates":[[[39.601246,48.296856],[39.601268,48.296851],[39.601259,48.296832],[39.601232,48.296841],[39.601246,48.296856]]]}},{"type":"Feature","properties":{"cadnum":"4411447400:03:001:0026"},"geometry":{"type":"Polygon","coordinates":[[[39.600886,48.296375],[39.600909,48.296366],[39.600896,48.296351],[39.600873,48.29636],[39.600886,48.296375]]]}},{"type":"Feature","properties":{"cadnum":"4411447400:03:001:0029"},"geometry":{"type":"Polygon","coordinates":[[[39.601951,48.297797],[39.601974,48.297788],[39.601965,48.297773],[39.601942,48.297782],[39.601951,48.297797]]]}},{"type":"Feature","properties":{"cadnum":"4411447400:03:001:0023"},"geometry":{"type":"Polygon","coordinates":[[[39.60346,48.297738],[39.603927,48.297613],[39.603896,48.29754],[39.603357,48.297666],[39.60339015686275,48.297755],[39.60339,48.297755],[39.60339990728509,48.29778117218628],[39.603433,48.29787],[39.603433532388664,48.29787],[39.603577,48.298249],[39.603699,48.298401],[39.603792,48.298494],[39.603949,48.298452],[39.603855,48.298278],[39.60363,48.29797],[39.603507111111035,48.297802777777676],[39.60346,48.297738]]]}},{"type":"Feature","properties":{"cadnum":"4411447400:03:001:0009"},"geometry":{"type":"Polygon","coordinates":[[[39.604022,48.297861],[39.603927,48.297613],[39.60346,48.297738],[39.603472363636364,48.297755],[39.603472,48.297755],[39.603507111111035,48.297802777777676],[39.603556,48.29787],[39.60355651162791,48.29787],[39.60363,48.29797],[39.6039896330275,48.29787],[39.60399,48.29787],[39.604022,48.297861]]]}},{"type":"Feature","properties":{"cadnum":"4411447400:03:001:0028"},"geometry":{"type":"Polygon","coordinates":[[[39.601628,48.297367],[39.601649,48.297358],[39.601641,48.297343],[39.601618,48.297352],[39.601628,48.297367]]]}},{"type":"Feature","properties":{"cadnum":"4411447400:03:001:0024"},"geometry":{"type":"Polygon","coordinates":[[[39.603357,48.297666],[39.603896,48.29754],[39.603837,48.297412],[39.603307,48.297534],[39.603357,48.297666]]]}},{"type":"Feature","properties":{"cadnum":"4411447400:03:001:0010"},"geometry":{"type":"Polygon","coordinates":[[[39.59842,48.298763],[39.598546,48.298601],[39.597697,48.29824],[39.597571,48.298401],[39.59842,48.298763]]]}},{"type":"Feature","properties":{"cadnum":"4411447400:03:001:0011"},"geometry":{"type":"Polygon","coordinates":[[[39.598613,48.298843],[39.598896,48.298747],[39.598852,48.29873],[39.598546,48.298601],[39.59842,48.298763],[39.598613,48.298843]]]}},{"type":"Feature","properties":{"cadnum":"4411447400:03:001:0015"},"geometry":{"type":"Polygon","coordinates":[[[39.598852,48.29873],[39.598991,48.298559],[39.598668,48.298428],[39.598533,48.298595],[39.598852,48.29873]]]}},{"type":"Feature","properties":{"cadnum":"4411447400:03:001:0007"},"geometry":{"type":"Polygon","coordinates":[[[39.599121,48.298614],[39.599359,48.298491],[39.598771,48.298251],[39.598632,48.298413],[39.599121,48.298614]]]}},{"type":"Feature","properties":{"cadnum":"4411447400:03:001:0014"},"geometry":{"type":"Polygon","coordinates":[[[39.598533,48.298595],[39.598668,48.298428],[39.597823,48.298085],[39.597697,48.29824],[39.598533,48.298595]]]}},{"type":"Feature","properties":{"cadnum":"4411447400:03:001:0006"},"geometry":{"type":"Polygon","coordinates":[[[39.598632,48.298413],[39.598771,48.298251],[39.59794,48.297914],[39.5978,48.298076],[39.597823,48.298085],[39.598632,48.298413]]]}},{"type":"Feature","properties":{"cadnum":"4411447400:02:002:0058"},"geometry":{"type":"Polygon","coordinates":[[[39.627207,48.299219],[39.62722,48.299205],[39.627193,48.299196],[39.627184,48.299214],[39.627207,48.299219]]]}},{"type":"Feature","properties":{"cadnum":"4411447400:02:002:0055"},"geometry":{"type":"Polygon","coordinates":[[[39.624799,48.298497],[39.624809,48.298482],[39.624786,48.298475],[39.624777,48.298491],[39.624799,48.298497]]]}},{"type":"Feature","properties":{"cadnum":"4411447400:02:002:0053"},"geometry":{"type":"Polygon","coordinates":[[[39.623331,48.298058],[39.62334,48.298043],[39.623318,48.298034],[39.623308,48.298049],[39.623331,48.298058]]]}},{"type":"Feature","properties":{"cadnum":"4411447400:02:002:0057"},"geometry":{"type":"Polygon","coordinates":[[[39.626425,48.298987],[39.626438,48.298969],[39.626417,48.298962],[39.626403,48.298978],[39.626425,48.298987]]]}},{"type":"Feature","properties":{"cadnum":"4411447400:02:002:0056"},"geometry":{"type":"Polygon","coordinates":[[[39.625576,48.29873],[39.625589,48.298714],[39.625563,48.298709],[39.625555,48.298723],[39.625576,48.29873]]]}},{"type":"Feature","properties":{"cadnum":"4411447400:02:002:0054"},"geometry":{"type":"Polygon","coordinates":[[[39.624023,48.298264],[39.624031,48.298249],[39.62401,48.298243],[39.624,48.298258],[39.624023,48.298264]]]}},{"type":"Feature","properties":{"cadnum":"4411447400:02:002:0052"},"geometry":{"type":"Polygon","coordinates":[[[39.622715,48.297872],[39.622725,48.297857],[39.622702,48.297848],[39.622693,48.297866],[39.622715,48.297872]]]}},{"type":"Feature","properties":{"cadnum":"4411447400:01:002:0074"},"geometry":{"type":"Polygon","coordinates":[[[39.58986,48.309315],[39.590143,48.309273],[39.590196,48.309264],[39.590057,48.30898],[39.58999,48.30884],[39.589877,48.308865],[39.589707,48.308903],[39.589766,48.309055],[39.58986,48.309315]]]}},{"type":"Feature","properties":{"cadnum":"4411447400:01:001:0028"},"geometry":{"type":"Polygon","coordinates":[[[39.591391,48.31057],[39.591414,48.310561],[39.591401,48.310546],[39.591378,48.310555],[39.591391,48.31057]]]}},{"type":"Feature","properties":{"cadnum":"4411447400:01:001:0010"},"geometry":{"type":"Polygon","coordinates":[[[39.591804,48.310388],[39.591822,48.310337],[39.591747,48.310325],[39.591728,48.310376],[39.591804,48.310388]]]}},{"type":"Feature","properties":{"cadnum":"4411447400:01:001:0026"},"geometry":{"type":"Polygon","coordinates":[[[39.592456,48.31031],[39.592456,48.310325],[39.592483,48.310325],[39.592478,48.310307],[39.592456,48.31031]]]}},{"type":"Feature","properties":{"cadnum":"4411447400:01:001:0030"},"geometry":{"type":"Polygon","coordinates":[[[39.590466,48.310958],[39.590506,48.310911],[39.590483,48.310902],[39.590443,48.310949],[39.590466,48.310958]]]}},{"type":"Feature","properties":{"cadnum":"4411447400:01:001:0027"},"geometry":{"type":"Polygon","coordinates":[[[39.591898,48.31034],[39.591904,48.3104],[39.59193,48.3104],[39.591925,48.310355],[39.591975,48.310351],[39.591975,48.310337],[39.591898,48.31034]]]}},{"type":"Feature","properties":{"cadnum":"4411447400:01:001:0023"},"geometry":{"type":"Polygon","coordinates":[[[39.594265,48.310223],[39.594288,48.31022],[39.594288,48.310205],[39.594261,48.310205],[39.594265,48.310223]]]}},{"type":"Feature","properties":{"cadnum":"4411447400:01:001:0029"},"geometry":{"type":"Polygon","coordinates":[[[39.590919,48.310761],[39.590942,48.310752],[39.590929,48.310737],[39.590906,48.310746],[39.590919,48.310761]]]}},{"type":"Feature","properties":{"cadnum":"4411447400:01:001:0031"},"geometry":{"type":"Polygon","coordinates":[[[39.58972,48.310869],[39.589716,48.310887],[39.589743,48.310887],[39.589747,48.310871],[39.58972,48.310869]]]}},{"type":"Feature","properties":{"cadnum":"4411447400:01:001:0025"},"geometry":{"type":"Polygon","coordinates":[[[39.593043,48.310274],[39.593049,48.310292],[39.593072,48.310292],[39.593072,48.310274],[39.593043,48.310274]]]}},{"type":"Feature","properties":{"cadnum":"4411447400:01:001:0024"},"geometry":{"type":"Polygon","coordinates":[[[39.593642,48.31026],[39.593668,48.310256],[39.593664,48.310241],[39.593642,48.310241],[39.593642,48.31026]]]}},{"type":"Feature","properties":{"cadnum":"4411447400:04:002:0005"},"geometry":{"type":"Polygon","coordinates":[[[39.610924,48.276249],[39.610961,48.276216],[39.610943,48.276207],[39.610907,48.27624],[39.610924,48.276249]]]}},{"type":"Feature","properties":{"cadnum":"4411447400:05:002:0025"},"geometry":{"type":"Polygon","coordinates":[[[39.611747,48.27082],[39.611859,48.270387],[39.611464,48.270342],[39.611329,48.270775],[39.611747,48.27082]]]}},{"type":"Feature","properties":{"cadnum":"4411447400:04:001:0021"},"geometry":{"type":"Polygon","coordinates":[[[39.58403,48.279893],[39.584051,48.279887],[39.584021,48.279833],[39.583998,48.279839],[39.58403,48.279893]]]}},{"type":"Feature","properties":{"cadnum":"4411447400:04:001:0020"},"geometry":{"type":"Polygon","coordinates":[[[39.584717,48.27971],[39.584739,48.279704],[39.584734,48.27969],[39.584707,48.279695],[39.584717,48.27971]]]}},{"type":"Feature","properties":{"cadnum":"4411447400:01:001:0016"},"geometry":{"type":"Polygon","coordinates":[[[39.59781,48.308989],[39.597833,48.308933],[39.597806,48.30893],[39.597783,48.308987],[39.59781,48.308989]]]}},{"type":"Feature","properties":{"cadnum":"4411447400:01:001:0020"},"geometry":{"type":"Polygon","coordinates":[[[39.596125,48.310101],[39.596125,48.310116],[39.596152,48.310116],[39.596152,48.310098],[39.596125,48.310101]]]}},{"type":"Feature","properties":{"cadnum":"4411447400:01:001:0017"},"geometry":{"type":"Polygon","coordinates":[[[39.597544,48.309662],[39.597554,48.309644],[39.597527,48.309641],[39.597523,48.309656],[39.597544,48.309662]]]}},{"type":"Feature","properties":{"cadnum":"4411447400:01:001:0019"},"geometry":{"type":"Polygon","coordinates":[[[39.596722,48.310065],[39.596722,48.310083],[39.596749,48.310083],[39.596745,48.310065],[39.596722,48.310065]]]}},{"type":"Feature","properties":{"cadnum":"4411447400:01:001:0021"},"geometry":{"type":"Polygon","coordinates":[[[39.595416,48.310158],[39.595439,48.310154],[39.595439,48.31014],[39.595411,48.31014],[39.595416,48.310158]]]}},{"type":"Feature","properties":{"cadnum":"4411447400:01:001:0022"},"geometry":{"type":"Polygon","coordinates":[[[39.594827,48.310172],[39.594827,48.310191],[39.594854,48.310191],[39.59485,48.310172],[39.594827,48.310172]]]}},{"type":"Feature","properties":{"cadnum":"4411447400:01:001:0018"},"geometry":{"type":"Polygon","coordinates":[[[39.597343,48.31008],[39.597405,48.310035],[39.597338,48.309996],[39.597324,48.310008],[39.59737,48.310038],[39.597324,48.310068],[39.597343,48.31008]]]}},{"type":"Feature","properties":{"cadnum":"4411447400:02:002:0012"},"geometry":{"type":"Polygon","coordinates":[[[39.616785,48.30640836743215],[39.617092,48.306459],[39.617123,48.306253],[39.61677739560289,48.30619675457851],[39.616266,48.306113],[39.616224,48.306316],[39.616785,48.306409],[39.616785,48.30640836743215]]]}},{"type":"Feature","properties":{"cadnum":"4411447400:02:001:0015"},"geometry":{"type":"Polygon","coordinates":[[[39.615169,48.306587],[39.615178,48.306403],[39.614519,48.306349],[39.6145,48.306537],[39.615169,48.306587]]]}},{"type":"Feature","properties":{"cadnum":"4411447400:02:001:0045"},"geometry":{"type":"Polygon","coordinates":[[[39.615178,48.306403],[39.615192,48.306214],[39.615205,48.30602],[39.615048,48.306011],[39.614995,48.306387],[39.615178,48.306403]]]}},{"type":"Feature","properties":{"cadnum":"4411447400:02:001:0044"},"geometry":{"type":"Polygon","coordinates":[[[39.614995,48.306387],[39.615048,48.306011],[39.614549,48.305978],[39.614545,48.30611],[39.61454,48.306142],[39.614519,48.306349],[39.614995,48.306387]]]}},{"type":"Feature","properties":{"cadnum":"4411447400:05:001:0016"},"geometry":{"type":"Polygon","coordinates":[[[39.589148,48.259551621193665],[39.589148,48.259552],[39.590718,48.259407],[39.591552,48.260241],[39.590718,48.261076],[39.591552,48.261076],[39.59211,48.259964],[39.591275,48.259407],[39.58933,48.259129],[39.589148,48.259149],[39.589148,48.259149285546414],[39.588468,48.259222],[39.588498,48.259611],[39.589148,48.259551621193665]]]}},{"type":"Feature","properties":{"cadnum":"4411447400:04:001:0030"},"geometry":{"type":"Polygon","coordinates":[[[39.59525,48.278482],[39.595276,48.278479],[39.595272,48.278461],[39.59525,48.278464],[39.59525,48.278482]]]}},{"type":"Feature","properties":{"cadnum":"4411447400:04:001:0049"},"geometry":{"type":"Polygon","coordinates":[[[39.59732,48.277675],[39.59732,48.27766],[39.597297,48.277657],[39.597293,48.277675],[39.59732,48.277675]]]}},{"type":"Feature","properties":{"cadnum":"4411447400:04:001:0005"},"geometry":{"type":"Polygon","coordinates":[[[39.594812,48.277725494318176],[39.594993,48.27778],[39.595259,48.277495],[39.595313,48.277316],[39.594706,48.277095],[39.59445,48.277289],[39.594284,48.277568],[39.594617,48.277666],[39.594641,48.27767338461539],[39.594641,48.277674],[39.59473486666585,48.27770226666642],[39.594812,48.277726],[39.594812,48.277725494318176]]]}},{"type":"Feature","properties":{"cadnum":"4411447400:04:001:0029"},"geometry":{"type":"Polygon","coordinates":[[[39.595177,48.278147],[39.5952,48.278144],[39.595196,48.278129],[39.595173,48.278132],[39.595177,48.278147]]]}},{"type":"Feature","properties":{"cadnum":"4411447400:04:001:0031"},"geometry":{"type":"Polygon","coordinates":[[[39.595343,48.278769],[39.595339,48.278751],[39.595313,48.278754],[39.595317,48.278769],[39.595343,48.278769]]]}},{"type":"Feature","properties":{"cadnum":"4411447400:04:001:0050"},"geometry":{"type":"Polygon","coordinates":[[[39.597971,48.277692],[39.597971,48.277675],[39.597949,48.277675],[39.597949,48.277692],[39.597971,48.277692]]]}},{"type":"Feature","properties":{"cadnum":"4411447400:04:001:0045"},"geometry":{"type":"Polygon","coordinates":[[[39.596018,48.277337],[39.596022,48.277319],[39.595995,48.277316],[39.59599,48.277334],[39.596018,48.277337]]]}},{"type":"Feature","properties":{"cadnum":"4411447400:04:001:0052"},"geometry":{"type":"Polygon","coordinates":[[[39.598982,48.27772],[39.598982,48.277701],[39.598919,48.277701],[39.598919,48.27772],[39.598982,48.27772]]]}},{"type":"Feature","properties":{"cadnum":"4411447400:05:001:0013"},"geometry":{"type":"Polygon","coordinates":[[[39.595389,48.276895],[39.595443,48.276844],[39.595393,48.27682],[39.595339,48.276868],[39.595389,48.276895]]]}},{"type":"Feature","properties":{"cadnum":"4411447400:04:001:0028"},"geometry":{"type":"Polygon","coordinates":[[[39.595101,48.277827],[39.595128,48.277825],[39.59512,48.277776],[39.59503,48.277783],[39.595034,48.2778],[39.595097,48.277794],[39.595101,48.277827]]]}},{"type":"Feature","properties":{"cadnum":"4411447400:04:001:0032"},"geometry":{"type":"Polygon","coordinates":[[[39.595407,48.279172],[39.595433,48.27917],[39.595429,48.279154],[39.595402,48.279157],[39.595407,48.279172]]]}},{"type":"Feature","properties":{"cadnum":"4411447400:04:001:0048"},"geometry":{"type":"Polygon","coordinates":[[[39.596727,48.27766],[39.596727,48.277642],[39.596705,48.277642],[39.596705,48.27766],[39.596727,48.27766]]]}},{"type":"Feature","properties":{"cadnum":"4411447400:04:001:0047"},"geometry":{"type":"Polygon","coordinates":[[[39.598999,48.27769],[39.599005,48.277741],[39.599085,48.277741],[39.599081,48.277687],[39.598999,48.27769]]]}},{"type":"Feature","properties":{"cadnum":"4411447400:04:001:0051"},"geometry":{"type":"Polygon","coordinates":[[[39.598403,48.277705],[39.598403,48.277687],[39.59838,48.277687],[39.59838,48.277705],[39.598403,48.277705]]]}},{"type":"Feature","properties":{"cadnum":"4411447400:04:001:0053"},"geometry":{"type":"Polygon","coordinates":[[[39.59502,48.277205],[39.595079,48.277155],[39.59503,48.277131],[39.594976,48.277178],[39.59502,48.277205]]]}},{"type":"Feature","properties":{"cadnum":"4411447400:04:001:0046"},"geometry":{"type":"Polygon","coordinates":[[[39.596129,48.277056],[39.596135,48.277041],[39.596112,48.277036],[39.596103,48.277053],[39.596129,48.277056]]]}},{"type":"Feature","properties":{"cadnum":"4411447400:04:001:0043"},"geometry":{"type":"Polygon","coordinates":[[[39.59524,48.277594],[39.59524,48.277579],[39.595217,48.277576],[39.595213,48.277594],[39.59524,48.277594]]]}},{"type":"Feature","properties":{"cadnum":"4411447400:04:001:0044"},"geometry":{"type":"Polygon","coordinates":[[[39.5959,48.277639],[39.595923,48.277579],[39.595896,48.277576],[39.595879,48.277636],[39.5959,48.277639]]]}},{"type":"Feature","properties":{"cadnum":"4411447400:05:001:0007"},"geometry":{"type":"Polygon","coordinates":[[[39.596265,48.276629],[39.596269,48.276613],[39.596242,48.276611],[39.596238,48.276626],[39.596265,48.276629]]]}},{"type":"Feature","properties":{"cadnum":"4411447400:05:001:0005"},"geometry":{"type":"Polygon","coordinates":[[[39.596579,48.276154],[39.596601,48.276145],[39.596571,48.276108],[39.596548,48.276117],[39.596579,48.276154]]]}},{"type":"Feature","properties":{"cadnum":"4411447400:05:001:0006"},"geometry":{"type":"Polygon","coordinates":[[[39.595797,48.276539],[39.595883,48.276488],[39.595842,48.276455],[39.595753,48.276506],[39.595797,48.276539]]]}},{"type":"Feature","properties":{"cadnum":"4411447400:05:001:0008"},"geometry":{"type":"Polygon","coordinates":[[[39.596359,48.27633],[39.596363,48.276312],[39.596336,48.276309],[39.596332,48.276323],[39.596359,48.27633]]]}},{"type":"Feature","properties":{"cadnum":"4411447400:05:001:0009"},"geometry":{"type":"Polygon","coordinates":[[[39.596449,48.27604],[39.596453,48.276022],[39.596431,48.276019],[39.596422,48.276034],[39.596449,48.27604]]]}},{"type":"Feature","properties":{"cadnum":"4411447400:02:001:0016"},"geometry":{"type":"Polygon","coordinates":[[[39.593349,48.305586],[39.593512,48.305572],[39.593538,48.305575],[39.593996,48.305494],[39.593898,48.305261],[39.593762,48.305291],[39.593735,48.30521],[39.593525,48.30527],[39.593349,48.305303],[39.593349,48.305586]]]}},{"type":"Feature","properties":{"cadnum":"4411447400:01:002:0068"},"geometry":{"type":"Polygon","coordinates":[[[39.592433,48.306459],[39.593223,48.30633],[39.59321,48.306199],[39.593202,48.306137],[39.593125,48.306139],[39.592946,48.306155],[39.592927,48.306172],[39.592366,48.306259],[39.592401,48.30637],[39.592433,48.306459]]]}},{"type":"Feature","properties":{"cadnum":"4411447400:01:002:0069"},"geometry":{"type":"Polygon","coordinates":[[[39.591831,48.306444],[39.592105,48.306405],[39.592334,48.306378],[39.592244,48.306097],[39.591741,48.306172],[39.591831,48.306444]]]}},{"type":"Feature","properties":{"cadnum":"4411447400:04:001:0012"},"geometry":{"type":"Polygon","coordinates":[[[39.590097,48.278455],[39.59012,48.278449],[39.59011,48.278434],[39.590089,48.27844],[39.590097,48.278455]]]}},{"type":"Feature","properties":{"cadnum":"4411447400:04:001:0009"},"geometry":{"type":"Polygon","coordinates":[[[39.592317,48.278213],[39.592311,48.278195],[39.592284,48.278195],[39.59229,48.278213],[39.592317,48.278213]]]}},{"type":"Feature","properties":{"cadnum":"4411447400:04:001:0010"},"geometry":{"type":"Polygon","coordinates":[[[39.591584,48.278249],[39.591607,48.278246],[39.591607,48.278231],[39.59158,48.278231],[39.591584,48.278249]]]}},{"type":"Feature","properties":{"cadnum":"4411447400:04:001:0008"},"geometry":{"type":"Polygon","coordinates":[[[39.593022,48.278177],[39.593022,48.278159],[39.592995,48.278162],[39.592999,48.278177],[39.593022,48.278177]]]}},{"type":"Feature","properties":{"cadnum":"4411447400:04:001:0011"},"geometry":{"type":"Polygon","coordinates":[[[39.590825,48.278315],[39.590852,48.278312],[39.590843,48.278282],[39.590866,48.278279],[39.590861,48.278264],[39.590785,48.278273],[39.590789,48.27829],[39.590816,48.278285],[39.590825,48.278315]]]}},{"type":"Feature","properties":{"cadnum":"4411447400:04:001:0013"},"geometry":{"type":"Polygon","coordinates":[[[39.589334,48.278631],[39.589361,48.278625],[39.589351,48.278611],[39.589325,48.278616],[39.589334,48.278631]]]}},{"type":"Feature","properties":{"cadnum":"4411447400:04:001:0006"},"geometry":{"type":"Polygon","coordinates":[[[39.594194,48.277851],[39.594212,48.27784],[39.594194,48.277827],[39.594175,48.27784],[39.594194,48.277851]]]}},{"type":"Feature","properties":{"cadnum":"4411447400:04:001:0007"},"geometry":{"type":"Polygon","coordinates":[[[39.593718,48.278153],[39.593789,48.278129],[39.593781,48.278111],[39.593754,48.27812],[39.593735,48.278097],[39.593713,48.278106],[39.593731,48.278129],[39.593705,48.278138],[39.593718,48.278153]]]}},{"type":"Feature","properties":{"cadnum":"4411447400:04:002:0002"},"geometry":{"type":"Polygon","coordinates":[[[39.613127,48.27737],[39.613161,48.277337],[39.613144,48.277328],[39.613108,48.277361],[39.613127,48.27737]]]}},{"type":"Feature","properties":{"cadnum":"4411447400:04:002:0004"},"geometry":{"type":"Polygon","coordinates":[[[39.611662,48.276626],[39.611702,48.276593],[39.611679,48.276584],[39.611643,48.276613],[39.611662,48.276626]]]}},{"type":"Feature","properties":{"cadnum":"4411447400:04:002:0003"},"geometry":{"type":"Polygon","coordinates":[[[39.612385,48.276994],[39.612421,48.276961],[39.612398,48.276948],[39.612362,48.276981],[39.612385,48.276994]]]}},{"type":"Feature","properties":{"cadnum":"4411447400:04:002:0001"},"geometry":{"type":"Polygon","coordinates":[[[39.61388,48.277752],[39.613916,48.27772],[39.613894,48.27771],[39.613857,48.277743],[39.61388,48.277752]]]}},{"type":"Feature","properties":{"cadnum":"4411447400:02:002:0044"},"geometry":{"type":"Polygon","coordinates":[[[39.630549,48.300122],[39.630558,48.300104],[39.630531,48.300101],[39.630522,48.30012],[39.630549,48.300122]]]}},{"type":"Feature","properties":{"cadnum":"4411447400:02:002:0045"},"geometry":{"type":"Polygon","coordinates":[[[39.630117,48.301219],[39.630122,48.301201],[39.630096,48.301195],[39.630086,48.301212],[39.630117,48.301219]]]}},{"type":"Feature","properties":{"cadnum":"4411447400:02:002:0043"},"geometry":{"type":"Polygon","coordinates":[[[39.631052,48.298864],[39.631056,48.298846],[39.631029,48.29884],[39.631021,48.298858],[39.631052,48.298864]]]}},{"type":"Feature","properties":{"cadnum":"4411447400:02:002:0032"},"geometry":{"type":"Polygon","coordinates":[[[39.627899,48.299509],[39.627912,48.299504],[39.627922,48.299504],[39.627939,48.299495],[39.627956,48.299476],[39.62793,48.29945],[39.627899,48.299456],[39.627876,48.299465],[39.627876,48.299467],[39.627863,48.299476],[39.627899,48.299509]]]}},{"type":"Feature","properties":{"cadnum":"4411447400:02:002:0059"},"geometry":{"type":"Polygon","coordinates":[[[39.627993,48.299453],[39.628002,48.299438],[39.627935,48.29942],[39.627922,48.299435],[39.627993,48.299453]]]}},{"type":"Feature","properties":{"cadnum":"4411447400:02:002:0035"},"geometry":{"type":"Polygon","coordinates":[[[39.631748,48.298204],[39.631761,48.298165],[39.631703,48.298153],[39.631685,48.298195],[39.631748,48.298204]]]}},{"type":"Feature","properties":{"cadnum":"4411447400:02:002:0036"},"geometry":{"type":"Polygon","coordinates":[[[39.631034,48.300003],[39.631052,48.299963],[39.630989,48.299952],[39.630975,48.299994],[39.631034,48.300003]]]}},{"type":"Feature","properties":{"cadnum":"4411447400:02:002:0034"},"geometry":{"type":"Polygon","coordinates":[[[39.632457,48.296405],[39.632476,48.296366],[39.632413,48.296355],[39.6324,48.296396],[39.632457,48.296405]]]}},{"type":"Feature","properties":{"cadnum":"4411447400:02:002:0040"},"geometry":{"type":"Polygon","coordinates":[[[39.632547,48.295084],[39.632556,48.295066],[39.63253,48.29506],[39.63252,48.295078],[39.632547,48.295084]]]}},{"type":"Feature","properties":{"cadnum":"4411447400:02:002:0041"},"geometry":{"type":"Polygon","coordinates":[[[39.63205,48.296342],[39.632058,48.296324],[39.632031,48.296322],[39.632021,48.296339],[39.63205,48.296342]]]}},{"type":"Feature","properties":{"cadnum":"4411447400:02:002:0042"},"geometry":{"type":"Polygon","coordinates":[[[39.631551,48.297604],[39.631555,48.297585],[39.631528,48.29758],[39.631524,48.297597],[39.631551,48.297604]]]}},{"type":"Feature","properties":{"cadnum":"4411447400:01:002:0010"},"geometry":{"type":"Polygon","coordinates":[[[39.610517,48.301404],[39.61049,48.301318],[39.610458,48.301237],[39.610354,48.300959],[39.609991,48.301015],[39.610008,48.301066],[39.610045,48.301219],[39.610071,48.301296],[39.610085,48.301327],[39.61011177419355,48.30141],[39.61011,48.30141],[39.610135,48.301482],[39.61049,48.30141],[39.61048761538462,48.30141],[39.610517,48.301404]]]}},{"type":"Feature","properties":{"cadnum":"4411447400:01:002:0016"},"geometry":{"type":"Polygon","coordinates":[[[39.606469,48.302328],[39.606779,48.302253],[39.606505,48.30175],[39.606177,48.301832],[39.606469,48.302328]]]}},{"type":"Feature","properties":{"cadnum":"4411447400:01:002:0013"},"geometry":{"type":"Polygon","coordinates":[[[39.608427,48.301347],[39.60814,48.301404],[39.6081423,48.30141],[39.608142,48.30141],[39.608154374999955,48.301441499999875],[39.608186,48.301524],[39.60818678571429,48.301524],[39.608351,48.301942],[39.608612,48.301897],[39.60848562422998,48.301524],[39.608486,48.301524],[39.608427,48.301347]]]}},{"type":"Feature","properties":{"cadnum":"4411447400:01:002:0011"},"geometry":{"type":"Polygon","coordinates":[[[39.60814,48.301404],[39.607871,48.301469],[39.607891,48.301524],[39.60789156261343,48.301524],[39.608077,48.30202],[39.608351,48.301942],[39.608154374999955,48.301441499999875],[39.60814,48.301404]]]}},{"type":"Feature","properties":{"cadnum":"4411447400:01:002:0017"},"geometry":{"type":"Polygon","coordinates":[[[39.607008,48.302288],[39.607282,48.302237],[39.607045,48.301652],[39.606739,48.301708],[39.607008,48.302288]]]}},{"type":"Feature","properties":{"cadnum":"4411447400:01:002:0018"},"geometry":{"type":"Polygon","coordinates":[[[39.607018,48.302309],[39.607291,48.302259],[39.607282,48.302237],[39.607008,48.302288],[39.607018,48.302309]]]}},{"type":"Feature","properties":{"cadnum":"4411447400:01:002:0054"},"geometry":{"type":"Polygon","coordinates":[[[39.600181,48.302952],[39.600186,48.302937],[39.600163,48.302931],[39.600154,48.302948],[39.600181,48.302952]]]}},{"type":"Feature","properties":{"cadnum":"4411447400:01:002:0059"},"geometry":{"type":"Polygon","coordinates":[[[39.599408,48.304921],[39.599414,48.304903],[39.599391,48.304899],[39.599382,48.304915],[39.599408,48.304921]]]}},{"type":"Feature","properties":{"cadnum":"4411447400:01:002:0057"},"geometry":{"type":"Polygon","coordinates":[[[39.599718,48.304129],[39.599724,48.304114],[39.599701,48.304108],[39.599691,48.304126],[39.599718,48.304129]]]}},{"type":"Feature","properties":{"cadnum":"4411447400:01:002:0058"},"geometry":{"type":"Polygon","coordinates":[[[39.599561,48.304523],[39.599571,48.304508],[39.599544,48.304503],[39.599538,48.30452],[39.599561,48.304523]]]}},{"type":"Feature","properties":{"cadnum":"4411447400:01:002:0055"},"geometry":{"type":"Polygon","coordinates":[[[39.600015,48.303373],[39.60002,48.303358],[39.599997,48.303355],[39.599988,48.30337],[39.600015,48.303373]]]}},{"type":"Feature","properties":{"cadnum":"4411447400:01:002:0056"},"geometry":{"type":"Polygon","coordinates":[[[39.599875,48.303734],[39.59988,48.303717],[39.599858,48.303714],[39.599848,48.303728],[39.599875,48.303734]]]}},{"type":"Feature","properties":{"cadnum":"4411447400:03:001:0041"},"geometry":{"type":"Polygon","coordinates":[[[39.606106,48.300603],[39.606123,48.300592],[39.60611,48.300579],[39.606087,48.300588],[39.606106,48.300603]]]}},{"type":"Feature","properties":{"cadnum":"4411447400:03:002:0048"},"geometry":{"type":"Polygon","coordinates":[[[39.609842,48.299904],[39.610148,48.29983],[39.609986,48.299518],[39.609892,48.299316],[39.609565,48.299393],[39.609784,48.299806],[39.609842,48.299904]]]}},{"type":"Feature","properties":{"cadnum":"4411447400:03:002:0024"},"geometry":{"type":"Polygon","coordinates":[[[39.610727,48.30072],[39.610983,48.30066],[39.610844,48.300426],[39.61058,48.300486],[39.610727,48.30072]]]}},{"type":"Feature","properties":{"cadnum":"4411447400:03:002:0026"},"geometry":{"type":"Polygon","coordinates":[[[39.610763,48.299202],[39.611127,48.299121],[39.611091,48.299037],[39.610727,48.299119],[39.610745,48.29916],[39.610763,48.299202]]]}},{"type":"Feature","properties":{"cadnum":"4411447400:03:002:0023"},"geometry":{"type":"Polygon","coordinates":[[[39.61058,48.300486],[39.610844,48.300426],[39.610718,48.300211],[39.610511,48.299862],[39.610247,48.299922],[39.610274,48.299981],[39.610224,48.299994],[39.610261,48.30006],[39.610297,48.30005],[39.610301,48.30006],[39.61058,48.300486]]]}},{"type":"Feature","properties":{"cadnum":"4411447400:03:001:0042"},"geometry":{"type":"Polygon","coordinates":[[[39.606756,48.300253],[39.606775,48.300242],[39.606762,48.300229],[39.606739,48.300238],[39.606756,48.300253]]]}},{"type":"Feature","properties":{"cadnum":"4411447400:03:002:0049"},"geometry":{"type":"Polygon","coordinates":[[[39.609565,48.299393],[39.609892,48.299316],[39.609829,48.299181],[39.609811,48.299178],[39.609775,48.299136],[39.609712,48.299133],[39.609456,48.299196],[39.609538,48.299343],[39.609565,48.299393]]]}},{"type":"Feature","properties":{"cadnum":"4411447400:03:002:0051"},"geometry":{"type":"Polygon","coordinates":[[[39.60889,48.299367],[39.608917,48.29936],[39.608909,48.299343],[39.608886,48.299348],[39.60889,48.299367]]]}},{"type":"Feature","properties":{"cadnum":"4411447400:03:001:0044"},"geometry":{"type":"Polygon","coordinates":[[[39.608077,48.299575],[39.6081,48.299566],[39.608068,48.299531],[39.608046,48.299536],[39.608077,48.299575]]]}},{"type":"Feature","properties":{"cadnum":"4411447400:03:002:0018"},"geometry":{"type":"Polygon","coordinates":[[[39.609565,48.29997],[39.609842,48.299904],[39.609784,48.299806],[39.609538,48.299343],[39.609236,48.299417],[39.609565,48.29997]]]}},{"type":"Feature","properties":{"cadnum":"4411447400:03:002:0016"},"geometry":{"type":"Polygon","coordinates":[[[39.610498,48.299755],[39.61097,48.299659],[39.610844,48.299411],[39.610804,48.299307],[39.610328,48.29939],[39.610431,48.299596],[39.610498,48.299755]]]}},{"type":"Feature","properties":{"cadnum":"4411447400:03:001:0043"},"geometry":{"type":"Polygon","coordinates":[[[39.607408,48.299904],[39.607425,48.299895],[39.607408,48.29988],[39.607391,48.299892],[39.607408,48.299904]]]}},{"type":"Feature","properties":{"cadnum":"4411447400:03:002:0052"},"geometry":{"type":"Polygon","coordinates":[[[39.609806,48.299148],[39.609834,48.299142],[39.609825,48.299128],[39.609798,48.299133],[39.609806,48.299148]]]}},{"type":"Feature","properties":{"cadnum":"4411447400:03:002:0022"},"geometry":{"type":"Polygon","coordinates":[[[39.609779,48.300941],[39.610071,48.300869],[39.609725,48.300319],[39.609452,48.300391],[39.609538,48.300546],[39.609779,48.300941]]]}},{"type":"Feature","properties":{"cadnum":"4411447400:03:002:0015"},"geometry":{"type":"Polygon","coordinates":[[[39.610718,48.300211],[39.611123,48.300134],[39.610961,48.299775],[39.610511,48.299862],[39.610718,48.300211]]]}},{"type":"Feature","properties":{"cadnum":"4411447400:03:002:0053"},"geometry":{"type":"Polygon","coordinates":[[[39.610521,48.299002],[39.610548,48.298995],[39.610538,48.29898],[39.610511,48.298987],[39.610521,48.299002]]]}},{"type":"Feature","properties":{"cadnum":"4411447400:03:002:0017"},"geometry":{"type":"Polygon","coordinates":[[[39.610328,48.29939],[39.610804,48.299307],[39.610745,48.29916],[39.610255,48.299241],[39.610328,48.29939]]]}},{"type":"Feature","properties":{"cadnum":"4411447400:03:002:0012"},"geometry":{"type":"Polygon","coordinates":[[[39.617069,48.297427],[39.617142,48.297409],[39.617065,48.297281],[39.617029,48.297203],[39.617033,48.297179],[39.616912,48.296934],[39.616832,48.296946],[39.616886,48.297057],[39.617069,48.297427]]]}},{"type":"Feature","properties":{"cadnum":"4411447400:03:002:0009"},"geometry":{"type":"Polygon","coordinates":[[[39.619733,48.296794],[39.619778,48.296778],[39.619765,48.296758],[39.61971,48.296671],[39.619662,48.296686],[39.619719,48.296772],[39.619733,48.296794]]]}},{"type":"Feature","properties":{"cadnum":"4411447400:03:002:0013"},"geometry":{"type":"Polygon","coordinates":[[[39.620169,48.296662],[39.620254,48.296653],[39.620654,48.296539],[39.620546,48.2963],[39.620331,48.296348],[39.620272,48.296231],[39.619958,48.2963],[39.620048,48.29648],[39.620102,48.296537],[39.620169,48.296662]]]}},{"type":"Feature","properties":{"cadnum":"4411447400:03:002:0072"},"geometry":{"type":"Polygon","coordinates":[[[39.621386,48.297753],[39.621408,48.297746],[39.621404,48.297732],[39.621377,48.297735],[39.621386,48.297753]]]}},{"type":"Feature","properties":{"cadnum":"4411447400:03:002:0073"},"geometry":{"type":"Polygon","coordinates":[[[39.621911,48.297654],[39.621979,48.297642],[39.621974,48.297627],[39.621903,48.297639],[39.621911,48.297654]]]}},{"type":"Feature","properties":{"cadnum":"4411447400:02:002:0050"},"geometry":{"type":"Polygon","coordinates":[[[39.621947,48.29781],[39.62196,48.297768],[39.621939,48.297764],[39.621926,48.297806],[39.621947,48.29781]]]}},{"type":"Feature","properties":{"cadnum":"4411447400:03:002:0014"},"geometry":{"type":"Polygon","coordinates":[[[39.620331,48.296348],[39.620546,48.2963],[39.620259,48.295667],[39.619719,48.295813],[39.619958,48.2963],[39.620272,48.296231],[39.620331,48.296348]]]}},{"type":"Feature","properties":{"cadnum":"4411447400:02:002:0049"},"geometry":{"type":"Polygon","coordinates":[[[39.628096,48.30631],[39.628105,48.306292],[39.628074,48.306286],[39.628069,48.306304],[39.628096,48.30631]]]}},{"type":"Feature","properties":{"cadnum":"4411447400:02:002:0039"},"geometry":{"type":"Polygon","coordinates":[[[39.628635,48.306068],[39.628654,48.306026],[39.628591,48.306017],[39.628577,48.306056],[39.628635,48.306068]]]}},{"type":"Feature","properties":{"cadnum":"4411447400:02:002:0038"},"geometry":{"type":"Polygon","coordinates":[[[39.629467,48.303971],[39.62948,48.303929],[39.629421,48.30392],[39.629404,48.303958],[39.629467,48.303971]]]}},{"type":"Feature","properties":{"cadnum":"4411447400:02:002:0048"},"geometry":{"type":"Polygon","coordinates":[[[39.628585,48.305079],[39.628591,48.305061],[39.628564,48.305055],[39.628559,48.305073],[39.628585,48.305079]]]}},{"type":"Feature","properties":{"cadnum":"4411447400:02:002:0047"},"geometry":{"type":"Polygon","coordinates":[[[39.629071,48.303848],[39.62908,48.30383],[39.629053,48.303824],[39.629044,48.303845],[39.629071,48.303848]]]}},{"type":"Feature","properties":{"cadnum":"4411447400:02:002:0046"},"geometry":{"type":"Polygon","coordinates":[[[39.629682,48.302312],[39.629686,48.302295],[39.62966,48.302291],[39.629654,48.302309],[39.629682,48.302312]]]}},{"type":"Feature","properties":{"cadnum":"4411447400:02:002:0037"},"geometry":{"type":"Polygon","coordinates":[[[39.630248,48.301987],[39.630266,48.301945],[39.630207,48.301936],[39.630189,48.301974],[39.630248,48.301987]]]}},{"type":"Feature","properties":{"cadnum":"4411447400:01:001:0014"},"geometry":{"type":"Polygon","coordinates":[[[39.598106,48.30823],[39.59811,48.308216],[39.598089,48.30821],[39.598079,48.308228],[39.598106,48.30823]]]}},{"type":"Feature","properties":{"cadnum":"4411447400:01:002:0060"},"geometry":{"type":"Polygon","coordinates":[[[39.599215,48.305408],[39.599225,48.305389],[39.599198,48.305387],[39.599192,48.305402],[39.599215,48.305408]]]}},{"type":"Feature","properties":{"cadnum":"4411447400:01:002:0063"},"geometry":{"type":"Polygon","coordinates":[[[39.598609,48.306949],[39.598618,48.306932],[39.598592,48.306928],[39.598586,48.306946],[39.598609,48.306949]]]}},{"type":"Feature","properties":{"cadnum":"4411447400:01:002:0061"},"geometry":{"type":"Polygon","coordinates":[[[39.599026,48.305894],[39.599032,48.305876],[39.599009,48.305874],[39.598999,48.305889],[39.599026,48.305894]]]}},{"type":"Feature","properties":{"cadnum":"4411447400:01:002:0062"},"geometry":{"type":"Polygon","coordinates":[[[39.598829,48.306396],[39.598833,48.306378],[39.598812,48.306376],[39.598802,48.30639],[39.598829,48.306396]]]}},{"type":"Feature","properties":{"cadnum":"4411447400:01:002:0065"},"geometry":{"type":"Polygon","coordinates":[[[39.598254,48.307849],[39.598263,48.307833],[39.598236,48.307827],[39.598232,48.307845],[39.598254,48.307849]]]}},{"type":"Feature","properties":{"cadnum":"4411447400:01:002:0064"},"geometry":{"type":"Polygon","coordinates":[[[39.598433,48.3074],[39.598439,48.307382],[39.598416,48.307379],[39.598407,48.307394],[39.598433,48.3074]]]}},{"type":"Feature","properties":{"cadnum":"4411447400:01:001:0015"},"geometry":{"type":"Polygon","coordinates":[[[39.597957,48.30861],[39.597963,48.308595],[39.59794,48.308589],[39.59793,48.308607],[39.597957,48.30861]]]}},{"type":"Feature","properties":{"cadnum":"4411447400:02:001:0008"},"geometry":{"type":"Polygon","coordinates":[[[39.61658,48.303429],[39.616616,48.303256],[39.615727,48.303212],[39.615695,48.303385],[39.61632,48.303394],[39.61658,48.303429]]]}},{"type":"Feature","properties":{"cadnum":"4411447400:02:001:0011"},"geometry":{"type":"Polygon","coordinates":[[[39.615727,48.303212],[39.615762,48.303008],[39.614922,48.302957],[39.614913,48.303137],[39.615125,48.303143],[39.615255,48.303158],[39.615295,48.303167],[39.615727,48.303212]]]}},{"type":"Feature","properties":{"cadnum":"4411447400:02:001:0014"},"geometry":{"type":"Polygon","coordinates":[[[39.615794,48.302596],[39.615807,48.302399],[39.615354,48.302378],[39.615232,48.302414],[39.615148,48.302423],[39.614985,48.302423],[39.614945,48.302414],[39.614941,48.302566],[39.615331,48.302576],[39.615794,48.302596]]]}},{"type":"Feature","properties":{"cadnum":"4411447400:01:002:0019"},"geometry":{"type":"Polygon","coordinates":[[[39.614739,48.302751],[39.614743,48.302539],[39.613886,48.302479],[39.61388,48.302692],[39.614739,48.302751]]]}},{"type":"Feature","properties":{"cadnum":"4411447400:01:002:0020"},"geometry":{"type":"Polygon","coordinates":[[[39.61388,48.302692],[39.613886,48.302479],[39.613746,48.30247],[39.613664,48.302676],[39.61388,48.302692]]]}},{"type":"Feature","properties":{"cadnum":"4411447400:02:001:0012"},"geometry":{"type":"Polygon","coordinates":[[[39.614972,48.302005],[39.615354,48.301987],[39.615484,48.301983],[39.615479,48.301739],[39.614968,48.301775],[39.614972,48.302005]]]}},{"type":"Feature","properties":{"cadnum":"4411447400:02:001:0009"},"geometry":{"type":"Polygon","coordinates":[[[39.615457,48.302246],[39.615471,48.301998],[39.615341,48.302001],[39.614958,48.302023],[39.614949,48.302244],[39.615008,48.302246],[39.615457,48.302246]]]}},{"type":"Feature","properties":{"cadnum":"4411447400:02:001:0034"},"geometry":{"type":"Polygon","coordinates":[[[39.615695,48.303385],[39.615727,48.303212],[39.615295,48.303167],[39.615255,48.303158],[39.615125,48.303143],[39.614913,48.303137],[39.614895,48.303331],[39.615695,48.303385]]]}},{"type":"Feature","properties":{"cadnum":"4411447400:02:001:0020"},"geometry":{"type":"Polygon","coordinates":[[[39.615098,48.304204],[39.615591,48.3042],[39.615597,48.304177],[39.615618,48.304],[39.615376,48.303989],[39.614873,48.30398],[39.614859,48.304197],[39.614928,48.304195],[39.615098,48.304204]]]}},{"type":"Feature","properties":{"cadnum":"4411447400:02:001:0003"},"geometry":{"type":"Polygon","coordinates":[[[39.61579,48.302787],[39.615807,48.302587],[39.615376,48.302576],[39.614945,48.302572],[39.614941,48.302767],[39.615591,48.302778],[39.61579,48.302787]]]}},{"type":"Feature","properties":{"cadnum":"4411447400:02:001:0013"},"geometry":{"type":"Polygon","coordinates":[[[39.615484,48.301983],[39.615834,48.301974],[39.615848,48.301885],[39.615874,48.301715],[39.615479,48.301739],[39.615484,48.301983]]]}},{"type":"Feature","properties":{"cadnum":"4411447400:02:001:0010"},"geometry":{"type":"Polygon","coordinates":[[[39.615807,48.302246],[39.615821,48.302071],[39.615821,48.301983],[39.615471,48.301998],[39.615457,48.302246],[39.615807,48.302246]]]}},{"type":"Feature","properties":{"cadnum":"4411447400:02:001:0017"},"geometry":{"type":"Polygon","coordinates":[[[39.615534,48.304574],[39.615569,48.304407],[39.615115,48.304388],[39.614851,48.304388],[39.614838,48.304553],[39.615534,48.304574]]]}},{"type":"Feature","properties":{"cadnum":"4411447400:02:001:0042"},"geometry":{"type":"Polygon","coordinates":[[[39.612781,48.304825],[39.613463,48.304747],[39.613517,48.304733],[39.61354,48.304724],[39.613544,48.304715],[39.613561,48.304598],[39.61332,48.304595],[39.612798,48.30458],[39.612781,48.304825]]]}},{"type":"Feature","properties":{"cadnum":"4411447400:05:002:0022"},"geometry":{"type":"Polygon","coordinates":[[[39.603186,48.270156],[39.603196,48.270138],[39.603167,48.270136],[39.603163,48.27015],[39.603186,48.270156]]]}},{"type":"Feature","properties":{"cadnum":"4411447400:05:002:0018"},"geometry":{"type":"Polygon","coordinates":[[[39.601745,48.271732],[39.601762,48.27172],[39.601745,48.271708],[39.601726,48.271717],[39.601745,48.271732]]]}},{"type":"Feature","properties":{"cadnum":"4411447400:05:002:0023"},"geometry":{"type":"Polygon","coordinates":[[[39.603366,48.269744],[39.603374,48.269729],[39.603353,48.269723],[39.603343,48.269741],[39.603366,48.269744]]]}},{"type":"Feature","properties":{"cadnum":"4411447400:05:002:0024"},"geometry":{"type":"Polygon","coordinates":[[[39.60355,48.269334],[39.603554,48.269316],[39.603532,48.269314],[39.603523,48.269328],[39.60355,48.269334]]]}},{"type":"Feature","properties":{"cadnum":"4411447400:05:002:0020"},"geometry":{"type":"Polygon","coordinates":[[[39.60275,48.271152],[39.602773,48.271101],[39.602746,48.271098],[39.602741,48.271113],[39.60271,48.271104],[39.602701,48.271122],[39.602733,48.271128],[39.602724,48.271146],[39.60275,48.271152]]]}},{"type":"Feature","properties":{"cadnum":"4411447400:05:002:0021"},"geometry":{"type":"Polygon","coordinates":[[[39.602974,48.270637],[39.602984,48.270623],[39.602957,48.270617],[39.602948,48.270635],[39.602974,48.270637]]]}},{"type":"Feature","properties":{"cadnum":"4411447400:05:002:0019"},"geometry":{"type":"Polygon","coordinates":[[[39.602225,48.271448],[39.602242,48.271436],[39.602225,48.271421],[39.602207,48.271433],[39.602225,48.271448]]]}},{"type":"Feature","properties":{"cadnum":"4411447400:05:002:0017"},"geometry":{"type":"Polygon","coordinates":[[[39.60116,48.272075],[39.601179,48.272067],[39.601165,48.272052],[39.601142,48.272064],[39.60116,48.272075]]]}},{"type":"Feature","properties":{"cadnum":"4411447400:04:001:0038"},"geometry":{"type":"Polygon","coordinates":[[[39.595829,48.281734],[39.595825,48.281716],[39.595802,48.281716],[39.595802,48.281734],[39.595829,48.281734]]]}},{"type":"Feature","properties":{"cadnum":"4411447400:04:001:0041"},"geometry":{"type":"Polygon","coordinates":[[[39.595915,48.283073],[39.595942,48.283071],[39.595936,48.283052],[39.595915,48.283055],[39.595915,48.283073]]]}},{"type":"Feature","properties":{"cadnum":"4411447400:04:001:0033"},"geometry":{"type":"Polygon","coordinates":[[[39.595506,48.2796],[39.595527,48.279597],[39.595527,48.279579],[39.5955,48.279582],[39.595506,48.2796]]]}},{"type":"Feature","properties":{"cadnum":"4411447400:04:001:0040"},"geometry":{"type":"Polygon","coordinates":[[[39.595879,48.282634],[39.595905,48.282631],[39.5959,48.282615],[39.595879,48.282615],[39.595879,48.282634]]]}},{"type":"Feature","properties":{"cadnum":"4411447400:04:001:0037"},"geometry":{"type":"Polygon","coordinates":[[[39.595762,48.281268],[39.595789,48.281265],[39.595789,48.28125],[39.595762,48.28125],[39.595762,48.281268]]]}},{"type":"Feature","properties":{"cadnum":"4411447400:04:001:0035"},"geometry":{"type":"Polygon","coordinates":[[[39.595703,48.280464],[39.595726,48.280457],[39.595712,48.280416],[39.595685,48.280419],[39.595689,48.280431],[39.595663,48.280437],[39.595667,48.280452],[39.595699,48.280449],[39.595703,48.280464]]]}},{"type":"Feature","properties":{"cadnum":"4411447400:04:001:0036"},"geometry":{"type":"Polygon","coordinates":[[[39.595753,48.280847],[39.595753,48.280829],[39.595726,48.280829],[39.59573,48.280847],[39.595753,48.280847]]]}},{"type":"Feature","properties":{"cadnum":"4411447400:04:001:0034"},"geometry":{"type":"Polygon","coordinates":[[[39.595586,48.27997],[39.595613,48.279968],[39.595609,48.27995],[39.595582,48.279952],[39.595586,48.27997]]]}},{"type":"Feature","properties":{"cadnum":"4411447400:04:001:0039"},"geometry":{"type":"Polygon","coordinates":[[[39.595865,48.282167],[39.595865,48.28215],[39.595838,48.282152],[39.595838,48.282167],[39.595865,48.282167]]]}},{"type":"Feature","properties":{"cadnum":"4411447400:03:001:0047"},"geometry":{"type":"Polygon","coordinates":[[[39.602913,48.301153],[39.60284,48.301153],[39.602728,48.301165],[39.602571,48.301216],[39.60258,48.30123],[39.602504,48.30127],[39.602467,48.301329],[39.602467,48.30141],[39.602467,48.3015],[39.602548,48.3015],[39.602561,48.301527],[39.602521,48.30156],[39.602508,48.301586],[39.602508,48.301598],[39.603011,48.301527],[39.60298,48.30141],[39.60297950134771,48.30141],[39.602913,48.301153]]]}},{"type":"Feature","properties":{"cadnum":"4411447400:03:001:0025"},"geometry":{"type":"Polygon","coordinates":[[[39.602944,48.299376],[39.60297,48.299316],[39.602939,48.299307],[39.602944,48.299288],[39.602854,48.29927],[39.602817,48.299348],[39.602944,48.299376]]]}},{"type":"Feature","properties":{"cadnum":"4411447400:03:001:0030"},"geometry":{"type":"Polygon","coordinates":[[[39.602292,48.298249],[39.602315,48.298243],[39.602301,48.298227],[39.602278,48.298234],[39.602292,48.298249]]]}},{"type":"Feature","properties":{"cadnum":"4411447400:03:001:0032"},"geometry":{"type":"Polygon","coordinates":[[[39.602926,48.299097],[39.602953,48.299088],[39.602921,48.29905],[39.602898,48.299059],[39.602926,48.299097]]]}},{"type":"Feature","properties":{"cadnum":"4411447400:03:001:0039"},"geometry":{"type":"Polygon","coordinates":[[[39.604735,48.301336],[39.604789,48.301312],[39.604771,48.301296],[39.604718,48.301323],[39.604735,48.301336]]]}},{"type":"Feature","properties":{"cadnum":"4411447400:03:001:0008"},"geometry":{"type":"Polygon","coordinates":[[[39.603949,48.298452],[39.604215,48.298375],[39.604022,48.297861],[39.60363,48.29797],[39.603855,48.298278],[39.603949,48.298452]]]}},{"type":"Feature","properties":{"cadnum":"4411447400:03:001:0012"},"geometry":{"type":"Polygon","coordinates":[[[39.603141,48.300125],[39.603473,48.30011],[39.603473,48.29985],[39.603091,48.299895],[39.603141,48.300125]]]}},{"type":"Feature","properties":{"cadnum":"4411447400:03:001:0034"},"geometry":{"type":"Polygon","coordinates":[[[39.60363,48.300032],[39.603653,48.300023],[39.603644,48.300009],[39.603622,48.300018],[39.60363,48.300032]]]}},{"type":"Feature","properties":{"cadnum":"4411447400:03:001:0035"},"geometry":{"type":"Polygon","coordinates":[[[39.603945,48.300445],[39.603968,48.300436],[39.603955,48.300421],[39.603932,48.30043],[39.603945,48.300445]]]}},{"type":"Feature","properties":{"cadnum":"4411447400:03:001:0036"},"geometry":{"type":"Polygon","coordinates":[[[39.604201,48.300789],[39.604223,48.300782],[39.604215,48.300767],[39.604192,48.300774],[39.604201,48.300789]]]}},{"type":"Feature","properties":{"cadnum":"4411447400:03:001:0004"},"geometry":{"type":"Polygon","coordinates":[[[39.601242,48.299279],[39.601551,48.299205],[39.601336,48.298813],[39.601192,48.298628],[39.600959,48.298813],[39.60107,48.298951],[39.601165,48.299106],[39.601242,48.299279]]]}},{"type":"Feature","properties":{"cadnum":"4411447400:03:001:0040"},"geometry":{"type":"Polygon","coordinates":[[[39.605477,48.300938],[39.605494,48.300929],[39.605481,48.300914],[39.605458,48.300926],[39.605477,48.300938]]]}},{"type":"Feature","properties":{"cadnum":"4411447400:03:001:0033"},"geometry":{"type":"Polygon","coordinates":[[[39.603299,48.299591],[39.60332,48.299582],[39.603312,48.299566],[39.60329,48.299575],[39.603299,48.299591]]]}},{"type":"Feature","properties":{"cadnum":"4411447400:03:001:0005"},"geometry":{"type":"Polygon","coordinates":[[[39.600959,48.298813],[39.601192,48.298628],[39.601016,48.298419],[39.600837,48.298506],[39.600621,48.298342],[39.60054,48.298416],[39.600959,48.298813]]]}},{"type":"Feature","properties":{"cadnum":"4411447400:03:001:0013"},"geometry":{"type":"Polygon","coordinates":[[[39.602234,48.300173],[39.603141,48.300125],[39.603091,48.299895],[39.602431,48.299979],[39.602198,48.300005],[39.602234,48.300173]]]}},{"type":"Feature","properties":{"cadnum":"4411447400:03:001:0038"},"geometry":{"type":"Polygon","coordinates":[[[39.604582,48.301386],[39.604672,48.30138],[39.604664,48.301329],[39.604637,48.301332],[39.604641,48.301365],[39.604582,48.301371],[39.604582,48.301386]]]}},{"type":"Feature","properties":{"cadnum":"4411447400:03:001:0031"},"geometry":{"type":"Polygon","coordinates":[[[39.602691,48.298783],[39.602714,48.298778],[39.602705,48.298763],[39.602683,48.298769],[39.602691,48.298783]]]}},{"type":"Feature","properties":{"cadnum":"4411447400:03:001:0048"},"geometry":{"type":"Polygon","coordinates":[[[39.603009,48.301524],[39.60301020512821,48.301524],[39.603011,48.301527],[39.602508,48.301598],[39.602517,48.301631],[39.60254,48.301655],[39.60258,48.301661],[39.60271,48.301643],[39.603316719696956,48.301524],[39.603319,48.301524],[39.603383,48.301511],[39.603285,48.301147],[39.602966,48.301147],[39.602913,48.301153],[39.603009,48.301524]]]}},{"type":"Feature","properties":{"cadnum":"4411447400:03:001:0037"},"geometry":{"type":"Polygon","coordinates":[[[39.604425,48.301088],[39.604452,48.301081],[39.604439,48.301066],[39.604416,48.301072],[39.604425,48.301088]]]}},{"type":"Feature","properties":{"cadnum":"4411447400:03:002:0078"},"geometry":{"type":"Polygon","coordinates":[[[39.604372,48.30179],[39.604439,48.301744],[39.604421,48.301733],[39.604372,48.301766],[39.604318,48.30173],[39.604299,48.301742],[39.604372,48.30179]]]}},{"type":"Feature","properties":{"cadnum":"4411447400:03:002:0076"},"geometry":{"type":"Polygon","coordinates":[[[39.603649,48.301888],[39.603676,48.301885],[39.603672,48.301867],[39.603644,48.301873],[39.603649,48.301888]]]}},{"type":"Feature","properties":{"cadnum":"4411447400:01:002:0050"},"geometry":{"type":"Polygon","coordinates":[[[39.602351,48.302118],[39.602378,48.302112],[39.602355,48.302056],[39.602332,48.302058],[39.602351,48.302118]]]}},{"type":"Feature","properties":{"cadnum":"4411447400:01:002:0053"},"geometry":{"type":"Polygon","coordinates":[[[39.600311,48.30256],[39.600343,48.302525],[39.600393,48.302545],[39.600406,48.30253],[39.600338,48.302501],[39.600289,48.302552],[39.600311,48.30256]]]}},{"type":"Feature","properties":{"cadnum":"4411447400:03:001:0051"},"geometry":{"type":"Polygon","coordinates":[[[39.603016,48.301981],[39.603037,48.301974],[39.603033,48.30196],[39.603007,48.301963],[39.603016,48.301981]]]}},{"type":"Feature","properties":{"cadnum":"4411447400:01:002:0051"},"geometry":{"type":"Polygon","coordinates":[[[39.601668,48.302226],[39.601695,48.30222],[39.601686,48.302204],[39.601663,48.302208],[39.601668,48.302226]]]}},{"type":"Feature","properties":{"cadnum":"4411447400:01:002:0052"},"geometry":{"type":"Polygon","coordinates":[[[39.601003,48.302375],[39.601026,48.302369],[39.601016,48.302354],[39.600994,48.302357],[39.601003,48.302375]]]}},{"type":"Feature","properties":{"cadnum":"4411447400:04:001:0023"},"geometry":{"type":"Polygon","coordinates":[[[39.582422,48.280246],[39.582449,48.280242],[39.582439,48.280225],[39.582413,48.280231],[39.582422,48.280246]]]}},{"type":"Feature","properties":{"cadnum":"4411447400:04:001:0025"},"geometry":{"type":"Polygon","coordinates":[[[39.58107,48.280563],[39.581092,48.280559],[39.581084,48.280541],[39.581061,48.280548],[39.58107,48.280563]]]}},{"type":"Feature","properties":{"cadnum":"4411447400:04:001:0056"},"geometry":{"type":"Polygon","coordinates":[[[39.579359,48.281017],[39.579386,48.281008],[39.579372,48.280993],[39.579349,48.280999],[39.579359,48.281017]]]}},{"type":"Feature","properties":{"cadnum":"4411447400:04:001:0024"},"geometry":{"type":"Polygon","coordinates":[[[39.581649,48.280428],[39.581671,48.280422],[39.581663,48.280407],[39.58164,48.280413],[39.581649,48.280428]]]}},{"type":"Feature","properties":{"cadnum":"4411447400:04:001:0022"},"geometry":{"type":"Polygon","coordinates":[[[39.583149,48.280078],[39.583176,48.280072],[39.583168,48.280054],[39.583141,48.28006],[39.583149,48.280078]]]}},{"type":"Feature","properties":{"cadnum":"4411447400:04:001:0026"},"geometry":{"type":"Polygon","coordinates":[[[39.580463,48.28073],[39.580485,48.280723],[39.580472,48.280703],[39.580499,48.280697],[39.580485,48.280679],[39.580418,48.2807],[39.580428,48.280715],[39.580449,48.280709],[39.580463,48.28073]]]}},{"type":"Feature","properties":{"cadnum":"4411447400:04:001:0027"},"geometry":{"type":"Polygon","coordinates":[[[39.579925,48.280856],[39.579952,48.280849],[39.579938,48.280834],[39.579915,48.28084],[39.579925,48.280856]]]}}]}