{"type":"FeatureCollection","features":[{"type":"Feature","properties":{"cadnum":"4411647300:06:002:0001"},"geometry":{"type":"Polygon","coordinates":[[[38.853129,48.14725],[38.853124,48.147241],[38.85317,48.147232],[38.853235,48.147222],[38.853235,48.1472208172043],[38.853263,48.147216],[38.853263,48.14722],[38.853349,48.147205],[38.853313,48.147115],[38.853304,48.147097],[38.853227,48.146989],[38.8532,48.146938],[38.8532,48.146911],[38.853124,48.146605],[38.852881,48.146636],[38.852963,48.147034],[38.85298,48.147112],[38.852971,48.147112],[38.852976,48.147139],[38.852984,48.147139],[38.853017,48.147267],[38.853064,48.14725986607143],[38.853064,48.14726],[38.853129,48.14725]]]}},{"type":"Feature","properties":{"cadnum":"4411647300:02:007:0010"},"geometry":{"type":"Polygon","coordinates":[[[38.841958,48.150201],[38.842021,48.150094],[38.841859,48.150052],[38.841797,48.150159],[38.841958,48.150201]]]}},{"type":"Feature","properties":{"cadnum":"4411647300:02:003:0002"},"geometry":{"type":"Polygon","coordinates":[[[38.832939,48.148682],[38.833276,48.148673],[38.833272,48.148458],[38.833209,48.148458],[38.833155,48.148464],[38.833015,48.148451],[38.833011,48.148338],[38.833006,48.148307],[38.832912,48.148307],[38.832916,48.148338],[38.832922,48.148446],[38.832939,48.148682]]]}},{"type":"Feature","properties":{"cadnum":"4411647300:02:002:0002"},"geometry":{"type":"Polygon","coordinates":[[[38.83258,48.149075],[38.832584,48.149066],[38.832639,48.148949],[38.832665,48.148805],[38.832612,48.148784],[38.832562,48.148781],[38.832522,48.148781],[38.832386,48.148775],[38.832226,48.148745],[38.832226,48.14906],[38.83258,48.149075]]]}},{"type":"Feature","properties":{"cadnum":"4411647300:04:012:0001"},"geometry":{"type":"Polygon","coordinates":[[[38.865925,48.146425],[38.865948,48.146356],[38.86584,48.146341],[38.865822,48.146414],[38.865925,48.146425]]]}},{"type":"Feature","properties":{"cadnum":"4411647300:05:004:0006"},"geometry":{"type":"Polygon","coordinates":[[[38.866118,48.146534],[38.866127,48.146507],[38.866087,48.146501],[38.866078,48.146527],[38.866118,48.146534]]]}},{"type":"Feature","properties":{"cadnum":"4411647300:05:004:0003"},"geometry":{"type":"Polygon","coordinates":[[[38.865695,48.147502],[38.865718,48.147429],[38.865611,48.147418],[38.865592,48.147489],[38.865695,48.147502]]]}},{"type":"Feature","properties":{"cadnum":"4411647300:05:004:0012"},"geometry":{"type":"Polygon","coordinates":[[[38.870435,48.146539],[38.870578,48.146689],[38.870961,48.146545],[38.871324,48.146407],[38.871873,48.146198],[38.871756,48.146042],[38.871567,48.145772],[38.871324,48.145488],[38.869543,48.146019],[38.869543,48.1460192168816],[38.868009,48.146476],[38.868049,48.146527],[38.868737,48.146309],[38.869164,48.146636],[38.869442,48.146794],[38.869543,48.1468930576923],[38.869543,48.146894],[38.869546,48.146896],[38.869715,48.146829],[38.869715,48.146828133858264],[38.870435,48.146539]]]}},{"type":"Feature","properties":{"cadnum":"4411647300:06:003:0006"},"geometry":{"type":"Polygon","coordinates":[[[38.866573,48.144559],[38.866577,48.144532],[38.866536,48.144526],[38.866527,48.144553],[38.866573,48.144559]]]}},{"type":"Feature","properties":{"cadnum":"4411647300:06:003:0012"},"geometry":{"type":"Polygon","coordinates":[[[38.864942,48.145922],[38.864942,48.145907],[38.864915,48.145907],[38.864915,48.145922],[38.864942,48.145922]]]}},{"type":"Feature","properties":{"cadnum":"4411647300:06:003:0011"},"geometry":{"type":"Polygon","coordinates":[[[38.865431,48.145964],[38.865431,48.145949],[38.865408,48.145949],[38.865408,48.145964],[38.865431,48.145964]]]}},{"type":"Feature","properties":{"cadnum":"4411647300:05:004:0002"},"geometry":{"type":"Polygon","coordinates":[[[38.872272,48.145148],[38.872532,48.14517],[38.872479,48.145089],[38.872433,48.145023],[38.872236,48.145053],[38.869715,48.14583747753435],[38.869715,48.145837],[38.867852,48.146416],[38.867663,48.146461],[38.867039,48.146654],[38.867066,48.146696],[38.867083,48.146719],[38.867712,48.146536],[38.867884,48.146465],[38.869715,48.145916],[38.869715,48.145915381091974],[38.872272,48.145148]]]}},{"type":"Feature","properties":{"cadnum":"4411647300:05:004:0014"},"geometry":{"type":"Polygon","coordinates":[[[38.869617,48.144795],[38.869715,48.144789],[38.869715,48.14478863385827],[38.870125,48.144762],[38.870102,48.14422],[38.869715,48.144221384615385],[38.869715,48.144221],[38.869064,48.144223],[38.868777,48.144495],[38.868827,48.144885],[38.868898,48.144885],[38.868894,48.144843],[38.86898,48.14484],[38.868984,48.144879],[38.869622,48.144837],[38.869617,48.144795]]]}},{"type":"Feature","properties":{"cadnum":"4411647300:05:004:0018"},"geometry":{"type":"Polygon","coordinates":[[[38.869638395348595,48.14491855813957],[38.869715,48.144906],[38.869715,48.144905354948804],[38.870129,48.144834],[38.870116,48.144493],[38.870982,48.144481],[38.870982,48.14422],[38.869715,48.14422264141765],[38.869715,48.144222],[38.869064,48.144223],[38.868934,48.144346],[38.868777,48.144495],[38.868827,48.144885],[38.868898,48.144885],[38.868894,48.144843],[38.868974,48.14484],[38.868984,48.144879],[38.869312,48.144859],[38.869527,48.144843],[38.869532,48.144936],[38.869543,48.144934196721316],[38.869543,48.144935],[38.869638395348595,48.14491855813957]]]}},{"type":"Feature","properties":{"cadnum":"4411647300:06:003:0003"},"geometry":{"type":"Polygon","coordinates":[[[38.866351,48.144535],[38.86637,48.144462],[38.866261,48.14445],[38.866244,48.144522],[38.866351,48.144535]]]}},{"type":"Feature","properties":{"cadnum":"4411647300:05:004:0010"},"geometry":{"type":"Polygon","coordinates":[[[38.867215,48.145928],[38.867215,48.145913],[38.867192,48.145913],[38.867192,48.145928],[38.867215,48.145928]]]}},{"type":"Feature","properties":{"cadnum":"4411647300:05:004:0013"},"geometry":{"type":"Polygon","coordinates":[[[38.871261,48.14541],[38.87123,48.145368],[38.870704,48.145554],[38.869802,48.145832],[38.869689,48.145685],[38.869186,48.14582],[38.869316,48.145991],[38.868877,48.146096],[38.867965,48.14641],[38.867978,48.146425],[38.869715,48.145888],[38.869715,48.14588783818394],[38.871261,48.14541]]]}},{"type":"Feature","properties":{"cadnum":"4411647300:06:003:0013"},"geometry":{"type":"Polygon","coordinates":[[[38.864447,48.14588],[38.864447,48.145865],[38.864425,48.145865],[38.864425,48.14588],[38.864447,48.14588]]]}},{"type":"Feature","properties":{"cadnum":"4411647300:05:004:0008"},"geometry":{"type":"Polygon","coordinates":[[[38.868018,48.145808],[38.868018,48.145794],[38.867991,48.145794],[38.867991,48.145808],[38.868018,48.145808]]]}},{"type":"Feature","properties":{"cadnum":"4411647300:06:003:0005"},"geometry":{"type":"Polygon","coordinates":[[[38.866406,48.145296],[38.866414,48.145266],[38.866374,48.145263],[38.866366,48.14529],[38.866406,48.145296]]]}},{"type":"Feature","properties":{"cadnum":"4411647300:05:004:0007"},"geometry":{"type":"Polygon","coordinates":[[[38.866235,48.145979],[38.866244,48.145952],[38.866204,48.145946],[38.866194,48.145973],[38.866235,48.145979]]]}},{"type":"Feature","properties":{"cadnum":"4411647300:06:003:0010"},"geometry":{"type":"Polygon","coordinates":[[[38.865925,48.146006],[38.865925,48.145988],[38.865898,48.145988],[38.865898,48.146006],[38.865925,48.146006]]]}},{"type":"Feature","properties":{"cadnum":"4411647300:05:004:0005"},"geometry":{"type":"Polygon","coordinates":[[[38.865978,48.147205],[38.865988,48.147178],[38.865948,48.147172],[38.865938,48.147199],[38.865978,48.147205]]]}},{"type":"Feature","properties":{"cadnum":"4411647300:05:004:0011"},"geometry":{"type":"Polygon","coordinates":[[[38.866814,48.145988],[38.866814,48.145973],[38.866792,48.145973],[38.866792,48.145988],[38.866814,48.145988]]]}},{"type":"Feature","properties":{"cadnum":"4411647300:06:003:0004"},"geometry":{"type":"Polygon","coordinates":[[[38.866087,48.14571],[38.866104,48.145637],[38.865997,48.145623],[38.865978,48.145694],[38.866087,48.14571]]]}},{"type":"Feature","properties":{"cadnum":"4411647300:05:004:0009"},"geometry":{"type":"Polygon","coordinates":[[[38.867619,48.145868],[38.867619,48.145854],[38.867592,48.145854],[38.867592,48.145868],[38.867619,48.145868]]]}},{"type":"Feature","properties":{"cadnum":"4411647300:10:003:0003"},"geometry":{"type":"Polygon","coordinates":[[[38.859632,48.122303],[38.859655,48.122298],[38.859628,48.122253],[38.859605,48.122259],[38.859632,48.122303]]]}},{"type":"Feature","properties":{"cadnum":"4411647300:04:010:0005"},"geometry":{"type":"Polygon","coordinates":[[[38.857656,48.15123],[38.857938,48.151196],[38.857845,48.150798],[38.857774,48.150579],[38.857508,48.150585],[38.857539,48.15075],[38.857634,48.151154],[38.857656,48.15123]]]}},{"type":"Feature","properties":{"cadnum":"4411647300:04:003:0001"},"geometry":{"type":"Polygon","coordinates":[[[38.854934,48.148964],[38.855181,48.148847],[38.855137,48.148805],[38.85515,48.148799],[38.855114,48.148764],[38.855082,48.148724],[38.854971,48.148607],[38.855101,48.148577],[38.854912,48.148215],[38.854682,48.148257],[38.854822,48.148688],[38.854889,48.148904],[38.854921,48.148955],[38.854934,48.148964]]]}},{"type":"Feature","properties":{"cadnum":"4411647300:04:010:0007"},"geometry":{"type":"Polygon","coordinates":[[[38.854688,48.150246],[38.854917,48.150184],[38.854709,48.149863],[38.854625,48.149713],[38.854558,48.149554],[38.854516,48.149495],[38.854288,48.149572],[38.854413,48.149803],[38.854449,48.14986],[38.854688,48.150246]]]}},{"type":"Feature","properties":{"cadnum":"4411647300:04:010:0004"},"geometry":{"type":"Polygon","coordinates":[[[38.855428,48.150936],[38.855095,48.150957],[38.855101,48.150972],[38.855137,48.151167],[38.855221,48.151485],[38.855222328244274,48.151485],[38.855227,48.151502],[38.855307,48.151493],[38.855545,48.151466],[38.855428,48.150936]]]}},{"type":"Feature","properties":{"cadnum":"4411647300:04:003:0002"},"geometry":{"type":"Polygon","coordinates":[[[38.854489,48.14924],[38.854723,48.149117],[38.854961,48.148988],[38.854934,48.148964],[38.854921,48.148955],[38.854889,48.148904],[38.854822,48.148688],[38.854378,48.148898],[38.854368,48.149012],[38.85444,48.149197],[38.854489,48.14924]]]}},{"type":"Feature","properties":{"cadnum":"4411647300:04:002:0002"},"geometry":{"type":"Polygon","coordinates":[[[38.848879,48.151232],[38.848879,48.151218],[38.848857,48.151218],[38.848857,48.151232],[38.848879,48.151232]]]}},{"type":"Feature","properties":{"cadnum":"4411647300:04:001:0001"},"geometry":{"type":"Polygon","coordinates":[[[38.85144,48.150352],[38.851736,48.150283],[38.851642,48.150055],[38.85157,48.149974],[38.851466,48.149767],[38.85113,48.149836],[38.851319,48.15013],[38.85139,48.150237],[38.851422,48.150306],[38.85144,48.150352]]]}},{"type":"Feature","properties":{"cadnum":"4411647300:04:001:0002"},"geometry":{"type":"Polygon","coordinates":[[[38.849755,48.150927],[38.850447,48.15081],[38.850407,48.150777],[38.850389,48.150705],[38.850376,48.150651],[38.850334,48.150558],[38.849679,48.150666],[38.849755,48.150927]]]}},{"type":"Feature","properties":{"cadnum":"4411647300:04:002:0008"},"geometry":{"type":"Polygon","coordinates":[[[38.850753,48.15134],[38.85112,48.151328],[38.851143,48.151185],[38.851162,48.150894],[38.850919,48.150885],[38.850726,48.150918],[38.850753,48.151043],[38.850734,48.151043],[38.850762,48.151143],[38.850747,48.151158],[38.850713,48.151163],[38.850721,48.151203],[38.85068,48.151208],[38.850699,48.151268],[38.850743,48.151263],[38.850753,48.15134]]]}},{"type":"Feature","properties":{"cadnum":"4411647300:04:002:0001"},"geometry":{"type":"Polygon","coordinates":[[[38.84822,48.151383],[38.848233,48.15137],[38.848166,48.151337],[38.848152,48.151349],[38.84822,48.151383]]]}},{"type":"Feature","properties":{"cadnum":"4411647300:04:002:0006"},"geometry":{"type":"Polygon","coordinates":[[[38.850636,48.151029],[38.850721,48.151023],[38.850713,48.150974],[38.850627,48.150981],[38.850636,48.151029]]]}},{"type":"Feature","properties":{"cadnum":"4411647300:04:002:0003"},"geometry":{"type":"Polygon","coordinates":[[[38.849405,48.151139],[38.849405,48.151125],[38.849378,48.151125],[38.849378,48.151139],[38.849405,48.151139]]]}},{"type":"Feature","properties":{"cadnum":"4411647300:04:002:0005"},"geometry":{"type":"Polygon","coordinates":[[[38.850424,48.150992],[38.850438,48.150939],[38.850416,48.150936],[38.850403,48.15099],[38.850424,48.150992]]]}},{"type":"Feature","properties":{"cadnum":"4411647300:04:002:0004"},"geometry":{"type":"Polygon","coordinates":[[[38.849895,48.15105],[38.849921,48.151047],[38.849921,48.151032],[38.849895,48.151032],[38.849895,48.15105]]]}},{"type":"Feature","properties":{"cadnum":"4411647300:04:002:0009"},"geometry":{"type":"Polygon","coordinates":[[[38.851529,48.151196],[38.851548,48.150915],[38.851548,48.150903],[38.851342,48.150885],[38.851162,48.150881],[38.851162,48.150894],[38.851143,48.151185],[38.851336,48.15119],[38.851529,48.151196]]]}},{"type":"Feature","properties":{"cadnum":"4411647300:04:001:0003"},"geometry":{"type":"Polygon","coordinates":[[[38.850613,48.149213],[38.850807,48.149177],[38.850852,48.149168],[38.850757,48.148847],[38.850753,48.148847],[38.850743,48.148823],[38.850676,48.148635],[38.850434,48.148676],[38.850623,48.149173],[38.850613,48.149213]]]}},{"type":"Feature","properties":{"cadnum":"4411647300:10:001:0009"},"geometry":{"type":"Polygon","coordinates":[[[38.850371,48.124478],[38.850397,48.124472],[38.850371,48.124429],[38.850348,48.124436],[38.850371,48.124478]]]}},{"type":"Feature","properties":{"cadnum":"4411647300:10:001:0008"},"geometry":{"type":"Polygon","coordinates":[[[38.851831,48.124156],[38.851858,48.124151],[38.851831,48.124109],[38.851808,48.124114],[38.851831,48.124156]]]}},{"type":"Feature","properties":{"cadnum":"4411647300:10:003:0007"},"geometry":{"type":"Polygon","coordinates":[[[38.853061,48.123869],[38.853084,48.123863],[38.853057,48.123821],[38.853034,48.123827],[38.853061,48.123869]]]}},{"type":"Feature","properties":{"cadnum":"4411647300:02:003:0004"},"geometry":{"type":"Polygon","coordinates":[[[38.825564,48.147498],[38.825564,48.147478],[38.825662,48.14748],[38.825672,48.147403],[38.825469,48.147391],[38.825469,48.147414],[38.825586,48.14742],[38.825578,48.147474],[38.825474,48.147469],[38.825474,48.147496],[38.825564,48.147498]]]}},{"type":"Feature","properties":{"cadnum":"4411647300:02:003:0001"},"geometry":{"type":"Polygon","coordinates":[[[38.825578,48.147474],[38.825586,48.14742],[38.825469,48.147414],[38.825461,48.147469],[38.825578,48.147474]]]}},{"type":"Feature","properties":{"cadnum":"4411647300:02:004:0001"},"geometry":{"type":"Polygon","coordinates":[[[38.825645,48.146782],[38.825769,48.146722],[38.825769,48.1467218902439],[38.825973,48.146623],[38.825987,48.146623],[38.826027,48.146527],[38.8256698264842,48.14649203196349],[38.825182,48.146443],[38.825289,48.147139],[38.825662,48.147358],[38.825771,48.147118],[38.825649,48.147052],[38.825645,48.146782]]]}},{"type":"Feature","properties":{"cadnum":"4411647300:06:003:0008"},"geometry":{"type":"Polygon","coordinates":[[[38.8669,48.143099],[38.866909,48.143071],[38.866869,48.143066],[38.86686,48.143093],[38.8669,48.143099]]]}},{"type":"Feature","properties":{"cadnum":"4411647300:06:003:0009"},"geometry":{"type":"Polygon","coordinates":[[[38.867053,48.142367],[38.867062,48.142338],[38.867016,48.142335],[38.867007,48.142362],[38.867053,48.142367]]]}},{"type":"Feature","properties":{"cadnum":"4411647300:06:003:0002"},"geometry":{"type":"Polygon","coordinates":[[[38.866599,48.14338],[38.866621,48.143309],[38.866514,48.143297],[38.866496,48.143369],[38.866599,48.14338]]]}},{"type":"Feature","properties":{"cadnum":"4411647300:06:003:0007"},"geometry":{"type":"Polygon","coordinates":[[[38.866724,48.143842],[38.866729,48.143812],[38.866689,48.143809],[38.86668,48.143837],[38.866724,48.143842]]]}},{"type":"Feature","properties":{"cadnum":"4411647300:06:003:0001"},"geometry":{"type":"Polygon","coordinates":[[[38.866877,48.142122],[38.866896,48.14205],[38.866787,48.142035],[38.86677,48.142107],[38.866877,48.142122]]]}},{"type":"Feature","properties":{"cadnum":"4411647300:03:003:0001"},"geometry":{"type":"Polygon","coordinates":[[[38.870519,48.152614],[38.870556,48.152611],[38.870552,48.152587],[38.870519,48.152589],[38.870519,48.152614]]]}},{"type":"Feature","properties":{"cadnum":"4411647300:04:007:0002"},"geometry":{"type":"Polygon","coordinates":[[[38.859313,48.151283],[38.859305,48.151268],[38.859229,48.151277],[38.859233,48.151292],[38.858936,48.151323],[38.858953185185186,48.151371],[38.858952,48.151371],[38.85904,48.151613],[38.859112,48.151736],[38.859458,48.151661],[38.859408,48.151517],[38.859363,48.151412],[38.859313,48.151283]]]}},{"type":"Feature","properties":{"cadnum":"4411647300:04:010:0006"},"geometry":{"type":"Polygon","coordinates":[[[38.860059,48.151083],[38.86032,48.151061],[38.860202,48.150435],[38.860194,48.150399],[38.859906,48.150432],[38.859961,48.150648],[38.860045,48.150996],[38.860059,48.151074],[38.860059,48.151083]]]}},{"type":"Feature","properties":{"cadnum":"4411647300:04:010:0011"},"geometry":{"type":"Polygon","coordinates":[[[38.862632,48.150881],[38.862489,48.150474],[38.862439,48.150384],[38.862386,48.150396],[38.862269,48.150435],[38.862246,48.150459],[38.862211,48.150513],[38.862229,48.150561],[38.862399,48.150872],[38.862632,48.150881]]]}},{"type":"Feature","properties":{"cadnum":"4411647300:04:011:0008"},"geometry":{"type":"Polygon","coordinates":[[[38.862529,48.150321],[38.862552,48.150319],[38.862552,48.150303],[38.862529,48.150303],[38.862529,48.150321]]]}},{"type":"Feature","properties":{"cadnum":"4411647300:04:010:0001"},"geometry":{"type":"Polygon","coordinates":[[[38.862646,48.150618],[38.862646,48.1506],[38.862624,48.1506],[38.862624,48.150618],[38.862646,48.150618]]]}},{"type":"Feature","properties":{"cadnum":"4411647300:04:010:0008"},"geometry":{"type":"Polygon","coordinates":[[[38.861707,48.150918],[38.86186,48.150906],[38.862183,48.15087],[38.862058,48.150474],[38.861636,48.150522],[38.861667,48.150618],[38.86168,48.150786],[38.861707,48.150918]]]}},{"type":"Feature","properties":{"cadnum":"4411647300:04:012:0010"},"geometry":{"type":"Polygon","coordinates":[[[38.862368,48.149204],[38.862695,48.149108],[38.862682,48.149027],[38.862665,48.148985],[38.862508,48.148613],[38.862197,48.148704],[38.862286,48.148985],[38.862319,48.149093],[38.862345,48.149162],[38.862359,48.149195],[38.862363,48.149195],[38.862368,48.149204]]]}},{"type":"Feature","properties":{"cadnum":"4411647300:04:009:0008"},"geometry":{"type":"Polygon","coordinates":[[[38.859911,48.151421],[38.859901,48.151371],[38.859900325842695,48.151371],[38.859892,48.151332],[38.859762,48.151343],[38.85976630769231,48.151371],[38.859766,48.151371],[38.859776,48.151434],[38.859911,48.151421]]]}},{"type":"Feature","properties":{"cadnum":"4411647300:04:009:0005"},"geometry":{"type":"Polygon","coordinates":[[[38.862632,48.151277],[38.862754,48.151256],[38.862691,48.151107],[38.862615,48.151119],[38.862615,48.151121],[38.862575,48.151128],[38.862592,48.15117],[38.862579,48.15117],[38.862584,48.15119],[38.862597,48.151187],[38.862632,48.151277]]]}},{"type":"Feature","properties":{"cadnum":"4411647300:04:012:0007"},"geometry":{"type":"Polygon","coordinates":[[[38.862108,48.148529],[38.862108,48.148515],[38.862085,48.148515],[38.862085,48.148529],[38.862108,48.148529]]]}},{"type":"Feature","properties":{"cadnum":"4411647300:04:012:0005"},"geometry":{"type":"Polygon","coordinates":[[[38.861914,48.147864],[38.861914,48.147849],[38.861892,48.147849],[38.861892,48.147864],[38.861914,48.147864]]]}},{"type":"Feature","properties":{"cadnum":"4411647300:04:009:0003"},"geometry":{"type":"Polygon","coordinates":[[[38.862399,48.151085],[38.862399,48.151068],[38.862376,48.151068],[38.862376,48.151085],[38.862399,48.151085]]]}},{"type":"Feature","properties":{"cadnum":"4411647300:04:011:0005"},"geometry":{"type":"Polygon","coordinates":[[[38.862345,48.149461],[38.862345,48.149444],[38.862323,48.149444],[38.862323,48.149461],[38.862345,48.149461]]]}},{"type":"Feature","properties":{"cadnum":"4411647300:04:012:0009"},"geometry":{"type":"Polygon","coordinates":[[[38.862296,48.149197],[38.862296,48.14918],[38.862273,48.14918],[38.862273,48.149197],[38.862296,48.149197]]]}},{"type":"Feature","properties":{"cadnum":"4411647300:04:010:0012"},"geometry":{"type":"Polygon","coordinates":[[[38.860324,48.151076],[38.860405,48.15107],[38.860405,48.151056],[38.860477,48.15105],[38.860432,48.15083],[38.860414,48.15075],[38.860248,48.150039],[38.860118,48.150055],[38.860194,48.150399],[38.860202,48.150435],[38.860324,48.151061],[38.860324,48.151076]]]}},{"type":"Feature","properties":{"cadnum":"4411647300:04:011:0006"},"geometry":{"type":"Polygon","coordinates":[[[38.862386,48.149764],[38.862435,48.149719],[38.862418,48.14971],[38.862368,48.149755],[38.862386,48.149764]]]}},{"type":"Feature","properties":{"cadnum":"4411647300:04:012:0008"},"geometry":{"type":"Polygon","coordinates":[[[38.862202,48.148865],[38.862202,48.148847],[38.862179,48.148847],[38.862179,48.148865],[38.862202,48.148865]]]}},{"type":"Feature","properties":{"cadnum":"4411647300:04:011:0007"},"geometry":{"type":"Polygon","coordinates":[[[38.862435,48.14995],[38.862435,48.149932],[38.862412,48.149932],[38.862412,48.14995],[38.862435,48.14995]]]}},{"type":"Feature","properties":{"cadnum":"4411647300:04:009:0004"},"geometry":{"type":"Polygon","coordinates":[[[38.862148,48.151394],[38.862225,48.151385],[38.862211,48.151332],[38.862129,48.151343],[38.862148,48.151394]]]}},{"type":"Feature","properties":{"cadnum":"4411647300:04:009:0001"},"geometry":{"type":"Polygon","coordinates":[[[38.864222,48.150977],[38.864222,48.150976105263155],[38.864232,48.150974],[38.864222,48.15095074999999],[38.864222,48.15095],[38.864192,48.150881],[38.864116,48.150897],[38.864156,48.15099],[38.864222,48.150977]]]}},{"type":"Feature","properties":{"cadnum":"4411647300:04:009:0007"},"geometry":{"type":"Polygon","coordinates":[[[38.862732,48.151356],[38.862758,48.151352],[38.862754,48.15134],[38.862728,48.151343],[38.862732,48.151356]]]}},{"type":"Feature","properties":{"cadnum":"4411647300:04:012:0006"},"geometry":{"type":"Polygon","coordinates":[[[38.862013,48.148197],[38.862013,48.148182],[38.861986,48.148182],[38.861986,48.148197],[38.862013,48.148197]]]}},{"type":"Feature","properties":{"cadnum":"4411647300:04:010:0002"},"geometry":{"type":"Polygon","coordinates":[[[38.862638,48.150843],[38.862718,48.150828],[38.862695,48.150774],[38.862674,48.150777],[38.862687,48.150816],[38.862632,48.150825],[38.862638,48.150843]]]}},{"type":"Feature","properties":{"cadnum":"4411647300:02:007:0008"},"geometry":{"type":"Polygon","coordinates":[[[38.84698,48.155805],[38.84698,48.15579],[38.846958,48.15579],[38.846958,48.155805],[38.84698,48.155805]]]}},{"type":"Feature","properties":{"cadnum":"4411647300:02:007:0009"},"geometry":{"type":"Polygon","coordinates":[[[38.847361,48.155742],[38.847438,48.155724],[38.847411,48.155673],[38.847334,48.155691],[38.847361,48.155742]]]}},{"type":"Feature","properties":{"cadnum":"4411647300:02:007:0007"},"geometry":{"type":"Polygon","coordinates":[[[38.846526,48.155901],[38.846526,48.155886],[38.846504,48.155886],[38.846504,48.155901],[38.846526,48.155901]]]}},{"type":"Feature","properties":{"cadnum":"4411647300:02:007:0005"},"geometry":{"type":"Polygon","coordinates":[[[38.84547,48.156129],[38.84547,48.156111],[38.845443,48.156111],[38.845443,48.156129],[38.84547,48.156129]]]}},{"type":"Feature","properties":{"cadnum":"4411647300:02:007:0006"},"geometry":{"type":"Polygon","coordinates":[[[38.845942,48.156027],[38.845942,48.156012],[38.84592,48.156012],[38.84592,48.156027],[38.845942,48.156027]]]}},{"type":"Feature","properties":{"cadnum":"4411647300:03:002:0002"},"geometry":{"type":"Polygon","coordinates":[[[38.859286,48.155601],[38.859372,48.155559],[38.859309,48.155499],[38.859223,48.155541],[38.859286,48.155601]]]}},{"type":"Feature","properties":{"cadnum":"4411647300:01:006:0001"},"geometry":{"type":"Polygon","coordinates":[[[38.884408,48.17535],[38.884574,48.175278],[38.88453,48.175236],[38.884547,48.17523],[38.884494,48.175179],[38.88448,48.175185],[38.884467,48.17517],[38.884301,48.175241],[38.884337,48.175274],[38.884314,48.175283],[38.884354,48.175325],[38.884377,48.175316],[38.884408,48.17535]]]}},{"type":"Feature","properties":{"cadnum":"4411647300:01:006:0004"},"geometry":{"type":"Polygon","coordinates":[[[38.886182,48.174031],[38.886102,48.173987],[38.886039,48.174038],[38.886115,48.174082],[38.886182,48.174031]]]}},{"type":"Feature","properties":{"cadnum":"4411647300:01:004:0001"},"geometry":{"type":"Polygon","coordinates":[[[38.884085,48.17517],[38.884597,48.174933],[38.883981,48.174379],[38.8831,48.174675],[38.883492,48.175044],[38.883788,48.174903],[38.884085,48.17517]]]}},{"type":"Feature","properties":{"cadnum":"4411647300:09:005:0017"},"geometry":{"type":"Polygon","coordinates":[[[38.858747,48.115084],[38.858747,48.115066],[38.85872,48.115066],[38.85872,48.115084],[38.858747,48.115084]]]}},{"type":"Feature","properties":{"cadnum":"4411647300:09:005:0021"},"geometry":{"type":"Polygon","coordinates":[[[38.86054,48.114784],[38.860611,48.114768],[38.860603,48.114744],[38.860863,48.114697],[38.860926,48.114684],[38.860886,48.114604],[38.86102,48.114577],[38.86099,48.114502],[38.860517,48.114588],[38.860068,48.114673],[38.85991500000002,48.114709],[38.859911,48.114709],[38.859575,48.114789],[38.859588,48.114824],[38.85958872549019,48.114824],[38.859655,48.114993],[38.859732,48.114982],[38.859781,48.11496],[38.859816,48.114939],[38.859982,48.114906],[38.859978,48.114897],[38.859992,48.114897],[38.860086,48.114877],[38.860131,48.114868],[38.860527,48.114757],[38.86054,48.114784]]]}},{"type":"Feature","properties":{"cadnum":"4411647300:09:004:0002"},"geometry":{"type":"Polygon","coordinates":[[[38.858783,48.117062],[38.858783,48.117047],[38.858761,48.117047],[38.858761,48.117062],[38.858783,48.117062]]]}},{"type":"Feature","properties":{"cadnum":"4411647300:09:005:0018"},"geometry":{"type":"Polygon","coordinates":[[[38.858864,48.115548],[38.858864,48.11553],[38.858837,48.11553],[38.858837,48.115548],[38.858864,48.115548]]]}},{"type":"Feature","properties":{"cadnum":"4411647300:09:005:0020"},"geometry":{"type":"Polygon","coordinates":[[[38.859085,48.116429],[38.859085,48.116415],[38.859062,48.116415],[38.859062,48.116429],[38.859085,48.116429]]]}},{"type":"Feature","properties":{"cadnum":"4411647300:09:004:0001"},"geometry":{"type":"Polygon","coordinates":[[[38.859196,48.116864],[38.859196,48.116849],[38.85917,48.116849],[38.85917,48.116864],[38.859196,48.116864]]]}},{"type":"Feature","properties":{"cadnum":"4411647300:09:005:0019"},"geometry":{"type":"Polygon","coordinates":[[[38.858972,48.115989],[38.858972,48.115971],[38.85895,48.115971],[38.85895,48.115989],[38.858972,48.115989]]]}},{"type":"Feature","properties":{"cadnum":"4411647300:03:001:0001"},"geometry":{"type":"Polygon","coordinates":[[[38.848629,48.152071],[38.848803,48.152042],[38.848789,48.152],[38.848615,48.152027],[38.848629,48.152071]]]}},{"type":"Feature","properties":{"cadnum":"4411647300:04:004:0002"},"geometry":{"type":"Polygon","coordinates":[[[38.849661,48.153633],[38.84985,48.153602],[38.850726,48.153498],[38.850699,48.153348],[38.850223,48.153378],[38.850231,48.153393],[38.849612,48.153462],[38.849625,48.153524],[38.849638,48.153561],[38.849661,48.153633]]]}},{"type":"Feature","properties":{"cadnum":"4411647300:03:001:0007"},"geometry":{"type":"Polygon","coordinates":[[[38.848722,48.152395],[38.848776,48.152383],[38.848912,48.15236],[38.848933,48.152353],[38.848862,48.152161],[38.848732,48.152182],[38.848736,48.152194],[38.84865,48.152209],[38.848663,48.152245],[38.848615,48.152254],[38.848659,48.152374],[38.848713,48.152368],[38.848722,48.152395]]]}},{"type":"Feature","properties":{"cadnum":"4411647300:04:004:0001"},"geometry":{"type":"Polygon","coordinates":[[[38.849333,48.152797],[38.849388,48.152787],[38.849738,48.152722],[38.850003,48.152716],[38.849962,48.152533],[38.849608,48.152578],[38.849388,48.152611],[38.849382,48.152611],[38.849315,48.15262],[38.849284,48.152644],[38.849319,48.152737],[38.849306,48.15274],[38.849333,48.152797]]]}},{"type":"Feature","properties":{"cadnum":"4411647300:04:004:0003"},"geometry":{"type":"Polygon","coordinates":[[[38.85241,48.152689],[38.852617,48.152665],[38.852571,48.15236],[38.852549,48.152182],[38.85246,48.152191],[38.85246,48.152182],[38.852384,48.152189],[38.85237,48.1522],[38.852307,48.152207],[38.852307,48.152209],[38.852284,48.152212],[38.852288,48.152254],[38.852294,48.152254],[38.852311,48.152386],[38.85241,48.152689]]]}},{"type":"Feature","properties":{"cadnum":"4411647300:04:002:0007"},"geometry":{"type":"Polygon","coordinates":[[[38.852378,48.151853],[38.852612,48.151841],[38.852608,48.151825],[38.852667,48.15182],[38.852644,48.15161],[38.852549,48.151536],[38.85246,48.151544],[38.852325,48.151556],[38.852347,48.151646],[38.852374,48.151823],[38.852378,48.151853]]]}},{"type":"Feature","properties":{"cadnum":"4411647300:04:002:0010"},"geometry":{"type":"Polygon","coordinates":[[[38.852688,48.151832],[38.852801,48.151825],[38.852787,48.151706],[38.852675,48.151712],[38.852688,48.151832]]]}},{"type":"Feature","properties":{"cadnum":"4411647300:03:001:0002"},"geometry":{"type":"Polygon","coordinates":[[[38.848816,48.152473],[38.849091,48.152422],[38.84905,48.152332],[38.848912,48.15236],[38.848776,48.152383],[38.848816,48.152473]]]}},{"type":"Feature","properties":{"cadnum":"4411647300:10:003:0004"},"geometry":{"type":"Polygon","coordinates":[[[38.857292,48.122867],[38.857315,48.122861],[38.857292,48.122816],[38.857265,48.122825],[38.857292,48.122867]]]}},{"type":"Feature","properties":{"cadnum":"4411647300:10:003:0006"},"geometry":{"type":"Polygon","coordinates":[[[38.854126,48.123617],[38.854149,48.123611],[38.854126,48.123566],[38.854099,48.123572],[38.854126,48.123617]]]}},{"type":"Feature","properties":{"cadnum":"4411647300:10:003:0016"},"geometry":{"type":"Polygon","coordinates":[[[38.854256,48.122229],[38.854256,48.122214],[38.854229,48.122214],[38.854229,48.122229],[38.854256,48.122229]]]}},{"type":"Feature","properties":{"cadnum":"4411647300:10:003:0017"},"geometry":{"type":"Polygon","coordinates":[[[38.854179,48.12255],[38.854202,48.122499],[38.854122,48.122483],[38.854103,48.122534],[38.854179,48.12255]]]}},{"type":"Feature","properties":{"cadnum":"4411647300:10:003:0005"},"geometry":{"type":"Polygon","coordinates":[[[38.85595,48.123185],[38.855976,48.123179],[38.85595,48.123138],[38.855927,48.123143],[38.85595,48.123185]]]}},{"type":"Feature","properties":{"cadnum":"4411647300:03:002:0003"},"geometry":{"type":"Polygon","coordinates":[[[38.85785,48.156234],[38.857934,48.156191],[38.857871,48.156134],[38.857787,48.156176],[38.85785,48.156234]]]}},{"type":"Feature","properties":{"cadnum":"4411647300:03:002:0004"},"geometry":{"type":"Polygon","coordinates":[[[38.856192,48.156991],[38.856282,48.156949],[38.856219,48.156889],[38.856129,48.156935],[38.856192,48.156991]]]}},{"type":"Feature","properties":{"cadnum":"4411647300:09:001:0005"},"geometry":{"type":"Polygon","coordinates":[[[38.852005,48.114582],[38.852005,48.114564],[38.851979,48.114568],[38.851979,48.114582],[38.852005,48.114582]]]}},{"type":"Feature","properties":{"cadnum":"4411647300:09:001:0002"},"geometry":{"type":"Polygon","coordinates":[[[38.850554,48.114748],[38.850533,48.114751],[38.850533,48.114804],[38.85056,48.114804],[38.850554,48.114748]]]}},{"type":"Feature","properties":{"cadnum":"4411647300:09:001:0003"},"geometry":{"type":"Polygon","coordinates":[[[38.851238,48.114751],[38.851265,48.114748],[38.851252,48.114693],[38.851229,48.114697],[38.851238,48.114751]]]}},{"type":"Feature","properties":{"cadnum":"4411647300:07:006:0002"},"geometry":{"type":"Polygon","coordinates":[[[38.849042,48.112777],[38.849091,48.112765],[38.849072,48.112594],[38.848996,48.112168],[38.848682,48.112183],[38.848686,48.112241],[38.848812,48.112234],[38.848799,48.112306],[38.848795,48.112435],[38.848808,48.11251],[38.848857,48.112601],[38.849001,48.11275],[38.849042,48.112777]]]}},{"type":"Feature","properties":{"cadnum":"4411647300:09:001:0004"},"geometry":{"type":"Polygon","coordinates":[[[38.851642,48.114646],[38.851642,48.114631],[38.851619,48.114631],[38.851619,48.114646],[38.851642,48.114646]]]}},{"type":"Feature","properties":{"cadnum":"4411647300:09:003:0002"},"geometry":{"type":"Polygon","coordinates":[[[38.852437,48.114544],[38.852441,48.114486],[38.852419,48.114486],[38.852414,48.114544],[38.852437,48.114544]]]}},{"type":"Feature","properties":{"cadnum":"4411647300:07:006:0001"},"geometry":{"type":"Polygon","coordinates":[[[38.848642,48.113212],[38.848902,48.113185],[38.848848,48.11302],[38.848906,48.112867],[38.848983,48.112852],[38.848952,48.112822],[38.848822,48.112663],[38.848785,48.112573],[38.848781,48.112499],[38.848799,48.11237],[38.848822,48.112297],[38.848696,48.112297],[38.848678,48.112741],[38.848596,48.112786],[38.848592,48.11293],[38.848642,48.113212]]]}},{"type":"Feature","properties":{"cadnum":"4411647300:09:003:0003"},"geometry":{"type":"Polygon","coordinates":[[[38.852904,48.114442],[38.852904,48.114426],[38.852877,48.114426],[38.852877,48.114442],[38.852904,48.114442]]]}},{"type":"Feature","properties":{"cadnum":"4411647300:09:006:0001"},"geometry":{"type":"Polygon","coordinates":[[[38.852195,48.114421],[38.852204,48.114322],[38.852141,48.114319],[38.852132,48.114417],[38.852195,48.114421]]]}},{"type":"Feature","properties":{"cadnum":"4411647300:01:013:0004"},"geometry":{"type":"Polygon","coordinates":[[[38.893494,48.173558],[38.893499,48.173543],[38.893427,48.173538],[38.893423,48.173553],[38.893494,48.173558]]]}},{"type":"Feature","properties":{"cadnum":"4411647300:01:013:0002"},"geometry":{"type":"Polygon","coordinates":[[[38.892978,48.175697],[38.892983,48.175679],[38.892915,48.175673],[38.89291,48.175691],[38.892978,48.175697]]]}},{"type":"Feature","properties":{"cadnum":"4411647300:01:013:0003"},"geometry":{"type":"Polygon","coordinates":[[[38.893247,48.174625],[38.893252,48.174606],[38.89318,48.174601],[38.89318,48.174619],[38.893247,48.174625]]]}},{"type":"Feature","properties":{"cadnum":"4411647300:01:009:0001"},"geometry":{"type":"Polygon","coordinates":[[[38.8927,48.176733],[38.892704,48.176715],[38.892632,48.17671],[38.892632,48.176728],[38.8927,48.176733]]]}},{"type":"Feature","properties":{"cadnum":"4411647300:09:008:0001"},"geometry":{"type":"Polygon","coordinates":[[[38.855581,48.110918],[38.855078,48.111032],[38.855024,48.111041],[38.854921,48.111065],[38.854764,48.111101],[38.854741,48.111104],[38.854765,48.111156],[38.85476563157895,48.111156],[38.854768,48.111161],[38.854812,48.111272],[38.855172,48.111188],[38.85564,48.111068],[38.855581,48.110918]]]}},{"type":"Feature","properties":{"cadnum":"4411647300:04:011:0004"},"geometry":{"type":"Polygon","coordinates":[[[38.865695,48.148625],[38.865705,48.148598],[38.865661,48.148593],[38.865655,48.148622],[38.865695,48.148625]]]}},{"type":"Feature","properties":{"cadnum":"4411647300:05:001:0002"},"geometry":{"type":"Polygon","coordinates":[[[38.865206,48.151268],[38.865211,48.151247],[38.865179,48.151245],[38.865175,48.151265],[38.865206,48.151268]]]}},{"type":"Feature","properties":{"cadnum":"4411647300:05:004:0004"},"geometry":{"type":"Polygon","coordinates":[[[38.865844,48.147912],[38.865854,48.147885],[38.865808,48.147879],[38.865804,48.147906],[38.865844,48.147912]]]}},{"type":"Feature","properties":{"cadnum":"4411647300:05:002:0003"},"geometry":{"type":"Polygon","coordinates":[[[38.86885,48.14912],[38.869024,48.149053],[38.868993,48.148997],[38.868877,48.148793],[38.868598,48.148284],[38.868431,48.14832],[38.868701,48.148832],[38.868737,48.148913],[38.868791,48.149036],[38.86885,48.14912]]]}},{"type":"Feature","properties":{"cadnum":"4411647300:05:002:0004"},"geometry":{"type":"Polygon","coordinates":[[[38.867691,48.149611],[38.867839,48.149569],[38.867816,48.149533],[38.867682,48.149255],[38.867609,48.149051],[38.867412,48.148602],[38.867255,48.148635],[38.867475,48.149135],[38.867573,48.149371],[38.867691,48.149611]]]}},{"type":"Feature","properties":{"cadnum":"4411647300:04:011:0001"},"geometry":{"type":"Polygon","coordinates":[[[38.865234,48.149528],[38.865252,48.149455],[38.865144,48.149444],[38.865125,48.149515],[38.865234,48.149528]]]}},{"type":"Feature","properties":{"cadnum":"4411647300:05:002:0005"},"geometry":{"type":"Polygon","coordinates":[[[38.867393,48.149725],[38.867435,48.149713],[38.867556,48.149677],[38.867542,48.149653],[38.867493,48.149554],[38.867506,48.149551],[38.867421,48.149408],[38.86738,48.149306],[38.867179,48.148847],[38.866976,48.148886],[38.867066,48.149113],[38.867192,48.149377],[38.867372,48.149689],[38.867393,48.149725]]]}},{"type":"Feature","properties":{"cadnum":"4411647300:05:001:0003"},"geometry":{"type":"Polygon","coordinates":[[[38.865319,48.150636],[38.865328,48.150609],[38.865288,48.150603],[38.865278,48.15063],[38.865319,48.150636]]]}},{"type":"Feature","properties":{"cadnum":"4411647300:05:002:0001"},"geometry":{"type":"Polygon","coordinates":[[[38.865494,48.149677],[38.865502,48.14965],[38.865458,48.149644],[38.865449,48.149671],[38.865494,48.149677]]]}},{"type":"Feature","properties":{"cadnum":"4411647300:05:002:0002"},"geometry":{"type":"Polygon","coordinates":[[[38.865588,48.149189],[38.865598,48.149162],[38.865552,48.149155],[38.865544,48.149182],[38.865588,48.149189]]]}},{"type":"Feature","properties":{"cadnum":"4411647300:04:012:0002"},"geometry":{"type":"Polygon","coordinates":[[[38.865441,48.148593],[38.865462,48.148524],[38.865355,48.148509],[38.865337,48.14858],[38.865441,48.148593]]]}},{"type":"Feature","properties":{"cadnum":"4411647300:05:001:0001"},"geometry":{"type":"Polygon","coordinates":[[[38.867969,48.151136],[38.868162,48.151101],[38.867938,48.150672],[38.867731,48.150384],[38.867533,48.150435],[38.867969,48.151136]]]}},{"type":"Feature","properties":{"cadnum":"4411647300:04:009:0002"},"geometry":{"type":"Polygon","coordinates":[[[38.864856,48.151203],[38.864879,48.15113],[38.864771,48.151119],[38.864753,48.15119],[38.864856,48.151203]]]}},{"type":"Feature","properties":{"cadnum":"4411647300:04:011:0003"},"geometry":{"type":"Polygon","coordinates":[[[38.865395,48.150208],[38.865404,48.150177],[38.865364,48.150175],[38.865355,48.150201],[38.865395,48.150208]]]}},{"type":"Feature","properties":{"cadnum":"4411647300:04:011:0002"},"geometry":{"type":"Polygon","coordinates":[[[38.865009,48.150567],[38.865026,48.150495],[38.864919,48.150483],[38.864902,48.150555],[38.865009,48.150567]]]}},{"type":"Feature","properties":{"cadnum":"4411647300:10:001:0010"},"geometry":{"type":"Polygon","coordinates":[[[38.847627,48.129859],[38.84757,48.129852],[38.84757,48.129852004545455],[38.847407,48.129832],[38.847375,48.129832],[38.847317,48.129835],[38.847312,48.12985],[38.847258,48.12985],[38.847263,48.129829],[38.847204,48.129823],[38.847218,48.129994],[38.847218,48.130033],[38.847254,48.130129],[38.847277,48.130245],[38.84757,48.13027044835681],[38.84757,48.130271],[38.847703,48.130282],[38.847627,48.129859]]]}},{"type":"Feature","properties":{"cadnum":"4411647300:07:004:0004"},"geometry":{"type":"Polygon","coordinates":[[[38.846113,48.114715],[38.846126,48.11466],[38.846099,48.114657],[38.84609,48.114711],[38.846113,48.114715]]]}},{"type":"Feature","properties":{"cadnum":"4411647300:07:004:0003"},"geometry":{"type":"Polygon","coordinates":[[[38.845641,48.114768],[38.845633,48.114715],[38.84561,48.114715],[38.845619,48.114771],[38.845641,48.114768]]]}},{"type":"Feature","properties":{"cadnum":"4411647300:07:004:0005"},"geometry":{"type":"Polygon","coordinates":[[[38.846665,48.114753],[38.846661,48.114739],[38.846638,48.114739],[38.846638,48.114753],[38.846665,48.114753]]]}},{"type":"Feature","properties":{"cadnum":"4411647300:07:005:0019"},"geometry":{"type":"Polygon","coordinates":[[[38.839425,48.114613],[38.840072,48.114526],[38.839914,48.114001],[38.839218,48.1141],[38.839128,48.114112],[38.838868,48.114148],[38.838954,48.114442],[38.839353,48.114388],[38.839425,48.114613]]]}},{"type":"Feature","properties":{"cadnum":"4411647300:01:008:0001"},"geometry":{"type":"Polygon","coordinates":[[[38.892434,48.177689],[38.892438,48.177671],[38.892367,48.177665],[38.892367,48.177683],[38.892434,48.177689]]]}},{"type":"Feature","properties":{"cadnum":"4411647300:10:003:0002"},"geometry":{"type":"Polygon","coordinates":[[[38.861797,48.121812],[38.861825,48.121806],[38.861797,48.121761],[38.861775,48.121767],[38.861797,48.121812]]]}},{"type":"Feature","properties":{"cadnum":"4411647300:10:003:0001"},"geometry":{"type":"Polygon","coordinates":[[[38.863711,48.121383],[38.863733,48.121378],[38.863707,48.121332],[38.863684,48.121338],[38.863711,48.121383]]]}},{"type":"Feature","properties":{"cadnum":"4411647300:04:007:0003"},"geometry":{"type":"Polygon","coordinates":[[[38.856479,48.152377],[38.856793,48.152338],[38.856753,48.152263],[38.856632,48.152027],[38.856542,48.151876],[38.856516,48.151807],[38.856493,48.151756],[38.856479,48.15173],[38.856483,48.151727],[38.85647,48.1517],[38.856462,48.151682],[38.856457,48.151682],[38.856457,48.151673],[38.85638,48.151685],[38.85638,48.151688],[38.856317,48.151694],[38.856304,48.151697],[38.856192,48.151721],[38.85616,48.151727],[38.856192,48.151796],[38.856206,48.151829],[38.85621,48.151838],[38.856233,48.151889],[38.856367,48.152125],[38.856479,48.152377]]]}},{"type":"Feature","properties":{"cadnum":"4411647300:07:004:0007"},"geometry":{"type":"Polygon","coordinates":[[[38.847711,48.114942],[38.847743,48.114891],[38.847721,48.114886],[38.84769,48.114937],[38.847711,48.114942]]]}},{"type":"Feature","properties":{"cadnum":"4411647300:09:001:0001"},"geometry":{"type":"Polygon","coordinates":[[[38.849864,48.114822],[38.849864,48.114808],[38.849837,48.114808],[38.849837,48.114822],[38.849864,48.114822]]]}},{"type":"Feature","properties":{"cadnum":"4411647300:07:004:0010"},"geometry":{"type":"Polygon","coordinates":[[[38.849333,48.114849],[38.849414,48.114846],[38.849414,48.114828],[38.849329,48.114831],[38.849333,48.114849]]]}},{"type":"Feature","properties":{"cadnum":"4411647300:09:003:0001"},"geometry":{"type":"Polygon","coordinates":[[[38.852419,48.115899],[38.852419,48.115851],[38.852482,48.115851],[38.852482,48.11577],[38.852307,48.11577],[38.852307,48.115899],[38.852419,48.115899]]]}},{"type":"Feature","properties":{"cadnum":"4411647300:07:004:0008"},"geometry":{"type":"Polygon","coordinates":[[[38.848296,48.114886],[38.848296,48.11487],[38.848273,48.11487],[38.848273,48.114886],[38.848296,48.114886]]]}},{"type":"Feature","properties":{"cadnum":"4411647300:07:004:0009"},"geometry":{"type":"Polygon","coordinates":[[[38.848853,48.114868],[38.848853,48.114849],[38.84883,48.114849],[38.84883,48.114868],[38.848853,48.114868]]]}},{"type":"Feature","properties":{"cadnum":"4411647300:07:004:0011"},"geometry":{"type":"Polygon","coordinates":[[[38.849369,48.114984],[38.849451,48.114982],[38.849441,48.114928],[38.849361,48.11493],[38.849369,48.114984]]]}},{"type":"Feature","properties":{"cadnum":"4411647300:09:005:0010"},"geometry":{"type":"Polygon","coordinates":[[[38.857261,48.113509],[38.857261,48.113494],[38.857234,48.113494],[38.857234,48.113509],[38.857261,48.113509]]]}},{"type":"Feature","properties":{"cadnum":"4411647300:09:005:0005"},"geometry":{"type":"Polygon","coordinates":[[[38.854791,48.114019],[38.854812,48.114013],[38.854791,48.113959],[38.854768,48.113964],[38.854791,48.114019]]]}},{"type":"Feature","properties":{"cadnum":"4411647300:09:005:0009"},"geometry":{"type":"Polygon","coordinates":[[[38.857063,48.113548],[38.857063,48.113533],[38.857041,48.113533],[38.857041,48.113548],[38.857063,48.113548]]]}},{"type":"Feature","properties":{"cadnum":"4411647300:09:005:0004"},"geometry":{"type":"Polygon","coordinates":[[[38.854535,48.11407],[38.854558,48.114066],[38.854535,48.114013],[38.854512,48.114019],[38.854535,48.11407]]]}},{"type":"Feature","properties":{"cadnum":"4411647300:09:005:0008"},"geometry":{"type":"Polygon","coordinates":[[[38.8566,48.11362],[38.856623,48.113617],[38.856605,48.113563],[38.856579,48.113566],[38.8566,48.11362]]]}},{"type":"Feature","properties":{"cadnum":"4411647300:09:005:0016"},"geometry":{"type":"Polygon","coordinates":[[[38.858631,48.114615],[38.858626,48.114597],[38.858604,48.114597],[38.858604,48.114615],[38.858631,48.114615]]]}},{"type":"Feature","properties":{"cadnum":"4411647300:09:005:0002"},"geometry":{"type":"Polygon","coordinates":[[[38.853996,48.114246],[38.853992,48.114232],[38.853969,48.114232],[38.853969,48.114246],[38.853996,48.114246]]]}},{"type":"Feature","properties":{"cadnum":"4411647300:09:005:0011"},"geometry":{"type":"Polygon","coordinates":[[[38.857741,48.113416],[38.857741,48.113401],[38.857719,48.113401],[38.857719,48.113416],[38.857741,48.113416]]]}},{"type":"Feature","properties":{"cadnum":"4411647300:09:003:0005"},"geometry":{"type":"Polygon","coordinates":[[[38.853487,48.114631],[38.853569,48.114619],[38.85355,48.114564],[38.85347,48.114577],[38.853487,48.114631]]]}},{"type":"Feature","properties":{"cadnum":"4411647300:09:005:0006"},"geometry":{"type":"Polygon","coordinates":[[[38.855406,48.113857],[38.855406,48.113842],[38.855384,48.113842],[38.855384,48.113857],[38.855406,48.113857]]]}},{"type":"Feature","properties":{"cadnum":"4411647300:09:003:0004"},"geometry":{"type":"Polygon","coordinates":[[[38.853286,48.114384],[38.853367,48.114375],[38.853363,48.114357],[38.853281,48.11437],[38.853286,48.114384]]]}},{"type":"Feature","properties":{"cadnum":"4411647300:09:005:0007"},"geometry":{"type":"Polygon","coordinates":[[[38.85603,48.113728],[38.856111,48.113713],[38.856103,48.113698],[38.856026,48.113713],[38.85603,48.113728]]]}},{"type":"Feature","properties":{"cadnum":"4411647300:09:005:0013"},"geometry":{"type":"Polygon","coordinates":[[[38.858298,48.113305],[38.858298,48.11329],[38.858276,48.11329],[38.858276,48.113305],[38.858298,48.113305]]]}},{"type":"Feature","properties":{"cadnum":"4411647300:09:005:0015"},"geometry":{"type":"Polygon","coordinates":[[[38.858519,48.114175],[38.858519,48.114157],[38.858491,48.114157],[38.858491,48.114175],[38.858519,48.114175]]]}},{"type":"Feature","properties":{"cadnum":"4411647300:09:005:0012"},"geometry":{"type":"Polygon","coordinates":[[[38.858146,48.113335],[38.858227,48.11332],[38.858217,48.113302],[38.858141,48.11332],[38.858146,48.113335]]]}},{"type":"Feature","properties":{"cadnum":"4411647300:09:005:0001"},"geometry":{"type":"Polygon","coordinates":[[[38.853667,48.114348],[38.853709,48.114301],[38.85369,48.114295],[38.853646,48.114342],[38.853667,48.114348]]]}},{"type":"Feature","properties":{"cadnum":"4411647300:09:005:0014"},"geometry":{"type":"Polygon","coordinates":[[[38.858401,48.113719],[38.858401,48.113701],[38.85838,48.113701],[38.85838,48.113719],[38.858401,48.113719]]]}},{"type":"Feature","properties":{"cadnum":"4411647300:09:005:0003"},"geometry":{"type":"Polygon","coordinates":[[[38.854275,48.114181],[38.854283,48.114166],[38.854202,48.114144],[38.854193,48.11416],[38.854275,48.114181]]]}},{"type":"Feature","properties":{"cadnum":"4411647300:09:005:0022"},"geometry":{"type":"Polygon","coordinates":[[[38.862089,48.1146],[38.862579,48.114508],[38.862525,48.114382],[38.862036,48.114477],[38.862089,48.1146]]]}},{"type":"Feature","properties":{"cadnum":"4411647300:01:006:0003"},"geometry":{"type":"Polygon","coordinates":[[[38.886192,48.173945],[38.886192,48.17393],[38.886165,48.17393],[38.886165,48.173945],[38.886192,48.173945]]]}},{"type":"Feature","properties":{"cadnum":"4411647300:05:004:0016"},"geometry":{"type":"Polygon","coordinates":[[[38.871238,48.144477],[38.87171,48.144468],[38.872164,48.144457],[38.872662,48.14445],[38.873026,48.144435],[38.873206,48.144421],[38.873471,48.144397],[38.873758,48.144406],[38.87375,48.144379],[38.873467,48.144375],[38.873098,48.144406],[38.873094,48.14434],[38.872919,48.144346],[38.872915,48.144301],[38.872819,48.144304],[38.872829,48.144421],[38.872653,48.144424],[38.872653,48.144382],[38.872685,48.144382],[38.872685,48.144337],[38.872653,48.144337],[38.872653,48.144292],[38.872542,48.144289],[38.872542,48.144375],[38.872433,48.144375],[38.872433,48.14443],[38.871957,48.144439],[38.871957,48.144403],[38.87198,48.144403],[38.871976,48.144343],[38.871953,48.144343],[38.871949,48.144277],[38.871701,48.144283],[38.87171,48.144444],[38.871238,48.144453],[38.871238,48.144477]]]}},{"type":"Feature","properties":{"cadnum":"4411647300:05:004:0015"},"geometry":{"type":"Polygon","coordinates":[[[38.872465,48.145026],[38.872712,48.144957],[38.873228,48.144852],[38.873364,48.144825],[38.873494,48.144799],[38.873871,48.144741],[38.873772,48.144448],[38.873485,48.144459],[38.873274,48.144477],[38.871244,48.144519],[38.871252,48.144825],[38.872249,48.14481],[38.872307,48.144942],[38.872375,48.144933],[38.872465,48.145026]]]}},{"type":"Feature","properties":{"cadnum":"4411647300:05:004:0017"},"geometry":{"type":"Polygon","coordinates":[[[38.873031,48.145854],[38.873471,48.145718],[38.873039,48.145083],[38.872532,48.14517],[38.873031,48.145854]]]}},{"type":"Feature","properties":{"cadnum":"4411647300:05:004:0001"},"geometry":{"type":"Polygon","coordinates":[[[38.872783,48.145766],[38.872775,48.14573],[38.872397,48.145287],[38.871783,48.145514],[38.872101,48.145659],[38.872536,48.145745],[38.872783,48.145766]]]}},{"type":"Feature","properties":{"cadnum":"4411647300:02:003:0003"},"geometry":{"type":"Polygon","coordinates":[[[38.829782,48.148622],[38.829786,48.148571],[38.829803,48.148349],[38.829809,48.148164],[38.829396,48.148164],[38.829396,48.148191],[38.829409,48.148478],[38.829404,48.148622],[38.829782,48.148622]]]}},{"type":"Feature","properties":{"cadnum":"4411647300:01:002:0001"},"geometry":{"type":"Polygon","coordinates":[[[38.959008,48.148613],[38.959251,48.148556],[38.959511,48.1485],[38.959574,48.148484],[38.959539,48.148395],[38.959511,48.148398],[38.959498,48.148362],[38.959449,48.148203],[38.959125,48.148266],[38.958851,48.148335],[38.959008,48.148613]]]}},{"type":"Feature","properties":{"cadnum":"4411647300:01:002:0002"},"geometry":{"type":"Polygon","coordinates":[[[38.959134,48.148892],[38.959364,48.148835],[38.959714,48.148772],[38.959574,48.148484],[38.959511,48.1485],[38.959251,48.148556],[38.958981,48.148619],[38.959134,48.148892]]]}},{"type":"Feature","properties":{"cadnum":"4411647300:09:004:0005"},"geometry":{"type":"Polygon","coordinates":[[[38.857171,48.117839],[38.857171,48.117824],[38.857149,48.117824],[38.857149,48.117839],[38.857171,48.117839]]]}},{"type":"Feature","properties":{"cadnum":"4411647300:09:004:0006"},"geometry":{"type":"Polygon","coordinates":[[[38.856546,48.118124],[38.856546,48.118106],[38.856525,48.118106],[38.856525,48.118124],[38.856546,48.118124]]]}},{"type":"Feature","properties":{"cadnum":"4411647300:09:004:0007"},"geometry":{"type":"Polygon","coordinates":[[[38.856013,48.118367],[38.856013,48.118349],[38.85599,48.118349],[38.85599,48.118367],[38.856013,48.118367]]]}},{"type":"Feature","properties":{"cadnum":"4411647300:09:004:0003"},"geometry":{"type":"Polygon","coordinates":[[[38.85829,48.1173],[38.85829,48.117284],[38.858267,48.117284],[38.858267,48.1173],[38.85829,48.1173]]]}},{"type":"Feature","properties":{"cadnum":"4411647300:09:004:0004"},"geometry":{"type":"Polygon","coordinates":[[[38.857705,48.117582],[38.857705,48.117566],[38.857684,48.117566],[38.857684,48.117582],[38.857705,48.117582]]]}},{"type":"Feature","properties":{"cadnum":"4411647300:07:005:0012"},"geometry":{"type":"Polygon","coordinates":[[[38.841666,48.115593],[38.841666,48.115578],[38.841644,48.115578],[38.841644,48.115593],[38.841666,48.115593]]]}},{"type":"Feature","properties":{"cadnum":"4411647300:07:001:0001"},"geometry":{"type":"Polygon","coordinates":[[[38.838374,48.116858],[38.838374,48.116844],[38.838352,48.116844],[38.838352,48.116858],[38.838374,48.116858]]]}},{"type":"Feature","properties":{"cadnum":"4411647300:07:005:0003"},"geometry":{"type":"Polygon","coordinates":[[[38.838279,48.116259],[38.838279,48.116244],[38.838252,48.116244],[38.838256,48.116259],[38.838279,48.116259]]]}},{"type":"Feature","properties":{"cadnum":"4411647300:07:002:0001"},"geometry":{"type":"Polygon","coordinates":[[[38.839182,48.117755],[38.839182,48.11774],[38.839155,48.11774],[38.839155,48.117755],[38.839182,48.117755]]]}},{"type":"Feature","properties":{"cadnum":"4411647300:07:005:0013"},"geometry":{"type":"Polygon","coordinates":[[[38.841608,48.115704],[38.84168,48.115689],[38.841662,48.115644],[38.841585,48.115659],[38.841608,48.115704]]]}},{"type":"Feature","properties":{"cadnum":"4411647300:07:001:0005"},"geometry":{"type":"Polygon","coordinates":[[[38.838908,48.117953],[38.838981,48.117932],[38.838948,48.117881],[38.838877,48.117902],[38.838908,48.117953]]]}},{"type":"Feature","properties":{"cadnum":"4411647300:07:002:0003"},"geometry":{"type":"Polygon","coordinates":[[[38.839954,48.117605],[38.839954,48.117587],[38.839927,48.117587],[38.839927,48.117605],[38.839954,48.117605]]]}},{"type":"Feature","properties":{"cadnum":"4411647300:07:005:0001"},"geometry":{"type":"Polygon","coordinates":[[[38.8381,48.116718],[38.8381,48.116702],[38.838019,48.1167],[38.838019,48.116715],[38.8381,48.116718]]]}},{"type":"Feature","properties":{"cadnum":"4411647300:07:005:0005"},"geometry":{"type":"Polygon","coordinates":[[[38.838877,48.11598],[38.838877,48.115965],[38.838851,48.115965],[38.838851,48.11598],[38.838877,48.11598]]]}},{"type":"Feature","properties":{"cadnum":"4411647300:07:005:0008"},"geometry":{"type":"Polygon","coordinates":[[[38.83996,48.115785],[38.839982,48.115731],[38.839954,48.115728],[38.839937,48.115782],[38.83996,48.115785]]]}},{"type":"Feature","properties":{"cadnum":"4411647300:07:005:0009"},"geometry":{"type":"Polygon","coordinates":[[[38.84053,48.115875],[38.84053,48.115821],[38.840503,48.115821],[38.840503,48.115875],[38.84053,48.115875]]]}},{"type":"Feature","properties":{"cadnum":"4411647300:07:005:0021"},"geometry":{"type":"Polygon","coordinates":[[[38.842331,48.11526],[38.8423,48.115173],[38.842249,48.11502698630137],[38.842249,48.115026],[38.842227,48.114964],[38.842201,48.114897],[38.842197,48.114882],[38.842164,48.114888],[38.842128,48.114897],[38.842017,48.114915],[38.841963,48.114928],[38.841914,48.114937],[38.84177,48.114964],[38.841774,48.114984],[38.841801,48.115119],[38.841805,48.115195],[38.841824,48.115306],[38.841824,48.115335],[38.842249,48.115273],[38.842249,48.115272267716534],[38.842331,48.11526]]]}},{"type":"Feature","properties":{"cadnum":"4411647300:07:002:0004"},"geometry":{"type":"Polygon","coordinates":[[[38.840341,48.117527],[38.840341,48.117513],[38.840314,48.117513],[38.840314,48.117527],[38.840341,48.117527]]]}},{"type":"Feature","properties":{"cadnum":"4411647300:07:002:0002"},"geometry":{"type":"Polygon","coordinates":[[[38.839568,48.11768],[38.839568,48.117662],[38.839541,48.117665],[38.839541,48.11768],[38.839568,48.11768]]]}},{"type":"Feature","properties":{"cadnum":"4411647300:07:002:0007"},"geometry":{"type":"Polygon","coordinates":[[[38.841279,48.117353],[38.841352,48.117335],[38.841334,48.117293],[38.841258,48.117309],[38.841279,48.117353]]]}},{"type":"Feature","properties":{"cadnum":"4411647300:07:001:0003"},"geometry":{"type":"Polygon","coordinates":[[[38.838657,48.117515],[38.838657,48.1175],[38.838635,48.1175],[38.838635,48.117515],[38.838657,48.117515]]]}},{"type":"Feature","properties":{"cadnum":"4411647300:07:005:0006"},"geometry":{"type":"Polygon","coordinates":[[[38.839237,48.115914],[38.839237,48.115899],[38.839214,48.115899],[38.839214,48.115914],[38.839237,48.115914]]]}},{"type":"Feature","properties":{"cadnum":"4411647300:07:002:0008"},"geometry":{"type":"Polygon","coordinates":[[[38.841845,48.117413],[38.841998,48.11738],[38.841967,48.117305],[38.84181,48.117338],[38.841845,48.117413]]]}},{"type":"Feature","properties":{"cadnum":"4411647300:07:005:0020"},"geometry":{"type":"Polygon","coordinates":[[[38.838495,48.116688],[38.838581,48.116669],[38.838818,48.116622],[38.838818,48.116618],[38.839034,48.116573],[38.839061,48.116571],[38.839052,48.116547],[38.839021,48.116526],[38.838989,48.116529],[38.838891,48.116547],[38.838814,48.116451],[38.83894,48.116427],[38.838899,48.116409],[38.838859,48.116328],[38.838864,48.116328],[38.838841,48.116268],[38.838805,48.116202],[38.838755,48.116217],[38.838792,48.116286],[38.838818,48.116277],[38.838832,48.116325],[38.838684,48.116358],[38.838629,48.116244],[38.838629,48.11624],[38.838581,48.116253],[38.838581,48.116256],[38.838554,48.116262],[38.838319,48.116313],[38.838333,48.116342],[38.838495,48.116688]]]}},{"type":"Feature","properties":{"cadnum":"4411647300:07:002:0006"},"geometry":{"type":"Polygon","coordinates":[[[38.841038,48.117389],[38.841114,48.117371],[38.841109,48.117356],[38.841029,48.117371],[38.841038,48.117389]]]}},{"type":"Feature","properties":{"cadnum":"4411647300:07:001:0004"},"geometry":{"type":"Polygon","coordinates":[[[38.838788,48.117836],[38.838814,48.117782],[38.838792,48.117776],[38.838765,48.11783],[38.838788,48.117836]]]}},{"type":"Feature","properties":{"cadnum":"4411647300:07:005:0011"},"geometry":{"type":"Polygon","coordinates":[[[38.841262,48.11568],[38.841262,48.115665],[38.841235,48.115665],[38.841235,48.11568],[38.841262,48.11568]]]}},{"type":"Feature","properties":{"cadnum":"4411647300:07:005:0010"},"geometry":{"type":"Polygon","coordinates":[[[38.840893,48.115758],[38.840893,48.115743],[38.840872,48.115743],[38.840872,48.115758],[38.840893,48.115758]]]}},{"type":"Feature","properties":{"cadnum":"4411647300:07:005:0004"},"geometry":{"type":"Polygon","coordinates":[[[38.838545,48.116079],[38.838562,48.116067],[38.838505,48.116028],[38.838486,48.11604],[38.838545,48.116079]]]}},{"type":"Feature","properties":{"cadnum":"4411647300:07:002:0005"},"geometry":{"type":"Polygon","coordinates":[[[38.840728,48.117453],[38.840728,48.117437],[38.8407,48.117437],[38.8407,48.117453],[38.840728,48.117453]]]}},{"type":"Feature","properties":{"cadnum":"4411647300:07:005:0007"},"geometry":{"type":"Polygon","coordinates":[[[38.8396,48.115848],[38.8396,48.115833],[38.839577,48.115833],[38.839577,48.115848],[38.8396,48.115848]]]}},{"type":"Feature","properties":{"cadnum":"4411647300:07:005:0002"},"geometry":{"type":"Polygon","coordinates":[[[38.837969,48.116535],[38.838019,48.116489],[38.837996,48.11648],[38.837952,48.116526],[38.837969,48.116535]]]}},{"type":"Feature","properties":{"cadnum":"4411647300:07:001:0002"},"geometry":{"type":"Polygon","coordinates":[[[38.838522,48.1172],[38.838522,48.117185],[38.838499,48.117185],[38.838499,48.1172],[38.838522,48.1172]]]}},{"type":"Feature","properties":{"cadnum":"4411647300:03:001:0003"},"geometry":{"type":"Polygon","coordinates":[[[38.846207,48.151661],[38.846207,48.151643],[38.846185,48.151643],[38.846185,48.151661],[38.846207,48.151661]]]}},{"type":"Feature","properties":{"cadnum":"4411647300:02:007:0003"},"geometry":{"type":"Polygon","coordinates":[[[38.84495,48.151628],[38.84495,48.15161],[38.844923,48.15161],[38.844923,48.151628],[38.84495,48.151628]]]}},{"type":"Feature","properties":{"cadnum":"4411647300:03:001:0005"},"geometry":{"type":"Polygon","coordinates":[[[38.847191,48.151493],[38.847191,48.151476],[38.847164,48.151476],[38.847164,48.151493],[38.847191,48.151493]]]}},{"type":"Feature","properties":{"cadnum":"4411647300:02:007:0002"},"geometry":{"type":"Polygon","coordinates":[[[38.844275,48.151493],[38.844271,48.151478],[38.844249,48.151478],[38.844249,48.151493],[38.844275,48.151493]]]}},{"type":"Feature","properties":{"cadnum":"4411647300:02:007:0004"},"geometry":{"type":"Polygon","coordinates":[[[38.845596,48.151802],[38.845596,48.151745],[38.845569,48.151745],[38.845569,48.151802],[38.845596,48.151802]]]}},{"type":"Feature","properties":{"cadnum":"4411647300:03:001:0006"},"geometry":{"type":"Polygon","coordinates":[[[38.84755,48.151425],[38.847528,48.151425],[38.847528,48.151442],[38.84755,48.151442],[38.84755,48.151425]]]}},{"type":"Feature","properties":{"cadnum":"4411647300:03:001:0004"},"geometry":{"type":"Polygon","coordinates":[[[38.846715,48.151574],[38.846715,48.151556],[38.846692,48.151556],[38.846692,48.151574],[38.846715,48.151574]]]}},{"type":"Feature","properties":{"cadnum":"4411647300:07:004:0002"},"geometry":{"type":"Polygon","coordinates":[[[38.845147,48.114789],[38.845147,48.114775],[38.845124,48.114775],[38.845124,48.114789],[38.845147,48.114789]]]}},{"type":"Feature","properties":{"cadnum":"4411647300:07:004:0006"},"geometry":{"type":"Polygon","coordinates":[[[38.8472,48.114828],[38.8472,48.114813],[38.847177,48.114813],[38.847177,48.114828],[38.8472,48.114828]]]}},{"type":"Feature","properties":{"cadnum":"4411647300:07:004:0012"},"geometry":{"type":"Polygon","coordinates":[[[38.845848,48.117596],[38.845965,48.117582],[38.845956,48.117545],[38.845834,48.11756],[38.845848,48.117596]]]}},{"type":"Feature","properties":{"cadnum":"4411647300:07:005:0015"},"geometry":{"type":"Polygon","coordinates":[[[38.842991,48.11532],[38.842991,48.115306],[38.842964,48.115306],[38.842964,48.11532],[38.842991,48.11532]]]}},{"type":"Feature","properties":{"cadnum":"4411647300:07:005:0014"},"geometry":{"type":"Polygon","coordinates":[[[38.842327,48.115458],[38.842327,48.11544],[38.842304,48.11544],[38.842304,48.115458],[38.842327,48.115458]]]}},{"type":"Feature","properties":{"cadnum":"4411647300:07:005:0016"},"geometry":{"type":"Polygon","coordinates":[[[38.843646,48.115221],[38.843669,48.115215],[38.843642,48.115164],[38.84362,48.11517],[38.843646,48.115221]]]}},{"type":"Feature","properties":{"cadnum":"4411647300:07:005:0017"},"geometry":{"type":"Polygon","coordinates":[[[38.843935,48.115029],[38.843935,48.115015],[38.843912,48.115015],[38.843912,48.115029],[38.843935,48.115029]]]}},{"type":"Feature","properties":{"cadnum":"4411647300:07:005:0018"},"geometry":{"type":"Polygon","coordinates":[[[38.844114,48.114928],[38.844177,48.114895],[38.844164,48.114882],[38.844096,48.114915],[38.844114,48.114928]]]}},{"type":"Feature","properties":{"cadnum":"4411647300:07:004:0001"},"geometry":{"type":"Polygon","coordinates":[[[38.844658,48.114846],[38.844658,48.114831],[38.844635,48.114831],[38.844635,48.114846],[38.844658,48.114846]]]}},{"type":"Feature","properties":{"cadnum":"4411647300:03:001:0009"},"geometry":{"type":"Polygon","coordinates":[[[38.846405,48.151238],[38.846594,48.151098],[38.846566,48.151061],[38.846553,48.151059],[38.846558,48.15105],[38.846463,48.151041],[38.846459,48.151043],[38.846392,48.151034],[38.846386,48.151041],[38.845655,48.150963],[38.845637,48.15095],[38.845466,48.151008],[38.845565,48.151179],[38.845717,48.151148],[38.846292,48.151185],[38.846333,48.15123],[38.846405,48.151238]]]}},{"type":"Feature","properties":{"cadnum":"4411647300:03:001:0010"},"geometry":{"type":"Polygon","coordinates":[[[38.845889,48.150756],[38.845952,48.150747],[38.845996,48.150738],[38.846082,48.150729],[38.846283,48.150687],[38.846306,48.150618],[38.846153,48.150588],[38.845897,48.150592],[38.845889,48.150756]]]}},{"type":"Feature","properties":{"cadnum":"4411647300:02:005:0001"},"geometry":{"type":"Polygon","coordinates":[[[38.843333,48.148682],[38.843333,48.148679],[38.843355,48.148679],[38.843333,48.148446],[38.843346,48.148431],[38.843342,48.148266],[38.843323,48.148026],[38.843329,48.147975],[38.843072,48.147975],[38.843076,48.148011],[38.843076,48.148194],[38.84308,48.14834],[38.843067,48.148395],[38.843067,48.148424],[38.84308,48.148424],[38.843086,48.14852],[38.843076,48.148644],[38.843086,48.148649],[38.843157,48.14867],[38.843189,48.148673],[38.84326,48.148676],[38.84326,48.148682],[38.843333,48.148682]]]}},{"type":"Feature","properties":{"cadnum":"4411647300:02:008:0002"},"geometry":{"type":"Polygon","coordinates":[[[38.845906,48.149282],[38.84618,48.148988],[38.846162,48.148793],[38.846176,48.148718],[38.846221,48.148575],[38.846117,48.148533],[38.84592,48.14891],[38.845776,48.149162],[38.845906,48.149282]]]}},{"type":"Feature","properties":{"cadnum":"4411647300:02:008:0003"},"geometry":{"type":"Polygon","coordinates":[[[38.846418,48.149866],[38.846571,48.149701],[38.846602,48.149551],[38.846719,48.14938],[38.846728,48.149317],[38.846642,48.149242],[38.846553,48.14909],[38.846518,48.148973],[38.84618,48.148988],[38.846235,48.149159],[38.846351,48.149357],[38.846279,48.149491],[38.846275,48.149519],[38.846248,48.149623],[38.846315,48.149689],[38.846288,48.149734],[38.846418,48.149866]]]}},{"type":"Feature","properties":{"cadnum":"4411647300:02:008:0001"},"geometry":{"type":"Polygon","coordinates":[[[38.84618,48.148988],[38.846518,48.148973],[38.846512,48.148841],[38.846495,48.148781],[38.846531,48.148704],[38.846579,48.148646],[38.846562,48.148577],[38.846378,48.148391],[38.84627,48.148269],[38.846117,48.148533],[38.846221,48.148575],[38.846176,48.148718],[38.846162,48.148793],[38.84618,48.148988]]]}},{"type":"Feature","properties":{"cadnum":"4411647300:03:001:0011"},"geometry":{"type":"Polygon","coordinates":[[[38.846508,48.151034],[38.846675,48.151019],[38.846652,48.150906],[38.846625,48.150768],[38.846548,48.150696],[38.846436,48.150657],[38.846283,48.150687],[38.846082,48.150729],[38.845996,48.150738],[38.845952,48.150747],[38.845889,48.150756],[38.845439,48.150864],[38.845516,48.151005],[38.846422,48.150744],[38.846508,48.151034]]]}},{"type":"Feature","properties":{"cadnum":"4411647300:02:008:0004"},"geometry":{"type":"Polygon","coordinates":[[[38.846248,48.149623],[38.846275,48.149519],[38.846279,48.149491],[38.846351,48.149357],[38.846235,48.149159],[38.84618,48.148988],[38.845906,48.149282],[38.845979,48.149366],[38.846248,48.149623]]]}},{"type":"Feature","properties":{"cadnum":"4411647300:02:007:0001"},"geometry":{"type":"Polygon","coordinates":[[[38.843418,48.151314],[38.843418,48.151298],[38.843396,48.151298],[38.843396,48.151314],[38.843418,48.151314]]]}},{"type":"Feature","properties":{"cadnum":"4411647300:03:001:0012"},"geometry":{"type":"Polygon","coordinates":[[[38.846531,48.150354],[38.846441,48.150073],[38.846292,48.150082],[38.846153,48.150135],[38.845633,48.150175],[38.845663,48.150255],[38.846531,48.150354]]]}},{"type":"Feature","properties":{"cadnum":"4411647300:10:004:0011"},"geometry":{"type":"Polygon","coordinates":[[[38.854737,48.120705],[38.854737,48.120691],[38.854709,48.120691],[38.854709,48.120705],[38.854737,48.120705]]]}},{"type":"Feature","properties":{"cadnum":"4411647300:10:003:0013"},"geometry":{"type":"Polygon","coordinates":[[[38.854508,48.121422],[38.854508,48.121405],[38.854485,48.121405],[38.854485,48.121422],[38.854508,48.121422]]]}},{"type":"Feature","properties":{"cadnum":"4411647300:10:003:0014"},"geometry":{"type":"Polygon","coordinates":[[[38.854422,48.121689],[38.854422,48.121674],[38.854399,48.121674],[38.854399,48.121689],[38.854422,48.121689]]]}},{"type":"Feature","properties":{"cadnum":"4411647300:10:004:0010"},"geometry":{"type":"Polygon","coordinates":[[[38.854795,48.120265],[38.854875,48.120262],[38.854875,48.120244],[38.854795,48.12025],[38.854795,48.120265]]]}},{"type":"Feature","properties":{"cadnum":"4411647300:10:004:0012"},"geometry":{"type":"Polygon","coordinates":[[[38.857095,48.12094],[38.857149,48.120936],[38.857179,48.120936],[38.857405,48.120922],[38.857324,48.120352],[38.857292,48.120106],[38.857118,48.120148],[38.857135,48.120427],[38.857139,48.120567],[38.857135,48.120667],[38.857108,48.120862],[38.857104,48.120862],[38.857095,48.12094]]]}},{"type":"Feature","properties":{"cadnum":"4411647300:09:004:0012"},"geometry":{"type":"Polygon","coordinates":[[[38.854548,48.11906],[38.854571,48.119053],[38.854548,48.119018],[38.854606,48.119002],[38.854598,48.118987],[38.854516,48.119009],[38.854548,48.11906]]]}},{"type":"Feature","properties":{"cadnum":"4411647300:09:004:0011"},"geometry":{"type":"Polygon","coordinates":[[[38.854768,48.119849],[38.854768,48.119833],[38.854741,48.119833],[38.854741,48.119849],[38.854768,48.119849]]]}},{"type":"Feature","properties":{"cadnum":"4411647300:09:004:0010"},"geometry":{"type":"Polygon","coordinates":[[[38.854661,48.119434],[38.854655,48.11942],[38.854634,48.11942],[38.854634,48.119434],[38.854661,48.119434]]]}},{"type":"Feature","properties":{"cadnum":"4411647300:10:003:0015"},"geometry":{"type":"Polygon","coordinates":[[[38.854336,48.121959],[38.854336,48.121944],[38.854315,48.121944],[38.854315,48.121959],[38.854336,48.121959]]]}},{"type":"Feature","properties":{"cadnum":"4411647300:09:004:0008"},"geometry":{"type":"Polygon","coordinates":[[[38.855563,48.118567],[38.855563,48.118549],[38.855541,48.118549],[38.855541,48.118567],[38.855563,48.118567]]]}},{"type":"Feature","properties":{"cadnum":"4411647300:10:003:0012"},"geometry":{"type":"Polygon","coordinates":[[[38.854598,48.12114],[38.854598,48.121125],[38.854575,48.121125],[38.854575,48.12114],[38.854598,48.12114]]]}},{"type":"Feature","properties":{"cadnum":"4411647300:09:004:0009"},"geometry":{"type":"Polygon","coordinates":[[[38.855047,48.118798],[38.855047,48.118784],[38.85502,48.118784],[38.85502,48.118798],[38.855047,48.118798]]]}},{"type":"Feature","properties":{"cadnum":"4411647300:01:007:0001"},"geometry":{"type":"Polygon","coordinates":[[[38.883303,48.172992],[38.883469,48.172947],[38.883483,48.172965],[38.883716,48.172905],[38.883735,48.172912],[38.883748,48.172912],[38.883761,48.172905],[38.883765,48.172894],[38.883771,48.172894],[38.883771,48.17289],[38.883833,48.172872],[38.883914,48.172858],[38.883756,48.172672],[38.883698,48.172599],[38.883087,48.172783],[38.883137,48.172848],[38.883272,48.172987],[38.883303,48.172992]]]}},{"type":"Feature","properties":{"cadnum":"4411647300:03:002:0001"},"geometry":{"type":"Polygon","coordinates":[[[38.860953,48.154846],[38.861043,48.154804],[38.86098,48.154747],[38.86089,48.15479],[38.860953,48.154846]]]}},{"type":"Feature","properties":{"cadnum":"4411647300:04:008:0003"},"geometry":{"type":"Polygon","coordinates":[[[38.862665,48.154106],[38.862749,48.154064],[38.862687,48.154008],[38.862602,48.154049],[38.862665,48.154106]]]}},{"type":"Feature","properties":{"cadnum":"4411647300:04:008:0006"},"geometry":{"type":"Polygon","coordinates":[[[38.862552,48.152236],[38.86288,48.152147],[38.862821,48.152071],[38.862732,48.152],[38.862709,48.151958],[38.862687,48.151916],[38.862642,48.151825],[38.862543,48.15185],[38.862479,48.151867],[38.862485,48.151871],[38.862372,48.151901],[38.862336,48.151913],[38.862345,48.151931],[38.862426,48.152078],[38.862552,48.152236]]]}},{"type":"Feature","properties":{"cadnum":"4411647300:04:005:0001"},"geometry":{"type":"Polygon","coordinates":[[[38.859318,48.154376],[38.859376,48.154366],[38.859462,48.154352],[38.859453,48.15431],[38.859426,48.154232],[38.859422,48.154214],[38.859399,48.154127],[38.859363,48.154001],[38.859255,48.153537],[38.859099,48.153549],[38.859259,48.154163],[38.859273,48.154229],[38.859318,48.154376]]]}},{"type":"Feature","properties":{"cadnum":"4411647300:06:003:0022"},"geometry":{"type":"Polygon","coordinates":[[[38.860198,48.145563],[38.860271,48.145545],[38.860244,48.145494],[38.860167,48.145514],[38.860198,48.145563]]]}},{"type":"Feature","properties":{"cadnum":"4411647300:04:012:0004"},"geometry":{"type":"Polygon","coordinates":[[[38.86181,48.147603],[38.86181,48.147589],[38.861789,48.147589],[38.861789,48.147603],[38.86181,48.147603]]]}},{"type":"Feature","properties":{"cadnum":"4411647300:06:003:0024"},"geometry":{"type":"Polygon","coordinates":[[[38.861236,48.146174],[38.861236,48.146159],[38.861213,48.146159],[38.861213,48.146174],[38.861236,48.146174]]]}},{"type":"Feature","properties":{"cadnum":"4411647300:06:003:0015"},"geometry":{"type":"Polygon","coordinates":[[[38.863464,48.145799],[38.863464,48.145781],[38.863441,48.145781],[38.863441,48.145799],[38.863464,48.145799]]]}},{"type":"Feature","properties":{"cadnum":"4411647300:06:003:0018"},"geometry":{"type":"Polygon","coordinates":[[[38.861986,48.145674],[38.861986,48.145659],[38.861963,48.145659],[38.861963,48.145674],[38.861986,48.145674]]]}},{"type":"Feature","properties":{"cadnum":"4411647300:06:003:0027"},"geometry":{"type":"Polygon","coordinates":[[[38.861586,48.147049],[38.861586,48.147034],[38.861564,48.147034],[38.861564,48.147049],[38.861586,48.147049]]]}},{"type":"Feature","properties":{"cadnum":"4411647300:06:003:0025"},"geometry":{"type":"Polygon","coordinates":[[[38.861353,48.146467],[38.861353,48.14645],[38.86133,48.14645],[38.86133,48.146467],[38.861353,48.146467]]]}},{"type":"Feature","properties":{"cadnum":"4411647300:06:003:0017"},"geometry":{"type":"Polygon","coordinates":[[[38.862479,48.145715],[38.862479,48.145701],[38.862458,48.145701],[38.862458,48.145715],[38.862479,48.145715]]]}},{"type":"Feature","properties":{"cadnum":"4411647300:06:003:0014"},"geometry":{"type":"Polygon","coordinates":[[[38.863957,48.145841],[38.863953,48.145823],[38.863931,48.145823],[38.863931,48.145841],[38.863957,48.145841]]]}},{"type":"Feature","properties":{"cadnum":"4411647300:06:003:0020"},"geometry":{"type":"Polygon","coordinates":[[[38.861003,48.145592],[38.861003,48.145574],[38.86098,48.145574],[38.86098,48.145592],[38.861003,48.145592]]]}},{"type":"Feature","properties":{"cadnum":"4411647300:06:003:0023"},"geometry":{"type":"Polygon","coordinates":[[[38.861097,48.145886],[38.861177,48.145871],[38.861169,48.145856],[38.861087,48.145868],[38.861097,48.145886]]]}},{"type":"Feature","properties":{"cadnum":"4411647300:06:003:0019"},"geometry":{"type":"Polygon","coordinates":[[[38.86147,48.145634],[38.861496,48.145632],[38.861496,48.145616],[38.86147,48.145616],[38.86147,48.145634]]]}},{"type":"Feature","properties":{"cadnum":"4411647300:04:012:0003"},"geometry":{"type":"Polygon","coordinates":[[[38.861686,48.147343],[38.861707,48.14734],[38.861686,48.147285],[38.861663,48.147289],[38.861686,48.147343]]]}},{"type":"Feature","properties":{"cadnum":"4411647300:06:003:0016"},"geometry":{"type":"Polygon","coordinates":[[[38.86297,48.145757],[38.86297,48.145743],[38.862948,48.145743],[38.862948,48.145757],[38.86297,48.145757]]]}},{"type":"Feature","properties":{"cadnum":"4411647300:06:003:0026"},"geometry":{"type":"Polygon","coordinates":[[[38.86147,48.146758],[38.86147,48.14674],[38.861447,48.14674],[38.861447,48.146758],[38.86147,48.146758]]]}},{"type":"Feature","properties":{"cadnum":"4411647300:06:003:0021"},"geometry":{"type":"Polygon","coordinates":[[[38.860458,48.145545],[38.860458,48.14553],[38.860437,48.14553],[38.860437,48.145545],[38.860458,48.145545]]]}},{"type":"Feature","properties":{"cadnum":"4411647300:01:014:0001"},"geometry":{"type":"Polygon","coordinates":[[[38.893786,48.172468],[38.893818,48.172399],[38.89371,48.172379],[38.893683,48.17245],[38.893786,48.172468]]]}},{"type":"Feature","properties":{"cadnum":"4411647300:01:015:0002"},"geometry":{"type":"Polygon","coordinates":[[[38.89397,48.171067],[38.894056,48.171021],[38.893993,48.170965],[38.893903,48.171007],[38.89397,48.171067]]]}},{"type":"Feature","properties":{"cadnum":"4411647300:01:013:0001"},"geometry":{"type":"Polygon","coordinates":[[[38.895278,48.171402],[38.895385,48.171393],[38.895371,48.171321],[38.895264,48.171329],[38.895278,48.171402]]]}},{"type":"Feature","properties":{"cadnum":"4411647300:01:015:0001"},"geometry":{"type":"Polygon","coordinates":[[[38.894025,48.170551],[38.894025,48.170536],[38.893953,48.170533],[38.893953,48.170551],[38.894025,48.170551]]]}},{"type":"Feature","properties":{"cadnum":"4411647300:04:008:0002"},"geometry":{"type":"Polygon","coordinates":[[[38.864336,48.153348],[38.864399,48.153288],[38.864309,48.153246],[38.864246,48.153306],[38.864336,48.153348]]]}},{"type":"Feature","properties":{"cadnum":"4411647300:04:008:0004"},"geometry":{"type":"Polygon","coordinates":[[[38.864879,48.153234],[38.864883,48.153213],[38.864852,48.153207],[38.864848,48.153231],[38.864879,48.153234]]]}},{"type":"Feature","properties":{"cadnum":"4411647300:03:003:0003"},"geometry":{"type":"Polygon","coordinates":[[[38.866787,48.153036],[38.866783,48.153013],[38.866747,48.153015],[38.866752,48.153036],[38.866787,48.153036]]]}},{"type":"Feature","properties":{"cadnum":"4411647300:04:008:0001"},"geometry":{"type":"Polygon","coordinates":[[[38.864627,48.152227],[38.864645,48.152156],[38.864542,48.15214],[38.864519,48.152212],[38.864627,48.152227]]]}},{"type":"Feature","properties":{"cadnum":"4411647300:03:003:0002"},"geometry":{"type":"Polygon","coordinates":[[[38.86862,48.152824],[38.868657,48.15282],[38.868651,48.1528],[38.868615,48.152802],[38.86862,48.152824]]]}},{"type":"Feature","properties":{"cadnum":"4411647300:04:008:0005"},"geometry":{"type":"Polygon","coordinates":[[[38.864995,48.152569],[38.864999,48.152548],[38.864965,48.152545],[38.864959,48.152566],[38.864995,48.152569]]]}},{"type":"Feature","properties":{"cadnum":"4411647300:01:001:0003"},"geometry":{"type":"Polygon","coordinates":[[[38.879418,48.178851],[38.879984,48.178722],[38.879912,48.178599],[38.879903,48.178582],[38.879871,48.178524],[38.879899,48.178513],[38.879858,48.178444],[38.879274,48.178546],[38.879418,48.178851]]]}},{"type":"Feature","properties":{"cadnum":"4411647300:01:001:0004"},"geometry":{"type":"Polygon","coordinates":[[[38.87909,48.178923],[38.879418,48.178851],[38.879274,48.178546],[38.878987,48.178593],[38.879117,48.178818],[38.87909,48.178923]]]}},{"type":"Feature","properties":{"cadnum":"4411647300:01:011:0004"},"geometry":{"type":"Polygon","coordinates":[[[38.88793,48.172627],[38.887947,48.172615],[38.887884,48.172579],[38.887867,48.172591],[38.88793,48.172627]]]}},{"type":"Feature","properties":{"cadnum":"4411647300:01:016:0001"},"geometry":{"type":"Polygon","coordinates":[[[38.89061,48.170093],[38.89061,48.170075],[38.890589,48.170075],[38.890589,48.170093],[38.89061,48.170093]]]}},{"type":"Feature","properties":{"cadnum":"4411647300:01:016:0003"},"geometry":{"type":"Polygon","coordinates":[[[38.890014,48.170722],[38.890014,48.170707],[38.889991,48.170707],[38.889991,48.170722],[38.890014,48.170722]]]}},{"type":"Feature","properties":{"cadnum":"4411647300:01:006:0002"},"geometry":{"type":"Polygon","coordinates":[[[38.886807,48.173387],[38.886807,48.17337],[38.886779,48.17337],[38.886779,48.173387],[38.886807,48.173387]]]}},{"type":"Feature","properties":{"cadnum":"4411647300:01:011:0003"},"geometry":{"type":"Polygon","coordinates":[[[38.888477,48.172184],[38.88849,48.172168],[38.888429,48.172133],[38.888415,48.172144],[38.888477,48.172184]]]}},{"type":"Feature","properties":{"cadnum":"4411647300:01:016:0005"},"geometry":{"type":"Polygon","coordinates":[[[38.889511,48.171273],[38.889511,48.171255],[38.889484,48.171255],[38.889484,48.171273],[38.889511,48.171273]]]}},{"type":"Feature","properties":{"cadnum":"4411647300:01:010:0001"},"geometry":{"type":"Polygon","coordinates":[[[38.88749,48.172872],[38.88749,48.172858],[38.887463,48.172858],[38.887463,48.172872],[38.88749,48.172872]]]}},{"type":"Feature","properties":{"cadnum":"4411647300:01:016:0004"},"geometry":{"type":"Polygon","coordinates":[[[38.889758,48.170994],[38.889758,48.17098],[38.889735,48.17098],[38.889735,48.170994],[38.889758,48.170994]]]}},{"type":"Feature","properties":{"cadnum":"4411647300:01:006:0006"},"geometry":{"type":"Polygon","coordinates":[[[38.887201,48.173076],[38.887201,48.173058],[38.887175,48.173058],[38.887175,48.173076],[38.887201,48.173076]]]}},{"type":"Feature","properties":{"cadnum":"4411647300:01:016:0002"},"geometry":{"type":"Polygon","coordinates":[[[38.890319,48.170414],[38.890319,48.170398],[38.890297,48.170398],[38.890297,48.170414],[38.890319,48.170414]]]}},{"type":"Feature","properties":{"cadnum":"4411647300:01:011:0001"},"geometry":{"type":"Polygon","coordinates":[[[38.889205,48.171644],[38.889218,48.171633],[38.889155,48.171597],[38.889138,48.171609],[38.889205,48.171644]]]}},{"type":"Feature","properties":{"cadnum":"4411647300:01:011:0002"},"geometry":{"type":"Polygon","coordinates":[[[38.888679,48.171971],[38.888679,48.171953],[38.888656,48.171953],[38.888656,48.171971],[38.888679,48.171971]]]}}]}