{"type":"FeatureCollection","features":[{"type":"Feature","properties":{"cadnum":"4412347100:01:001:0031"},"geometry":{"type":"Polygon","coordinates":[[[39.256881,48.139844],[39.25653247987616,48.140375],[39.256532,48.140375],[39.255642,48.141735],[39.254065,48.141447],[39.254065,48.14144761309977],[39.252923,48.141238],[39.251441,48.140998],[39.25044,48.141538],[39.250418,48.14252],[39.248743,48.14269502707093],[39.248743,48.142695],[39.248307,48.142739],[39.248571,48.143583678899084],[39.248571,48.143585],[39.248748,48.144155],[39.24874957248157,48.144155],[39.248841,48.144448],[39.248845,48.145383],[39.248765,48.145886],[39.249789,48.146467],[39.250063,48.147115],[39.249793,48.147483],[39.250952,48.147744],[39.25194,48.146797],[39.253082,48.146632],[39.253642,48.146],[39.254065,48.14620295454545],[39.254065,48.146203],[39.25407760000038,48.146209000000184],[39.254236,48.146285],[39.254236,48.14628442857143],[39.254317,48.146323],[39.255386,48.144577],[39.256491,48.145041],[39.257209,48.144232],[39.25716838738757,48.144119579580085],[39.257061,48.143818],[39.256535,48.143449],[39.255376,48.142994],[39.256001,48.141714],[39.256297,48.141769],[39.257213,48.142245],[39.257317,48.141343],[39.256481,48.141085],[39.25685224647887,48.14049],[39.256853,48.14049],[39.257191,48.139949],[39.256881,48.139844]],[[39.253055,48.1413],[39.253041,48.141313],[39.253018,48.141303],[39.253036,48.141289],[39.253055,48.1413]],[[39.252636,48.141795],[39.252619,48.14181],[39.2526,48.141798],[39.252619,48.141786],[39.252636,48.141795]],[[39.252119,48.14218],[39.252137,48.142191],[39.25212,48.142203],[39.252103,48.142194],[39.252116,48.142178],[39.252119,48.14218]],[[39.251506,48.142682],[39.251527,48.142691],[39.251508,48.142706],[39.251491,48.142694],[39.251504,48.142682],[39.251506,48.142682]],[[39.251051,48.14291],[39.251065,48.142919],[39.251047,48.142931],[39.251028,48.142922],[39.251047,48.142907],[39.251051,48.14291]],[[39.250183,48.14264],[39.250682,48.142584],[39.250799,48.143054],[39.250521,48.143084],[39.250525,48.143111],[39.250508,48.143138],[39.250472,48.14315],[39.250319,48.143168],[39.250336,48.143251],[39.249879,48.143302],[39.249793,48.142943],[39.250246,48.142893],[39.250183,48.14264]],[[39.250638,48.143228],[39.250625,48.143242],[39.250602,48.143231],[39.250619,48.143219],[39.250638,48.143228]],[[39.250355,48.143495],[39.250336,48.143509],[39.250319,48.143497],[39.250336,48.143486],[39.250355,48.143495]]]}},{"type":"Feature","properties":{"cadnum":"4412347100:01:001:0004"},"geometry":{"type":"Polygon","coordinates":[[[39.256881,48.139844],[39.25653247987616,48.140375],[39.256532,48.140375],[39.255642,48.141735],[39.254065,48.141447],[39.254065,48.14144761309977],[39.252923,48.141238],[39.251441,48.140998],[39.25044,48.141538],[39.250418,48.14252],[39.248743,48.14269502707093],[39.248743,48.142695],[39.248307,48.142739],[39.248571,48.143583678899084],[39.248571,48.143585],[39.248748,48.144155],[39.24874957248157,48.144155],[39.248841,48.144448],[39.248845,48.145383],[39.248765,48.145886],[39.249789,48.146467],[39.250063,48.147115],[39.249793,48.147483],[39.250952,48.147744],[39.25194,48.146797],[39.253082,48.146632],[39.253642,48.146],[39.254065,48.14620295454545],[39.254065,48.146203],[39.25407760000038,48.146209000000184],[39.254236,48.146285],[39.254236,48.14628442857143],[39.254317,48.146323],[39.255386,48.144577],[39.256491,48.145041],[39.257209,48.144232],[39.25716838738757,48.144119579580085],[39.257061,48.143818],[39.256535,48.143449],[39.255376,48.142994],[39.256001,48.141714],[39.256297,48.141769],[39.257213,48.142245],[39.257317,48.141343],[39.256481,48.141085],[39.25685224647887,48.14049],[39.256853,48.14049],[39.257191,48.139949],[39.256881,48.139844]]]}},{"type":"Feature","properties":{"cadnum":"4412347100:01:001:0024"},"geometry":{"type":"Polygon","coordinates":[[[39.253814,48.140423],[39.253795,48.14041],[39.253778,48.140425],[39.253795,48.140434],[39.253814,48.140423]]]}},{"type":"Feature","properties":{"cadnum":"4412347100:01:001:0028"},"geometry":{"type":"Polygon","coordinates":[[[39.251231,48.14024],[39.251514,48.140194],[39.251288,48.139586],[39.251011,48.139631],[39.251231,48.14024]]]}},{"type":"Feature","properties":{"cadnum":"4412347100:02:001:0104"},"geometry":{"type":"Polygon","coordinates":[[[39.249147,48.139784],[39.24943,48.139742],[39.249294,48.139365],[39.249151,48.139388],[39.249017,48.139409],[39.249147,48.139784]]]}},{"type":"Feature","properties":{"cadnum":"4412347100:01:001:0025"},"geometry":{"type":"Polygon","coordinates":[[[39.253701,48.140012],[39.253715,48.139997],[39.253697,48.139988],[39.253678,48.14],[39.253701,48.140012]]]}},{"type":"Feature","properties":{"cadnum":"4412347100:01:001:0009"},"geometry":{"type":"Polygon","coordinates":[[[39.25247,48.140174],[39.252542,48.140152],[39.25251,48.140105],[39.252439,48.140129],[39.25247,48.140174]]]}},{"type":"Feature","properties":{"cadnum":"4412347100:02:001:0121"},"geometry":{"type":"Polygon","coordinates":[[[39.24912,48.139889],[39.249556,48.139805],[39.2499,48.139763],[39.250009,48.139742],[39.250005,48.139733],[39.249896,48.139754],[39.249556,48.139796],[39.249115,48.13988],[39.24868202040081,48.13994048979694],[39.247996,48.140036],[39.247983,48.14],[39.247705,48.140054],[39.247705,48.140063],[39.247969,48.140012],[39.247988,48.140045],[39.248571,48.13996469271523],[39.248571,48.139965],[39.24912,48.139889]]]}},{"type":"Feature","properties":{"cadnum":"4412347100:02:001:0061"},"geometry":{"type":"Polygon","coordinates":[[[39.250296,48.139616],[39.250606,48.139577],[39.250503,48.139212],[39.250368,48.139227],[39.250198,48.139245],[39.250296,48.139616]]]}},{"type":"Feature","properties":{"cadnum":"4412347100:02:001:0099"},"geometry":{"type":"Polygon","coordinates":[[[39.252502,48.137506],[39.253135,48.137362],[39.252955,48.13693],[39.252326,48.137075],[39.252502,48.137506]]]}},{"type":"Feature","properties":{"cadnum":"4412347100:02:001:0074"},"geometry":{"type":"Polygon","coordinates":[[[39.252978,48.137228],[39.253,48.137219],[39.252986,48.137203],[39.252965,48.137212],[39.252978,48.137228]]]}},{"type":"Feature","properties":{"cadnum":"4412347100:02:001:0071"},"geometry":{"type":"Polygon","coordinates":[[[39.25402,48.137961],[39.254038,48.13795],[39.25402,48.137937],[39.254002,48.137953],[39.25402,48.137961]]]}},{"type":"Feature","properties":{"cadnum":"4412347100:02:001:0117"},"geometry":{"type":"Polygon","coordinates":[[[39.253831,48.136691],[39.253283,48.136511],[39.253162,48.136624],[39.25341475132277,48.136709],[39.253414,48.136709],[39.253724,48.136813],[39.253831,48.136691]]]}},{"type":"Feature","properties":{"cadnum":"4412347100:02:001:0072"},"geometry":{"type":"Polygon","coordinates":[[[39.253621,48.137722],[39.253638,48.137706],[39.253615,48.137697],[39.253602,48.13771],[39.253621,48.137722]]]}},{"type":"Feature","properties":{"cadnum":"4412347100:02:001:0060"},"geometry":{"type":"Polygon","coordinates":[[[39.249986,48.139655],[39.250296,48.139616],[39.250198,48.139245],[39.250126,48.139254],[39.249887,48.139283],[39.249986,48.139655]]]}},{"type":"Feature","properties":{"cadnum":"4412347100:02:001:0075"},"geometry":{"type":"Polygon","coordinates":[[[39.252744,48.136973],[39.252766,48.136964],[39.252749,48.136948],[39.25273,48.136961],[39.252744,48.136973]]]}},{"type":"Feature","properties":{"cadnum":"4412347100:02:001:0120"},"geometry":{"type":"Polygon","coordinates":[[[39.251109,48.139092],[39.250971,48.138597],[39.252156,48.138474],[39.252156,48.138465],[39.250961,48.138588],[39.24898,48.138792],[39.248571,48.138841],[39.248571,48.13884127994956],[39.247157,48.139008],[39.247157,48.139017],[39.248743,48.13883],[39.248743,48.138829593220336],[39.248984,48.138801],[39.250957,48.1386],[39.251095,48.139094],[39.251109,48.139092]]]}},{"type":"Feature","properties":{"cadnum":"4412347100:01:001:0030"},"geometry":{"type":"Polygon","coordinates":[[[39.250009,48.139742],[39.251258,48.139523],[39.251262,48.139532],[39.252443,48.139343],[39.252443,48.139334],[39.251271,48.13952],[39.251267,48.139514],[39.251231,48.13952],[39.251109,48.139092],[39.251095,48.139094],[39.251217,48.13952],[39.250005,48.139733],[39.250009,48.139742]]]}},{"type":"Feature","properties":{"cadnum":"4412347100:02:001:0124"},"geometry":{"type":"Polygon","coordinates":[[[39.251514,48.136139],[39.250269,48.13628],[39.250426,48.136824],[39.25042628552803,48.136824],[39.250615,48.137476],[39.250871,48.137443],[39.251109,48.13741],[39.251347,48.13738],[39.251877,48.137311],[39.25172491362126,48.136824],[39.251726,48.136824],[39.251514,48.136139]]]}},{"type":"Feature","properties":{"cadnum":"4412347100:02:001:0123"},"geometry":{"type":"Polygon","coordinates":[[[39.248571,48.136342444839855],[39.248571,48.136343],[39.250238,48.136175],[39.250252,48.136223],[39.250212,48.136229],[39.25033139495798,48.136709],[39.250331,48.136709],[39.25035211056266,48.13679228232961],[39.25036,48.136824],[39.250360150417826,48.136824],[39.250422,48.137068],[39.248743,48.1372231102107],[39.248743,48.137223],[39.248208,48.137272],[39.246258,48.137467],[39.246258,48.137476],[39.248208,48.137281],[39.248571,48.137247753271026],[39.248571,48.137248],[39.250422,48.137077],[39.250512,48.137425],[39.250625,48.137737],[39.250642,48.137734],[39.250655,48.137782],[39.248743,48.13796732821498],[39.248743,48.137967],[39.246717,48.138163],[39.246721,48.138172],[39.248743,48.137976],[39.248743,48.13797524355301],[39.250665,48.137788],[39.251634,48.137695],[39.25163,48.137674],[39.251693,48.137665],[39.251698,48.137683],[39.252097,48.137644],[39.252097,48.137635],[39.251711,48.137674],[39.251707,48.137656],[39.251613,48.137665],[39.251617,48.137686],[39.250669,48.137779],[39.250655,48.137725],[39.250633,48.137728],[39.250525,48.137425],[39.250344,48.136709],[39.25034329881154,48.136709],[39.250225,48.136235],[39.250265,48.136232],[39.250252,48.136166],[39.248571,48.136333],[39.248571,48.13633329100529],[39.248176,48.136373],[39.246277,48.13661],[39.246277,48.136619],[39.248181,48.136382],[39.248571,48.136342444839855]]]}},{"type":"Feature","properties":{"cadnum":"4412347100:02:001:0026"},"geometry":{"type":"Polygon","coordinates":[[[39.251613,48.138012],[39.252089,48.137946],[39.252044,48.137766],[39.251567,48.137833],[39.251613,48.138012]]]}},{"type":"Feature","properties":{"cadnum":"4412347100:01:001:0027"},"geometry":{"type":"Polygon","coordinates":[[[39.251105,48.13907],[39.251343,48.13905],[39.251267,48.138666],[39.251019,48.138693],[39.251105,48.13907]]]}},{"type":"Feature","properties":{"cadnum":"4412347100:02:001:0129"},"geometry":{"type":"Polygon","coordinates":[[[39.250584,48.138268],[39.250822,48.138237],[39.250755,48.137997],[39.250764,48.137997],[39.250736,48.137893],[39.250485,48.137923],[39.250584,48.138268]]]}},{"type":"Feature","properties":{"cadnum":"4412347100:02:001:0098"},"geometry":{"type":"Polygon","coordinates":[[[39.253432,48.1386],[39.253531,48.138579],[39.253503,48.138528],[39.253409,48.138549],[39.253432,48.1386]]]}},{"type":"Feature","properties":{"cadnum":"4412347100:02:001:0065"},"geometry":{"type":"Polygon","coordinates":[[[39.250238,48.139241],[39.250503,48.139212],[39.250525,48.139212],[39.250315,48.138666],[39.250067,48.138696],[39.250238,48.139241]]]}},{"type":"Feature","properties":{"cadnum":"4412347100:01:001:0032"},"geometry":{"type":"Polygon","coordinates":[[[39.24943,48.139742],[39.249713,48.139697],[39.249573,48.139325],[39.249371,48.139352],[39.249294,48.139365],[39.24943,48.139742]]]}},{"type":"Feature","properties":{"cadnum":"4412347100:02:001:0038"},"geometry":{"type":"Polygon","coordinates":[[[39.248868,48.137944],[39.248797,48.137659],[39.24876,48.137665],[39.24861874736847,48.13767994736841],[39.248535,48.137688],[39.248571,48.13782904109589],[39.248571,48.137832],[39.248608,48.137974],[39.248743,48.137959],[39.248743,48.137958423076924],[39.248868,48.137944]]]}},{"type":"Feature","properties":{"cadnum":"4412347100:02:001:0130"},"geometry":{"type":"Polygon","coordinates":[[[39.248931,48.139475],[39.249047,48.139466],[39.249174,48.139454],[39.24903,48.138921],[39.248791,48.13895],[39.248931,48.139475]]]}},{"type":"Feature","properties":{"cadnum":"4412347100:02:001:0073"},"geometry":{"type":"Polygon","coordinates":[[[39.253216,48.137479],[39.253234,48.137467],[39.253216,48.137455],[39.253198,48.137467],[39.253216,48.137479]]]}},{"type":"Feature","properties":{"cadnum":"4412347100:02:002:0096"},"geometry":{"type":"Polygon","coordinates":[[[39.234172,48.13715],[39.23467,48.137117],[39.234635,48.136877],[39.23414,48.136906],[39.234172,48.13715]]]}},{"type":"Feature","properties":{"cadnum":"4412347100:02:002:0102"},"geometry":{"type":"Polygon","coordinates":[[[39.251254,48.132893],[39.251288,48.132872],[39.251275,48.132866],[39.251235,48.132893],[39.25148324561404,48.133043],[39.251483,48.133043],[39.251518,48.133064],[39.251451,48.133115],[39.251522,48.133158],[39.251522696465706,48.133158],[39.253055,48.134077],[39.253711,48.134547],[39.252363,48.135396],[39.25168,48.135015],[39.250592,48.134437],[39.250584,48.134446],[39.251667,48.135018],[39.250961,48.1353],[39.251011,48.135402],[39.251042,48.135558],[39.248743,48.13579711088628],[39.248743,48.135797],[39.247013,48.135977],[39.247004,48.135959],[39.246973,48.135962],[39.246595,48.134682],[39.246609,48.13456],[39.247444,48.134407],[39.248504,48.134173],[39.248743,48.134091],[39.248743,48.13409004357298],[39.24903,48.13399],[39.249259,48.133879],[39.24925,48.133873],[39.249021,48.133984],[39.248620193548675,48.13412294623646],[39.2485,48.134164],[39.24744,48.134398],[39.246604,48.134551],[39.246465,48.134553],[39.244812,48.134799],[39.244956,48.135234],[39.244969,48.135231],[39.24483,48.134805],[39.246465,48.134562],[39.246595,48.13456],[39.246581,48.134686],[39.246963,48.135975],[39.246996,48.135968],[39.247,48.13598],[39.245229,48.136154],[39.243698,48.136334],[39.24311674999849,48.13636868750009],[39.243042,48.136373],[39.239350470066455,48.136709],[39.239345,48.136709],[39.238258161464145,48.13680842102516],[39.238087,48.136824],[39.23808785714292,48.136824],[39.237757,48.13685426590909],[39.237757,48.136854],[39.234252,48.137173],[39.234252,48.137182],[39.237585,48.136878654208274],[39.237585,48.136879],[39.23829344556866,48.13681431914787],[39.243047,48.136382],[39.24325,48.13637],[39.24325,48.136369735483875],[39.243698,48.136343],[39.245235,48.136163],[39.247,48.135989],[39.248743,48.135806],[39.248743,48.13580599677939],[39.251055,48.135564],[39.251024,48.135402],[39.250979,48.135306],[39.251675,48.135024],[39.252363,48.135408],[39.253728,48.134547],[39.253804,48.134487],[39.253818,48.134497],[39.253854,48.134469],[39.253841,48.134466],[39.253818,48.134484],[39.2538,48.134475],[39.253719,48.134542],[39.253063,48.134071],[39.252996,48.134031],[39.253059,48.13399],[39.253049,48.133984],[39.252986,48.134026],[39.252326,48.133631],[39.252412,48.133582],[39.252403,48.133576],[39.252317,48.133624],[39.251468,48.133115],[39.251537,48.133064],[39.251254,48.132893]]]}},{"type":"Feature","properties":{"cadnum":"4412347100:02:002:0098"},"geometry":{"type":"Polygon","coordinates":[[[39.236273,48.136514],[39.235834,48.136583],[39.235878439834025,48.136709],[39.235878,48.136709],[39.23590983090403,48.13679800291612],[39.235919,48.136824],[39.23591912847222,48.136824],[39.235981,48.136997],[39.236367,48.136946],[39.23634023206751,48.136824],[39.236341,48.136824],[39.236273,48.136514]]]}},{"type":"Feature","properties":{"cadnum":"4412347100:02:002:0089"},"geometry":{"type":"Polygon","coordinates":[[[39.236453,48.136475],[39.236273,48.136514],[39.23631577419355,48.136709],[39.236315,48.136709],[39.236367,48.136946],[39.236547,48.136928],[39.236501,48.136709],[39.23650060458453,48.136709],[39.236453,48.136475]]]}},{"type":"Feature","properties":{"cadnum":"4412347100:01:001:0005"},"geometry":{"type":"Polygon","coordinates":[[[39.250741,48.147747],[39.250638,48.14782],[39.250638398625426,48.14782],[39.250332,48.148038],[39.249726,48.148367],[39.248917,48.148598],[39.248571,48.148662],[39.248571,48.14866270338983],[39.248271,48.148718],[39.24725,48.148742],[39.246703,48.148704],[39.246671,48.148781],[39.247017,48.148847],[39.2469,48.149009],[39.247044,48.149062],[39.24722,48.14888],[39.247803,48.148889],[39.248508,48.148865],[39.248743,48.148813],[39.248743,48.148812540372674],[39.249537,48.148635],[39.250296,48.14826],[39.250529,48.148062],[39.250629,48.148109],[39.250826,48.147927],[39.250741,48.147894],[39.250845,48.147783],[39.250741,48.147747]]]}},{"type":"Feature","properties":{"cadnum":"4412347100:02:003:0081"},"geometry":{"type":"Polygon","coordinates":[[[39.252372,48.133543],[39.252542,48.133444],[39.25274,48.133336],[39.252439,48.133118],[39.252259,48.133244],[39.25207,48.13336],[39.252372,48.133543]]]}},{"type":"Feature","properties":{"cadnum":"4412347100:02:001:0100"},"geometry":{"type":"Polygon","coordinates":[[[39.254563,48.135404],[39.254621,48.135369],[39.254537,48.135297],[39.254344,48.135404],[39.254338,48.135402],[39.254236,48.13545540772532],[39.254236,48.135455],[39.254105,48.135524],[39.254083,48.135504],[39.253414,48.135837],[39.253373,48.135851],[39.253395,48.135875],[39.253414,48.135869],[39.253436,48.135893],[39.253539,48.135968],[39.253871,48.135795],[39.254236,48.13559],[39.254236,48.1355891686747],[39.254563,48.135404]]]}},{"type":"Feature","properties":{"cadnum":"4412347100:02:003:0078"},"geometry":{"type":"Polygon","coordinates":[[[39.260326,48.129145],[39.259913481268015,48.129377],[39.259913,48.129377],[39.259674,48.129511],[39.259145,48.129805],[39.258705,48.13006],[39.257973,48.130378],[39.257623,48.13054],[39.257676,48.130587],[39.257074,48.130878],[39.256818,48.131007],[39.256387,48.131238],[39.255736,48.131616],[39.255726,48.131694],[39.255642,48.13176],[39.25561,48.131742],[39.25543,48.131871],[39.255305,48.131976],[39.25482,48.132272],[39.254514,48.132446],[39.2541686153848,48.13262215384606],[39.253871,48.132773],[39.253377285714286,48.133043],[39.253377,48.133043],[39.252403,48.133576],[39.252412,48.133582],[39.253397,48.133043],[39.25339632894737,48.133043],[39.253881,48.132778],[39.254236,48.132597],[39.254236,48.13259642384106],[39.254518,48.132452],[39.254829,48.132278],[39.255318,48.131982],[39.255443,48.131876],[39.25561,48.131754],[39.255642,48.131771],[39.25574,48.131696],[39.255745,48.131618],[39.256395,48.131244],[39.256823,48.131013],[39.257083,48.130884],[39.257694,48.130591],[39.25764,48.130542],[39.257977,48.130383],[39.258714,48.130069],[39.259154,48.129811],[39.259558,48.12958749429658],[39.259558,48.129588],[39.25968,48.12952],[39.259729,48.129493],[39.259729,48.12949262890625],[39.25973012587413,48.129492],[39.259731,48.129492],[39.260336,48.129154],[39.260326,48.129145]]]}},{"type":"Feature","properties":{"cadnum":"4412347100:02:002:0103"},"geometry":{"type":"Polygon","coordinates":[[[39.251298,48.135989],[39.251508,48.135957],[39.251487,48.135897],[39.25128,48.135926],[39.251284,48.135944],[39.251298,48.135989]]]}},{"type":"Feature","properties":{"cadnum":"4412347100:02:002:0094"},"geometry":{"type":"Polygon","coordinates":[[[39.252833,48.135066],[39.253036,48.134928],[39.25242,48.134542],[39.252282,48.13464],[39.25242,48.134727],[39.252542,48.134841],[39.252833,48.135066]]]}},{"type":"Feature","properties":{"cadnum":"4412347100:02:001:0131"},"geometry":{"type":"Polygon","coordinates":[[[39.253531,48.136292],[39.253692,48.136142],[39.253724,48.1361],[39.253611,48.136058],[39.253458,48.136008],[39.253468,48.135995],[39.253449,48.135989],[39.253441,48.136001],[39.253324,48.135962],[39.253229,48.136073],[39.253279,48.136097],[39.253265,48.136112],[39.253279,48.136118],[39.253221,48.136172],[39.253206,48.136166],[39.253198,48.136175],[39.253242,48.136202],[39.253288,48.13622],[39.253531,48.136292]]]}},{"type":"Feature","properties":{"cadnum":"4412347100:02:001:0080"},"geometry":{"type":"Polygon","coordinates":[[[39.25234,48.135953],[39.252407,48.135929],[39.252399,48.135915],[39.252331,48.135938],[39.25234,48.135953]]]}},{"type":"Feature","properties":{"cadnum":"4412347100:02:002:0069"},"geometry":{"type":"Polygon","coordinates":[[[39.249713,48.134038],[39.24973,48.134026],[39.249717,48.134014],[39.249694,48.134023],[39.249713,48.134038]]]}},{"type":"Feature","properties":{"cadnum":"4412347100:02:002:0105"},"geometry":{"type":"Polygon","coordinates":[[[39.250714,48.13416],[39.250808,48.134098],[39.250022,48.133571],[39.249923,48.133633],[39.250714,48.13416]]]}},{"type":"Feature","properties":{"cadnum":"4412347100:02:003:0079"},"geometry":{"type":"Polygon","coordinates":[[[39.253508,48.133009],[39.25344946086956,48.133043],[39.253449,48.133043],[39.25331,48.133124],[39.253354,48.133158],[39.2533542866242,48.133158],[39.253719,48.133438],[39.25393,48.133322],[39.253554,48.133043],[39.25355363758389,48.133043],[39.253508,48.133009]]]}},{"type":"Feature","properties":{"cadnum":"4412347100:02:002:0101"},"geometry":{"type":"Polygon","coordinates":[[[39.250413,48.135593],[39.250979,48.135555],[39.250957,48.135426],[39.250692,48.135444],[39.250696,48.135486],[39.250655,48.135489],[39.250659,48.135513],[39.250405,48.135542],[39.250413,48.135593]]]}},{"type":"Feature","properties":{"cadnum":"4412347100:02:002:0071"},"geometry":{"type":"Polygon","coordinates":[[[39.249227,48.133313],[39.249254,48.133309],[39.24925,48.133295],[39.249223,48.133295],[39.249227,48.133313]]]}},{"type":"Feature","properties":{"cadnum":"4412347100:02:001:0018"},"geometry":{"type":"Polygon","coordinates":[[[39.253845,48.134944],[39.253625,48.135093],[39.254065,48.13548784716156],[39.254065,48.135488],[39.254083,48.135504],[39.254105,48.135524],[39.254338,48.135402],[39.254065,48.135148],[39.254065,48.13514880818414],[39.253845,48.134944]]]}},{"type":"Feature","properties":{"cadnum":"4412347100:02:001:0086"},"geometry":{"type":"Polygon","coordinates":[[[39.253894,48.134875],[39.253912,48.134862],[39.253894,48.13485],[39.253875,48.134862],[39.253894,48.134875]]]}},{"type":"Feature","properties":{"cadnum":"4412347100:02:001:0111"},"geometry":{"type":"Polygon","coordinates":[[[39.253737,48.135515],[39.253952,48.135387],[39.253625,48.135093],[39.253432,48.135204],[39.253525,48.135297],[39.253517,48.135302],[39.253566,48.135353],[39.253737,48.135515]]]}},{"type":"Feature","properties":{"cadnum":"4412347100:02:001:0081"},"geometry":{"type":"Polygon","coordinates":[[[39.252668,48.135689],[39.252736,48.135666],[39.252722,48.135651],[39.252655,48.135675],[39.252668,48.135689]]]}},{"type":"Feature","properties":{"cadnum":"4412347100:02:001:0085"},"geometry":{"type":"Polygon","coordinates":[[[39.253688,48.135015],[39.253701,48.135003],[39.253682,48.134991],[39.253665,48.135003],[39.253688,48.135015]]]}},{"type":"Feature","properties":{"cadnum":"4412347100:02:002:0097"},"geometry":{"type":"Polygon","coordinates":[[[39.250309,48.13566],[39.250629,48.135624],[39.250625,48.1356],[39.250665,48.135597],[39.250655,48.135555],[39.250921,48.135537],[39.250971,48.13551],[39.250908,48.135371],[39.250894,48.135344],[39.250835,48.135357],[39.250799,48.135371],[39.250562,48.135422],[39.250233,48.135495],[39.250309,48.13566]]]}},{"type":"Feature","properties":{"cadnum":"4412347100:02:001:0118"},"geometry":{"type":"Polygon","coordinates":[[[39.253831,48.136691],[39.253971,48.136535],[39.253445,48.136361],[39.253283,48.136511],[39.253831,48.136691]]]}},{"type":"Feature","properties":{"cadnum":"4412347100:02:003:0091"},"geometry":{"type":"Polygon","coordinates":[[[39.254047,48.133834],[39.254065,48.13384689552239],[39.254065,48.133847],[39.254114,48.133882],[39.25437,48.134053],[39.254608,48.133873],[39.254644,48.133843],[39.254411,48.133675],[39.254397,48.133684],[39.25433,48.133645],[39.254217,48.133714],[39.254047,48.133834]]]}},{"type":"Feature","properties":{"cadnum":"4412347100:02:002:0007"},"geometry":{"type":"Polygon","coordinates":[[[39.251221,48.132953],[39.251217,48.132953],[39.251191,48.132935],[39.251101,48.132989],[39.251087,48.132977],[39.250970304347824,48.133043],[39.250969,48.133043],[39.250965,48.133046],[39.251095,48.133145],[39.251181,48.133204],[39.251221,48.133229],[39.251419,48.133096],[39.251221,48.132953]]]}},{"type":"Feature","properties":{"cadnum":"4412347100:02:002:0067"},"geometry":{"type":"Polygon","coordinates":[[[39.250562,48.134739],[39.250584,48.13473],[39.25057,48.134718],[39.250548,48.134727],[39.250562,48.134739]]]}},{"type":"Feature","properties":{"cadnum":"4412347100:02:002:0064"},"geometry":{"type":"Polygon","coordinates":[[[39.25172,48.135866],[39.251743,48.135857],[39.251698,48.135813],[39.251675,48.135822],[39.25172,48.135866]]]}},{"type":"Feature","properties":{"cadnum":"4412347100:02:001:0113"},"geometry":{"type":"Polygon","coordinates":[[[39.253158,48.136208],[39.253166,48.136199],[39.253175,48.136205],[39.253234,48.136154],[39.253221,48.136148],[39.253238,48.136133],[39.253166,48.136097],[39.253145,48.136088],[39.253063,48.136163],[39.253158,48.136208]]]}},{"type":"Feature","properties":{"cadnum":"4412347100:02:001:0082"},"geometry":{"type":"Polygon","coordinates":[[[39.253027,48.135459],[39.253045,48.135447],[39.253023,48.135435],[39.253009,48.135447],[39.253027,48.135459]]]}},{"type":"Feature","properties":{"cadnum":"4412347100:02:003:0066"},"geometry":{"type":"Polygon","coordinates":[[[39.253751,48.134464],[39.253975,48.134298],[39.253938,48.13428],[39.253984,48.134248],[39.253711,48.134065],[39.253405,48.134236],[39.253751,48.134464]]]}},{"type":"Feature","properties":{"cadnum":"4412347100:02:002:0068"},"geometry":{"type":"Polygon","coordinates":[[[39.250179,48.134371],[39.250202,48.134362],[39.250189,48.134347],[39.250166,48.134355],[39.250179,48.134371]]]}},{"type":"Feature","properties":{"cadnum":"4412347100:02:001:0119"},"geometry":{"type":"Polygon","coordinates":[[[39.254181,48.134604],[39.254168,48.134598],[39.254038,48.134691],[39.254061,48.134704],[39.254065,48.1347005],[39.254065,48.134701],[39.254069,48.134697],[39.254055,48.134691],[39.254065,48.13468409523809],[39.254065,48.134685],[39.254181,48.134604]]]}},{"type":"Feature","properties":{"cadnum":"4412347100:02:002:0065"},"geometry":{"type":"Polygon","coordinates":[[[39.251325,48.13548],[39.251343,48.135471],[39.25133,48.135459],[39.251311,48.135468],[39.251325,48.13548]]]}},{"type":"Feature","properties":{"cadnum":"4412347100:02:001:0064"},"geometry":{"type":"Polygon","coordinates":[[[39.252164,48.136295],[39.252304,48.136271],[39.252286,48.13622],[39.252143,48.136244],[39.252164,48.136295]]]}},{"type":"Feature","properties":{"cadnum":"4412347100:02:001:0083"},"geometry":{"type":"Polygon","coordinates":[[[39.253238,48.135302],[39.25331,48.135279],[39.253296,48.135264],[39.253229,48.135288],[39.253238,48.135302]]]}},{"type":"Feature","properties":{"cadnum":"4412347100:02:001:0105"},"geometry":{"type":"Polygon","coordinates":[[[39.252875,48.136277],[39.253206,48.13595],[39.252699,48.135737],[39.25229,48.136017],[39.252875,48.136277]]]}},{"type":"Feature","properties":{"cadnum":"4412347100:02:002:0092"},"geometry":{"type":"Polygon","coordinates":[[[39.250233,48.135495],[39.250562,48.135422],[39.250799,48.135371],[39.250835,48.135357],[39.250894,48.135344],[39.250881,48.135321],[39.250804,48.135192],[39.250449,48.135273],[39.250162,48.135339],[39.250233,48.135495]]]}},{"type":"Feature","properties":{"cadnum":"4412347100:02:001:0076"},"geometry":{"type":"Polygon","coordinates":[[[39.252506,48.136721],[39.252529,48.136712],[39.25252,48.136697],[39.252497,48.136706],[39.252506,48.136721]]]}},{"type":"Feature","properties":{"cadnum":"4412347100:02:001:0079"},"geometry":{"type":"Polygon","coordinates":[[[39.25181,48.136301],[39.25181,48.13625],[39.251707,48.13625],[39.251711,48.136301],[39.25181,48.136301]]]}},{"type":"Feature","properties":{"cadnum":"4412347100:02:003:0040"},"geometry":{"type":"Polygon","coordinates":[[[39.251464,48.132769],[39.251284,48.132878],[39.25174,48.133158],[39.25174108955224,48.133158],[39.251881,48.133244],[39.252026,48.133153],[39.251464,48.132769]]]}},{"type":"Feature","properties":{"cadnum":"4412347100:02:001:0024"},"geometry":{"type":"Polygon","coordinates":[[[39.24942,48.135693],[39.249632,48.135671],[39.249564,48.135213],[39.24951,48.134946],[39.249453,48.134847],[39.24925,48.134922],[39.249321,48.135279],[39.24942,48.135693]]]}},{"type":"Feature","properties":{"cadnum":"4412347100:02:002:0079"},"geometry":{"type":"Polygon","coordinates":[[[39.25199,48.135174],[39.252542,48.134841],[39.25242,48.134727],[39.252151,48.134892],[39.252048,48.134955],[39.252039,48.134967],[39.251994,48.135],[39.251963,48.135006],[39.251944,48.135021],[39.251944,48.13503],[39.251837,48.135084],[39.251868,48.135114],[39.251873,48.135111],[39.25199,48.135174]]]}},{"type":"Feature","properties":{"cadnum":"4412347100:02:002:0001"},"geometry":{"type":"Polygon","coordinates":[[[39.251095,48.133145],[39.250961,48.133042],[39.250959333333334,48.133043],[39.250959,48.133043],[39.250831,48.13312],[39.250878,48.133158],[39.250879431372546,48.133158],[39.250961,48.133222],[39.250971,48.133216],[39.251055,48.133285],[39.251091,48.133313],[39.251221,48.133229],[39.251181,48.133204],[39.25111394915255,48.133158],[39.251114,48.133158],[39.251095,48.133145]]]}},{"type":"Feature","properties":{"cadnum":"4412347100:02:001:0095"},"geometry":{"type":"Polygon","coordinates":[[[39.251298,48.135989],[39.251508,48.135957],[39.251487,48.135897],[39.25128,48.135926],[39.251284,48.135944],[39.251298,48.135989]]]}},{"type":"Feature","properties":{"cadnum":"4412347100:02:002:0066"},"geometry":{"type":"Polygon","coordinates":[[[39.250942,48.135111],[39.250965,48.135102],[39.250952,48.135087],[39.250929,48.135096],[39.250942,48.135111]]]}},{"type":"Feature","properties":{"cadnum":"4412347100:02:001:0116"},"geometry":{"type":"Polygon","coordinates":[[[39.254065,48.136430682926836],[39.254065,48.136431],[39.254217,48.136262],[39.253715,48.136097],[39.253678,48.136139],[39.253517,48.136289],[39.253445,48.136361],[39.253971,48.136535],[39.254065,48.136430682926836]]]}},{"type":"Feature","properties":{"cadnum":"4412347100:02:002:0070"},"geometry":{"type":"Polygon","coordinates":[[[39.24933,48.133693],[39.249353,48.133682],[39.249313,48.133648],[39.249367,48.133622],[39.249353,48.133609],[39.249277,48.133645],[39.24933,48.133693]]]}},{"type":"Feature","properties":{"cadnum":"4412347100:02:001:0087"},"geometry":{"type":"Polygon","coordinates":[[[39.254164,48.134695],[39.254213,48.134724],[39.254227,48.134713],[39.254158,48.134671],[39.254101,48.134715],[39.254118,48.134727],[39.254164,48.134695]]]}},{"type":"Feature","properties":{"cadnum":"4412347100:02:001:0094"},"geometry":{"type":"Polygon","coordinates":[[[39.252219,48.136564],[39.252282,48.136555],[39.252254,48.136487],[39.252196,48.136495],[39.252219,48.136564]]]}},{"type":"Feature","properties":{"cadnum":"4412347100:02:002:0093"},"geometry":{"type":"Polygon","coordinates":[[[39.249694,48.134844],[39.249887,48.134775],[39.249919,48.134826],[39.250143,48.134736],[39.250377,48.134631],[39.250206,48.134442],[39.249955,48.134566],[39.249866,48.134602],[39.249793,48.134644],[39.249856,48.13473],[39.249793,48.134755],[39.249663,48.134802],[39.249694,48.134844]]]}},{"type":"Feature","properties":{"cadnum":"4412347100:02:002:0003"},"geometry":{"type":"Polygon","coordinates":[[[39.251455,48.135531],[39.251563,48.135522],[39.251554,48.135477],[39.251447,48.135486],[39.251455,48.135531]]]}},{"type":"Feature","properties":{"cadnum":"4412347100:02:001:0126"},"geometry":{"type":"Polygon","coordinates":[[[39.254913,48.135759],[39.25468,48.135642],[39.25420692307727,48.1359658461536],[39.253984,48.136118],[39.254034,48.136151],[39.254038,48.136146],[39.254061,48.13616],[39.254065,48.136154],[39.254227,48.136202],[39.254236,48.136197],[39.254236,48.13619618804665],[39.254913,48.135759]]]}},{"type":"Feature","properties":{"cadnum":"4412347100:02:002:0063"},"geometry":{"type":"Polygon","coordinates":[[[39.251971,48.136109],[39.251994,48.1361],[39.25198,48.136088],[39.251958,48.136097],[39.251971,48.136109]]]}},{"type":"Feature","properties":{"cadnum":"4412347100:02:003:0077"},"geometry":{"type":"Polygon","coordinates":[[[39.262464,48.128354],[39.264372,48.12717],[39.264364,48.127163],[39.262455,48.128348],[39.261364,48.128978],[39.26080431322957,48.129377],[39.260804,48.129377],[39.259729,48.13014399438202],[39.259729,48.130143],[39.257554,48.131694],[39.256644,48.132389],[39.256661,48.132398],[39.25577667105264,48.133043],[39.255776,48.133043],[39.255215,48.133453],[39.255223,48.13346],[39.254236,48.134179367875646],[39.254236,48.134179],[39.253841,48.134466],[39.253854,48.134469],[39.254065,48.13431544502618],[39.254065,48.134316],[39.255242,48.133456],[39.255233,48.133451],[39.255792,48.133043],[39.25579197368421,48.133043],[39.256678,48.132398],[39.256665,48.132389],[39.257564,48.1317],[39.259558,48.130279793071594],[39.259558,48.13028],[39.26066277076412,48.129492],[39.260663,48.129492],[39.261378,48.128983],[39.262464,48.128354]]]}},{"type":"Feature","properties":{"cadnum":"4412347100:02:002:0100"},"geometry":{"type":"Polygon","coordinates":[[[39.253275,48.13479],[39.253454,48.134662],[39.25291,48.134266],[39.252717,48.134389],[39.253275,48.13479]]]}},{"type":"Feature","properties":{"cadnum":"4412347100:02:001:0122"},"geometry":{"type":"Polygon","coordinates":[[[39.254236,48.13481149014085],[39.25442,48.134925],[39.254797,48.135168],[39.255237,48.135413],[39.255246,48.135404],[39.254806,48.135162],[39.254428,48.134919],[39.254069,48.134697],[39.254061,48.134704],[39.254236,48.134812],[39.254236,48.13481149014085]]]}},{"type":"Feature","properties":{"cadnum":"4412347100:02:002:0104"},"geometry":{"type":"Polygon","coordinates":[[[39.253369,48.134598],[39.253521,48.134502],[39.253611,48.134566],[39.253665,48.134529],[39.253588,48.134478],[39.253592,48.134478],[39.253103,48.134142],[39.25291,48.134266],[39.253369,48.134598]]]}},{"type":"Feature","properties":{"cadnum":"4412347100:02:001:0001"},"geometry":{"type":"Polygon","coordinates":[[[39.251122,48.136017],[39.251298,48.135989],[39.251284,48.135944],[39.251105,48.135971],[39.251122,48.136017]]]}},{"type":"Feature","properties":{"cadnum":"4412347100:02:003:0076"},"geometry":{"type":"Polygon","coordinates":[[[39.255538,48.132351],[39.255525,48.132341],[39.254467274173805,48.133043],[39.254466,48.133043],[39.254236,48.133196715710724],[39.254236,48.133196],[39.253049,48.133984],[39.253059,48.13399],[39.254236,48.133213],[39.254236,48.13321153647059],[39.25431668439716,48.133158],[39.254317,48.133158],[39.255538,48.132351]]]}},{"type":"Feature","properties":{"cadnum":"4412347100:02:001:0078"},"geometry":{"type":"Polygon","coordinates":[[[39.252074,48.136217],[39.252084,48.136202],[39.252007,48.136184],[39.251999,48.136202],[39.252074,48.136217]]]}},{"type":"Feature","properties":{"cadnum":"4412347100:02:001:0084"},"geometry":{"type":"Polygon","coordinates":[[[39.253476,48.135156],[39.253495,48.135144],[39.253476,48.135132],[39.253458,48.135144],[39.253476,48.135156]]]}},{"type":"Feature","properties":{"cadnum":"4412347100:02:003:0035"},"geometry":{"type":"Polygon","coordinates":[[[39.253512,48.133606],[39.253764,48.133438],[39.253328,48.13312],[39.253027,48.133282],[39.253206,48.133414],[39.253269,48.13346],[39.253512,48.133606]]]}},{"type":"Feature","properties":{"cadnum":"4412347100:02:001:0077"},"geometry":{"type":"Polygon","coordinates":[[[39.252273,48.136466],[39.252296,48.136457],[39.252282,48.136442],[39.252259,48.136451],[39.252273,48.136466]]]}},{"type":"Feature","properties":{"cadnum":"4412347100:13:001:0035"},"geometry":{"type":"Polygon","coordinates":[[[39.211534,48.138061],[39.211871,48.13801],[39.211844,48.13795],[39.211517,48.13801],[39.211534,48.138061]]]}},{"type":"Feature","properties":{"cadnum":"4412347100:13:001:0019"},"geometry":{"type":"Polygon","coordinates":[[[39.211517,48.13801],[39.211844,48.13795],[39.211628,48.137425],[39.211309,48.137482],[39.211421,48.137752],[39.211517,48.13801]]]}},{"type":"Feature","properties":{"cadnum":"4412347100:02:001:0003"},"geometry":{"type":"Polygon","coordinates":[[[39.260888,48.129298],[39.26064,48.129127],[39.26055,48.129112],[39.260322,48.129247],[39.26049132773109,48.129377],[39.260491,48.129377],[39.260632,48.129485],[39.260888,48.129298]]]}},{"type":"Feature","properties":{"cadnum":"4412347100:02:003:0085"},"geometry":{"type":"Polygon","coordinates":[[[39.261439,48.131703],[39.261665,48.131567],[39.261305,48.131274],[39.261081,48.131424],[39.261439,48.131703]]]}},{"type":"Feature","properties":{"cadnum":"4412347100:02:003:0094"},"geometry":{"type":"Polygon","coordinates":[[[39.259108,48.132755],[39.25923,48.132845],[39.25958080833309,48.13307714166651],[39.25962199056653,48.1331044811324],[39.259729,48.133176],[39.259729,48.133175521008404],[39.259796,48.13322],[39.260003,48.133091],[39.259558,48.132802],[39.259558,48.13280226932084],[39.259302,48.132635],[39.259108,48.132755]]]}},{"type":"Feature","properties":{"cadnum":"4412347100:02:003:0062"},"geometry":{"type":"Polygon","coordinates":[[[39.259522,48.131115],[39.259418,48.131025],[39.259342,48.130965],[39.259302,48.130995],[39.259248,48.131037],[39.259257,48.13104],[39.259298,48.131067],[39.259441,48.131202],[39.259544,48.13128],[39.259558,48.13128961081081],[39.259558,48.13129],[39.2597289999997,48.1314069999998],[39.259729,48.131407],[39.259881,48.131511],[39.260003,48.131456],[39.2599,48.131385],[39.259674,48.131223],[39.259522,48.131115]]]}},{"type":"Feature","properties":{"cadnum":"4412347100:02:003:0074"},"geometry":{"type":"Polygon","coordinates":[[[39.260183,48.131873],[39.260888,48.131451],[39.260879,48.131445],[39.260173,48.131867],[39.259729,48.13214422926829],[39.259729,48.132144],[39.259397,48.132351],[39.258318113087675,48.133043],[39.258317,48.133043],[39.25817,48.133138],[39.258179,48.133147],[39.259405,48.13236],[39.259558,48.13226413888889],[39.259558,48.132265],[39.260183,48.131873]]]}},{"type":"Feature","properties":{"cadnum":"4412347100:02:003:0022"},"geometry":{"type":"Polygon","coordinates":[[[39.260487,48.1328],[39.260686,48.132677],[39.260011,48.132176],[39.25981,48.1323],[39.260487,48.1328]]]}},{"type":"Feature","properties":{"cadnum":"4412347100:02:003:0073"},"geometry":{"type":"Polygon","coordinates":[[[39.260703,48.130867],[39.260313,48.130456],[39.26002,48.130396],[39.259621667845266,48.130641724381164],[39.259324,48.130824],[39.258795,48.13119],[39.25769,48.132033],[39.256871,48.132611],[39.256303950639854,48.133043],[39.256303,48.133043],[39.256112,48.133189],[39.256131,48.133202],[39.254168,48.134598],[39.254181,48.134604],[39.256154,48.133202],[39.256131,48.133189],[39.256323,48.133043],[39.25632276579926,48.133043],[39.256881,48.13262],[39.25689,48.132626],[39.256926,48.132599],[39.257177,48.132782],[39.25742,48.133],[39.257429,48.132995],[39.257187,48.132776],[39.256926,48.132587],[39.257699,48.132038],[39.258804,48.131196],[39.259334,48.130831],[39.259558,48.13069149620254],[39.259558,48.130692],[39.26002,48.130405],[39.260303,48.130465],[39.26069,48.130869],[39.260703,48.130867]]]}},{"type":"Feature","properties":{"cadnum":"4412347100:02:003:0042"},"geometry":{"type":"Polygon","coordinates":[[[39.259729,48.132122],[39.259729,48.13212120915032],[39.25998,48.131967],[39.259787,48.131798],[39.259611,48.131636],[39.259513,48.131696],[39.259302,48.131825],[39.259558,48.132052096774196],[39.259558,48.132053],[39.259674,48.132155],[39.259729,48.132122]]]}},{"type":"Feature","properties":{"cadnum":"4412347100:02:003:0061"},"geometry":{"type":"Polygon","coordinates":[[[39.259391,48.129775],[39.25923,48.129877],[39.259666,48.130165],[39.259823,48.130051],[39.259558,48.129882],[39.259558,48.12988221597633],[39.259391,48.129775]]]}},{"type":"Feature","properties":{"cadnum":"4412347100:02:003:0095"},"geometry":{"type":"Polygon","coordinates":[[[39.260003,48.133091],[39.259894,48.133158],[39.25989548837209,48.133158],[39.259796,48.13322],[39.259837,48.133247],[39.260043,48.133118],[39.260003,48.133091]]]}},{"type":"Feature","properties":{"cadnum":"4412347100:01:001:0014"},"geometry":{"type":"Polygon","coordinates":[[[39.261099,48.140659],[39.261125,48.140611],[39.261053,48.140594],[39.261026,48.140641],[39.261099,48.140659]]]}},{"type":"Feature","properties":{"cadnum":"4412347100:02:001:0004"},"geometry":{"type":"Polygon","coordinates":[[[39.247768,48.140207],[39.247458,48.140281],[39.247571,48.14049],[39.247571776470586,48.14049],[39.247741,48.1408],[39.248051,48.140722],[39.247884443207354,48.14042098329663],[39.247768,48.140207]]]}},{"type":"Feature","properties":{"cadnum":"4412347100:02:001:0035"},"geometry":{"type":"Polygon","coordinates":[[[39.2466,48.138172],[39.247013,48.13813],[39.246933,48.137821],[39.246824,48.13783],[39.246533,48.137859],[39.2466,48.138172]]]}},{"type":"Feature","properties":{"cadnum":"4412347100:02:001:0110"},"geometry":{"type":"Polygon","coordinates":[[[39.247376,48.137799],[39.247646,48.137773],[39.247489,48.13747],[39.24722,48.137497],[39.247305,48.137653],[39.247376,48.137799]]]}},{"type":"Feature","properties":{"cadnum":"4412347100:02:001:0128"},"geometry":{"type":"Polygon","coordinates":[[[39.246851,48.137826],[39.246933,48.137821],[39.24712,48.137799],[39.247,48.137482],[39.246734,48.137515],[39.246851,48.137826]]]}},{"type":"Feature","properties":{"cadnum":"4412347100:02:001:0125"},"geometry":{"type":"Polygon","coordinates":[[[39.248392,48.136376],[39.248118,48.136394],[39.24817806976744,48.136709],[39.248177,48.136709],[39.248217,48.136913],[39.248472,48.136886],[39.248495,48.136882],[39.24848293063584,48.136824],[39.248483,48.136824],[39.248392,48.136376]]]}},{"type":"Feature","properties":{"cadnum":"4412347100:02:001:0063"},"geometry":{"type":"Polygon","coordinates":[[[39.247686,48.136495],[39.247386,48.136532],[39.24742903767123,48.136709],[39.247429,48.136709],[39.24743218959123,48.136721962825916],[39.247457,48.136824],[39.247457296529966,48.136824],[39.247507,48.137026],[39.247816,48.13699],[39.24777169395018,48.136824],[39.247772,48.136824],[39.247686,48.136495]]]}},{"type":"Feature","properties":{"cadnum":"4412347100:02:001:0103"},"geometry":{"type":"Polygon","coordinates":[[[39.248292,48.137242],[39.248549,48.137215],[39.248472,48.136886],[39.248217,48.136913],[39.248203,48.136915],[39.248252,48.13709],[39.248292,48.137242]]]}},{"type":"Feature","properties":{"cadnum":"4412347100:02:001:0108"},"geometry":{"type":"Polygon","coordinates":[[[39.247093,48.136706],[39.247053,48.136538],[39.246753,48.136573],[39.246761,48.136622],[39.24678081188119,48.136709],[39.24678,48.136709],[39.24686,48.137057],[39.247,48.137041],[39.247179,48.137021],[39.24713,48.136826],[39.247107335793366,48.13675433210335],[39.247093,48.136706]]]}},{"type":"Feature","properties":{"cadnum":"4412347100:02:001:0036"},"geometry":{"type":"Polygon","coordinates":[[[39.247485,48.139439],[39.247722,48.139412],[39.247642,48.13907],[39.247399,48.139097],[39.247485,48.139439]]]}},{"type":"Feature","properties":{"cadnum":"4412347100:13:001:0021"},"geometry":{"type":"Polygon","coordinates":[[[39.207555,48.137239],[39.208134,48.137206],[39.208125,48.137113],[39.208098,48.136897],[39.207523,48.136924],[39.207542,48.137146],[39.207555,48.137239]]]}},{"type":"Feature","properties":{"cadnum":"4412347100:13:001:0029"},"geometry":{"type":"Polygon","coordinates":[[[39.207572,48.137362],[39.207833,48.13735],[39.208148,48.137335],[39.208134,48.137206],[39.207555,48.137239],[39.207572,48.137362]]]}},{"type":"Feature","properties":{"cadnum":"4412347100:02:002:0077"},"geometry":{"type":"Polygon","coordinates":[[[39.238551,48.136733],[39.238694,48.136721],[39.238636,48.136238],[39.238417,48.136256],[39.238551,48.136733]]]}},{"type":"Feature","properties":{"cadnum":"4412347100:02:002:0082"},"geometry":{"type":"Polygon","coordinates":[[[39.240487,48.136562],[39.240828,48.136529],[39.240729,48.136037],[39.240352,48.13607],[39.240487,48.136562]]]}},{"type":"Feature","properties":{"cadnum":"4412347100:02:002:0090"},"geometry":{"type":"Polygon","coordinates":[[[39.242413,48.136334],[39.242652,48.13631],[39.242499,48.135611],[39.242261,48.135666],[39.242413,48.136334]]]}},{"type":"Feature","properties":{"cadnum":"4412347100:01:001:0002"},"geometry":{"type":"Polygon","coordinates":[[[39.248743,48.14672695428571],[39.249007,48.146779],[39.249151,48.146656],[39.249111,48.146632],[39.249196,48.146561],[39.249218,48.146485],[39.249286,48.146374],[39.24876,48.146237],[39.248665,48.146383],[39.248598,48.14665],[39.248675,48.146665],[39.248657,48.14671],[39.248743,48.146727],[39.248743,48.14672695428571]]]}},{"type":"Feature","properties":{"cadnum":"4412347100:03:001:0004"},"geometry":{"type":"Polygon","coordinates":[[[39.311049,48.125116],[39.31144,48.124996],[39.311233,48.124639],[39.311053,48.124312],[39.310686,48.124427],[39.311049,48.125116]]]}},{"type":"Feature","properties":{"cadnum":"4412347100:03:001:0001"},"geometry":{"type":"Polygon","coordinates":[[[39.311485,48.125074],[39.311813,48.124978],[39.311562,48.124547],[39.311373,48.12422],[39.311053,48.124312],[39.311233,48.124639],[39.311485,48.125074]]]}},{"type":"Feature","properties":{"cadnum":"4412347100:02:001:0062"},"geometry":{"type":"Polygon","coordinates":[[[39.311508,48.124169],[39.311579,48.124147],[39.311556,48.124114],[39.311485,48.124136],[39.311508,48.124169]]]}},{"type":"Feature","properties":{"cadnum":"4412347100:02:003:0008"},"geometry":{"type":"Polygon","coordinates":[[[39.253405,48.130998],[39.253428,48.130989],[39.253414,48.130974],[39.253391,48.130983],[39.253405,48.130998]]]}},{"type":"Feature","properties":{"cadnum":"4412347100:02:003:0009"},"geometry":{"type":"Polygon","coordinates":[[[39.2538,48.130815],[39.253862,48.130782],[39.253845,48.130771],[39.253782,48.1308],[39.2538,48.130815]]]}},{"type":"Feature","properties":{"cadnum":"4412347100:02:003:0007"},"geometry":{"type":"Polygon","coordinates":[[[39.252992,48.131193],[39.253013,48.131184],[39.252996,48.131169],[39.252978,48.131178],[39.252992,48.131193]]]}},{"type":"Feature","properties":{"cadnum":"4412347100:02:003:0086"},"geometry":{"type":"Polygon","coordinates":[[[39.253965,48.132668],[39.253961,48.132668],[39.254065,48.13261476190476],[39.254065,48.132616],[39.254213,48.132539],[39.253854,48.132272],[39.253818,48.132293],[39.253566,48.132431],[39.253822,48.13262],[39.253854,48.132635],[39.253898,48.132665],[39.253925,48.132686],[39.253925,48.132689],[39.253965,48.132668]]]}},{"type":"Feature","properties":{"cadnum":"4412347100:02:002:0072"},"geometry":{"type":"Polygon","coordinates":[[[39.249164,48.132986],[39.249227,48.132956],[39.249214,48.132944],[39.249151,48.132974],[39.249164,48.132986]]]}},{"type":"Feature","properties":{"cadnum":"4412347100:02:003:0002"},"geometry":{"type":"Polygon","coordinates":[[[39.250898,48.132173],[39.250916,48.132164],[39.250902,48.132149],[39.250885,48.132162],[39.250898,48.132173]]]}},{"type":"Feature","properties":{"cadnum":"4412347100:02:003:0003"},"geometry":{"type":"Polygon","coordinates":[[[39.251334,48.131969],[39.251357,48.13196],[39.251338,48.131945],[39.251321,48.131954],[39.251334,48.131969]]]}},{"type":"Feature","properties":{"cadnum":"4412347100:02:003:0005"},"geometry":{"type":"Polygon","coordinates":[[[39.252164,48.13158],[39.252183,48.131571],[39.25217,48.131558],[39.252147,48.131567],[39.252164,48.13158]]]}},{"type":"Feature","properties":{"cadnum":"4412347100:02:002:0073"},"geometry":{"type":"Polygon","coordinates":[[[39.249659,48.132755],[39.249722,48.132725],[39.249707,48.13271],[39.249646,48.13274],[39.249659,48.132755]]]}},{"type":"Feature","properties":{"cadnum":"4412347100:02:003:0001"},"geometry":{"type":"Polygon","coordinates":[[[39.250508,48.13236],[39.250525,48.132347],[39.250512,48.132335],[39.250489,48.132344],[39.250508,48.13236]]]}},{"type":"Feature","properties":{"cadnum":"4412347100:02:003:0006"},"geometry":{"type":"Polygon","coordinates":[[[39.252579,48.131385],[39.252596,48.131376],[39.252583,48.131364],[39.252565,48.131373],[39.252579,48.131385]]]}},{"type":"Feature","properties":{"cadnum":"4412347100:02:002:0074"},"geometry":{"type":"Polygon","coordinates":[[[39.250094,48.132551],[39.250112,48.132542],[39.250099,48.132527],[39.25008,48.132536],[39.250094,48.132551]]]}},{"type":"Feature","properties":{"cadnum":"4412347100:02:003:0004"},"geometry":{"type":"Polygon","coordinates":[[[39.251747,48.131774],[39.25177,48.131765],[39.251757,48.131751],[39.251734,48.13176],[39.251747,48.131774]]]}},{"type":"Feature","properties":{"cadnum":"4412347100:02:003:0075"},"geometry":{"type":"Polygon","coordinates":[[[39.251288,48.132872],[39.251455,48.132776],[39.251447,48.132767],[39.251275,48.132866],[39.251288,48.132872]]]}},{"type":"Feature","properties":{"cadnum":"4412347100:03:001:0006"},"geometry":{"type":"Polygon","coordinates":[[[39.305228,48.125754],[39.305399,48.125694],[39.305057,48.125254],[39.3049,48.125308],[39.305228,48.125754]]]}},{"type":"Feature","properties":{"cadnum":"4412347100:03:001:0007"},"geometry":{"type":"Polygon","coordinates":[[[39.303675,48.125514],[39.303675,48.12551283018868],[39.303715,48.1255],[39.303675,48.12544735849057],[39.303675,48.125447],[39.303365,48.125038],[39.303059,48.125134],[39.303386,48.125605],[39.303675,48.125514]]]}},{"type":"Feature","properties":{"cadnum":"4412347100:03:001:0005"},"geometry":{"type":"Polygon","coordinates":[[[39.315999,48.123398],[39.316229,48.12332],[39.315833,48.12282],[39.315608,48.122898],[39.315999,48.123398]]]}},{"type":"Feature","properties":{"cadnum":"4412347100:02:003:0060"},"geometry":{"type":"Polygon","coordinates":[[[39.259114,48.132991],[39.258915,48.132851],[39.258844,48.132898],[39.258714,48.132974],[39.25881225,48.133043],[39.258812,48.133043],[39.25937,48.133435],[39.259571,48.133313],[39.259188,48.133043],[39.25918748502994,48.133043],[39.259114,48.132991]]]}},{"type":"Feature","properties":{"cadnum":"4412347100:02:003:0057"},"geometry":{"type":"Polygon","coordinates":[[[39.258956,48.133783],[39.259176,48.133651],[39.258754,48.13334],[39.258502,48.133156],[39.258498,48.133153],[39.258296,48.133282],[39.258548,48.133471],[39.258956,48.133783]]]}},{"type":"Feature","properties":{"cadnum":"4412347100:02:001:0093"},"geometry":{"type":"Polygon","coordinates":[[[39.25596,48.135797],[39.256118,48.135689],[39.256036,48.135635],[39.255879,48.135744],[39.25596,48.135797]]]}},{"type":"Feature","properties":{"cadnum":"4412347100:02:003:0070"},"geometry":{"type":"Polygon","coordinates":[[[39.256701,48.132809],[39.256418,48.133018],[39.25645871428571,48.133043],[39.256458,48.133043],[39.256607999999595,48.13313466666642],[39.256646,48.133158],[39.25664618181818,48.133158],[39.256998,48.133373],[39.257231,48.133204],[39.25729,48.133166],[39.25712,48.13306],[39.256701,48.132809]]]}},{"type":"Feature","properties":{"cadnum":"4412347100:02:003:0072"},"geometry":{"type":"Polygon","coordinates":[[[39.257353,48.133687],[39.257596,48.13352],[39.257227,48.133271],[39.257191,48.133247],[39.256957,48.133411],[39.25694,48.133424],[39.257353,48.133687]]]}},{"type":"Feature","properties":{"cadnum":"4412347100:02:003:0088"},"geometry":{"type":"Polygon","coordinates":[[[39.255569,48.134386],[39.255619,48.134347],[39.255732,48.134257],[39.255825,48.134182],[39.255766,48.134146],[39.255525,48.134358],[39.255569,48.134386]]]}},{"type":"Feature","properties":{"cadnum":"4412347100:02:003:0065"},"geometry":{"type":"Polygon","coordinates":[[[39.254554,48.13488],[39.254837,48.134671],[39.254451,48.134433],[39.254168,48.13464],[39.254554,48.13488]]]}},{"type":"Feature","properties":{"cadnum":"4412347100:02:001:0088"},"geometry":{"type":"Polygon","coordinates":[[[39.254573,48.134925],[39.25459,48.134913],[39.254573,48.134901],[39.254554,48.134913],[39.254573,48.134925]]]}},{"type":"Feature","properties":{"cadnum":"4412347100:02:001:0090"},"geometry":{"type":"Polygon","coordinates":[[[39.255416,48.135399],[39.255435,48.135387],[39.255376,48.135353],[39.255359,48.135366],[39.255416,48.135399]]]}},{"type":"Feature","properties":{"cadnum":"4412347100:02:003:0013"},"geometry":{"type":"Polygon","coordinates":[[[39.25777,48.134602],[39.257955,48.134469],[39.257223,48.134008],[39.257038,48.13414],[39.25777,48.134602]]]}},{"type":"Feature","properties":{"cadnum":"4412347100:02:003:0026"},"geometry":{"type":"Polygon","coordinates":[[[39.257124,48.134871],[39.257307,48.134739],[39.256728,48.134373],[39.25654,48.134506],[39.257124,48.134871]]]}},{"type":"Feature","properties":{"cadnum":"4412347100:02:003:0064"},"geometry":{"type":"Polygon","coordinates":[[[39.256382,48.133834],[39.256495,48.133753],[39.256104,48.133495],[39.255951,48.133393],[39.255825,48.13348],[39.255888,48.133522],[39.256382,48.133834]]]}},{"type":"Feature","properties":{"cadnum":"4412347100:02:001:0101"},"geometry":{"type":"Polygon","coordinates":[[[39.254621,48.135369],[39.254694,48.13533],[39.254617,48.135264],[39.254608,48.135255],[39.254537,48.135297],[39.254621,48.135369]]]}},{"type":"Feature","properties":{"cadnum":"4412347100:02:003:0058"},"geometry":{"type":"Polygon","coordinates":[[[39.256382,48.134418],[39.256445,48.134377],[39.256464,48.134364],[39.256525,48.134322],[39.255898,48.133945],[39.255726,48.134119],[39.255825,48.134182],[39.255892,48.134137],[39.256149,48.134284],[39.256382,48.134418]]]}},{"type":"Feature","properties":{"cadnum":"4412347100:02:003:0093"},"geometry":{"type":"Polygon","coordinates":[[[39.255255,48.133966],[39.255353,48.133882],[39.255277,48.133831],[39.255179,48.133918],[39.255255,48.133966]]]}},{"type":"Feature","properties":{"cadnum":"4412347100:02:003:0059"},"geometry":{"type":"Polygon","coordinates":[[[39.256082,48.134616],[39.256234,48.134506],[39.256369,48.134407],[39.256131,48.134275],[39.255879,48.134125],[39.255808,48.134173],[39.255713,48.134245],[39.255605,48.134335],[39.256082,48.134616]]]}},{"type":"Feature","properties":{"cadnum":"4412347100:02:001:0089"},"geometry":{"type":"Polygon","coordinates":[[[39.254986,48.135156],[39.255003,48.135144],[39.254986,48.135132],[39.254967,48.135144],[39.254986,48.135156]]]}},{"type":"Feature","properties":{"cadnum":"4412347100:02:001:0091"},"geometry":{"type":"Polygon","coordinates":[[[39.255808,48.13562],[39.255825,48.135609],[39.255808,48.135597],[39.255789,48.135609],[39.255808,48.13562]]]}},{"type":"Feature","properties":{"cadnum":"4412347100:02:001:0127"},"geometry":{"type":"Polygon","coordinates":[[[39.254913,48.135759],[39.25507,48.135657],[39.254833,48.13554],[39.25468,48.135642],[39.254913,48.135759]]]}},{"type":"Feature","properties":{"cadnum":"4412347100:02:003:0092"},"geometry":{"type":"Polygon","coordinates":[[[39.255525,48.134358],[39.255766,48.134146],[39.255726,48.134119],[39.255353,48.133882],[39.255255,48.133966],[39.255179,48.133918],[39.25503,48.134047],[39.255525,48.134358]]]}},{"type":"Feature","properties":{"cadnum":"4412347100:03:001:0002"},"geometry":{"type":"Polygon","coordinates":[[[39.300229,48.128282],[39.300382,48.128237],[39.300004,48.127689],[39.299866,48.12773],[39.300229,48.128282]]]}},{"type":"Feature","properties":{"cadnum":"4412347100:02:003:0067"},"geometry":{"type":"Polygon","coordinates":[[[39.261642,48.12878],[39.261785,48.12869],[39.261728,48.128648],[39.261598,48.128534],[39.261408,48.128378],[39.261256,48.128465],[39.261642,48.12878]]]}},{"type":"Feature","properties":{"cadnum":"4412347100:02:003:0049"},"geometry":{"type":"Polygon","coordinates":[[[39.261022,48.128699],[39.261152,48.128636],[39.260403,48.128141],[39.260273,48.128216],[39.261022,48.128699]]]}},{"type":"Feature","properties":{"cadnum":"4412347100:02:003:0046"},"geometry":{"type":"Polygon","coordinates":[[[39.261728,48.128648],[39.261907,48.128573],[39.261166,48.12791],[39.260982,48.127991],[39.261009,48.128021],[39.261103,48.128105],[39.261103,48.128102],[39.261395,48.128369],[39.261598,48.128534],[39.261728,48.128648]]]}},{"type":"Feature","properties":{"cadnum":"4412347100:02:003:0048"},"geometry":{"type":"Polygon","coordinates":[[[39.263659,48.127518],[39.263946,48.127341],[39.263745,48.127214],[39.263462,48.127371],[39.263655,48.127512],[39.263659,48.127518]]]}},{"type":"Feature","properties":{"cadnum":"4412347100:02:003:0089"},"geometry":{"type":"Polygon","coordinates":[[[39.261252,48.128468],[39.261256,48.128465],[39.261408,48.128378],[39.261395,48.128369],[39.261103,48.128102],[39.261103,48.128105],[39.261009,48.128021],[39.260982,48.127991],[39.260816,48.128076],[39.260955,48.128198],[39.261022,48.128267],[39.261238,48.128453],[39.261252,48.128468]]]}},{"type":"Feature","properties":{"cadnum":"4412347100:02:003:0071"},"geometry":{"type":"Polygon","coordinates":[[[39.264504,48.126909],[39.264917,48.126729],[39.264598,48.126438],[39.264202,48.126607],[39.264431,48.126837],[39.264504,48.126909]]]}},{"type":"Feature","properties":{"cadnum":"4412347100:02:003:0080"},"geometry":{"type":"Polygon","coordinates":[[[39.25791,48.132707],[39.258188,48.132512],[39.258058,48.132419],[39.257927,48.13253],[39.257496,48.132254],[39.257353,48.132353],[39.25791,48.132707]]]}},{"type":"Feature","properties":{"cadnum":"4412347100:02:003:0011"},"geometry":{"type":"Polygon","coordinates":[[[39.254586,48.130632],[39.254671,48.130587],[39.254621,48.130545],[39.254537,48.130587],[39.254586,48.130632]]]}},{"type":"Feature","properties":{"cadnum":"4412347100:02:003:0037"},"geometry":{"type":"Polygon","coordinates":[[[39.254842,48.132698],[39.255179,48.132473],[39.2549,48.132242],[39.254531,48.132449],[39.254684,48.132575],[39.254842,48.132698]]]}},{"type":"Feature","properties":{"cadnum":"4412347100:02:003:0063"},"geometry":{"type":"Polygon","coordinates":[[[39.259064,48.1306],[39.259064,48.130591],[39.2591,48.130567],[39.259239,48.130465],[39.259194,48.130438],[39.258678,48.130144],[39.258529,48.130245],[39.258974,48.13054],[39.259064,48.1306]]]}},{"type":"Feature","properties":{"cadnum":"4412347100:02:003:0069"},"geometry":{"type":"Polygon","coordinates":[[[39.256275,48.131277],[39.256485,48.131142],[39.256216,48.130947],[39.256181,48.13096],[39.256055,48.131001],[39.255969,48.13107],[39.256275,48.131277]]]}},{"type":"Feature","properties":{"cadnum":"4412347100:02:003:0082"},"geometry":{"type":"Polygon","coordinates":[[[39.255982,48.131463],[39.256202,48.131322],[39.255911,48.131121],[39.255879,48.131145],[39.255825,48.131106],[39.255673,48.131205],[39.255642,48.131223],[39.255808,48.131343],[39.255982,48.131463]]]}},{"type":"Feature","properties":{"cadnum":"4412347100:02:003:0041"},"geometry":{"type":"Polygon","coordinates":[[[39.256684,48.13232],[39.256971,48.132111],[39.256634,48.131894],[39.256319,48.132087],[39.256684,48.13232]]]}},{"type":"Feature","properties":{"cadnum":"4412347100:02:003:0055"},"geometry":{"type":"Polygon","coordinates":[[[39.256661,48.130692],[39.256827,48.130602],[39.256275,48.130144],[39.256099,48.130227],[39.256347,48.130432],[39.256661,48.130692]]]}},{"type":"Feature","properties":{"cadnum":"4412347100:02:003:0010"},"geometry":{"type":"Polygon","coordinates":[[[39.254235,48.130605],[39.254258,48.130596],[39.25424,48.130585],[39.254221,48.130594],[39.254235,48.130605]]]}},{"type":"Feature","properties":{"cadnum":"4412347100:01:001:0023"},"geometry":{"type":"Polygon","coordinates":[[[39.253449,48.140857],[39.253468,48.140845],[39.253449,48.140833],[39.253432,48.140845],[39.253449,48.140857]]]}},{"type":"Feature","properties":{"cadnum":"4412347100:01:001:0007"},"geometry":{"type":"Polygon","coordinates":[[[39.249376,48.14182],[39.249398,48.141807],[39.249349,48.141774],[39.24933,48.141786],[39.249376,48.14182]]]}},{"type":"Feature","properties":{"cadnum":"4412347100:01:001:0020"},"geometry":{"type":"Polygon","coordinates":[[[39.25212,48.142203],[39.252137,48.142191],[39.252116,48.142178],[39.252103,48.142194],[39.25212,48.142203]]]}},{"type":"Feature","properties":{"cadnum":"4412347100:01:001:0016"},"geometry":{"type":"Polygon","coordinates":[[[39.250336,48.143509],[39.250355,48.143495],[39.250336,48.143486],[39.250319,48.143497],[39.250336,48.143509]]]}},{"type":"Feature","properties":{"cadnum":"4412347100:01:001:0008"},"geometry":{"type":"Polygon","coordinates":[[[39.250898,48.140998],[39.250921,48.140983],[39.250902,48.140968],[39.250881,48.14098],[39.250898,48.140998]]]}},{"type":"Feature","properties":{"cadnum":"4412347100:01:001:0029"},"geometry":{"type":"Polygon","coordinates":[[[39.249879,48.143302],[39.250336,48.143251],[39.250319,48.143168],[39.250472,48.14315],[39.250508,48.143138],[39.250525,48.143111],[39.250521,48.143084],[39.250799,48.143054],[39.250682,48.142584],[39.250183,48.14264],[39.250246,48.142893],[39.249793,48.142943],[39.249879,48.143302]]]}},{"type":"Feature","properties":{"cadnum":"4412347100:01:001:0018"},"geometry":{"type":"Polygon","coordinates":[[[39.251047,48.142931],[39.251065,48.142919],[39.251047,48.142907],[39.251028,48.142922],[39.251047,48.142931]]]}},{"type":"Feature","properties":{"cadnum":"4412347100:01:001:0021"},"geometry":{"type":"Polygon","coordinates":[[[39.252619,48.14181],[39.252636,48.141795],[39.252619,48.141786],[39.2526,48.141798],[39.252619,48.14181]]]}},{"type":"Feature","properties":{"cadnum":"4412347100:01:001:0017"},"geometry":{"type":"Polygon","coordinates":[[[39.250625,48.143242],[39.250638,48.143228],[39.250619,48.143219],[39.250602,48.143231],[39.250625,48.143242]]]}},{"type":"Feature","properties":{"cadnum":"4412347100:01:001:0022"},"geometry":{"type":"Polygon","coordinates":[[[39.253041,48.141313],[39.253055,48.1413],[39.253036,48.141289],[39.253018,48.141303],[39.253041,48.141313]]]}},{"type":"Feature","properties":{"cadnum":"4412347100:01:001:0019"},"geometry":{"type":"Polygon","coordinates":[[[39.251508,48.142706],[39.251527,48.142691],[39.251504,48.142682],[39.251491,48.142694],[39.251508,48.142706]]]}},{"type":"Feature","properties":{"cadnum":"4412347100:01:001:0006"},"geometry":{"type":"Polygon","coordinates":[[[39.247839,48.142635],[39.247858,48.142622],[39.247808,48.142589],[39.24779,48.142602],[39.247839,48.142635]]]}},{"type":"Feature","properties":{"cadnum":"4412347100:02:002:0086"},"geometry":{"type":"Polygon","coordinates":[[[39.247499,48.135875],[39.247768,48.135846],[39.247619,48.135264],[39.247354,48.1353],[39.247499,48.135875]]]}},{"type":"Feature","properties":{"cadnum":"4412347100:02:002:0099"},"geometry":{"type":"Polygon","coordinates":[[[39.247116,48.135147],[39.247265,48.135087],[39.247009,48.134487],[39.246851,48.134517],[39.247116,48.135147]]]}},{"type":"Feature","properties":{"cadnum":"4412347100:02:002:0087"},"geometry":{"type":"Polygon","coordinates":[[[39.248329,48.135782],[39.248571,48.135755],[39.248491,48.135606],[39.248248,48.135141],[39.248051,48.135168],[39.248329,48.135782]]]}},{"type":"Feature","properties":{"cadnum":"4412347100:02:002:0107"},"geometry":{"type":"Polygon","coordinates":[[[39.246491,48.135297],[39.246644,48.13527],[39.24646,48.134646],[39.246312,48.134667],[39.246308,48.134775],[39.246317,48.134833],[39.246357,48.13491],[39.246367,48.134907],[39.24638,48.134931],[39.246371,48.134935],[39.246491,48.135297]]]}},{"type":"Feature","properties":{"cadnum":"4412347100:02:002:0004"},"geometry":{"type":"Polygon","coordinates":[[[39.243937,48.136304],[39.244179,48.136277],[39.243797,48.135435],[39.243591,48.135477],[39.243864,48.136109],[39.243937,48.136304]]]}},{"type":"Feature","properties":{"cadnum":"4412347100:02:002:0088"},"geometry":{"type":"Polygon","coordinates":[[[39.246294,48.136004],[39.24656,48.13598],[39.246487,48.135402],[39.246218,48.135431],[39.246294,48.136004]]]}},{"type":"Feature","properties":{"cadnum":"4412347100:02:002:0075"},"geometry":{"type":"Polygon","coordinates":[[[39.244987,48.136571],[39.245063,48.136559],[39.24505,48.136508],[39.244969,48.136517],[39.244987,48.136571]]]}},{"type":"Feature","properties":{"cadnum":"4412347100:02:002:0083"},"geometry":{"type":"Polygon","coordinates":[[[39.244156,48.136229],[39.244359,48.136193],[39.244304,48.136058],[39.244017,48.135396],[39.243797,48.135435],[39.244071,48.136037],[39.244156,48.136229]]]}},{"type":"Feature","properties":{"cadnum":"4412347100:02:002:0076"},"geometry":{"type":"Polygon","coordinates":[[[39.246707,48.136001],[39.24682,48.135998],[39.24682,48.135815],[39.246766,48.135411],[39.246644,48.135417],[39.246613,48.135837],[39.246663,48.135906],[39.246658,48.136001],[39.246707,48.136001]]]}},{"type":"Feature","properties":{"cadnum":"4412347100:01:001:0010"},"geometry":{"type":"Polygon","coordinates":[[[39.254217,48.140045],[39.254244,48.140041],[39.254244,48.140023],[39.254213,48.140023],[39.254217,48.140045]]]}},{"type":"Feature","properties":{"cadnum":"4412347100:01:001:0013"},"geometry":{"type":"Polygon","coordinates":[[[39.259355,48.140405],[39.259361,48.140383],[39.259334,48.140381],[39.259324,48.140398],[39.259355,48.140405]]]}},{"type":"Feature","properties":{"cadnum":"4412347100:02:001:0070"},"geometry":{"type":"Polygon","coordinates":[[[39.254424,48.138204],[39.254441,48.138192],[39.25442,48.138181],[39.254407,48.138192],[39.254424,48.138204]]]}},{"type":"Feature","properties":{"cadnum":"4412347100:02:001:0066"},"geometry":{"type":"Polygon","coordinates":[[[39.254441,48.139139],[39.25446,48.139128],[39.254437,48.139116],[39.254424,48.13913],[39.254441,48.139139]]]}},{"type":"Feature","properties":{"cadnum":"4412347100:02:001:0107"},"geometry":{"type":"Polygon","coordinates":[[[39.256001,48.137704],[39.25645,48.137365],[39.256149,48.137179],[39.256045,48.13727],[39.255978,48.137317],[39.255762,48.137479],[39.255713,48.137515],[39.255709,48.137521],[39.256001,48.137704]]]}},{"type":"Feature","properties":{"cadnum":"4412347100:01:001:0026"},"geometry":{"type":"Polygon","coordinates":[[[39.254254,48.139568],[39.254267,48.139556],[39.254248,48.139545],[39.254231,48.139556],[39.254254,48.139568]]]}},{"type":"Feature","properties":{"cadnum":"4412347100:02:001:0068"},"geometry":{"type":"Polygon","coordinates":[[[39.254904,48.138199],[39.254904,48.138159],[39.254824,48.138159],[39.254824,48.138199],[39.254904,48.138199]]]}},{"type":"Feature","properties":{"cadnum":"4412347100:01:001:0012"},"geometry":{"type":"Polygon","coordinates":[[[39.257411,48.140138],[39.257416,48.14012],[39.257389,48.140117],[39.25738,48.140134],[39.257411,48.140138]]]}},{"type":"Feature","properties":{"cadnum":"4412347100:02:001:0106"},"geometry":{"type":"Polygon","coordinates":[[[39.255762,48.137479],[39.255978,48.137317],[39.256045,48.13727],[39.256149,48.137179],[39.255816,48.136966],[39.255439,48.13732],[39.255762,48.137479]]]}},{"type":"Feature","properties":{"cadnum":"4412347100:02:001:0067"},"geometry":{"type":"Polygon","coordinates":[[[39.254644,48.138723],[39.254657,48.138711],[39.25464,48.138699],[39.254621,48.138714],[39.254644,48.138723]]]}},{"type":"Feature","properties":{"cadnum":"4412347100:01:001:0011"},"geometry":{"type":"Polygon","coordinates":[[[39.255974,48.139958],[39.255982,48.139904],[39.255902,48.139901],[39.255898,48.139952],[39.255974,48.139958]]]}},{"type":"Feature","properties":{"cadnum":"4412347100:02:001:0027"},"geometry":{"type":"Polygon","coordinates":[[[39.254441,48.139139],[39.25446,48.139128],[39.254437,48.139116],[39.254424,48.13913],[39.254441,48.139139]]]}},{"type":"Feature","properties":{"cadnum":"4412347100:02:001:0069"},"geometry":{"type":"Polygon","coordinates":[[[39.25482,48.138447],[39.254842,48.138438],[39.254829,48.138423],[39.254806,48.138432],[39.25482,48.138447]]]}},{"type":"Feature","properties":{"cadnum":"4412347100:02:002:0078"},"geometry":{"type":"Polygon","coordinates":[[[39.243487,48.12654],[39.243694,48.126505],[39.243667,48.126441],[39.24346,48.126483],[39.243487,48.12654]]]}}]}