{"type":"FeatureCollection","features":[{"type":"Feature","properties":{"cadnum":"4412346400:04:001:0013"},"geometry":{"type":"Polygon","coordinates":[[[39.247969,48.072313],[39.247992,48.072306],[39.247983,48.072291],[39.247961,48.072295],[39.247969,48.072313]]]}},{"type":"Feature","properties":{"cadnum":"4412346400:02:001:0078"},"geometry":{"type":"Polygon","coordinates":[[[39.24386,48.073444],[39.243883,48.073435],[39.243869,48.07342],[39.243847,48.073429],[39.24386,48.073444]]]}},{"type":"Feature","properties":{"cadnum":"4412346400:04:001:0026"},"geometry":{"type":"Polygon","coordinates":[[[39.247525,48.070745],[39.247948,48.070662],[39.24792,48.070605],[39.247839,48.070431],[39.24722,48.07056],[39.2472746622807,48.070681],[39.247273,48.070681],[39.247323,48.070788],[39.247525,48.070745]]]}},{"type":"Feature","properties":{"cadnum":"4412346400:02:001:0079"},"geometry":{"type":"Polygon","coordinates":[[[39.244606,48.07312],[39.244629,48.073111],[39.244615,48.073096],[39.244592,48.073105],[39.244606,48.07312]]]}},{"type":"Feature","properties":{"cadnum":"4412346400:04:001:0010"},"geometry":{"type":"Polygon","coordinates":[[[39.246281,48.072709],[39.246304,48.072705],[39.246298,48.072687],[39.246271,48.072694],[39.246281,48.072709]]]}},{"type":"Feature","properties":{"cadnum":"4412346400:04:001:0012"},"geometry":{"type":"Polygon","coordinates":[[[39.247305,48.072462],[39.247327,48.072456],[39.247319,48.072442],[39.247296,48.072444],[39.247305,48.072462]]]}},{"type":"Feature","properties":{"cadnum":"4412346400:04:001:0009"},"geometry":{"type":"Polygon","coordinates":[[[39.245724,48.072841],[39.245746,48.072834],[39.245738,48.07282],[39.245715,48.072823],[39.245724,48.072841]]]}},{"type":"Feature","properties":{"cadnum":"4412346400:04:001:0011"},"geometry":{"type":"Polygon","coordinates":[[[39.246824,48.07258],[39.246847,48.072573],[39.246837,48.072558],[39.246816,48.072562],[39.246824,48.07258]]]}},{"type":"Feature","properties":{"cadnum":"4412346400:03:001:0002"},"geometry":{"type":"Polygon","coordinates":[[[39.239916,48.074335],[39.240554,48.073888],[39.241084,48.073852],[39.241753,48.074038],[39.242508,48.074038],[39.243078,48.0738205433526],[39.243078,48.073821],[39.2432,48.073774],[39.24325,48.0737],[39.24325,48.07369863235294],[39.243608,48.073159],[39.243267,48.072696],[39.24314804895105,48.07260977622378],[39.242772,48.072336],[39.24117,48.072235],[39.240631,48.07176],[39.24046,48.071049],[39.239329,48.071172],[39.239323,48.071406],[39.238734,48.071521],[39.238946,48.071763],[39.238654,48.071742],[39.238537,48.072522],[39.238317,48.072784],[39.23838,48.073003],[39.23856,48.073981],[39.238214,48.074086],[39.238268,48.074302],[39.238642,48.074466],[39.238642354740065,48.074466],[39.239126,48.074678],[39.239706189806284,48.07442571001774],[39.239916,48.074335]],[[39.240285,48.073717],[39.240478,48.073711],[39.240487,48.073894],[39.240298,48.0739],[39.240285,48.073717]]]}},{"type":"Feature","properties":{"cadnum":"4412346400:04:001:0025"},"geometry":{"type":"Polygon","coordinates":[[[39.246623,48.070656],[39.246502365079365,48.070681],[39.246502,48.070681],[39.246015,48.070782],[39.246021,48.070796],[39.24602162365591,48.070796],[39.246147,48.071061],[39.246726,48.070926],[39.246747,48.070923],[39.246681305084735,48.07078354237286],[39.246623,48.070656]]]}},{"type":"Feature","properties":{"cadnum":"4412346400:04:001:0014"},"geometry":{"type":"Polygon","coordinates":[[[39.248541,48.072184],[39.248562,48.072177],[39.248558,48.072162],[39.248531,48.072168],[39.248541,48.072184]]]}},{"type":"Feature","properties":{"cadnum":"4412346400:02:001:0077"},"geometry":{"type":"Polygon","coordinates":[[[39.243258,48.073699],[39.243281,48.07369],[39.243267,48.073675],[39.243245,48.073684],[39.243258,48.073699]]]}},{"type":"Feature","properties":{"cadnum":"4412346400:04:001:0008"},"geometry":{"type":"Polygon","coordinates":[[[39.245166,48.072973],[39.245189,48.072967],[39.245181,48.072952],[39.245158,48.072954],[39.245166,48.072973]]]}},{"type":"Feature","properties":{"cadnum":"4412346400:07:001:0001"},"geometry":{"type":"Polygon","coordinates":[[[39.268161,48.059783],[39.268163133891214,48.059783],[39.268559,48.059907],[39.270716,48.05985],[39.270716,48.05984933792491],[39.27316343442611,48.059783],[39.273182,48.059783],[39.275045,48.059732],[39.275137,48.059783],[39.27513982302773,48.059783],[39.275917,48.060201],[39.276037,48.060300999999995],[39.276037,48.060303],[39.276043,48.060306],[39.276209,48.060167],[39.276209,48.06016646376811],[39.27666518965517,48.059783],[39.276666,48.059783],[39.277012,48.059492],[39.277012,48.058703],[39.276863,48.058106],[39.276037,48.058073],[39.276037,48.05807316857899],[39.270716,48.05786183142101],[39.270716,48.057861],[39.265223,48.057642831421006],[39.265223,48.057642],[39.261561,48.057496],[39.261391,48.058724],[39.262074,48.058826],[39.263816,48.058787],[39.264198,48.058718],[39.264414,48.058607],[39.265051,48.05880699752781],[39.265051,48.058807],[39.26506847191672,48.058812483148145],[39.265223,48.058861],[39.265223,48.05886097813505],[39.268161,48.059783]]]}},{"type":"Feature","properties":{"cadnum":"4412346400:01:001:0003"},"geometry":{"type":"Polygon","coordinates":[[[39.232264,48.065065763569464],[39.232264,48.065065],[39.232231,48.065013],[39.231046,48.06547],[39.230511,48.066625],[39.23064729,48.06701],[39.230646,48.06701],[39.230834,48.067537],[39.231876,48.067468],[39.231765,48.067102],[39.232092,48.06695258917836],[39.232092,48.066953],[39.23223706746639,48.06688630584702],[39.232264,48.066874],[39.232264,48.066873923728814],[39.232564,48.066736],[39.23277370949721,48.06701],[39.232773,48.06701],[39.232838,48.067094],[39.233318,48.066751],[39.232264,48.065065763569464]]]}},{"type":"Feature","properties":{"cadnum":"4412346400:01:001:0016"},"geometry":{"type":"Polygon","coordinates":[[[39.232199,48.067639],[39.232195,48.067624],[39.232172,48.067624],[39.232172,48.067642],[39.232199,48.067639]]]}},{"type":"Feature","properties":{"cadnum":"4412346400:01:002:0024"},"geometry":{"type":"Polygon","coordinates":[[[39.251917,48.063326],[39.25194,48.063323],[39.251936,48.063305],[39.251909,48.063311],[39.251917,48.063326]]]}},{"type":"Feature","properties":{"cadnum":"4412346400:01:002:0003"},"geometry":{"type":"Polygon","coordinates":[[[39.25216,48.062455],[39.252282,48.062431],[39.252227,48.06232],[39.252439,48.062275],[39.252357,48.062108],[39.252206,48.06214],[39.252219,48.062168],[39.25212,48.062188],[39.252214,48.062386],[39.252137,48.062404],[39.25216,48.062455]]]}},{"type":"Feature","properties":{"cadnum":"4412346400:01:002:0030"},"geometry":{"type":"Polygon","coordinates":[[[39.248743,48.06223880645161],[39.248765,48.062275],[39.248742,48.062282],[39.248743,48.062284],[39.248743,48.062283922330096],[39.248845,48.06248],[39.249066,48.062437],[39.249052,48.062413],[39.248994,48.062233],[39.248921,48.06208],[39.248917,48.062062],[39.248877,48.061984],[39.248818,48.061993],[39.248644,48.062039],[39.248671,48.062119],[39.248701,48.062177],[39.248728,48.062221],[39.248734,48.062224],[39.248743,48.06224],[39.248743,48.06223880645161]]]}},{"type":"Feature","properties":{"cadnum":"4412346400:01:002:0058"},"geometry":{"type":"Polygon","coordinates":[[[39.251204,48.062311],[39.252133,48.062182],[39.251913,48.061543],[39.250952,48.061675],[39.251204,48.062311]]]}},{"type":"Feature","properties":{"cadnum":"4412346400:01:002:0026"},"geometry":{"type":"Polygon","coordinates":[[[39.252951,48.063134],[39.252973,48.063131],[39.252969,48.063113],[39.252946,48.063119],[39.252951,48.063134]]]}},{"type":"Feature","properties":{"cadnum":"4412346400:01:002:0027"},"geometry":{"type":"Polygon","coordinates":[[[39.253468,48.063038],[39.253495,48.063034],[39.253485,48.063017],[39.253462,48.063023],[39.253468,48.063038]]]}},{"type":"Feature","properties":{"cadnum":"4412346400:04:002:0001"},"geometry":{"type":"Polygon","coordinates":[[[39.256347,48.061975],[39.256347,48.06184],[39.256885,48.061873],[39.257577,48.061708],[39.257829,48.06139],[39.257663,48.061042],[39.25676,48.060742],[39.256931,48.060562],[39.257061,48.060252],[39.256898,48.060021],[39.256374,48.059997],[39.255166,48.060087],[39.254518,48.060567],[39.254128,48.060669],[39.254011,48.060867],[39.253436,48.060816],[39.25225,48.061399],[39.253768,48.061651],[39.254236,48.061932],[39.254236,48.0619316],[39.25469,48.062204],[39.256347,48.061975]]]}},{"type":"Feature","properties":{"cadnum":"4412346400:01:002:0025"},"geometry":{"type":"Polygon","coordinates":[[[39.252434,48.06323],[39.252457,48.063227],[39.252453,48.063209],[39.252426,48.063215],[39.252434,48.06323]]]}},{"type":"Feature","properties":{"cadnum":"4412346400:04:003:0011"},"geometry":{"type":"Polygon","coordinates":[[[39.253975,48.063236],[39.253621,48.06329],[39.25364012195122,48.063339],[39.253639,48.063339],[39.253681528301776,48.063445103773304],[39.253685,48.063454],[39.25368509406953,48.063454],[39.253835,48.063828],[39.254114,48.063786],[39.25402932885906,48.063454],[39.25403,48.063454],[39.253975,48.063236]]]}},{"type":"Feature","properties":{"cadnum":"4412346400:01:002:0007"},"geometry":{"type":"Polygon","coordinates":[[[39.249403,48.061933],[39.249609,48.061876],[39.249533,48.06175],[39.249321,48.06181],[39.249403,48.061933]]]}},{"type":"Feature","properties":{"cadnum":"4412346400:01:002:0028"},"geometry":{"type":"Polygon","coordinates":[[[39.253961,48.062945],[39.254034,48.06293],[39.254028,48.062914],[39.253952,48.06293],[39.253961,48.062945]]]}},{"type":"Feature","properties":{"cadnum":"4412346400:05:001:0003"},"geometry":{"type":"Polygon","coordinates":[[[39.253145,48.071952],[39.253481,48.072805],[39.253814,48.073684],[39.254201,48.074466],[39.254202620795105,48.074466],[39.254307,48.074678],[39.254694,48.075554],[39.254833,48.075932],[39.255192,48.076799],[39.255386,48.077703],[39.255536,48.078136],[39.25553684,48.078136],[39.255663,48.078497],[39.256863,48.078504],[39.258265,48.07815],[39.258205,48.078022],[39.25820495454545,48.078022],[39.257869,48.0773],[39.257627,48.076421],[39.257416,48.075398],[39.257302,48.074351],[39.25730165919811,48.074351],[39.257223,48.073618],[39.257124,48.072366],[39.254065,48.071967],[39.254065,48.071967593103444],[39.253221,48.071857],[39.253145,48.071952]]]}},{"type":"Feature","properties":{"cadnum":"4412346400:01:002:0001"},"geometry":{"type":"Polygon","coordinates":[[[39.248728,48.067069],[39.248688,48.066997],[39.248661,48.066946],[39.248445,48.066982],[39.248441,48.066976],[39.248401,48.066979],[39.24841,48.067],[39.248365,48.067003],[39.248355,48.066973],[39.247885,48.067063],[39.247909,48.067125],[39.247909111111106,48.067125],[39.247934,48.067189],[39.247906,48.067192],[39.247961,48.067327],[39.248032,48.067315],[39.248042,48.067333],[39.248109,48.067321],[39.248099,48.067303],[39.248482,48.067237],[39.248478,48.067225],[39.248743,48.06718],[39.248743,48.067179344827586],[39.248774,48.067174],[39.248743,48.06710323913043],[39.248743,48.067103],[39.248743,48.067102],[39.248728,48.067069]]]}},{"type":"Feature","properties":{"cadnum":"4412346400:04:001:0023"},"geometry":{"type":"Polygon","coordinates":[[[39.248791,48.070427],[39.248743,48.07032487234043],[39.248743,48.070324],[39.248697,48.070227],[39.248239,48.07032],[39.247879,48.070395],[39.247975,48.070596],[39.248743,48.070438],[39.248743,48.070437036363636],[39.248791,48.070427]]]}},{"type":"Feature","properties":{"cadnum":"4412346400:01:001:0036"},"geometry":{"type":"Polygon","coordinates":[[[39.237824,48.070224],[39.237818,48.06971],[39.237818,48.069575],[39.237757,48.0695760472103],[39.237757,48.069576],[39.237535,48.069579],[39.237541,48.06963],[39.237472,48.069695],[39.237491,48.069806],[39.237455,48.06981],[39.237522,48.06989],[39.237585,48.07004348322149],[39.237585,48.070045],[39.237671,48.070253],[39.237757,48.070237],[39.237757,48.07023669934641],[39.237824,48.070224]]]}},{"type":"Feature","properties":{"cadnum":"4412346400:01:002:0053"},"geometry":{"type":"Polygon","coordinates":[[[39.240734,48.067081],[39.241654,48.066883],[39.24148,48.066484],[39.241533,48.066478],[39.241214,48.065712],[39.241067,48.065358],[39.239225,48.06576],[39.239386,48.06612],[39.239858,48.066019],[39.23997,48.066217],[39.24026531746031,48.06701],[39.240265,48.06701],[39.240275,48.067036],[39.240455,48.067111],[39.240734,48.067081]]]}},{"type":"Feature","properties":{"cadnum":"4412346400:01:002:0012"},"geometry":{"type":"Polygon","coordinates":[[[39.243285,48.067522],[39.243258,48.067453],[39.243245,48.067456],[39.243195,48.067465],[39.2432,48.067474],[39.243132,48.067486],[39.243145,48.067517],[39.243159,48.067546],[39.24325,48.067529],[39.24325,48.06752866666666],[39.243285,48.067522]]]}},{"type":"Feature","properties":{"cadnum":"4412346400:01:002:0050"},"geometry":{"type":"Polygon","coordinates":[[[39.243145,48.067517],[39.243132,48.067486],[39.2432,48.067474],[39.243195,48.067465],[39.243245,48.067456],[39.243191,48.067321],[39.24325,48.067302],[39.24325,48.06730198888889],[39.243281,48.067292],[39.24325,48.0672515652174],[39.24325,48.067251],[39.243235,48.067232],[39.243137,48.067261],[39.243092,48.067177],[39.243078,48.06718],[39.243078,48.06718007317073],[39.242764,48.067249],[39.242899,48.067564],[39.243078,48.06752980081301],[39.243078,48.06753],[39.243145,48.067517]]]}},{"type":"Feature","properties":{"cadnum":"4412346400:01:001:0037"},"geometry":{"type":"Polygon","coordinates":[[[39.237818,48.069575],[39.237818,48.069392],[39.237828,48.069092],[39.237585,48.069101],[39.237585,48.06910114285714],[39.237505,48.069104],[39.237535,48.069579],[39.237585,48.06957832432432],[39.237585,48.069579],[39.237818,48.069575]]]}},{"type":"Feature","properties":{"cadnum":"4412346400:01:002:0043"},"geometry":{"type":"Polygon","coordinates":[[[39.242185,48.0682],[39.242432,48.068147],[39.242652,48.068095],[39.242566,48.067948],[39.242117,48.068066],[39.242185,48.0682]]]}},{"type":"Feature","properties":{"cadnum":"4412346400:01:002:0059"},"geometry":{"type":"Polygon","coordinates":[[[39.243667,48.066868],[39.24351,48.066489],[39.243078,48.066586],[39.243078,48.066586320754716],[39.243038,48.066595],[39.243078,48.06665990566037],[39.243078,48.066661],[39.24320657831398,48.06686854216985],[39.24325,48.066939],[39.24325,48.066938630434784],[39.243262,48.066958],[39.243667,48.066868]]]}},{"type":"Feature","properties":{"cadnum":"4412346400:03:001:0014"},"geometry":{"type":"Polygon","coordinates":[[[39.242822,48.063578],[39.242835,48.063566],[39.242818,48.063554],[39.242805,48.063566],[39.242822,48.063578]]]}},{"type":"Feature","properties":{"cadnum":"4412346400:01:001:0050"},"geometry":{"type":"Polygon","coordinates":[[[39.237459,48.063821],[39.237212,48.063857],[39.237342,48.064449],[39.237585,48.06445337837838],[39.237585,48.064454],[39.237675,48.064455],[39.237459,48.063821]]]}},{"type":"Feature","properties":{"cadnum":"4412346400:01:001:0047"},"geometry":{"type":"Polygon","coordinates":[[[39.237782,48.065641],[39.237805,48.065688],[39.237904,48.065664],[39.237914,48.065694],[39.238021,48.065679],[39.237967,48.065511],[39.237864,48.065526],[39.23768822999972,48.06553860000002],[39.237159,48.065574],[39.237369,48.066028],[39.237419,48.066042],[39.237486,48.066028],[39.237608,48.065995],[39.237581,48.065937],[39.237455,48.065964],[39.237375,48.065802],[39.237352,48.065788],[39.237325,48.065728],[39.237325,48.065719],[39.237329,48.065694],[39.237338,48.065677],[39.237356,48.065655],[39.237375,48.065643],[39.237405,48.065622],[39.237482,48.065604],[39.237527,48.065694],[39.237585,48.065681895652176],[39.237585,48.065683],[39.237782,48.065641]]]}},{"type":"Feature","properties":{"cadnum":"4412346400:01:001:0049"},"geometry":{"type":"Polygon","coordinates":[[[39.237757,48.066055],[39.237757,48.066054470588234],[39.237891,48.066019],[39.237944,48.065953],[39.238034,48.065937],[39.238088,48.065928],[39.238071,48.065884],[39.238052,48.065833],[39.237994,48.065691],[39.237891,48.065712],[39.237877,48.065682],[39.237778,48.065712],[39.237757,48.065674666666666],[39.237757,48.065674],[39.237751,48.065664],[39.237505,48.06573],[39.237451,48.065643],[39.237375,48.065661],[39.237348,48.065686],[39.237334,48.065697],[39.237316,48.065721],[39.237311,48.065739],[39.237306,48.06576],[39.237306,48.065772],[39.237338,48.06583],[39.237361,48.065844],[39.237459,48.066004],[39.237585,48.065968],[39.237612,48.066024],[39.237499,48.066064],[39.237531,48.0661],[39.237585,48.0661],[39.237757,48.066055]]]}},{"type":"Feature","properties":{"cadnum":"4412346400:01:001:0033"},"geometry":{"type":"Polygon","coordinates":[[[39.23772200000025,48.066034378378326],[39.237757,48.066027],[39.237757,48.06602681081081],[39.237881,48.066],[39.237944,48.065937],[39.238034,48.065926],[39.238088,48.065919],[39.238075,48.065875],[39.238065,48.06582],[39.237967,48.065511],[39.237864,48.065526],[39.23768822999972,48.06553860000002],[39.237159,48.065574],[39.237369,48.066028],[39.237419,48.066042],[39.237486,48.066028],[39.237518,48.066066],[39.237572,48.066066],[39.237585,48.06606325945946],[39.237585,48.066064],[39.23772200000025,48.066034378378326]]]}},{"type":"Feature","properties":{"cadnum":"4412346400:01:001:0039"},"geometry":{"type":"Polygon","coordinates":[[[39.237949,48.064433],[39.238197,48.064377],[39.238084,48.064086],[39.237994,48.063761],[39.237729,48.063803],[39.237949,48.064433]]]}},{"type":"Feature","properties":{"cadnum":"4412346400:01:001:0041"},"geometry":{"type":"Polygon","coordinates":[[[39.240114,48.064605],[39.240545,48.064554],[39.240491,48.064266],[39.240033,48.064304],[39.240114,48.064605]]]}},{"type":"Feature","properties":{"cadnum":"4412346400:01:001:0035"},"geometry":{"type":"Polygon","coordinates":[[[39.238174,48.065808],[39.238354,48.065772],[39.238313,48.065686],[39.238134,48.065721],[39.238174,48.065808]]]}},{"type":"Feature","properties":{"cadnum":"4412346400:01:001:0038"},"geometry":{"type":"Polygon","coordinates":[[[39.237872,48.064926],[39.238164,48.064833],[39.238178,48.064382],[39.237949,48.064433],[39.237692,48.064491],[39.237872,48.064926]]]}},{"type":"Feature","properties":{"cadnum":"4412346400:02:001:0085"},"geometry":{"type":"Polygon","coordinates":[[[39.249254,48.077652],[39.248962,48.077694],[39.249068117647056,48.078022],[39.249068,48.078022],[39.24908038095215,48.078059904761204],[39.249105,48.078136],[39.2491052361809,48.078136],[39.249133,48.078221],[39.24942,48.078179],[39.2494050731707,48.07813304878037],[39.249254,48.077652]]]}},{"type":"Feature","properties":{"cadnum":"4412346400:05:001:0004"},"geometry":{"type":"Polygon","coordinates":[[[39.24857100000011,48.07563999999998],[39.248743,48.075606],[39.248743,48.07560569662922],[39.248927,48.075569],[39.2489,48.075412],[39.2487226837766,48.075437869844144],[39.248028,48.075536],[39.248141,48.075725],[39.248571,48.07564],[39.24857100000011,48.07563999999998]]]}},{"type":"Feature","properties":{"cadnum":"4412346400:04:001:0022"},"geometry":{"type":"Polygon","coordinates":[[[39.247776,48.070307],[39.248455,48.070122],[39.248369,48.069911],[39.247682,48.07004],[39.247776,48.070307]]]}},{"type":"Feature","properties":{"cadnum":"4412346400:01:002:0055"},"geometry":{"type":"Polygon","coordinates":[[[39.24695,48.067501],[39.247382,48.067432],[39.247503,48.067414],[39.247566,48.067402],[39.247472,48.067117],[39.246856,48.067207],[39.24695,48.067501]]]}},{"type":"Feature","properties":{"cadnum":"4412346400:01:002:0044"},"geometry":{"type":"Polygon","coordinates":[[[39.243667,48.068347],[39.243878,48.068293],[39.243658,48.067993],[39.243497,48.068051],[39.243667,48.068347]]]}},{"type":"Feature","properties":{"cadnum":"4412346400:01:002:0048"},"geometry":{"type":"Polygon","coordinates":[[[39.243931,48.067868],[39.244152,48.067819],[39.244161,48.067819],[39.244004,48.067472],[39.24378,48.067517],[39.243801,48.067568],[39.243814,48.067568],[39.243869,48.067681],[39.243883,48.067711],[39.2439,48.067732],[39.243923,48.067786],[39.243931,48.067868]]]}},{"type":"Feature","properties":{"cadnum":"4412346400:01:002:0060"},"geometry":{"type":"Polygon","coordinates":[[[39.243667,48.066868],[39.243262,48.066958],[39.24329407185629,48.06701],[39.243294,48.06701],[39.243305368421616,48.06702831579039],[39.243365,48.067125],[39.24336537931034,48.067125],[39.24342,48.067213],[39.243734,48.067024],[39.243667,48.066868]]]}},{"type":"Feature","properties":{"cadnum":"4412346400:01:001:0006"},"geometry":{"type":"Polygon","coordinates":[[[39.245342,48.067906],[39.245531,48.067897],[39.245526,48.067888],[39.245634,48.067873],[39.245724,48.067859],[39.245684,48.067681],[39.245629,48.06755],[39.245288,48.067591],[39.245306,48.06769],[39.245298,48.06769],[39.245338,48.067877],[39.245342,48.067906]]]}},{"type":"Feature","properties":{"cadnum":"4412346400:01:002:0056"},"geometry":{"type":"Polygon","coordinates":[[[39.247237,48.066472],[39.247004,48.06583],[39.246487,48.065899],[39.245481,48.066069],[39.245742,48.066754],[39.245787,48.066745],[39.245814,48.066817],[39.245827,48.066814],[39.245955,48.067125],[39.24595537676056,48.067125],[39.246025,48.067294],[39.246204,48.067279],[39.24638,48.067255],[39.246856,48.067207],[39.247472,48.067117],[39.247237,48.066472]]]}},{"type":"Feature","properties":{"cadnum":"4412346400:01:002:0052"},"geometry":{"type":"Polygon","coordinates":[[[39.245414,48.067111],[39.245194,48.06661],[39.245063,48.066636],[39.244394,48.066774],[39.244457,48.066889],[39.244457,48.066892],[39.24438,48.06691],[39.244443,48.067021],[39.244637,48.066967],[39.24466120740741,48.06701],[39.244661,48.06701],[39.244713,48.067102],[39.244726,48.067099],[39.24474,48.067125],[39.244740713178295,48.067125],[39.244799,48.067228],[39.24534041025641,48.067125],[39.245343,48.067125],[39.245414,48.067111]]]}},{"type":"Feature","properties":{"cadnum":"4412346400:01:002:0049"},"geometry":{"type":"Polygon","coordinates":[[[39.247485,48.067519],[39.247602,48.067495],[39.247566,48.067414],[39.247449,48.067439],[39.247485,48.067519]]]}},{"type":"Feature","properties":{"cadnum":"4412346400:04:001:0029"},"geometry":{"type":"Polygon","coordinates":[[[39.247246,48.069362],[39.247449,48.069329],[39.247332,48.069053],[39.247242,48.068807],[39.247049,48.06884],[39.247246,48.069362]]]}},{"type":"Feature","properties":{"cadnum":"4412346400:04:001:0024"},"geometry":{"type":"Polygon","coordinates":[[[39.24792,48.070605],[39.247975,48.070596],[39.247879,48.070395],[39.247831,48.070407],[39.24792,48.070605]]]}},{"type":"Feature","properties":{"cadnum":"4412346400:01:002:0051"},"geometry":{"type":"Polygon","coordinates":[[[39.244084,48.067009],[39.243793,48.067075],[39.243813,48.067125],[39.243813312499995,48.067125],[39.24391,48.067363],[39.244004,48.067372],[39.24426,48.067321],[39.244187,48.067177],[39.24415492814371,48.067125],[39.244155,48.067125],[39.244084,48.067009]]]}},{"type":"Feature","properties":{"cadnum":"4412346400:06:001:0011"},"geometry":{"type":"Polygon","coordinates":[[[39.264948,48.072705],[39.264953,48.072687],[39.26493,48.072685],[39.264925,48.072703],[39.264948,48.072705]]]}},{"type":"Feature","properties":{"cadnum":"4412346400:05:002:0002"},"geometry":{"type":"Polygon","coordinates":[[[39.26846,48.073879],[39.267737,48.073852],[39.266718,48.073861],[39.26532,48.074089],[39.265223,48.07411928996283],[39.265223,48.074119],[39.264642,48.074299],[39.26452959281438,48.074351],[39.264529,48.074351],[39.26434750000001,48.074435236842106],[39.264281,48.074466],[39.264281216494844,48.074466],[39.263902,48.074642],[39.262967,48.075251],[39.263489,48.075548],[39.265223,48.07513],[39.265223,48.07512948101266],[39.26797159146341,48.074466],[39.267972,48.074466],[39.268563,48.074324],[39.26846,48.073879]]]}},{"type":"Feature","properties":{"cadnum":"4412346400:06:001:0010"},"geometry":{"type":"Polygon","coordinates":[[[39.264288,48.072634],[39.264292,48.072616],[39.264265,48.072613],[39.264261,48.072631],[39.264288,48.072634]]]}},{"type":"Feature","properties":{"cadnum":"4412346400:04:002:0016"},"geometry":{"type":"Polygon","coordinates":[[[39.260433,48.072202],[39.260439,48.072184],[39.260416,48.07218],[39.260412,48.072198],[39.260433,48.072202]]]}},{"type":"Feature","properties":{"cadnum":"4412346400:06:001:0006"},"geometry":{"type":"Polygon","coordinates":[[[39.261642,48.072333],[39.261647,48.072315],[39.261619,48.072313],[39.261615,48.072331],[39.261642,48.072333]]]}},{"type":"Feature","properties":{"cadnum":"4412346400:06:001:0007"},"geometry":{"type":"Polygon","coordinates":[[[39.262307,48.072406],[39.262311,48.072391],[39.262288,48.072387],[39.262284,48.072402],[39.262307,48.072406]]]}},{"type":"Feature","properties":{"cadnum":"4412346400:06:001:0027"},"geometry":{"type":"Polygon","coordinates":[[[39.264414,48.072565],[39.264517,48.072562],[39.264512,48.072513],[39.264414,48.072513],[39.264414,48.072565]]]}},{"type":"Feature","properties":{"cadnum":"4412346400:04:002:0017"},"geometry":{"type":"Polygon","coordinates":[[[39.260973,48.072262],[39.260978,48.072244],[39.260955,48.07224],[39.26095,48.072258],[39.260973,48.072262]]]}},{"type":"Feature","properties":{"cadnum":"4412346400:06:001:0009"},"geometry":{"type":"Polygon","coordinates":[[[39.263628,48.072556],[39.263632,48.07254],[39.263605,48.072538],[39.2636,48.072553],[39.263628,48.072556]]]}},{"type":"Feature","properties":{"cadnum":"4412346400:06:001:0008"},"geometry":{"type":"Polygon","coordinates":[[[39.262967,48.072478],[39.262967,48.072462],[39.262944,48.07246],[39.26294,48.072475],[39.262967,48.072478]]]}},{"type":"Feature","properties":{"cadnum":"4412346400:04:002:0015"},"geometry":{"type":"Polygon","coordinates":[[[39.259693,48.07212],[39.259697,48.072102],[39.259674,48.072099],[39.25967,48.072117],[39.259693,48.07212]]]}},{"type":"Feature","properties":{"cadnum":"4412346400:10:001:0021"},"geometry":{"type":"Polygon","coordinates":[[[39.209783,48.065982],[39.210012,48.065979],[39.210007,48.065866],[39.209777,48.065866],[39.209783,48.065982]]]}},{"type":"Feature","properties":{"cadnum":"4412346400:06:002:0020"},"geometry":{"type":"Polygon","coordinates":[[[39.269013,48.062491],[39.269619,48.062489],[39.269691,48.062026],[39.269089,48.062002],[39.269013,48.062491]]]}},{"type":"Feature","properties":{"cadnum":"4412346400:06:002:0022"},"geometry":{"type":"Polygon","coordinates":[[[39.268609,48.061618],[39.268735,48.061074],[39.268299,48.061011],[39.268272,48.061116],[39.268244,48.061618],[39.268609,48.061618]]]}},{"type":"Feature","properties":{"cadnum":"4412346400:03:001:0001"},"geometry":{"type":"Polygon","coordinates":[[[39.239143,48.059049],[39.238071,48.058099],[39.238061,48.056992],[39.23772251110956,48.057009777777864],[39.235914,48.057103],[39.23344,48.058833],[39.233316068421054,48.059668],[39.233315,48.059668],[39.233277,48.059931],[39.234746,48.060588],[39.236943,48.060417],[39.237585,48.060663073710074],[39.237585,48.060664],[39.23891,48.061171],[39.239396,48.061185],[39.241183,48.060493],[39.240559921212125,48.059783],[39.24056,48.059783],[39.240204,48.059376],[39.239143,48.059049]]]}},{"type":"Feature","properties":{"cadnum":"4412346400:03:001:0016"},"geometry":{"type":"Polygon","coordinates":[[[39.23599,48.063122],[39.235474,48.063212],[39.235565,48.063454],[39.23556576865672,48.063454],[39.235573,48.063473],[39.236094,48.063383],[39.23599,48.063122]]]}},{"type":"Feature","properties":{"cadnum":"4412346400:01:001:0046"},"geometry":{"type":"Polygon","coordinates":[[[39.235222,48.064743],[39.23547,48.064713],[39.235331,48.064173],[39.235056,48.064206],[39.235142,48.064478],[39.235222,48.064743]]]}},{"type":"Feature","properties":{"cadnum":"4412346400:04:001:0021"},"geometry":{"type":"Polygon","coordinates":[[[39.234989,48.064767],[39.235075,48.064758],[39.235264,48.06474],[39.235084,48.064193],[39.234818,48.064233],[39.234989,48.064767]]]}},{"type":"Feature","properties":{"cadnum":"4412346400:04:002:0002"},"geometry":{"type":"Polygon","coordinates":[[[39.270576,48.073588],[39.272454,48.073777],[39.272412,48.073507],[39.272081,48.07336],[39.270603,48.073309],[39.270576,48.073588]]]}},{"type":"Feature","properties":{"cadnum":"4412346400:09:004:0015"},"geometry":{"type":"Polygon","coordinates":[[[39.18828521649453,48.062952010309296],[39.188318,48.06295],[39.188318,48.062949878048784],[39.188393,48.062945],[39.18859,48.062933],[39.188596,48.062947],[39.189116,48.062867],[39.189,48.062569],[39.188336,48.062645],[39.188318,48.062647000000005],[39.188318,48.062647],[39.187976,48.062684],[39.18803,48.062903],[39.188088,48.0629],[39.188106,48.062963],[39.188147,48.06296048584906],[39.188147,48.062961],[39.18828521649453,48.062952010309296]]]}},{"type":"Feature","properties":{"cadnum":"4412346400:09:004:0010"},"geometry":{"type":"Polygon","coordinates":[[[39.188263,48.062678],[39.188923,48.062582],[39.188883,48.062471],[39.188667,48.062518],[39.188659,48.0625],[39.188326,48.062573],[39.188236,48.062591],[39.188263,48.062678]]]}},{"type":"Feature","properties":{"cadnum":"4412346400:09:004:0007"},"geometry":{"type":"Polygon","coordinates":[[[39.19055,48.061123],[39.190571,48.06112],[39.190571,48.061102],[39.190544,48.061105],[39.19055,48.061123]]]}},{"type":"Feature","properties":{"cadnum":"4412346400:09:004:0004"},"geometry":{"type":"Polygon","coordinates":[[[39.190994,48.062573],[39.191021,48.062569],[39.191017,48.062551],[39.19099,48.062555],[39.190994,48.062573]]]}},{"type":"Feature","properties":{"cadnum":"4412346400:09:004:0006"},"geometry":{"type":"Polygon","coordinates":[[[39.190684,48.061567],[39.190711,48.061564],[39.190707,48.061549],[39.19068,48.061552],[39.190684,48.061567]]]}},{"type":"Feature","properties":{"cadnum":"4412346400:09:004:0005"},"geometry":{"type":"Polygon","coordinates":[[[39.190841,48.062068],[39.190864,48.062066],[39.19086,48.06205],[39.190837,48.062053],[39.190841,48.062068]]]}},{"type":"Feature","properties":{"cadnum":"4412346400:09:004:0012"},"geometry":{"type":"Polygon","coordinates":[[[39.189728,48.063236],[39.189867,48.063206],[39.189818,48.063101],[39.189678,48.063128],[39.189728,48.063236]]]}},{"type":"Feature","properties":{"cadnum":"4412346400:09:004:0003"},"geometry":{"type":"Polygon","coordinates":[[[39.191151,48.063074],[39.191173,48.063071],[39.191169,48.063053],[39.191147,48.063056],[39.191151,48.063074]]]}},{"type":"Feature","properties":{"cadnum":"4412346400:09:004:0008"},"geometry":{"type":"Polygon","coordinates":[[[39.190504,48.061089],[39.190598,48.061072],[39.190581,48.06102],[39.190481,48.061042],[39.190504,48.061089]]]}},{"type":"Feature","properties":{"cadnum":"4412346400:01:001:0014"},"geometry":{"type":"Polygon","coordinates":[[[39.216461,48.062843],[39.216484,48.06284],[39.216484,48.062825],[39.216461,48.062825],[39.216461,48.062843]]]}},{"type":"Feature","properties":{"cadnum":"4412346400:01:001:0011"},"geometry":{"type":"Polygon","coordinates":[[[39.217297,48.063191],[39.217297,48.063173],[39.21727,48.063173],[39.21727,48.063191],[39.217297,48.063191]]]}},{"type":"Feature","properties":{"cadnum":"4412346400:01:001:0015"},"geometry":{"type":"Polygon","coordinates":[[[39.216084,48.062843],[39.216084,48.062827],[39.216058,48.062827],[39.216058,48.062843],[39.216084,48.062843]]]}},{"type":"Feature","properties":{"cadnum":"4412346400:01:001:0013"},"geometry":{"type":"Polygon","coordinates":[[[39.216861,48.06284],[39.216888,48.062836],[39.216888,48.062822],[39.216861,48.062822],[39.216861,48.06284]]]}},{"type":"Feature","properties":{"cadnum":"4412346400:01:001:0012"},"geometry":{"type":"Polygon","coordinates":[[[39.217293,48.062852],[39.21731,48.06284],[39.217261,48.0628],[39.217243,48.062813],[39.217293,48.062852]]]}},{"type":"Feature","properties":{"cadnum":"4412346400:04:003:0008"},"geometry":{"type":"Polygon","coordinates":[[[39.262181,48.060318],[39.262213,48.060147],[39.262221,48.060126],[39.262221,48.060096],[39.262267,48.060099],[39.262284,48.059979],[39.262275,48.059904],[39.262257,48.059868],[39.262227,48.059838],[39.262185,48.059814],[39.261934,48.059796],[39.261889,48.059805],[39.26193,48.060123],[39.26193,48.060174],[39.261915,48.060318],[39.262181,48.060318]]]}},{"type":"Feature","properties":{"cadnum":"4412346400:01:001:0018"},"geometry":{"type":"Polygon","coordinates":[[[39.233404,48.067606],[39.233489,48.067603],[39.233484,48.067552],[39.233399,48.067555],[39.233404,48.067606]]]}},{"type":"Feature","properties":{"cadnum":"4412346400:01:001:0017"},"geometry":{"type":"Polygon","coordinates":[[[39.232788,48.067633],[39.232815,48.06763],[39.232811,48.067612],[39.232788,48.067615],[39.232788,48.067633]]]}},{"type":"Feature","properties":{"cadnum":"4412346400:01:001:0040"},"geometry":{"type":"Polygon","coordinates":[[[39.236098,48.068384],[39.236623,48.067799],[39.236476,48.067739],[39.236193,48.068044],[39.235923,48.068329],[39.236098,48.068384]]]}},{"type":"Feature","properties":{"cadnum":"4412346400:01:001:0048"},"geometry":{"type":"Polygon","coordinates":[[[39.236925,48.06926],[39.237145,48.069191],[39.237149,48.06917],[39.23723,48.068834],[39.237338,48.068467],[39.237176,48.068447],[39.237029,48.068909],[39.236925,48.06926]]]}},{"type":"Feature","properties":{"cadnum":"4412346400:04:001:0015"},"geometry":{"type":"Polygon","coordinates":[[[39.249187,48.072037],[39.24921,48.072033],[39.249204,48.072015],[39.249178,48.072021],[39.249187,48.072037]]]}},{"type":"Feature","properties":{"cadnum":"4412346400:04:001:0005"},"geometry":{"type":"Polygon","coordinates":[[[39.249623,48.07155],[39.250436,48.071424],[39.250336,48.071184],[39.249646,48.071331],[39.249623,48.07155]]]}},{"type":"Feature","properties":{"cadnum":"4412346400:04:002:0003"},"geometry":{"type":"Polygon","coordinates":[[[39.251846,48.071352],[39.251873,48.071346],[39.251864,48.071331],[39.251841,48.071334],[39.251846,48.071352]]]}},{"type":"Feature","properties":{"cadnum":"4412346400:04:001:0017"},"geometry":{"type":"Polygon","coordinates":[[[39.250592,48.071688],[39.250615,48.071685],[39.250611,48.071668],[39.250584,48.071673],[39.250592,48.071688]]]}},{"type":"Feature","properties":{"cadnum":"4412346400:04:001:0007"},"geometry":{"type":"Polygon","coordinates":[[[39.249793,48.072235],[39.252007,48.071875],[39.251954,48.0717],[39.250997,48.071694],[39.249587,48.071892],[39.249793,48.072235]]]}},{"type":"Feature","properties":{"cadnum":"4412346400:04:001:0016"},"geometry":{"type":"Polygon","coordinates":[[[39.249883,48.071875],[39.249906,48.071868],[39.249896,48.071853],[39.249874,48.071859],[39.249883,48.071875]]]}},{"type":"Feature","properties":{"cadnum":"4412346400:04:001:0019"},"geometry":{"type":"Polygon","coordinates":[[[39.249722,48.071502],[39.249749,48.071499],[39.249739,48.071481],[39.249717,48.071487],[39.249722,48.071502]]]}},{"type":"Feature","properties":{"cadnum":"4412346400:04:002:0005"},"geometry":{"type":"Polygon","coordinates":[[[39.253131,48.071016],[39.253135,48.071001],[39.253112,48.070995],[39.253103,48.071013],[39.253131,48.071016]]]}},{"type":"Feature","properties":{"cadnum":"4412346400:04:002:0004"},"geometry":{"type":"Polygon","coordinates":[[[39.252483,48.071187],[39.252506,48.071181],[39.252502,48.071166],[39.252475,48.071169],[39.252483,48.071187]]]}},{"type":"Feature","properties":{"cadnum":"4412346400:04:002:0006"},"geometry":{"type":"Polygon","coordinates":[[[39.253621,48.071106],[39.253629,48.071088],[39.253602,48.071085],[39.253598,48.0711],[39.253621,48.071106]]]}},{"type":"Feature","properties":{"cadnum":"4412346400:04:001:0018"},"geometry":{"type":"Polygon","coordinates":[[[39.25124,48.071514],[39.251267,48.071511],[39.251258,48.071493],[39.251235,48.071499],[39.25124,48.071514]]]}},{"type":"Feature","properties":{"cadnum":"4412346400:04:001:0020"},"geometry":{"type":"Polygon","coordinates":[[[39.249811,48.071379],[39.24982,48.07131],[39.249744,48.071307],[39.249735,48.071373],[39.249811,48.071379]]]}},{"type":"Feature","properties":{"cadnum":"4412346400:06:002:0011"},"geometry":{"type":"Polygon","coordinates":[[[39.271811,48.066171],[39.271819,48.066157],[39.271802,48.066148],[39.271789,48.066162],[39.271811,48.066171]]]}},{"type":"Feature","properties":{"cadnum":"4412346400:06:002:0019"},"geometry":{"type":"Polygon","coordinates":[[[39.275588,48.065475],[39.275584,48.065166],[39.27549,48.065169],[39.275494,48.065475],[39.275588,48.065475]]]}},{"type":"Feature","properties":{"cadnum":"4412346400:06:002:0012"},"geometry":{"type":"Polygon","coordinates":[[[39.272135,48.065779],[39.272148,48.065764],[39.272125,48.065755],[39.272112,48.06577],[39.272135,48.065779]]]}},{"type":"Feature","properties":{"cadnum":"4412346400:06:002:0013"},"geometry":{"type":"Polygon","coordinates":[[[39.272462,48.065385],[39.272475,48.06537],[39.272454,48.065361],[39.27244,48.065376],[39.272462,48.065385]]]}},{"type":"Feature","properties":{"cadnum":"4412346400:06:002:0016"},"geometry":{"type":"Polygon","coordinates":[[[39.273427,48.06422],[39.273464,48.064175],[39.273441,48.064166],[39.273406,48.064215],[39.273427,48.06422]]]}},{"type":"Feature","properties":{"cadnum":"4412346400:06:002:0014"},"geometry":{"type":"Polygon","coordinates":[[[39.272785,48.064992],[39.272798,48.064977],[39.272777,48.064968],[39.272768,48.064983],[39.272785,48.064992]]]}},{"type":"Feature","properties":{"cadnum":"4412346400:06:002:0017"},"geometry":{"type":"Polygon","coordinates":[[[39.273379,48.064146],[39.27346,48.064142],[39.27346,48.064071],[39.273379,48.064073],[39.273379,48.064146]]]}},{"type":"Feature","properties":{"cadnum":"4412346400:06:002:0009"},"geometry":{"type":"Polygon","coordinates":[[[39.27116,48.066958],[39.271169,48.066943],[39.271146,48.066934],[39.271137,48.066949],[39.27116,48.066958]]]}},{"type":"Feature","properties":{"cadnum":"4412346400:06:002:0018"},"geometry":{"type":"Polygon","coordinates":[[[39.274897,48.065481],[39.275494,48.065475],[39.27549,48.065169],[39.274892,48.065184],[39.274897,48.065481]]]}},{"type":"Feature","properties":{"cadnum":"4412346400:06:002:0010"},"geometry":{"type":"Polygon","coordinates":[[[39.271483,48.066565],[39.271496,48.06655],[39.271473,48.066541],[39.27146,48.066556],[39.271483,48.066565]]]}},{"type":"Feature","properties":{"cadnum":"4412346400:06:002:0015"},"geometry":{"type":"Polygon","coordinates":[[[39.273114,48.064598],[39.273127,48.064584],[39.273104,48.064575],[39.273091,48.064589],[39.273114,48.064598]]]}},{"type":"Feature","properties":{"cadnum":"4412346400:09:004:0014"},"geometry":{"type":"Polygon","coordinates":[[[39.189755,48.058859],[39.190707,48.058853],[39.190707,48.058664],[39.189749,48.05867],[39.189755,48.058859]]]}},{"type":"Feature","properties":{"cadnum":"4412346400:02:001:0096"},"geometry":{"type":"Polygon","coordinates":[[[39.247816,48.077832],[39.247556,48.077867],[39.24760592509363,48.078022],[39.247604,48.078022],[39.247642,48.078134],[39.247642,48.078136],[39.24764258237548,48.078136],[39.247718,48.078395],[39.247979,48.078359],[39.2478808911915,48.07804411744318],[39.247816,48.077832]]]}},{"type":"Feature","properties":{"cadnum":"4412346400:10:001:0023"},"geometry":{"type":"Polygon","coordinates":[[[39.215303,48.063995],[39.215266,48.064275],[39.215612,48.06430558939096],[39.215612,48.064306],[39.215775,48.06432],[39.21581,48.064037],[39.215612,48.064021],[39.215612,48.06402133887734],[39.215303,48.063995]]]}},{"type":"Feature","properties":{"cadnum":"4412346400:10:001:0022"},"geometry":{"type":"Polygon","coordinates":[[[39.215784,48.064034898989895],[39.21581,48.064037],[39.215828,48.063866],[39.215869,48.063695],[39.21570518980278,48.06367524079334],[39.215356,48.063632],[39.215303,48.063995],[39.215784,48.064036],[39.215784,48.064034898989895]]]}},{"type":"Feature","properties":{"cadnum":"4412346400:06:001:0019"},"geometry":{"type":"Polygon","coordinates":[[[39.268223,48.070494],[39.268236,48.070478],[39.268213,48.070469],[39.268204,48.070485],[39.268223,48.070494]]]}},{"type":"Feature","properties":{"cadnum":"4412346400:06:001:0021"},"geometry":{"type":"Polygon","coordinates":[[[39.268878,48.069708],[39.268886,48.069692],[39.268865,48.069686],[39.268856,48.069699],[39.268878,48.069708]]]}},{"type":"Feature","properties":{"cadnum":"4412346400:06:001:0023"},"geometry":{"type":"Polygon","coordinates":[[[39.269529,48.068921],[39.269538,48.068906],[39.269521,48.0689],[39.269507,48.068915],[39.269529,48.068921]]]}},{"type":"Feature","properties":{"cadnum":"4412346400:06:001:0024"},"geometry":{"type":"Polygon","coordinates":[[[39.269852,48.068527],[39.269865,48.068513],[39.269844,48.068507],[39.269831,48.068522],[39.269852,48.068527]]]}},{"type":"Feature","properties":{"cadnum":"4412346400:06:001:0022"},"geometry":{"type":"Polygon","coordinates":[[[39.269188,48.069329],[39.269228,48.069284],[39.269206,48.069275],[39.269169,48.069323],[39.269188,48.069329]]]}},{"type":"Feature","properties":{"cadnum":"4412346400:06:001:0020"},"geometry":{"type":"Polygon","coordinates":[[[39.26855,48.0701],[39.268563,48.070086],[39.26854,48.070077],[39.268527,48.070091],[39.26855,48.0701]]]}},{"type":"Feature","properties":{"cadnum":"4412346400:06:001:0025"},"geometry":{"type":"Polygon","coordinates":[[[39.270167,48.068153],[39.270203,48.068104],[39.270181,48.068098],[39.270144,48.068144],[39.270167,48.068153]]]}},{"type":"Feature","properties":{"cadnum":"4412346400:06:001:0026"},"geometry":{"type":"Polygon","coordinates":[[[39.270504,48.067744],[39.270517,48.06773],[39.270494,48.06772],[39.270486,48.067735],[39.270504,48.067744]]]}},{"type":"Feature","properties":{"cadnum":"4412346400:01:001:0026"},"geometry":{"type":"Polygon","coordinates":[[[39.244889,48.06594],[39.244956,48.065913],[39.244942,48.065899],[39.244875,48.065926],[39.244889,48.06594]]]}},{"type":"Feature","properties":{"cadnum":"4412346400:01:001:0025"},"geometry":{"type":"Polygon","coordinates":[[[39.244853,48.065511],[39.244879,48.065508],[39.244875,48.065493],[39.244853,48.065493],[39.244853,48.065511]]]}},{"type":"Feature","properties":{"cadnum":"4412346400:01:002:0017"},"geometry":{"type":"Polygon","coordinates":[[[39.248298,48.063999],[39.248321,48.063993],[39.248315,48.063977],[39.248288,48.06398],[39.248298,48.063999]]]}},{"type":"Feature","properties":{"cadnum":"4412346400:01:002:0015"},"geometry":{"type":"Polygon","coordinates":[[[39.24726,48.064191],[39.247287,48.064184],[39.247279,48.064169],[39.247256,48.064173],[39.24726,48.064191]]]}},{"type":"Feature","properties":{"cadnum":"4412346400:01:002:0013"},"geometry":{"type":"Polygon","coordinates":[[[39.246227,48.06438],[39.24625,48.064377],[39.246245,48.064362],[39.246223,48.064364],[39.246227,48.06438]]]}},{"type":"Feature","properties":{"cadnum":"4412346400:01:002:0033"},"geometry":{"type":"Polygon","coordinates":[[[39.248671,48.066498],[39.248657,48.066466],[39.248743,48.066451],[39.248743,48.066450123076926],[39.248787,48.066442],[39.248715,48.066247],[39.248571,48.066271],[39.248571,48.06627107868852],[39.24841,48.066298],[39.248495,48.066529],[39.248571,48.06651561363637],[39.248571,48.066516],[39.248671,48.066498]]]}},{"type":"Feature","properties":{"cadnum":"4412346400:01:002:0057"},"geometry":{"type":"Polygon","coordinates":[[[39.248127,48.066574],[39.248437,48.066532],[39.248347,48.0663],[39.248347,48.066289],[39.248231,48.066304],[39.248051,48.066325],[39.248086,48.066438],[39.248127,48.066574]]]}},{"type":"Feature","properties":{"cadnum":"4412346400:01:002:0014"},"geometry":{"type":"Polygon","coordinates":[[[39.246743,48.064287],[39.24677,48.06428],[39.246761,48.064266],[39.246739,48.064269],[39.246743,48.064287]]]}},{"type":"Feature","properties":{"cadnum":"4412346400:01:001:0023"},"geometry":{"type":"Polygon","coordinates":[[[39.245679,48.064644],[39.245701,48.064638],[39.245697,48.064623],[39.245671,48.064625],[39.245679,48.064644]]]}},{"type":"Feature","properties":{"cadnum":"4412346400:01:002:0016"},"geometry":{"type":"Polygon","coordinates":[[[39.247781,48.064095],[39.247803,48.064088],[39.247795,48.064073],[39.247772,48.064077],[39.247781,48.064095]]]}},{"type":"Feature","properties":{"cadnum":"4412346400:01:001:0021"},"geometry":{"type":"Polygon","coordinates":[[[39.244736,48.064836],[39.244799,48.064791],[39.244736,48.064752],[39.244718,48.064764],[39.244763,48.064794],[39.244718,48.064824],[39.244736,48.064836]]]}},{"type":"Feature","properties":{"cadnum":"4412346400:03:001:0015"},"geometry":{"type":"Polygon","coordinates":[[[39.243312,48.063893],[39.24333,48.063881],[39.243312,48.06387],[39.243294,48.063881],[39.243312,48.063893]]]}},{"type":"Feature","properties":{"cadnum":"4412346400:01:002:0036"},"geometry":{"type":"Polygon","coordinates":[[[39.24739,48.065902],[39.247472,48.065886],[39.247435,48.065799],[39.247359,48.065815],[39.24739,48.065902]]]}},{"type":"Feature","properties":{"cadnum":"4412346400:01:002:0047"},"geometry":{"type":"Polygon","coordinates":[[[39.248005,48.067057],[39.248329,48.066997],[39.248217,48.066724],[39.247893,48.066784],[39.248005,48.067057]]]}},{"type":"Feature","properties":{"cadnum":"4412346400:01:001:0022"},"geometry":{"type":"Polygon","coordinates":[[[39.245118,48.064713],[39.24514,48.064704],[39.245099,48.064667],[39.245158,48.064641],[39.24514,48.064629],[39.245068,48.064665],[39.245118,48.064713]]]}},{"type":"Feature","properties":{"cadnum":"4412346400:01:001:0020"},"geometry":{"type":"Polygon","coordinates":[[[39.244242,48.064458],[39.244256,48.064446],[39.244237,48.064433],[39.244224,48.064446],[39.244242,48.064458]]]}},{"type":"Feature","properties":{"cadnum":"4412346400:01:002:0002"},"geometry":{"type":"Polygon","coordinates":[[[39.248801,48.066454],[39.248711,48.066229],[39.248401,48.066286],[39.248495,48.066514],[39.248571,48.066498983870964],[39.248571,48.066499],[39.248801,48.066454]]]}},{"type":"Feature","properties":{"cadnum":"4412346400:01:002:0032"},"geometry":{"type":"Polygon","coordinates":[[[39.245325,48.066445],[39.245392,48.066427],[39.245365,48.066382],[39.245298,48.0664],[39.245325,48.066445]]]}},{"type":"Feature","properties":{"cadnum":"4412346400:01:001:0019"},"geometry":{"type":"Polygon","coordinates":[[[39.243694,48.064133],[39.243707,48.064122],[39.24369,48.064109],[39.243671,48.064122],[39.243694,48.064133]]]}},{"type":"Feature","properties":{"cadnum":"4412346400:01:002:0031"},"geometry":{"type":"Polygon","coordinates":[[[39.245221,48.066322],[39.245325,48.066309],[39.245315,48.066271],[39.245212,48.066282],[39.245221,48.066322]]]}},{"type":"Feature","properties":{"cadnum":"4412346400:01:001:0027"},"geometry":{"type":"Polygon","coordinates":[[[39.245378,48.066138],[39.245449,48.066118],[39.245418,48.066064],[39.245346,48.066084],[39.245378,48.066138]]]}},{"type":"Feature","properties":{"cadnum":"4412346400:01:002:0054"},"geometry":{"type":"Polygon","coordinates":[[[39.249084,48.066442],[39.24898,48.066169],[39.248644,48.066217],[39.248652,48.066249],[39.248728,48.066445],[39.248743,48.066488],[39.248743,48.066486842105256],[39.248747,48.066498],[39.249084,48.066442]]]}},{"type":"Feature","properties":{"cadnum":"4412346400:01:001:0024"},"geometry":{"type":"Polygon","coordinates":[[[39.244808,48.065133],[39.244835,48.06513],[39.24483,48.065115],[39.244808,48.065115],[39.244808,48.065133]]]}},{"type":"Feature","properties":{"cadnum":"4412346400:04:004:0002"},"geometry":{"type":"Polygon","coordinates":[[[39.248671,48.058787],[39.248693,48.058778],[39.248634,48.058718],[39.248612,48.05873],[39.248535,48.058766],[39.248571,48.058803963636365],[39.248571,48.058805],[39.24859,48.058824],[39.248671,48.058787]]]}},{"type":"Feature","properties":{"cadnum":"4412346400:02:002:0083"},"geometry":{"type":"Polygon","coordinates":[[[39.242135,48.083902],[39.242359,48.083848],[39.242063,48.083388],[39.242054,48.083332],[39.241983,48.083185],[39.24191,48.08301],[39.241847,48.083023],[39.241843,48.083017],[39.241803,48.083023],[39.241807,48.083032],[39.24173,48.083043],[39.241785,48.08317],[39.241807,48.083227],[39.241883,48.083422],[39.242135,48.083902]]]}},{"type":"Feature","properties":{"cadnum":"4412346400:02:001:0005"},"geometry":{"type":"Polygon","coordinates":[[[39.240851,48.075833],[39.241021,48.075803],[39.240967,48.075659],[39.240797,48.075689],[39.240851,48.075833]]]}},{"type":"Feature","properties":{"cadnum":"4412346400:02:001:0099"},"geometry":{"type":"Polygon","coordinates":[[[39.239791,48.077411],[39.240541,48.077324],[39.240518,48.077247],[39.240501,48.077249],[39.240455,48.077082],[39.239728,48.07718],[39.239791,48.077411]]]}},{"type":"Feature","properties":{"cadnum":"4412346400:02:001:0100"},"geometry":{"type":"Polygon","coordinates":[[[39.239404,48.077456],[39.239791,48.077411],[39.239728,48.07718],[39.239342,48.077234],[39.239404,48.077456]]]}},{"type":"Feature","properties":{"cadnum":"4412346400:02:001:0102"},"geometry":{"type":"Polygon","coordinates":[[[39.239,48.076343],[39.239359,48.076274],[39.239274,48.076052],[39.238901,48.076117],[39.239,48.076343]]]}},{"type":"Feature","properties":{"cadnum":"4412346400:02:001:0070"},"geometry":{"type":"Polygon","coordinates":[[[39.237989,48.074495],[39.237985,48.074476],[39.237958,48.07448],[39.237962,48.074495],[39.237989,48.074495]]]}},{"type":"Feature","properties":{"cadnum":"4412346400:02:001:0094"},"geometry":{"type":"Polygon","coordinates":[[[39.238197,48.077171],[39.239009,48.077087],[39.238973,48.076865],[39.238164,48.076955],[39.238197,48.077171]]]}},{"type":"Feature","properties":{"cadnum":"4412346400:02:001:0101"},"geometry":{"type":"Polygon","coordinates":[[[39.239359,48.076274],[39.240078,48.076139],[39.240128,48.07613],[39.240042,48.075914],[39.240006,48.075919],[39.239274,48.076052],[39.239359,48.076274]]]}},{"type":"Feature","properties":{"cadnum":"4412346400:02:001:0092"},"geometry":{"type":"Polygon","coordinates":[[[39.241421,48.077988],[39.241717,48.077939],[39.241493,48.077309],[39.241246,48.077349],[39.241421,48.077988]]]}},{"type":"Feature","properties":{"cadnum":"4412346400:02:001:0080"},"geometry":{"type":"Polygon","coordinates":[[[39.242782,48.077727],[39.243051,48.077658],[39.242925,48.077436],[39.242656,48.077505],[39.242782,48.077727]]]}},{"type":"Feature","properties":{"cadnum":"4412346400:01:001:0034"},"geometry":{"type":"Polygon","coordinates":[[[39.23988,48.063383],[39.239975,48.063371],[39.239962,48.063335],[39.239952,48.063305],[39.239858,48.06332],[39.239872,48.06335],[39.23988,48.063383]]]}},{"type":"Feature","properties":{"cadnum":"4412346400:03:001:0006"},"geometry":{"type":"Polygon","coordinates":[[[39.23883,48.06112],[39.238847,48.061107],[39.23883,48.061096],[39.238811,48.061107],[39.23883,48.06112]]]}},{"type":"Feature","properties":{"cadnum":"4412346400:03:001:0009"},"geometry":{"type":"Polygon","coordinates":[[[39.240384,48.062066],[39.240401,48.062053],[39.240384,48.062041],[39.240365,48.062053],[39.240384,48.062066]]]}},{"type":"Feature","properties":{"cadnum":"4412346400:03:001:0012"},"geometry":{"type":"Polygon","coordinates":[[[39.241834,48.062965],[39.241847,48.062954],[39.24183,48.062942],[39.241816,48.062954],[39.241834,48.062965]]]}},{"type":"Feature","properties":{"cadnum":"4412346400:03:001:0010"},"geometry":{"type":"Polygon","coordinates":[[[39.240814,48.062329],[39.240833,48.062317],[39.240814,48.062306],[39.240797,48.062317],[39.240814,48.062329]]]}},{"type":"Feature","properties":{"cadnum":"4412346400:03:001:0005"},"geometry":{"type":"Polygon","coordinates":[[[39.238443,48.060894],[39.238461,48.060882],[39.238443,48.060871],[39.238425,48.060882],[39.238443,48.060894]]]}},{"type":"Feature","properties":{"cadnum":"4412346400:03:001:0008"},"geometry":{"type":"Polygon","coordinates":[[[39.239776,48.061696],[39.239795,48.061684],[39.239776,48.061672],[39.239759,48.061684],[39.239776,48.061696]]]}},{"type":"Feature","properties":{"cadnum":"4412346400:03:001:0004"},"geometry":{"type":"Polygon","coordinates":[[[39.238025,48.060648],[39.238101,48.060631],[39.238093,48.060615],[39.238017,48.060633],[39.238025,48.060648]]]}},{"type":"Feature","properties":{"cadnum":"4412346400:03:001:0013"},"geometry":{"type":"Polygon","coordinates":[[[39.242252,48.063227],[39.24227,48.063215],[39.242252,48.063203],[39.242233,48.063215],[39.242252,48.063227]]]}},{"type":"Feature","properties":{"cadnum":"4412346400:03:001:0011"},"geometry":{"type":"Polygon","coordinates":[[[39.241327,48.062645],[39.241344,48.062633],[39.241327,48.06262],[39.241309,48.062633],[39.241327,48.062645]]]}},{"type":"Feature","properties":{"cadnum":"4412346400:03:001:0007"},"geometry":{"type":"Polygon","coordinates":[[[39.239355,48.06145],[39.239373,48.061438],[39.239355,48.061426],[39.239337,48.061438],[39.239355,48.06145]]]}},{"type":"Feature","properties":{"cadnum":"4412346400:04:002:0008"},"geometry":{"type":"Polygon","coordinates":[[[39.254904,48.071334],[39.254913,48.071319],[39.254887,48.071316],[39.254883,48.071331],[39.254904,48.071334]]]}},{"type":"Feature","properties":{"cadnum":"4412346400:04:002:0010"},"geometry":{"type":"Polygon","coordinates":[[[39.256185,48.071565],[39.256194,48.07155],[39.256167,48.071544],[39.256162,48.071559],[39.256185,48.071565]]]}},{"type":"Feature","properties":{"cadnum":"4412346400:04:002:0013"},"geometry":{"type":"Polygon","coordinates":[[[39.258305,48.071968],[39.258305,48.071949],[39.258282,48.071946],[39.258278,48.071964],[39.258305,48.071968]]]}},{"type":"Feature","properties":{"cadnum":"4412346400:04:002:0014"},"geometry":{"type":"Polygon","coordinates":[[[39.259028,48.072046],[39.259032,48.07203],[39.259005,48.072028],[39.259005,48.072042],[39.259028,48.072046]]]}},{"type":"Feature","properties":{"cadnum":"4412346400:04:002:0011"},"geometry":{"type":"Polygon","coordinates":[[[39.256971,48.071745],[39.25698,48.07173],[39.256953,48.071724],[39.256948,48.071742],[39.256971,48.071745]]]}},{"type":"Feature","properties":{"cadnum":"4412346400:04:002:0012"},"geometry":{"type":"Polygon","coordinates":[[[39.2576,48.071889],[39.2576,48.071871],[39.257577,48.071871],[39.257573,48.071886],[39.2576,48.071889]]]}},{"type":"Feature","properties":{"cadnum":"4412346400:04:002:0009"},"geometry":{"type":"Polygon","coordinates":[[[39.255426,48.07143],[39.255435,48.071412],[39.255408,48.071409],[39.255403,48.071424],[39.255426,48.07143]]]}},{"type":"Feature","properties":{"cadnum":"4412346400:04:002:0007"},"geometry":{"type":"Polygon","coordinates":[[[39.254338,48.071235],[39.254344,48.071217],[39.254321,48.071214],[39.254317,48.071229],[39.254338,48.071235]]]}},{"type":"Feature","properties":{"cadnum":"4412346400:03:001:0003"},"geometry":{"type":"Polygon","coordinates":[[[39.257747,48.070536],[39.257479,48.070398],[39.256558,48.070331],[39.25535409375001,48.070681],[39.255352,48.070681],[39.255017,48.070779],[39.255021,48.070796],[39.255022355,48.070796],[39.255206,48.071379],[39.257258,48.07177],[39.257743,48.071472],[39.25786,48.071094],[39.25779866828088,48.070796],[39.2578,48.070796],[39.257747,48.070536]]]}},{"type":"Feature","properties":{"cadnum":"4412346400:06:002:0021"},"geometry":{"type":"Polygon","coordinates":[[[39.272135,48.062758],[39.272129,48.062618],[39.271941,48.062618],[39.271941,48.062758],[39.272135,48.062758]]]}},{"type":"Feature","properties":{"cadnum":"4412346400:02:001:0064"},"geometry":{"type":"Polygon","coordinates":[[[39.240725,48.079119],[39.240729,48.079101],[39.240648,48.079098],[39.240648,48.079116],[39.240725,48.079119]]]}},{"type":"Feature","properties":{"cadnum":"4412346400:02:001:0060"},"geometry":{"type":"Polygon","coordinates":[[[39.238614,48.079293],[39.238614,48.079275],[39.238587,48.079278],[39.238591,48.079293],[39.238614,48.079293]]]}},{"type":"Feature","properties":{"cadnum":"4412346400:02:001:0061"},"geometry":{"type":"Polygon","coordinates":[[[39.23896,48.07934],[39.238987,48.079338],[39.238977,48.07932],[39.238956,48.079326],[39.23896,48.07934]]]}},{"type":"Feature","properties":{"cadnum":"4412346400:02:001:0014"},"geometry":{"type":"Polygon","coordinates":[[[39.242795,48.079338],[39.242917,48.079314],[39.242899,48.079269],[39.242889,48.079257],[39.242768,48.07928],[39.242778,48.079293],[39.242795,48.079338]]]}},{"type":"Feature","properties":{"cadnum":"4412346400:02:001:0063"},"geometry":{"type":"Polygon","coordinates":[[[39.240019,48.079191],[39.240046,48.079185],[39.240038,48.07917],[39.240015,48.079173],[39.240019,48.079191]]]}},{"type":"Feature","properties":{"cadnum":"4412346400:02:001:0062"},"geometry":{"type":"Polygon","coordinates":[[[39.239489,48.079266],[39.239516,48.079263],[39.239512,48.079245],[39.239485,48.079248],[39.239489,48.079266]]]}},{"type":"Feature","properties":{"cadnum":"4412346400:02:001:0091"},"geometry":{"type":"Polygon","coordinates":[[[39.241264,48.079851],[39.241682,48.079791],[39.241619,48.079455],[39.241191,48.079515],[39.241228,48.079692],[39.241264,48.079851]]]}},{"type":"Feature","properties":{"cadnum":"4412346400:02:001:0065"},"geometry":{"type":"Polygon","coordinates":[[[39.240904,48.079155],[39.240918,48.079107],[39.240828,48.079098],[39.240818,48.079146],[39.240904,48.079155]]]}},{"type":"Feature","properties":{"cadnum":"4412346400:02:001:0033"},"geometry":{"type":"Polygon","coordinates":[[[39.241744,48.079923],[39.242117,48.079905],[39.24209,48.0798],[39.241992,48.079404],[39.241627,48.079461],[39.241726,48.079839],[39.241744,48.079923]]]}},{"type":"Feature","properties":{"cadnum":"4412346400:02:001:0034"},"geometry":{"type":"Polygon","coordinates":[[[39.241826,48.08037],[39.24222,48.080349],[39.242117,48.079905],[39.241744,48.079923],[39.241826,48.08037]]]}},{"type":"Feature","properties":{"cadnum":"4412346400:02:001:0016"},"geometry":{"type":"Polygon","coordinates":[[[39.238354,48.0813],[39.238704,48.081279],[39.238987,48.081261],[39.238964,48.081093],[39.238767,48.081099],[39.238767,48.081115],[39.238694,48.081117],[39.238694,48.08113],[39.23834,48.081168],[39.238354,48.0813]]]}},{"type":"Feature","properties":{"cadnum":"4412346400:02:001:0071"},"geometry":{"type":"Polygon","coordinates":[[[39.237432,48.074573],[39.237428,48.074555],[39.237405,48.074557],[39.237405,48.074573],[39.237432,48.074573]]]}},{"type":"Feature","properties":{"cadnum":"4412346400:02:001:0072"},"geometry":{"type":"Polygon","coordinates":[[[39.236872,48.074633],[39.236872,48.074615],[39.236843,48.074618],[39.236849,48.074633],[39.236872,48.074633]]]}},{"type":"Feature","properties":{"cadnum":"4412346400:02:001:0074"},"geometry":{"type":"Polygon","coordinates":[[[39.241371,48.073915],[39.241376,48.073897],[39.241354,48.073894],[39.24135,48.073912],[39.241371,48.073915]]]}},{"type":"Feature","properties":{"cadnum":"4412346400:02:001:0066"},"geometry":{"type":"Polygon","coordinates":[[[39.240191,48.073852],[39.240235,48.07381],[39.240218,48.073801],[39.240168,48.073843],[39.240191,48.073852]]]}},{"type":"Feature","properties":{"cadnum":"4412346400:02:001:0076"},"geometry":{"type":"Polygon","coordinates":[[[39.242705,48.07396],[39.242732,48.073957],[39.242709,48.073906],[39.242688,48.073909],[39.242705,48.07396]]]}},{"type":"Feature","properties":{"cadnum":"4412346400:02:001:0067"},"geometry":{"type":"Polygon","coordinates":[[[39.239539,48.074092],[39.239562,48.074083],[39.239548,48.074068],[39.239526,48.074077],[39.239539,48.074092]]]}},{"type":"Feature","properties":{"cadnum":"4412346400:02:001:0068"},"geometry":{"type":"Polygon","coordinates":[[[39.23904,48.074287],[39.239113,48.074266],[39.239103,48.074251],[39.239031,48.074269],[39.23904,48.074287]]]}},{"type":"Feature","properties":{"cadnum":"4412346400:02:001:0075"},"geometry":{"type":"Polygon","coordinates":[[[39.242086,48.074041],[39.242082,48.073988],[39.242059,48.07399],[39.242059,48.074041],[39.242086,48.074041]]]}},{"type":"Feature","properties":{"cadnum":"4412346400:02:001:0069"},"geometry":{"type":"Polygon","coordinates":[[[39.23847,48.074407],[39.238541,48.074389],[39.238537,48.074375],[39.238461,48.074389],[39.23847,48.074407]]]}},{"type":"Feature","properties":{"cadnum":"4412346400:02:001:0073"},"geometry":{"type":"Polygon","coordinates":[[[39.240694,48.073777],[39.240694,48.073759],[39.240612,48.073759],[39.240612,48.073777],[39.240694,48.073777]]]}},{"type":"Feature","properties":{"cadnum":"4412346400:01:001:0008"},"geometry":{"type":"Polygon","coordinates":[[[39.21771,48.064455],[39.217737,48.064449],[39.217727,48.064433],[39.217706,48.064436],[39.21771,48.064455]]]}},{"type":"Feature","properties":{"cadnum":"4412346400:01:001:0030"},"geometry":{"type":"Polygon","coordinates":[[[39.217943,48.065739],[39.217943,48.065721],[39.217916,48.065724],[39.217916,48.065739],[39.217943,48.065739]]]}},{"type":"Feature","properties":{"cadnum":"4412346400:01:001:0002"},"geometry":{"type":"Polygon","coordinates":[[[39.218936,48.067024],[39.218958,48.067021],[39.218954,48.067003],[39.218928,48.067009],[39.218936,48.067024]]]}},{"type":"Feature","properties":{"cadnum":"4412346400:01:001:0010"},"geometry":{"type":"Polygon","coordinates":[[[39.217279,48.063492],[39.217301,48.063488],[39.217297,48.06347],[39.21727,48.063476],[39.217279,48.063492]]]}},{"type":"Feature","properties":{"cadnum":"4412346400:01:001:0009"},"geometry":{"type":"Polygon","coordinates":[[[39.217494,48.063953],[39.217517,48.063948],[39.217513,48.063932],[39.217486,48.063939],[39.217494,48.063953]]]}},{"type":"Feature","properties":{"cadnum":"4412346400:01:001:0005"},"geometry":{"type":"Polygon","coordinates":[[[39.218325,48.065739],[39.218348,48.065733],[39.218343,48.065719],[39.218316,48.065724],[39.218325,48.065739]]]}},{"type":"Feature","properties":{"cadnum":"4412346400:01:001:0007"},"geometry":{"type":"Polygon","coordinates":[[[39.217926,48.064881],[39.217949,48.064874],[39.217943,48.06486],[39.217916,48.064865],[39.217926,48.064881]]]}},{"type":"Feature","properties":{"cadnum":"4412346400:01:001:0031"},"geometry":{"type":"Polygon","coordinates":[[[39.217566,48.065742],[39.217566,48.065724],[39.21749,48.065724],[39.21749,48.065742],[39.217566,48.065742]]]}},{"type":"Feature","properties":{"cadnum":"4412346400:01:001:0004"},"geometry":{"type":"Polygon","coordinates":[[[39.218555,48.066162],[39.218576,48.066157],[39.218568,48.066142],[39.218545,48.066144],[39.218555,48.066162]]]}},{"type":"Feature","properties":{"cadnum":"4412346400:01:001:0032"},"geometry":{"type":"Polygon","coordinates":[[[39.217557,48.065848],[39.217566,48.065779],[39.217494,48.065772],[39.217486,48.065841],[39.217557,48.065848]]]}},{"type":"Feature","properties":{"cadnum":"4412346400:09:003:0011"},"geometry":{"type":"Polygon","coordinates":[[[39.192692,48.065334],[39.192718,48.065332],[39.192714,48.065313],[39.192688,48.065316],[39.192692,48.065334]]]}},{"type":"Feature","properties":{"cadnum":"4412346400:09:003:0014"},"geometry":{"type":"Polygon","coordinates":[[[39.192854,48.066727],[39.192908,48.066691],[39.192894,48.066679],[39.192835,48.066715],[39.192854,48.066727]]]}},{"type":"Feature","properties":{"cadnum":"4412346400:09:004:0011"},"geometry":{"type":"Polygon","coordinates":[[[39.192081,48.064211],[39.192089,48.064197],[39.192063,48.064191],[39.192055,48.064209],[39.192081,48.064211]]]}},{"type":"Feature","properties":{"cadnum":"4412346400:09:004:0001"},"geometry":{"type":"Polygon","coordinates":[[[39.191456,48.064077],[39.191483,48.064073],[39.191479,48.064059],[39.191452,48.064062],[39.191456,48.064077]]]}},{"type":"Feature","properties":{"cadnum":"4412346400:09:003:0010"},"geometry":{"type":"Polygon","coordinates":[[[39.192665,48.064884],[39.192661,48.064865],[39.192634,48.064869],[39.192638,48.064884],[39.192665,48.064884]]]}},{"type":"Feature","properties":{"cadnum":"4412346400:09:003:0020"},"geometry":{"type":"Polygon","coordinates":[[[39.193338,48.064373],[39.193414,48.064353],[39.19338,48.064298],[39.193307,48.06432],[39.193338,48.064373]]]}},{"type":"Feature","properties":{"cadnum":"4412346400:09:003:0021"},"geometry":{"type":"Polygon","coordinates":[[[39.192997,48.064685],[39.193055,48.064649],[39.193038,48.064638],[39.19298,48.064674],[39.192997,48.064685]]]}},{"type":"Feature","properties":{"cadnum":"4412346400:09:004:0009"},"geometry":{"type":"Polygon","coordinates":[[[39.192948,48.064409],[39.192948,48.064391],[39.192871,48.064395],[39.192871,48.064409],[39.192948,48.064409]]]}},{"type":"Feature","properties":{"cadnum":"4412346400:09:003:0012"},"geometry":{"type":"Polygon","coordinates":[[[39.192745,48.065781],[39.192772,48.065779],[39.192768,48.065764],[39.192745,48.065766],[39.192745,48.065781]]]}},{"type":"Feature","properties":{"cadnum":"4412346400:09:003:0015"},"geometry":{"type":"Polygon","coordinates":[[[39.19311,48.067057],[39.193131,48.067051],[39.193123,48.067036],[39.193101,48.067042],[39.19311,48.067057]]]}},{"type":"Feature","properties":{"cadnum":"4412346400:09:003:0013"},"geometry":{"type":"Polygon","coordinates":[[[39.192827,48.066229],[39.192822,48.066211],[39.1928,48.066213],[39.1928,48.066229],[39.192827,48.066229]]]}},{"type":"Feature","properties":{"cadnum":"4412346400:09:004:0002"},"geometry":{"type":"Polygon","coordinates":[[[39.191304,48.063575],[39.191326,48.063572],[39.191322,48.063557],[39.1913,48.063561],[39.191304,48.063575]]]}},{"type":"Feature","properties":{"cadnum":"4412346400:04:005:0001"},"geometry":{"type":"Polygon","coordinates":[[[39.250368,48.056692],[39.251114,48.056623],[39.251095,48.056457],[39.251087,48.056434],[39.25035,48.056499],[39.250368,48.056692]]]}},{"type":"Feature","properties":{"cadnum":"4412346400:06:002:0008"},"geometry":{"type":"Polygon","coordinates":[[[39.270832,48.067352],[39.270846,48.067336],[39.270823,48.067327],[39.27081,48.067342],[39.270832,48.067352]]]}},{"type":"Feature","properties":{"cadnum":"4412346400:04:001:0031"},"geometry":{"type":"Polygon","coordinates":[[[39.254801,48.063029],[39.25451,48.063074],[39.254669,48.063454],[39.25466981766382,48.063454],[39.25477,48.06369],[39.255007,48.063653],[39.254903,48.063339],[39.254902388235294,48.063339],[39.254801,48.063029]]]}},{"type":"Feature","properties":{"cadnum":"4412346400:01:002:0029"},"geometry":{"type":"Polygon","coordinates":[[[39.25428,48.062903],[39.254352,48.062887],[39.254325,48.062831],[39.254254,48.062849],[39.25428,48.062903]]]}},{"type":"Feature","properties":{"cadnum":"4412346400:04:003:0009"},"geometry":{"type":"Polygon","coordinates":[[[39.254739,48.063248],[39.254401,48.063269],[39.254436,48.063454],[39.2544373180593,48.063454],[39.254487,48.06371],[39.254698,48.06374],[39.25485,48.063752],[39.254856,48.063692],[39.25479262322946,48.063454],[39.254793,48.063454],[39.254739,48.063248]]]}},{"type":"Feature","properties":{"cadnum":"4412346400:09:003:0022"},"geometry":{"type":"Polygon","coordinates":[[[39.193428,48.068912],[39.193496,48.0689],[39.193437,48.06878],[39.193374,48.068792],[39.193428,48.068912]]]}},{"type":"Feature","properties":{"cadnum":"4412346400:09:003:0016"},"geometry":{"type":"Polygon","coordinates":[[[39.19338,48.067432],[39.193401,48.067426],[39.193393,48.067412],[39.19337,48.067417],[39.19338,48.067432]]]}},{"type":"Feature","properties":{"cadnum":"4412346400:09:003:0019"},"geometry":{"type":"Polygon","coordinates":[[[39.193747,48.068347],[39.193667,48.068309],[39.193621,48.068347],[39.19364,48.06835673170732],[39.19364,48.068357],[39.193703,48.068389],[39.193747,48.068347]]]}},{"type":"Feature","properties":{"cadnum":"4412346400:09:003:0023"},"geometry":{"type":"Polygon","coordinates":[[[39.193393,48.068789],[39.193437,48.06878],[39.193443,48.06878],[39.193406,48.068693],[39.193353,48.068705],[39.193393,48.068789]]]}},{"type":"Feature","properties":{"cadnum":"4412346400:09:003:0024"},"geometry":{"type":"Polygon","coordinates":[[[39.192045,48.06838],[39.192179,48.068342],[39.192112,48.068242],[39.192189,48.068218],[39.192193,48.068222],[39.192535,48.068122],[39.192539,48.068129],[39.192768,48.068053],[39.192409,48.06757],[39.191793,48.067771],[39.191632,48.067775],[39.19165,48.067826],[39.191569,48.067859],[39.192045,48.06838]]]}},{"type":"Feature","properties":{"cadnum":"4412346400:09:003:0017"},"geometry":{"type":"Polygon","coordinates":[[[39.193663,48.067826],[39.193684,48.067817],[39.193671,48.067801],[39.193649,48.06781],[39.193663,48.067826]]]}},{"type":"Feature","properties":{"cadnum":"4412346400:01:002:0023"},"geometry":{"type":"Polygon","coordinates":[[[39.251401,48.063422],[39.251424,48.063419],[39.251419,48.063401],[39.251392,48.063407],[39.251401,48.063422]]]}},{"type":"Feature","properties":{"cadnum":"4412346400:01:002:0018"},"geometry":{"type":"Polygon","coordinates":[[[39.248814,48.063902],[39.248837,48.063899],[39.248832,48.063881],[39.248805,48.063888],[39.248814,48.063902]]]}},{"type":"Feature","properties":{"cadnum":"4412346400:04:003:0012"},"geometry":{"type":"Polygon","coordinates":[[[39.254236,48.064468],[39.254236,48.064467504347824],[39.254348,48.064449],[39.254191,48.064095],[39.254015,48.064124],[39.254118,48.064487],[39.254236,48.064468]]]}},{"type":"Feature","properties":{"cadnum":"4412346400:01:002:0021"},"geometry":{"type":"Polygon","coordinates":[[[39.250363,48.063614],[39.250391,48.063611],[39.250382,48.063593],[39.250359,48.063599],[39.250363,48.063614]]]}},{"type":"Feature","properties":{"cadnum":"4412346400:01:002:0020"},"geometry":{"type":"Polygon","coordinates":[[[39.249847,48.06371],[39.249874,48.063708],[39.249866,48.06369],[39.249843,48.063695],[39.249847,48.06371]]]}},{"type":"Feature","properties":{"cadnum":"4412346400:01:002:0010"},"geometry":{"type":"Polygon","coordinates":[[[39.250867,48.065781],[39.250979,48.065779],[39.251168,48.065772],[39.251168,48.065427],[39.251158,48.065332],[39.251042,48.065346],[39.251042,48.065355],[39.250849,48.065382],[39.250894,48.065559],[39.250885,48.065581],[39.250867,48.065781]]]}},{"type":"Feature","properties":{"cadnum":"4412346400:01:002:0034"},"geometry":{"type":"Polygon","coordinates":[[[39.251909,48.0667],[39.251967,48.06664],[39.251909,48.066616],[39.25185,48.066676],[39.251909,48.0667]]]}},{"type":"Feature","properties":{"cadnum":"4412346400:01:002:0022"},"geometry":{"type":"Polygon","coordinates":[[[39.250881,48.063518],[39.250908,48.063515],[39.250898,48.063497],[39.250875,48.063503],[39.250881,48.063518]]]}},{"type":"Feature","properties":{"cadnum":"4412346400:01:002:0019"},"geometry":{"type":"Polygon","coordinates":[[[39.24933,48.063806],[39.249353,48.063803],[39.249349,48.063786],[39.249326,48.063791],[39.24933,48.063806]]]}},{"type":"Feature","properties":{"cadnum":"4412346400:04:003:0015"},"geometry":{"type":"Polygon","coordinates":[[[39.255677,48.065376],[39.255933,48.065367],[39.255919,48.065163],[39.255663,48.065166],[39.255677,48.065376]]]}},{"type":"Feature","properties":{"cadnum":"4412346400:04:003:0014"},"geometry":{"type":"Polygon","coordinates":[[[39.255663,48.065166],[39.255919,48.065163],[39.255884,48.064482],[39.25561,48.064487],[39.25565,48.064986],[39.255663,48.065166]]]}},{"type":"Feature","properties":{"cadnum":"4412346400:04:003:0016"},"geometry":{"type":"Polygon","coordinates":[[[39.255933,48.065388],[39.256202,48.06537],[39.256189,48.065175],[39.255919,48.065178],[39.255933,48.065367],[39.255933,48.065388]]]}},{"type":"Feature","properties":{"cadnum":"4412346400:04:003:0017"},"geometry":{"type":"Polygon","coordinates":[[[39.255919,48.065178],[39.256189,48.065175],[39.256135,48.064476],[39.255884,48.064482],[39.255919,48.065178]]]}},{"type":"Feature","properties":{"cadnum":"4412346400:09:003:0018"},"geometry":{"type":"Polygon","coordinates":[[[39.1939,48.068153],[39.193904,48.068102],[39.193877,48.068102],[39.193877,48.068153],[39.1939,48.068153]]]}},{"type":"Feature","properties":{"cadnum":"4412346400:06:001:0014"},"geometry":{"type":"Polygon","coordinates":[[[39.266592,48.07246],[39.266605,48.072444],[39.266582,48.072435],[39.266574,48.072451],[39.266592,48.07246]]]}},{"type":"Feature","properties":{"cadnum":"4412346400:06:001:0028"},"geometry":{"type":"Polygon","coordinates":[[[39.270261,48.073048],[39.270248,48.072789],[39.270234,48.072475],[39.26997,48.072453],[39.269934,48.072451],[39.269924,48.073021],[39.270261,48.073048]]]}},{"type":"Feature","properties":{"cadnum":"4412346400:06:001:0012"},"geometry":{"type":"Polygon","coordinates":[[[39.265613,48.072778],[39.265617,48.07276],[39.26559,48.07276],[39.265586,48.072774],[39.265613,48.072778]]]}},{"type":"Feature","properties":{"cadnum":"4412346400:06:001:0016"},"geometry":{"type":"Polygon","coordinates":[[[39.267248,48.071673],[39.267257,48.071659],[39.267238,48.07165],[39.267225,48.071664],[39.267248,48.071673]]]}},{"type":"Feature","properties":{"cadnum":"4412346400:06:001:0017"},"geometry":{"type":"Polygon","coordinates":[[[39.267571,48.07128],[39.267584,48.071265],[39.267561,48.071256],[39.267548,48.071271],[39.267571,48.07128]]]}},{"type":"Feature","properties":{"cadnum":"4412346400:06:001:0015"},"geometry":{"type":"Polygon","coordinates":[[[39.266974,48.072088],[39.266987,48.072073],[39.266932,48.072051],[39.266965,48.072013],[39.266942,48.072004],[39.266898,48.072057],[39.266974,48.072088]]]}},{"type":"Feature","properties":{"cadnum":"4412346400:06:001:0013"},"geometry":{"type":"Polygon","coordinates":[[[39.266273,48.07285],[39.266278,48.072834],[39.266255,48.072832],[39.26625,48.072847],[39.266273,48.07285]]]}},{"type":"Feature","properties":{"cadnum":"4412346400:06:001:0029"},"geometry":{"type":"Polygon","coordinates":[[[39.270234,48.072475],[39.270234,48.072466],[39.26997,48.072453],[39.270234,48.072475]]]}},{"type":"Feature","properties":{"cadnum":"4412346400:06:001:0018"},"geometry":{"type":"Polygon","coordinates":[[[39.267899,48.070887],[39.267913,48.070872],[39.26789,48.070863],[39.267877,48.070878],[39.267899,48.070887]]]}},{"type":"Feature","properties":{"cadnum":"4412346400:04:004:0001"},"geometry":{"type":"Polygon","coordinates":[[[39.247417,48.059928],[39.247552,48.059916],[39.247548,48.05987],[39.247409,48.059879],[39.247417,48.059928]]]}},{"type":"Feature","properties":{"cadnum":"4412346400:01:002:0039"},"geometry":{"type":"Polygon","coordinates":[[[39.244696,48.062489],[39.244987,48.062426],[39.244763,48.061951],[39.244476,48.062014],[39.244696,48.062489]]]}},{"type":"Feature","properties":{"cadnum":"4412346400:01:002:0042"},"geometry":{"type":"Polygon","coordinates":[[[39.244539,48.061726],[39.244759,48.061678],[39.244525,48.061171],[39.244237,48.061231],[39.244394,48.061516],[39.244539,48.061726]]]}},{"type":"Feature","properties":{"cadnum":"4412346400:01:002:0037"},"geometry":{"type":"Polygon","coordinates":[[[39.244587,48.063179],[39.244763,48.063107],[39.244749,48.063094],[39.244992,48.062993],[39.244969,48.062956],[39.244983,48.062954],[39.244857,48.062705],[39.244296,48.062873],[39.244587,48.063179]]]}},{"type":"Feature","properties":{"cadnum":"4412346400:01:002:0038"},"geometry":{"type":"Polygon","coordinates":[[[39.244296,48.062873],[39.244857,48.062705],[39.244848,48.062687],[39.244283,48.062854],[39.244296,48.062873]]]}},{"type":"Feature","properties":{"cadnum":"4412346400:08:001:0001"},"geometry":{"type":"Polygon","coordinates":[[[39.246227,48.055482],[39.246231,48.055458],[39.246595,48.055464],[39.246658,48.055137],[39.24616,48.055115],[39.246155,48.05513],[39.246141,48.055128],[39.246141,48.055137],[39.246155,48.055139],[39.246155,48.055161],[39.246114,48.05523],[39.246101,48.055317],[39.24607,48.055317],[39.246034,48.05547],[39.246227,48.055482]]]}},{"type":"Feature","properties":{"cadnum":"4412346400:08:001:0002"},"geometry":{"type":"Polygon","coordinates":[[[39.246627,48.055464],[39.246837,48.055164],[39.246757,48.055142],[39.246658,48.055137],[39.246595,48.055464],[39.246627,48.055464]]]}},{"type":"Feature","properties":{"cadnum":"4412346400:01:001:0028"},"geometry":{"type":"Polygon","coordinates":[[[39.215679,48.062845],[39.215679,48.062831],[39.215653,48.062831],[39.215653,48.062845],[39.215679,48.062845]]]}},{"type":"Feature","properties":{"cadnum":"4412346400:01:001:0029"},"geometry":{"type":"Polygon","coordinates":[[[39.215572,48.062873],[39.215572,48.062804],[39.215496,48.062804],[39.215496,48.062873],[39.215572,48.062873]]]}}]}