{"type":"FeatureCollection","features":[{"type":"Feature","properties":{"cadnum":"4412145700:01:004:0027"},"geometry":{"type":"Polygon","coordinates":[[[38.578461830408955,48.784981666666766],[38.578348,48.78501],[38.578456,48.785209],[38.57845695979899,48.785209],[38.578625,48.785513],[38.578918,48.785437],[38.578721,48.785095],[38.57871997777778,48.785095],[38.578631,48.784939],[38.578461830408955,48.784981666666766]]]}},{"type":"Feature","properties":{"cadnum":"4412145700:01:004:0089"},"geometry":{"type":"Polygon","coordinates":[[[38.578577,48.78594872854962],[38.578577,48.785948],[38.574809,48.78694],[38.574835,48.787137],[38.572912,48.787761],[38.572912,48.78776107389162],[38.572881,48.787771],[38.572912,48.78782751538461],[38.572912,48.787828],[38.573011,48.788008],[38.573084,48.787996],[38.573084,48.787995855192236],[38.578405,48.78711061516349],[38.578405,48.787111],[38.582097,48.786496],[38.581753,48.78572],[38.58168955952381,48.785209],[38.58169,48.785209],[38.58168,48.785132],[38.578577,48.78594872854962]]]}},{"type":"Feature","properties":{"cadnum":"4412145700:01:004:0095"},"geometry":{"type":"Polygon","coordinates":[[[38.581249,48.784663],[38.581262,48.784007],[38.58124,48.784007],[38.581025,48.784069],[38.580912,48.784113],[38.580962,48.784202],[38.580984,48.784244],[38.580935,48.784661],[38.581249,48.784663]]]}},{"type":"Feature","properties":{"cadnum":"4412145700:01:004:0001"},"geometry":{"type":"Polygon","coordinates":[[[38.581159,48.782397],[38.581801,48.782151],[38.581581,48.781864],[38.58142,48.781932],[38.581092,48.781559],[38.580535,48.781739],[38.581159,48.782397]]]}},{"type":"Feature","properties":{"cadnum":"4412145700:02:004:0216"},"geometry":{"type":"Polygon","coordinates":[[[38.581554,48.77151],[38.581621,48.771454],[38.581784,48.771362],[38.582076,48.771261],[38.582008,48.771182],[38.581954,48.771081],[38.581856,48.770989],[38.581344,48.771241],[38.581397,48.771289],[38.581554,48.77151]]]}},{"type":"Feature","properties":{"cadnum":"4412145700:02:001:0224"},"geometry":{"type":"Polygon","coordinates":[[[38.545618,48.782811],[38.546943,48.782524],[38.546934,48.782506],[38.545609,48.782793],[38.545222,48.782838],[38.545226,48.782855],[38.545446,48.78283030612245],[38.545446,48.782831],[38.545618,48.782811]]]}},{"type":"Feature","properties":{"cadnum":"4412145700:02:001:0225"},"geometry":{"type":"Polygon","coordinates":[[[38.54259,48.783376],[38.54276,48.783367],[38.542842,48.783356],[38.543349,48.783311],[38.543816,48.78327],[38.544001,48.783255],[38.543995,48.783237],[38.543816,48.783252],[38.543345,48.783294],[38.542837,48.783338],[38.542766,48.783347],[38.542586,48.783358],[38.54259,48.783376]]]}},{"type":"Feature","properties":{"cadnum":"4412145700:02:001:0165"},"geometry":{"type":"Polygon","coordinates":[[[38.543695,48.784572],[38.54401,48.784554],[38.544045,48.784551],[38.544005,48.784131],[38.543641,48.784154],[38.543695,48.784572]]]}},{"type":"Feature","properties":{"cadnum":"4412145700:02:001:0162"},"geometry":{"type":"Polygon","coordinates":[[[38.54263,48.784036],[38.542886,48.784007],[38.54276,48.783367],[38.542527,48.783379],[38.54263,48.784036]]]}},{"type":"Feature","properties":{"cadnum":"4412145700:02:001:0226"},"geometry":{"type":"Polygon","coordinates":[[[38.540573,48.784838],[38.541022,48.784696],[38.541768,48.784457],[38.54184,48.784551],[38.541984,48.784504],[38.54184,48.784318],[38.540905,48.784604],[38.540834,48.784632],[38.540685,48.7847],[38.540668,48.784714],[38.540659,48.784702],[38.540582,48.784761],[38.540565,48.784782],[38.540565,48.784829],[38.540573,48.784838]]]}},{"type":"Feature","properties":{"cadnum":"4412145700:02:001:0234"},"geometry":{"type":"Polygon","coordinates":[[[38.544175,48.784542],[38.544561,48.784518],[38.544557,48.784483],[38.544167,48.784507],[38.544175,48.784542]]]}},{"type":"Feature","properties":{"cadnum":"4412145700:02:001:0235"},"geometry":{"type":"Polygon","coordinates":[[[38.545905,48.784344],[38.545796,48.783941],[38.545729,48.783948],[38.545446,48.783976],[38.545446,48.7839762],[38.545348,48.783986],[38.545383,48.784119],[38.545446,48.78434942465752],[38.545446,48.784351],[38.545456,48.784386],[38.545618,48.784372],[38.545618,48.78437084632517],[38.545905,48.784344]]]}},{"type":"Feature","properties":{"cadnum":"4412145700:02:001:0233"},"geometry":{"type":"Polygon","coordinates":[[[38.544284,48.785054],[38.544611,48.785016],[38.544593,48.784832],[38.544561,48.784518],[38.544175,48.784542],[38.544225,48.784791],[38.544284,48.785054]]]}},{"type":"Feature","properties":{"cadnum":"4412145700:02:001:0034"},"geometry":{"type":"Polygon","coordinates":[[[38.543322,48.784154],[38.543466,48.784146],[38.543484,48.783767],[38.543488,48.78334],[38.543416,48.783347],[38.543412,48.783329],[38.543368,48.783335],[38.543368,48.783353],[38.543318,48.783358],[38.543322,48.784154]]]}},{"type":"Feature","properties":{"cadnum":"4412145700:02:001:0001"},"geometry":{"type":"Polygon","coordinates":[[[38.545002,48.782991],[38.545096,48.782983],[38.545092,48.782956],[38.544997,48.782962],[38.545002,48.782991]]]}},{"type":"Feature","properties":{"cadnum":"4412145700:02:001:0237"},"geometry":{"type":"Polygon","coordinates":[[[38.54193,48.785167],[38.541921,48.78501],[38.541521,48.785022],[38.541534,48.785161],[38.541537,48.785209],[38.54153805333333,48.785209],[38.541553,48.785386],[38.541561,48.785463],[38.541777,48.785492],[38.541953,48.78549],[38.54193299071208,48.785209],[38.541933,48.785209],[38.54193,48.785167]]]}},{"type":"Feature","properties":{"cadnum":"4412145700:02:001:0232"},"geometry":{"type":"Polygon","coordinates":[[[38.543775,48.784036],[38.543911,48.784022],[38.54396,48.784016],[38.543987,48.784013],[38.544001,48.784009],[38.54405,48.784004],[38.544188,48.783989],[38.544188,48.783903],[38.54418,48.783818],[38.544171,48.783672],[38.544167,48.783613],[38.543785,48.783621],[38.543785,48.783667],[38.543781,48.783829],[38.543781,48.783926],[38.543775,48.784036]]]}},{"type":"Feature","properties":{"cadnum":"4412145700:02:003:0069"},"geometry":{"type":"Polygon","coordinates":[[[38.585103,48.766001],[38.585359,48.765942],[38.58526,48.765821],[38.584879,48.765376],[38.584654,48.76543],[38.584667,48.76545],[38.585103,48.766001]]]}},{"type":"Feature","properties":{"cadnum":"4412145700:02:003:0071"},"geometry":{"type":"Polygon","coordinates":[[[38.58526,48.765821],[38.585826,48.765661],[38.585812,48.765524],[38.585179,48.765731],[38.58526,48.765821]]]}},{"type":"Feature","properties":{"cadnum":"4412145700:02:003:0070"},"geometry":{"type":"Polygon","coordinates":[[[38.585179,48.765731],[38.585812,48.765524],[38.585562,48.765444],[38.58517,48.765347],[38.584969,48.765358],[38.584879,48.765376],[38.585179,48.765731]]]}},{"type":"Feature","properties":{"cadnum":"4412145700:02:004:0161"},"geometry":{"type":"Polygon","coordinates":[[[38.593628,48.77881],[38.593879,48.778804],[38.593862,48.778196],[38.593592,48.7782],[38.593628,48.77881]]]}},{"type":"Feature","properties":{"cadnum":"4412145700:02:004:0041"},"geometry":{"type":"Polygon","coordinates":[[[38.590111,48.778928],[38.590156,48.77825],[38.589881,48.778244],[38.589841,48.778922],[38.590111,48.778928]]]}},{"type":"Feature","properties":{"cadnum":"4412145700:02:004:0220"},"geometry":{"type":"Polygon","coordinates":[[[38.594508,48.777687],[38.594036,48.777691],[38.594054629032264,48.777856],[38.594053,48.777856],[38.594064,48.777939],[38.594065,48.777969],[38.594065875,48.777969],[38.594072,48.778067],[38.594531,48.778064],[38.594520748387076,48.77791169032221],[38.594508,48.777687]]]}},{"type":"Feature","properties":{"cadnum":"4412145700:02:004:0222"},"geometry":{"type":"Polygon","coordinates":[[[38.572419,48.782098],[38.572446,48.782086],[38.572495,48.782057],[38.572635,48.781973],[38.572629,48.781971],[38.572553,48.781917],[38.572522,48.781894],[38.572499,48.781879],[38.572463,48.781852],[38.572396,48.781807],[38.572455,48.78176],[38.572293,48.781556],[38.571763,48.781684],[38.571807,48.781776],[38.5721,48.781725],[38.572222,48.781814],[38.572109,48.781935],[38.572405,48.782092],[38.572419,48.782098]]]}},{"type":"Feature","properties":{"cadnum":"4412145700:01:004:0092"},"geometry":{"type":"Polygon","coordinates":[[[38.571296,48.785087],[38.57128089795918,48.785095],[38.571279,48.785095],[38.571111,48.785185],[38.571717,48.78567],[38.571906,48.785569],[38.571307,48.785095],[38.57130609836065,48.785095],[38.571296,48.785087]]]}},{"type":"Feature","properties":{"cadnum":"4412145700:02:004:0211"},"geometry":{"type":"Polygon","coordinates":[[[38.57144,48.782592],[38.571749,48.782435],[38.571346,48.782086],[38.571035,48.782239],[38.57144,48.782592]]]}},{"type":"Feature","properties":{"cadnum":"4412145700:02:004:0213"},"geometry":{"type":"Polygon","coordinates":[[[38.566377,48.779207],[38.564536,48.780076],[38.562358,48.78118],[38.562575838630806,48.781476],[38.562575,48.781476],[38.563574,48.782829],[38.56432,48.782385],[38.566683,48.782231],[38.567591,48.78167],[38.567591,48.781669388429755],[38.56772069333334,48.781589],[38.567721,48.781589],[38.567994,48.78142],[38.567591,48.78086841565217],[38.567591,48.780868],[38.566377,48.779207]]]}},{"type":"Feature","properties":{"cadnum":"4412145700:02:001:0160"},"geometry":{"type":"Polygon","coordinates":[[[38.546956,48.786075],[38.547032,48.785406],[38.546758,48.785377],[38.546691,48.78606],[38.546956,48.786075]]]}},{"type":"Feature","properties":{"cadnum":"4412145700:02:001:0033"},"geometry":{"type":"Polygon","coordinates":[[[38.547999,48.78451],[38.547746,48.784435],[38.547576,48.784974],[38.54756128378378,48.785095],[38.547561,48.785095],[38.547549,48.785196],[38.547624,48.785209],[38.54762873333334,48.785209],[38.547733,48.785226],[38.547781,48.785095],[38.547780566523606,48.785095],[38.547999,48.78451]]]}},{"type":"Feature","properties":{"cadnum":"4412145700:02:001:0155"},"geometry":{"type":"Polygon","coordinates":[[[38.545599,48.785779],[38.545276,48.785764],[38.545272,48.785907],[38.545267,48.785957],[38.545267,48.786007],[38.545446,48.786015523809525],[38.545446,48.786016],[38.545582,48.786022],[38.545599,48.785779]]]}},{"type":"Feature","properties":{"cadnum":"4412145700:02:001:0164"},"geometry":{"type":"Polygon","coordinates":[[[38.55085,48.787037],[38.550855,48.787025],[38.550918,48.786821],[38.550999,48.786567],[38.550679,48.786522],[38.550599,48.786773],[38.550531,48.786969],[38.550531,48.786981],[38.550733,48.787016],[38.55085,48.787037]]]}},{"type":"Feature","properties":{"cadnum":"4412145700:03:001:0001"},"geometry":{"type":"Polygon","coordinates":[[[38.53936,48.788277],[38.539953,48.78816615163399],[38.539953,48.788167],[38.540704,48.788025],[38.542846,48.787833],[38.544068,48.787789],[38.544634,48.787828],[38.54523,48.787869],[38.545446,48.78790574226804],[38.545446,48.787906],[38.548748,48.788469],[38.55046781656808,48.788715],[38.550463,48.788715],[38.55094,48.78878272222222],[38.55094,48.788783],[38.55094,48.788784],[38.552593,48.78902],[38.552676162607405,48.788782947707865],[38.552867,48.788251],[38.553167,48.787401],[38.551111,48.78712403547373],[38.551111,48.787124],[38.549255,48.786874],[38.549098,48.787389],[38.545618,48.78685629752296],[38.545618,48.786856],[38.545505,48.786839],[38.544058,48.786709],[38.542643,48.786768],[38.540483,48.786933],[38.54025,48.786416],[38.540125,48.786448407407406],[38.540125,48.786448],[38.537825,48.787049],[38.535687,48.787789],[38.535372,48.788265],[38.53478554838709,48.788715],[38.534785,48.788715],[38.534766,48.78873],[38.534865,48.788828],[38.53486649681529,48.788828],[38.534927,48.788887],[38.534842,48.788916],[38.534699,48.788771],[38.534583,48.788828],[38.5345845210084,48.788828],[38.53454053260857,48.78884990217398],[38.534357,48.78894],[38.533288,48.789188],[38.532053,48.789328],[38.53129,48.789369],[38.530751,48.789375],[38.529385,48.789304],[38.529139,48.78924750239235],[38.529139,48.789247],[38.527529,48.788875],[38.52737184375001,48.788828],[38.527372,48.788828],[38.526839,48.788668],[38.526688600000604,48.78879599999949],[38.526307,48.78912],[38.527831,48.789594],[38.528967,48.78982241590214],[38.528967,48.789823],[38.529273,48.789884],[38.530768,48.789943],[38.53208,48.789866],[38.533562,48.789813],[38.53371,48.790129],[38.534574374972465,48.789892750007525],[38.535009,48.789774],[38.535072,48.789854],[38.535439,48.789664],[38.534923,48.789041],[38.535017,48.789008],[38.535534,48.789638],[38.535672,48.789547],[38.535642,48.789508],[38.537849,48.788715],[38.53784892899408,48.788715],[38.538005,48.788659],[38.538418,48.788541],[38.53936,48.788277]]]}},{"type":"Feature","properties":{"cadnum":"4412145700:02:001:0222"},"geometry":{"type":"Polygon","coordinates":[[[38.546758,48.786887],[38.546838,48.786602],[38.546588,48.786584],[38.546108,48.786552],[38.546066,48.786768],[38.546498,48.786841],[38.546758,48.786887]]]}},{"type":"Feature","properties":{"cadnum":"4412145700:02:001:0223"},"geometry":{"type":"Polygon","coordinates":[[[38.546781,48.786889],[38.546857,48.786635],[38.546838,48.786602],[38.546758,48.786887],[38.546781,48.786889]]]}},{"type":"Feature","properties":{"cadnum":"4412145700:02:001:0179"},"geometry":{"type":"Polygon","coordinates":[[[38.545618,48.786627626391095],[38.546075,48.786709],[38.546102,48.786486],[38.545446,48.786447],[38.545446,48.786447328467155],[38.54507,48.786424],[38.544984,48.786514],[38.545618,48.786628],[38.545618,48.786627626391095]]]}},{"type":"Feature","properties":{"cadnum":"4412145700:02:001:0161"},"geometry":{"type":"Polygon","coordinates":[[[38.546951,48.786108],[38.546956,48.786075],[38.546691,48.78606],[38.546687,48.786093],[38.546767,48.786096],[38.546951,48.786108]]]}},{"type":"Feature","properties":{"cadnum":"4412145700:02:001:0229"},"geometry":{"type":"Polygon","coordinates":[[[38.548163,48.786244],[38.548245,48.785599],[38.547985,48.78554],[38.547895,48.786196],[38.548003,48.786209],[38.547999,48.786226],[38.548163,48.786244]]]}},{"type":"Feature","properties":{"cadnum":"4412145700:02:001:0241"},"geometry":{"type":"Polygon","coordinates":[[[38.549265,48.786632],[38.549395,48.786605],[38.54948,48.786271],[38.549557,48.785975],[38.549552,48.785968],[38.549538,48.785972],[38.549534,48.785963],[38.549543,48.78596],[38.549534,48.785948],[38.549488,48.785942],[38.54948,48.785963],[38.549435,48.785954],[38.54944,48.785937],[38.54931,48.785922],[38.549291,48.785924],[38.54922,48.786244],[38.549134,48.786626],[38.549265,48.786632]]]}},{"type":"Feature","properties":{"cadnum":"4412145700:02:001:0154"},"geometry":{"type":"Polygon","coordinates":[[[38.545618,48.785576],[38.545618,48.78557418000003],[38.545649,48.78524],[38.545446,48.785227],[38.545446,48.78522713793104],[38.545299,48.785217],[38.545276,48.785764],[38.545446,48.78577189473684],[38.545446,48.785772],[38.545599,48.785779],[38.545618,48.785576]]]}},{"type":"Feature","properties":{"cadnum":"4412145700:02:001:0150"},"geometry":{"type":"Polygon","coordinates":[[[38.538727,48.782331],[38.538808,48.78232],[38.538785,48.782258],[38.538709,48.782269],[38.538727,48.782331]]]}},{"type":"Feature","properties":{"cadnum":"4412145700:01:003:0111"},"geometry":{"type":"Polygon","coordinates":[[[38.537636,48.790331],[38.538026,48.790224],[38.537762,48.789878],[38.537649,48.789907],[38.537357,48.789999],[38.537636,48.790331]]]}},{"type":"Feature","properties":{"cadnum":"4412145700:01:003:0014"},"geometry":{"type":"Polygon","coordinates":[[[38.535269,48.791414],[38.535273,48.791399],[38.535292,48.791399],[38.5353,48.791402],[38.5353,48.791384],[38.535286,48.791381],[38.535273,48.791381],[38.535273,48.791375],[38.535125,48.791364],[38.535121,48.791405],[38.535269,48.791414]]]}},{"type":"Feature","properties":{"cadnum":"4412145700:01:003:0115"},"geometry":{"type":"Polygon","coordinates":[[[38.536554,48.790274],[38.536563,48.790271],[38.536832,48.790174],[38.536701,48.790029],[38.536563,48.789869],[38.536554,48.789863],[38.536495,48.789887],[38.53623,48.789991],[38.536347,48.790094],[38.536554,48.790274]]]}},{"type":"Feature","properties":{"cadnum":"4412145700:01:003:0108"},"geometry":{"type":"Polygon","coordinates":[[[38.534946,48.790774],[38.534968,48.790677],[38.534905,48.790671],[38.534892,48.790715],[38.534883,48.790715],[38.534878,48.790727],[38.534892,48.790727],[38.534878,48.790769],[38.534946,48.790774]]]}},{"type":"Feature","properties":{"cadnum":"4412145700:01:003:0060"},"geometry":{"type":"Polygon","coordinates":[[[38.540009857144035,48.79025942857108],[38.540125,48.790226],[38.540125,48.790225869346735],[38.540152,48.790218],[38.540097,48.790156],[38.539953,48.790197],[38.539953,48.79019734193549],[38.539787,48.790245],[38.539846,48.790307],[38.539953,48.79027593548387],[38.539953,48.790276],[38.540009857144035,48.79025942857108]]]}},{"type":"Feature","properties":{"cadnum":"4412145700:01:003:0091"},"geometry":{"type":"Polygon","coordinates":[[[38.539037,48.789892],[38.53941,48.78976],[38.539141,48.789437],[38.538992,48.789482],[38.53875,48.789556],[38.538961,48.789792],[38.538965,48.789807],[38.539037,48.789892]]]}},{"type":"Feature","properties":{"cadnum":"4412145700:01:003:0044"},"geometry":{"type":"Polygon","coordinates":[[[38.537605,48.789313],[38.53786,48.789232],[38.537569,48.788819],[38.537303,48.788907],[38.537605,48.789313]]]}},{"type":"Feature","properties":{"cadnum":"4412145700:01:003:0114"},"geometry":{"type":"Polygon","coordinates":[[[38.538135,48.788686],[38.53805345882351,48.788715],[38.538053,48.788715],[38.537896,48.788771],[38.537909,48.788786],[38.537938,48.788828],[38.53793885123967,48.788828],[38.537995,48.788907],[38.538094,48.789052],[38.538116,48.789079],[38.538143,48.789124],[38.538385,48.789037],[38.538381,48.789026],[38.538345,48.788988],[38.538301,48.788919],[38.538229,48.788815],[38.538135,48.788686]]]}},{"type":"Feature","properties":{"cadnum":"4412145700:01:003:0046"},"geometry":{"type":"Polygon","coordinates":[[[38.535322,48.792183],[38.535328,48.792121],[38.535259,48.792118],[38.535251,48.79218],[38.535322,48.792183]]]}},{"type":"Feature","properties":{"cadnum":"4412145700:01:003:0113"},"geometry":{"type":"Polygon","coordinates":[[[38.535569,48.790218],[38.535678,48.789916],[38.535466,48.789875],[38.535412,48.789875],[38.535139,48.789857],[38.535135,48.789869],[38.535072,48.789863],[38.535058,48.789929],[38.535049,48.78996],[38.535039,48.789988],[38.535003,48.790144],[38.535305,48.790183],[38.535426,48.790201],[38.535569,48.790218]]]}},{"type":"Feature","properties":{"cadnum":"4412145700:01:003:0059"},"geometry":{"type":"Polygon","coordinates":[[[38.540097,48.790156],[38.539922,48.78996],[38.539634,48.789701],[38.539343,48.789795],[38.539787,48.790245],[38.540097,48.790156]]]}},{"type":"Feature","properties":{"cadnum":"4412145700:01:003:0010"},"geometry":{"type":"Polygon","coordinates":[[[38.534596,48.792142],[38.53463,48.792133],[38.534617,48.792112],[38.534582,48.792121],[38.534596,48.792142]]]}},{"type":"Feature","properties":{"cadnum":"4412145700:01:003:0011"},"geometry":{"type":"Polygon","coordinates":[[[38.535309,48.791633],[38.535328,48.791574],[38.535286,48.791568],[38.535269,48.791627],[38.535309,48.791633]]]}},{"type":"Feature","properties":{"cadnum":"4412145700:01:004:0094"},"geometry":{"type":"Polygon","coordinates":[[[38.56891,48.789528],[38.569252,48.789372],[38.568853,48.789005],[38.568529,48.789168],[38.56891,48.789528]]]}},{"type":"Feature","properties":{"cadnum":"4412145700:01:004:0102"},"geometry":{"type":"Polygon","coordinates":[[[38.569252,48.789372],[38.569576,48.78923],[38.569405,48.789065],[38.56918,48.788842],[38.568853,48.789005],[38.569077,48.789212],[38.569252,48.789372]]]}},{"type":"Feature","properties":{"cadnum":"4412145700:01:004:0093"},"geometry":{"type":"Polygon","coordinates":[[[38.569208,48.788828],[38.56918,48.788842],[38.569598,48.789251],[38.569813,48.78915],[38.5694,48.788732],[38.569208,48.788828]]]}},{"type":"Feature","properties":{"cadnum":"4412145700:02:001:0227"},"geometry":{"type":"Polygon","coordinates":[[[38.534141,48.788558],[38.533724,48.788556],[38.53375970762712,48.788715],[38.533759,48.788715],[38.533777,48.788792],[38.534182,48.788795],[38.534141,48.788558]]]}},{"type":"Feature","properties":{"cadnum":"4412145700:02:001:0217"},"geometry":{"type":"Polygon","coordinates":[[[38.532659,48.788532],[38.532825,48.788398],[38.532861,48.788247],[38.532871,48.788192],[38.532906,48.787896],[38.532879,48.787896],[38.532843,48.788188],[38.532835,48.788245],[38.532798,48.788392],[38.53265,48.788514],[38.532089,48.788514],[38.532089,48.788532],[38.532659,48.788532]]]}},{"type":"Feature","properties":{"cadnum":"4412145700:02:001:0220"},"geometry":{"type":"Polygon","coordinates":[[[38.532875,48.78712],[38.532875,48.787069],[38.533131,48.787082],[38.533131,48.787064],[38.532416,48.787031],[38.532412,48.787049],[38.532848,48.787069],[38.532848,48.78712],[38.532875,48.78712]]]}},{"type":"Feature","properties":{"cadnum":"4412145700:02:001:0219"},"geometry":{"type":"Polygon","coordinates":[[[38.531056,48.787543],[38.531056,48.787525],[38.531235,48.787519],[38.531235,48.787537],[38.531317,48.787537],[38.531317,48.787517],[38.531581,48.787517],[38.531581,48.787534],[38.531663,48.787534],[38.531663,48.787514],[38.531739,48.787514],[38.531739,48.787431],[38.531963,48.787433],[38.532089,48.787416],[38.532139,48.787354],[38.532116,48.78731],[38.532282,48.787251],[38.532489,48.787197],[38.532852,48.787218],[38.532835,48.787345],[38.532861,48.787348],[38.532884,48.787203],[38.532485,48.787179],[38.532273,48.787236],[38.532084,48.7873],[38.532106,48.78735],[38.53207,48.787398],[38.531959,48.787416],[38.531716,48.787413],[38.531711,48.787496],[38.531636,48.787496],[38.531636,48.787514],[38.531608,48.787514],[38.531608,48.787496],[38.53129,48.787499],[38.53129,48.787517],[38.531263,48.787517],[38.531263,48.787499],[38.531028,48.787508],[38.531028,48.787525],[38.530997,48.787525],[38.530997,48.787508],[38.530655,48.78751],[38.530655,48.787528],[38.530971,48.787525],[38.530971,48.787543],[38.531056,48.787543]]]}},{"type":"Feature","properties":{"cadnum":"4412145700:02:001:0240"},"geometry":{"type":"Polygon","coordinates":[[[38.531141,48.788008],[38.531325,48.788005],[38.531406,48.788002],[38.53142,48.788002],[38.531433,48.787517],[38.531317,48.787517],[38.531317,48.787537],[38.531235,48.787537],[38.531235,48.787519],[38.531204,48.787519],[38.531154,48.787523],[38.53115,48.787732],[38.531141,48.788008]]]}},{"type":"Feature","properties":{"cadnum":"4412145700:02:001:0221"},"geometry":{"type":"Polygon","coordinates":[[[38.531487,48.787383],[38.531487,48.787164],[38.53146,48.787164],[38.53146,48.787146],[38.531487,48.787146],[38.531483,48.786931],[38.531456,48.786933],[38.53146,48.787129],[38.531433,48.787129],[38.531433,48.787183],[38.53146,48.787183],[38.53146,48.787383],[38.531487,48.787383]]]}},{"type":"Feature","properties":{"cadnum":"4412145700:02:001:0218"},"geometry":{"type":"Polygon","coordinates":[[[38.533022,48.787821],[38.533068,48.787501],[38.533041,48.787499],[38.532996,48.787821],[38.533022,48.787821]]]}},{"type":"Feature","properties":{"cadnum":"4412145700:02:001:0231"},"geometry":{"type":"Polygon","coordinates":[[[38.531504,48.786099],[38.531599,48.786096],[38.531559,48.785626],[38.531271,48.785626],[38.531258,48.786078],[38.531504,48.786099]]]}},{"type":"Feature","properties":{"cadnum":"4412145700:02:001:0228"},"geometry":{"type":"Polygon","coordinates":[[[38.531636,48.785643],[38.532156,48.785611],[38.532026,48.78522],[38.531945,48.785209],[38.531905,48.785253],[38.53176,48.785323],[38.53168,48.785288],[38.531608,48.785359],[38.531636,48.785643]]]}},{"type":"Feature","properties":{"cadnum":"4412145700:02:004:0187"},"geometry":{"type":"Polygon","coordinates":[[[38.585678,48.777901],[38.585676,48.777969],[38.585676547008546,48.777969],[38.585673,48.778135],[38.586432,48.778132],[38.586464,48.777895],[38.585678,48.777901]]]}},{"type":"Feature","properties":{"cadnum":"4412145700:02:004:0188"},"geometry":{"type":"Polygon","coordinates":[[[38.585678,48.777901],[38.586464,48.777895],[38.586477,48.777821],[38.585678,48.777821],[38.585678,48.777901]]]}},{"type":"Feature","properties":{"cadnum":"4412145700:01:004:0101"},"geometry":{"type":"Polygon","coordinates":[[[38.572912,48.7865724054054],[38.572912,48.786573],[38.573007,48.786519],[38.572755,48.786321],[38.572315,48.785968],[38.572222,48.786016],[38.572145,48.786054],[38.572576,48.786416],[38.572822,48.786623],[38.572912,48.7865724054054]]]}},{"type":"Feature","properties":{"cadnum":"4412145700:01:004:0106"},"geometry":{"type":"Polygon","coordinates":[[[38.575379,48.786735],[38.575604,48.786673],[38.575338,48.786356],[38.575163,48.786146],[38.575065,48.786182],[38.575065,48.786185],[38.5751,48.786235],[38.575059,48.786247],[38.575023,48.7862],[38.574939,48.786226],[38.575118,48.786439],[38.575379,48.786735]]]}},{"type":"Feature","properties":{"cadnum":"4412145700:01:004:0026"},"geometry":{"type":"Polygon","coordinates":[[[38.575059,48.786247],[38.5751,48.786235],[38.575065,48.786185],[38.575059,48.786188],[38.575023,48.7862],[38.575059,48.786247]]]}},{"type":"Feature","properties":{"cadnum":"4412145700:01:004:0104"},"geometry":{"type":"Polygon","coordinates":[[[38.575042,48.785859],[38.575298,48.785764],[38.575019,48.785501],[38.574992,48.785475],[38.574956,48.785439],[38.574763,48.785255],[38.574705,48.785202],[38.574499,48.785291],[38.574736,48.78554],[38.575042,48.785859]]]}},{"type":"Feature","properties":{"cadnum":"4412145700:01:004:0105"},"geometry":{"type":"Polygon","coordinates":[[[38.575055,48.786824],[38.575379,48.786735],[38.575118,48.786439],[38.574939,48.786226],[38.574696,48.7863],[38.574849,48.786519],[38.575055,48.786824]]]}},{"type":"Feature","properties":{"cadnum":"4412145700:02:003:0003"},"geometry":{"type":"Polygon","coordinates":[[[38.576933,48.765539],[38.577135,48.765462],[38.576946,48.764932],[38.576573,48.765154],[38.576537,48.765175],[38.576614,48.765246],[38.576933,48.765539]]]}},{"type":"Feature","properties":{"cadnum":"4412145700:02:003:0004"},"geometry":{"type":"Polygon","coordinates":[[[38.576353,48.765764],[38.576587,48.765598],[38.576183,48.765279],[38.575922,48.765424],[38.576353,48.765764]]]}},{"type":"Feature","properties":{"cadnum":"4412145700:01:003:0055"},"geometry":{"type":"Polygon","coordinates":[[[38.542932,48.789765],[38.542945,48.789346],[38.542513,48.789333],[38.542496,48.78976],[38.542932,48.789765]]]}},{"type":"Feature","properties":{"cadnum":"4412145700:01:003:0110"},"geometry":{"type":"Polygon","coordinates":[[[38.540578,48.788484],[38.54025,48.788576],[38.540334944444446,48.788715],[38.540334,48.788715],[38.540515,48.789008],[38.540766,48.788982],[38.54069799999991,48.78880399999976],[38.540578,48.788484]]]}},{"type":"Feature","properties":{"cadnum":"4412145700:01:003:0050"},"geometry":{"type":"Polygon","coordinates":[[[38.543699,48.789896],[38.543695,48.789446],[38.543291,48.78944],[38.543286,48.789887],[38.543699,48.789896]]]}},{"type":"Feature","properties":{"cadnum":"4412145700:01:003:0052"},"geometry":{"type":"Polygon","coordinates":[[[38.540339,48.789745],[38.540888,48.789638],[38.540879,48.789322],[38.540496,48.789422],[38.540187,48.789523],[38.540339,48.789745]]]}},{"type":"Feature","properties":{"cadnum":"4412145700:01:003:0053"},"geometry":{"type":"Polygon","coordinates":[[[38.540586,48.790097],[38.540897,48.790037],[38.540888,48.789638],[38.540339,48.789745],[38.540586,48.790097]]]}},{"type":"Feature","properties":{"cadnum":"4412145700:01:003:0051"},"geometry":{"type":"Polygon","coordinates":[[[38.543699,48.789931],[38.543699,48.789896],[38.543286,48.789887],[38.543286,48.789919],[38.543699,48.789931]]]}},{"type":"Feature","properties":{"cadnum":"4412145700:01:003:0058"},"geometry":{"type":"Polygon","coordinates":[[[38.542802,48.790514],[38.542823,48.790006],[38.542487,48.789991],[38.542464,48.789991],[38.542442,48.790499],[38.542802,48.790514]]]}},{"type":"Feature","properties":{"cadnum":"4412145700:01:003:0056"},"geometry":{"type":"Polygon","coordinates":[[[38.542926,48.790011],[38.542932,48.789765],[38.542496,48.78976],[38.542487,48.789991],[38.542926,48.790011]]]}},{"type":"Feature","properties":{"cadnum":"4412145700:01:003:0083"},"geometry":{"type":"Polygon","coordinates":[[[38.541427,48.788822],[38.541031,48.788813],[38.54103,48.788828],[38.5410304742268,48.788828],[38.541014,48.789298],[38.541538,48.789203],[38.541508,48.788765],[38.541427,48.788822]]]}},{"type":"Feature","properties":{"cadnum":"4412145700:01:003:0112"},"geometry":{"type":"Polygon","coordinates":[[[38.5425,48.789277],[38.542519,48.788922],[38.54211,48.788913],[38.542096,48.789274],[38.5425,48.789277]]]}},{"type":"Feature","properties":{"cadnum":"4412145700:02:004:0212"},"geometry":{"type":"Polygon","coordinates":[[[38.594521,48.77333],[38.59338,48.771214],[38.59321,48.770962],[38.590021,48.771818],[38.58977,48.772274],[38.59010377638554,48.774236],[38.590102,48.774236],[38.590304,48.775412],[38.593322,48.774254],[38.594521,48.77333]]]}},{"type":"Feature","properties":{"cadnum":"4412145700:02:001:0236"},"geometry":{"type":"Polygon","coordinates":[[[38.534632,48.77747051302084],[38.535314,48.777768],[38.53542345273632,48.777856],[38.535423,48.777856],[38.535888,48.778229],[38.535619,48.77852],[38.534905,48.778874],[38.535106,48.779209],[38.535781,48.779061],[38.535961,48.779183],[38.536764,48.779014],[38.537689,48.778667],[38.537896,48.778203],[38.537564219020176,48.777969],[38.537565,48.777969],[38.537115,48.777652],[38.536841,48.777531],[38.534465,48.777013],[38.534622,48.776761],[38.534294,48.776669],[38.533894,48.77725],[38.53446,48.777408861963195],[38.53446,48.777409],[38.534546,48.777433],[38.534632,48.777471],[38.534632,48.77747051302084]]]}},{"type":"Feature","properties":{"cadnum":"4412145700:02:001:0158"},"geometry":{"type":"Polygon","coordinates":[[[38.542774,48.78588],[38.542774,48.785815],[38.543093,48.785827],[38.543079,48.78535],[38.542693,48.785391],[38.542689,48.785865],[38.542774,48.78588]]]}},{"type":"Feature","properties":{"cadnum":"4412145700:01:003:0117"},"geometry":{"type":"Polygon","coordinates":[[[38.542863,48.788511],[38.543519,48.788508],[38.543542,48.788238],[38.543326,48.788236],[38.542878,48.788227],[38.542869,48.788407],[38.542863,48.788511]]]}},{"type":"Feature","properties":{"cadnum":"4412145700:02:001:0156"},"geometry":{"type":"Polygon","coordinates":[[[38.545272,48.785907],[38.545276,48.785764],[38.545299,48.785217],[38.545024,48.785247],[38.544993,48.7859],[38.545272,48.785907]]]}},{"type":"Feature","properties":{"cadnum":"4412145700:01:003:0109"},"geometry":{"type":"Polygon","coordinates":[[[38.541166,48.788197],[38.541305,48.788179],[38.541364,48.788173],[38.541387,48.788177],[38.541414,48.788173],[38.541458,48.78817],[38.541463,48.78817],[38.541404,48.787972],[38.541081,48.787999],[38.541108,48.788067],[38.541135,48.788124],[38.541166,48.788197]]]}},{"type":"Feature","properties":{"cadnum":"4412145700:01:003:0116"},"geometry":{"type":"Polygon","coordinates":[[[38.542213,48.788519],[38.542863,48.788511],[38.542878,48.788227],[38.542689,48.78823],[38.542222,48.788242],[38.542217,48.788422],[38.542213,48.788519]]]}},{"type":"Feature","properties":{"cadnum":"4412145700:02:001:0159"},"geometry":{"type":"Polygon","coordinates":[[[38.542779,48.786031],[38.542774,48.78588],[38.542689,48.785865],[38.542684,48.786001],[38.542779,48.786031]]]}},{"type":"Feature","properties":{"cadnum":"4412145700:02:001:0239"},"geometry":{"type":"Polygon","coordinates":[[[38.544194,48.786332],[38.544211,48.786141],[38.54423,48.785951],[38.544188,48.785948],[38.543879,48.785927],[38.543794,48.785922],[38.543762,48.786238],[38.543871,48.786262],[38.544194,48.786332]]]}},{"type":"Feature","properties":{"cadnum":"4412145700:01:003:0119"},"geometry":{"type":"Polygon","coordinates":[[[38.542284,48.788085],[38.542689,48.788078],[38.542932,48.788076],[38.54294,48.78783],[38.542846,48.787833],[38.542253,48.787887],[38.542257,48.787925],[38.542284,48.788085]]]}},{"type":"Feature","properties":{"cadnum":"4412145700:02:001:0238"},"geometry":{"type":"Polygon","coordinates":[[[38.544993,48.785927],[38.544993,48.7859],[38.545007,48.785617],[38.545024,48.785247],[38.544854,48.785264],[38.544733,48.785282],[38.544728,48.785617],[38.544724,48.785913],[38.544993,48.785927]]]}},{"type":"Feature","properties":{"cadnum":"4412145700:02:001:0157"},"geometry":{"type":"Polygon","coordinates":[[[38.545267,48.785957],[38.545272,48.785907],[38.544993,48.7859],[38.544993,48.785927],[38.544989,48.785951],[38.545267,48.785957]]]}},{"type":"Feature","properties":{"cadnum":"4412145700:01:003:0118"},"geometry":{"type":"Polygon","coordinates":[[[38.540672,48.788313],[38.540942,48.788251],[38.540932,48.788238],[38.540785,48.788032],[38.540775,48.788019],[38.540704,48.788025],[38.540496,48.788064],[38.540529,48.788111],[38.540663,48.788298],[38.540672,48.788313]]]}},{"type":"Feature","properties":{"cadnum":"4412145700:02:001:0163"},"geometry":{"type":"Polygon","coordinates":[[[38.544188,48.785937],[38.544198,48.785611],[38.544207,48.785365],[38.543901,48.785389],[38.543897,48.785611],[38.543884,48.785918],[38.544188,48.785937]]]}},{"type":"Feature","properties":{"cadnum":"4412145700:02:004:0189"},"geometry":{"type":"Polygon","coordinates":[[[38.578501,48.777196],[38.578455,48.777176],[38.578478,48.777158],[38.578428,48.777134],[38.578411,48.777152],[38.577984,48.776945],[38.577818,48.777093],[38.578177,48.777264],[38.578195,48.777253],[38.578361,48.777323],[38.578501,48.777196]]]}},{"type":"Feature","properties":{"cadnum":"4412145700:02:004:0005"},"geometry":{"type":"Polygon","coordinates":[[[38.578568,48.776537],[38.578594,48.776232],[38.578577,48.776232],[38.578495,48.776232],[38.578262,48.776208],[38.578254,48.776282],[38.578235,48.776522],[38.578235,48.776528],[38.578405,48.77653361561561],[38.578405,48.776534],[38.578568,48.776539],[38.578568,48.776537]]]}},{"type":"Feature","properties":{"cadnum":"4412145700:02:004:0159"},"geometry":{"type":"Polygon","coordinates":[[[38.579044,48.777276],[38.57873,48.777147],[38.578577,48.7773064876325],[38.578577,48.777306],[38.578447,48.777442],[38.578464,48.777451],[38.578644,48.777525],[38.578761,48.777572],[38.579044,48.777276]]]}},{"type":"Feature","properties":{"cadnum":"4412145700:02:004:0217"},"geometry":{"type":"Polygon","coordinates":[[[38.587977,48.778777],[38.588309,48.778771],[38.588296,48.778268],[38.587986,48.778264],[38.587977,48.778777]]]}},{"type":"Feature","properties":{"cadnum":"4412145700:01:004:0059"},"geometry":{"type":"Polygon","coordinates":[[[38.584713,48.77907],[38.585112,48.779064],[38.585099,48.778712],[38.584699,48.7787],[38.584713,48.77907]]]}},{"type":"Feature","properties":{"cadnum":"4412145700:02:001:0148"},"geometry":{"type":"Polygon","coordinates":[[[38.547706,48.783912],[38.550046,48.783572],[38.550316,48.783376],[38.550289,48.78303],[38.549826,48.783048],[38.548303,48.783456],[38.547598,48.783735],[38.547706,48.783912]]]}},{"type":"Feature","properties":{"cadnum":"4412145700:02:001:0035"},"geometry":{"type":"Polygon","coordinates":[[[38.54736,48.783294],[38.54772,48.783287],[38.547571,48.783],[38.547419,48.782708],[38.547144,48.78277],[38.547221,48.78295],[38.54736,48.783294]]]}},{"type":"Feature","properties":{"cadnum":"4412145700:02:004:0004"},"geometry":{"type":"Polygon","coordinates":[[[38.577853,48.776761],[38.577908,48.776699],[38.577795,48.776655],[38.577746,48.776723],[38.577853,48.776761]]]}},{"type":"Feature","properties":{"cadnum":"4412145700:02:004:0006"},"geometry":{"type":"Polygon","coordinates":[[[38.577512,48.776978],[38.577606,48.776865],[38.577736,48.77672],[38.577683,48.776702],[38.578055,48.776279],[38.577835,48.776196],[38.578019,48.776004],[38.577598,48.775879],[38.576919,48.775728],[38.576659,48.776074],[38.576573,48.776184],[38.576887,48.77635],[38.576937,48.776377],[38.577072,48.776614],[38.576942,48.776759],[38.577292,48.776897],[38.577512,48.776978]]]}},{"type":"Feature","properties":{"cadnum":"4412145700:02:004:0219"},"geometry":{"type":"Polygon","coordinates":[[[38.575374,48.776714],[38.575464,48.776614],[38.575468,48.776614],[38.575499,48.776572],[38.575491,48.776569],[38.575531,48.776513],[38.575185,48.776131],[38.575055,48.776092],[38.574795,48.776249],[38.574763,48.776237],[38.574746,48.776258],[38.574772,48.77627],[38.574709,48.776432],[38.574853,48.776569],[38.574983,48.776631],[38.574975,48.77664],[38.575015,48.776652],[38.575023,48.776643],[38.575374,48.776714]]]}},{"type":"Feature","properties":{"cadnum":"4412145700:02:004:0036"},"geometry":{"type":"Polygon","coordinates":[[[38.57297127007302,48.777429175182455],[38.573084,48.777293],[38.573084,48.77729256650246],[38.573115,48.777255],[38.572942497652505,48.77718446948354],[38.572864,48.777152],[38.572495,48.777513],[38.572419,48.777658],[38.572733,48.777717],[38.572912,48.77750077207977],[38.572912,48.777501],[38.57297127007302,48.777429175182455]]]}},{"type":"Feature","properties":{"cadnum":"4412145700:02:004:0223"},"geometry":{"type":"Polygon","coordinates":[[[38.573438,48.779591],[38.573824,48.779561],[38.573851,48.779411],[38.573551,48.779396],[38.573457,48.779404],[38.573132,48.779434],[38.573084,48.77944417391304],[38.573084,48.779444],[38.572948,48.779473],[38.572939,48.779532],[38.573084,48.779591],[38.573084,48.77959075816994],[38.573092,48.779594],[38.573191,48.779606],[38.573438,48.779591]]]}},{"type":"Feature","properties":{"cadnum":"4412145700:01:003:0054"},"geometry":{"type":"Polygon","coordinates":[[[38.524678,48.790807],[38.524831,48.79037],[38.52461,48.790337],[38.524476,48.790734],[38.524678,48.790807]]]}},{"type":"Feature","properties":{"cadnum":"4412145700:01:003:0102"},"geometry":{"type":"Polygon","coordinates":[[[38.528603,48.790884],[38.528613,48.790866],[38.527812,48.790748],[38.527468,48.790701],[38.527328,48.790683],[38.527323,48.790701],[38.527462,48.790719],[38.527808,48.790765],[38.528603,48.790884]]]}},{"type":"Feature","properties":{"cadnum":"4412145700:01:003:0100"},"geometry":{"type":"Polygon","coordinates":[[[38.524053,48.790144],[38.524103,48.789984],[38.524183,48.789742],[38.524265,48.789499],[38.524632,48.789543],[38.524709,48.789547],[38.525131,48.789609],[38.525508,48.789659],[38.525998,48.789724],[38.526303,48.78978],[38.526686,48.789837],[38.52669,48.789819],[38.526307,48.789763],[38.526003,48.789706],[38.525514,48.789642],[38.525135,48.789591],[38.524714,48.789528],[38.524638,48.789526],[38.524242,48.789478],[38.524156,48.789739],[38.524076,48.789978],[38.524026,48.790138],[38.524053,48.790144]]]}},{"type":"Feature","properties":{"cadnum":"4412145700:01:003:0101"},"geometry":{"type":"Polygon","coordinates":[[[38.527076,48.790901],[38.527126,48.790772],[38.527162,48.790659],[38.526466,48.790552],[38.526088,48.790499],[38.525751,48.790449],[38.525311,48.790384],[38.524879,48.790322],[38.524449,48.790256],[38.524072,48.790201],[38.524009,48.790192],[38.523892,48.790547],[38.523843,48.790683],[38.523869,48.790689],[38.523919,48.79055],[38.524026,48.790212],[38.524871,48.790337],[38.525307,48.790401],[38.525747,48.790467],[38.52608,48.790517],[38.52646,48.79057],[38.52713,48.790674],[38.527053,48.790896],[38.527076,48.790901]]]}},{"type":"Feature","properties":{"cadnum":"4412145700:01:003:0103"},"geometry":{"type":"Polygon","coordinates":[[[38.527179,48.790588],[38.527256,48.790333],[38.527229,48.790331],[38.527152,48.790585],[38.527179,48.790588]]]}},{"type":"Feature","properties":{"cadnum":"4412145700:01:003:0096"},"geometry":{"type":"Polygon","coordinates":[[[38.533854,48.791532],[38.533867,48.791517],[38.533867,48.791515],[38.53381,48.791506],[38.53381,48.791526],[38.533854,48.791532]]]}},{"type":"Feature","properties":{"cadnum":"4412145700:01:003:0104"},"geometry":{"type":"Polygon","coordinates":[[[38.534343,48.791115],[38.534353,48.791091],[38.53433,48.791088],[38.534321,48.791112],[38.534343,48.791115]]]}},{"type":"Feature","properties":{"cadnum":"4412145700:01:003:0089"},"geometry":{"type":"Polygon","coordinates":[[[38.529529,48.790142],[38.529573,48.790008],[38.529609,48.789899],[38.529273,48.789884],[38.529227,48.789875],[38.5292,48.789952],[38.529156,48.790079],[38.529529,48.790142]]]}},{"type":"Feature","properties":{"cadnum":"4412145700:01:003:0043"},"geometry":{"type":"Polygon","coordinates":[[[38.534353,48.792281],[38.534376,48.792239],[38.534313,48.792224],[38.53429,48.792266],[38.534353,48.792281]]]}},{"type":"Feature","properties":{"cadnum":"4412145700:01:003:0107"},"geometry":{"type":"Polygon","coordinates":[[[38.532947,48.791985],[38.532969,48.791976],[38.532955,48.791958],[38.532933,48.791967],[38.532947,48.791985]]]}},{"type":"Feature","properties":{"cadnum":"4412145700:01:003:0012"},"geometry":{"type":"Polygon","coordinates":[[[38.529896,48.790195],[38.530022,48.789819],[38.529655,48.789763],[38.529529,48.790142],[38.529896,48.790195]]]}},{"type":"Feature","properties":{"cadnum":"4412145700:01:003:0057"},"geometry":{"type":"Polygon","coordinates":[[[38.533904,48.791447],[38.53393,48.791342],[38.533854,48.791333],[38.533827,48.791438],[38.533904,48.791447]]]}},{"type":"Feature","properties":{"cadnum":"4412145700:01:003:0106"},"geometry":{"type":"Polygon","coordinates":[[[38.534532,48.791905],[38.534541,48.791875],[38.534483,48.79187],[38.534473,48.791896],[38.534532,48.791905]]]}},{"type":"Feature","properties":{"cadnum":"4412145700:01:003:0105"},"geometry":{"type":"Polygon","coordinates":[[[38.531599,48.791583],[38.53163,48.79157],[38.531594,48.791535],[38.531567,48.791547],[38.531599,48.791583]]]}},{"type":"Feature","properties":{"cadnum":"4412145700:01:003:0045"},"geometry":{"type":"Polygon","coordinates":[[[38.534523,48.792379],[38.534527,48.792304],[38.534447,48.792302],[38.534443,48.792379],[38.534523,48.792379]]]}},{"type":"Feature","properties":{"cadnum":"4412145700:02:004:0218"},"geometry":{"type":"Polygon","coordinates":[[[38.574858,48.780594],[38.575046,48.780399],[38.574763,48.78028],[38.57457,48.780484],[38.574589,48.780574],[38.574858,48.780594]]]}},{"type":"Feature","properties":{"cadnum":"4412145700:02:004:0215"},"geometry":{"type":"Polygon","coordinates":[[[38.575631,48.781035],[38.57581,48.781023],[38.57612,48.780905],[38.57617,48.780766],[38.575558,48.780813],[38.575631,48.781035]]]}},{"type":"Feature","properties":{"cadnum":"4412145700:02:004:0221"},"geometry":{"type":"Polygon","coordinates":[[[38.573608,48.781216],[38.574017,48.781192],[38.573864,48.780834],[38.57369,48.780881],[38.573681,48.78089],[38.573447,48.780955],[38.573484,48.781089],[38.573492,48.781085],[38.573505,48.781109],[38.573541,48.781183],[38.573555,48.781201],[38.573591,48.781213],[38.573608,48.781216]]]}},{"type":"Feature","properties":{"cadnum":"4412145700:02:004:0214"},"geometry":{"type":"Polygon","coordinates":[[[38.575266,48.781053],[38.575631,48.781035],[38.575558,48.780813],[38.575478,48.780561],[38.575244,48.78057],[38.575266,48.781053]]]}},{"type":"Feature","properties":{"cadnum":"4412145700:02:004:0224"},"geometry":{"type":"Polygon","coordinates":[[[38.565601,48.776992],[38.565686,48.776987],[38.56579,48.776921],[38.565771,48.776646],[38.565761,48.776601],[38.565761,48.776575],[38.565708,48.776575],[38.565708,48.776531],[38.565731,48.776531],[38.565731,48.776483],[38.565757,48.776483],[38.565753,48.776397],[38.565731,48.775888],[38.565591,48.775885],[38.565574,48.776412],[38.565601,48.776992]]]}},{"type":"Feature","properties":{"cadnum":"4412145700:02:001:0151"},"geometry":{"type":"Polygon","coordinates":[[[38.55244,48.787229],[38.552544,48.786957],[38.55267,48.786632],[38.552404,48.786591],[38.552278,48.786913],[38.552175,48.787188],[38.55244,48.787229]]]}},{"type":"Feature","properties":{"cadnum":"4412145700:02:001:0230"},"geometry":{"type":"Polygon","coordinates":[[[38.553972,48.787549],[38.554668,48.787297],[38.55465,48.787282],[38.553968,48.787528],[38.553752,48.787508],[38.553563,48.787472],[38.553446,48.787451],[38.553437,48.787469],[38.553553,48.78749],[38.553746,48.787525],[38.553972,48.787549]]]}},{"type":"Feature","properties":{"cadnum":"4412145700:01:001:0020"},"geometry":{"type":"Polygon","coordinates":[[[38.534632,48.79410665445027],[38.534842,48.794116],[38.534955,48.793461],[38.534712,48.793429],[38.534762,48.793305],[38.534824,48.793101],[38.53464,48.793074],[38.534693,48.792914],[38.534756,48.792737],[38.53446,48.792691],[38.53446,48.792691233429395],[38.533244,48.792502],[38.533095,48.792976],[38.533202,48.792997],[38.533041,48.793381],[38.533118,48.794039],[38.534632,48.794107],[38.534632,48.79410665445027]]]}},{"type":"Feature","properties":{"cadnum":"4412145700:01:001:0018"},"geometry":{"type":"Polygon","coordinates":[[[38.534824,48.793101],[38.534883,48.792943],[38.534693,48.792914],[38.53464,48.793074],[38.534824,48.793101]]]}},{"type":"Feature","properties":{"cadnum":"4412145700:02:001:0031"},"geometry":{"type":"Polygon","coordinates":[[[38.536617,48.787398],[38.536653,48.787336],[38.536621,48.78733],[38.53663,48.787304],[38.536639,48.787271],[38.536607,48.787268],[38.536617,48.787212],[38.53658,48.787183],[38.536481,48.787159],[38.536544,48.78704],[38.536531,48.787037],[38.536495,48.787028],[38.536508,48.787005],[38.536495,48.78699],[38.536508,48.786966],[38.536513,48.786957],[38.536477,48.786948],[38.536495,48.786916],[38.536431,48.786913],[38.536387,48.786927],[38.536351,48.78696],[38.536391,48.786972],[38.53632,48.787102],[38.536267,48.787087],[38.536212,48.787191],[38.536238,48.787197],[38.536217,48.787242],[38.536244,48.787247],[38.536185,48.78735],[38.536198,48.787354],[38.536297,48.787378],[38.536311,48.78738],[38.536338,48.78733],[38.536617,48.787398]]]}},{"type":"Feature","properties":{"cadnum":"4412145700:02:001:0014"},"geometry":{"type":"Polygon","coordinates":[[[38.536284,48.786738],[38.536477,48.786507],[38.536378,48.786472],[38.536356,48.786477],[38.536171,48.786409],[38.535997,48.786617],[38.536185,48.786685],[38.536185,48.786703],[38.536284,48.786738]]]}},{"type":"Feature","properties":{"cadnum":"4412145700:02:001:0125"},"geometry":{"type":"Polygon","coordinates":[[[38.535808,48.787129],[38.535817,48.787093],[38.535695,48.787084],[38.535687,48.78712],[38.535808,48.787129]]]}},{"type":"Feature","properties":{"cadnum":"4412145700:01:004:0097"},"geometry":{"type":"Polygon","coordinates":[[[38.567015,48.789742],[38.567182,48.789656],[38.566453,48.789028],[38.566293,48.789153],[38.5667,48.789475],[38.567002,48.789733],[38.567015,48.789742]]]}},{"type":"Feature","properties":{"cadnum":"4412145700:01:004:0088"},"geometry":{"type":"Polygon","coordinates":[[[38.575751,48.784847],[38.576017,48.784723],[38.575887,48.784584],[38.575671,48.784685],[38.575702,48.784714],[38.575639,48.784746],[38.575751,48.784847]]]}},{"type":"Feature","properties":{"cadnum":"4412145700:01:004:0006"},"geometry":{"type":"Polygon","coordinates":[[[38.574988,48.783367],[38.575118,48.783329],[38.5751,48.783302],[38.574969,48.783344],[38.574988,48.783367]]]}},{"type":"Feature","properties":{"cadnum":"4412145700:01:004:0009"},"geometry":{"type":"Polygon","coordinates":[[[38.574983,48.783311],[38.575271,48.783163],[38.574862,48.782802],[38.574579,48.78295],[38.574983,48.783311]]]}},{"type":"Feature","properties":{"cadnum":"4412145700:02:004:0037"},"geometry":{"type":"Polygon","coordinates":[[[38.574736,48.782408],[38.575639,48.781967],[38.575405,48.781662],[38.575262,48.78171],[38.574575,48.782059],[38.574669,48.782216],[38.574669,48.78229],[38.574736,48.782408]]]}},{"type":"Feature","properties":{"cadnum":"4412145700:01:004:0028"},"geometry":{"type":"Polygon","coordinates":[[[38.575055,48.784167],[38.575145,48.784122],[38.575059,48.784042],[38.574969,48.784084],[38.575055,48.784167]]]}},{"type":"Feature","properties":{"cadnum":"4412145700:01:004:0096"},"geometry":{"type":"Polygon","coordinates":[[[38.572441,48.787942],[38.572585,48.787892],[38.572505,48.787765],[38.572409,48.787478],[38.572315,48.787183],[38.571987,48.787383],[38.572441,48.787942]]]}},{"type":"Feature","properties":{"cadnum":"4412145700:01:004:0099"},"geometry":{"type":"Polygon","coordinates":[[[38.570092,48.788144],[38.570285,48.788052],[38.570272,48.78804],[38.570178,48.787957],[38.570137,48.787919],[38.570069,48.787866],[38.569576,48.787472],[38.569386,48.787578],[38.569813,48.787922],[38.570082,48.788135],[38.570092,48.788144]]]}},{"type":"Feature","properties":{"cadnum":"4412145700:01:004:0100"},"geometry":{"type":"Polygon","coordinates":[[[38.569513,48.78844],[38.569715,48.788339],[38.569702,48.78833],[38.569378,48.788078],[38.568983,48.787774],[38.568861,48.787839],[38.568799,48.787872],[38.569189,48.788183],[38.569503,48.788431],[38.569513,48.78844]]]}},{"type":"Feature","properties":{"cadnum":"4412145700:01:004:0103"},"geometry":{"type":"Polygon","coordinates":[[[38.57165,48.787327],[38.571822,48.787229],[38.571543,48.787001],[38.571111,48.786644],[38.570994,48.786714],[38.57095,48.786756],[38.571367,48.787096],[38.57165,48.787327]]]}},{"type":"Feature","properties":{"cadnum":"4412145700:01:004:0098"},"geometry":{"type":"Polygon","coordinates":[[[38.570551,48.786286],[38.570752,48.786182],[38.570038,48.78559],[38.569854,48.785681],[38.570551,48.786286]]]}},{"type":"Feature","properties":{"cadnum":"4412145700:01:004:0107"},"geometry":{"type":"Polygon","coordinates":[[[38.569226,48.786975],[38.569543,48.78681],[38.569382,48.786679],[38.569122,48.786466],[38.568794,48.786652],[38.569032,48.786833],[38.569226,48.786975]]]}},{"type":"Feature","properties":{"cadnum":"4412145700:01:004:0063"},"geometry":{"type":"Polygon","coordinates":[[[38.572621,48.786714],[38.572648,48.786712],[38.572755,48.786646],[38.572765,48.78665],[38.572822,48.786623],[38.572145,48.786054],[38.571965,48.786152],[38.572621,48.786714]]]}}]}