{"type":"FeatureCollection","features":[{"type":"Feature","properties":{"cadnum":"4412346700:01:001:0019"},"geometry":{"type":"Polygon","coordinates":[[[39.472364,48.002113],[39.472378,48.002099],[39.47236,48.00209],[39.472341,48.002102],[39.472364,48.002113]]]}},{"type":"Feature","properties":{"cadnum":"4412346700:01:001:0016"},"geometry":{"type":"Polygon","coordinates":[[[39.471358,48.003301],[39.471368,48.003283],[39.471295,48.003262],[39.471286,48.003277],[39.471358,48.003301]]]}},{"type":"Feature","properties":{"cadnum":"4412346700:01:001:0017"},"geometry":{"type":"Polygon","coordinates":[[[39.471741,48.00297],[39.471749,48.002955],[39.471682,48.002934],[39.471668,48.002949],[39.471741,48.00297]]]}},{"type":"Feature","properties":{"cadnum":"4412346700:01:001:0021"},"geometry":{"type":"Polygon","coordinates":[[[39.472863,48.001143],[39.472881,48.001131],[39.472859,48.001122],[39.472844,48.001134],[39.472863,48.001143]]]}},{"type":"Feature","properties":{"cadnum":"4412346700:01:001:0026"},"geometry":{"type":"Polygon","coordinates":[[[39.472175,48.003151],[39.472225,48.003109],[39.472203,48.0031],[39.472158,48.003142],[39.472175,48.003151]]]}},{"type":"Feature","properties":{"cadnum":"4412346700:01:001:0014"},"geometry":{"type":"Polygon","coordinates":[[[39.470546,48.003977],[39.470559,48.003962],[39.47054,48.003953],[39.470523,48.003968],[39.470546,48.003977]]]}},{"type":"Feature","properties":{"cadnum":"4412346700:01:001:0018"},"geometry":{"type":"Polygon","coordinates":[[[39.472113,48.002598],[39.472131,48.002583],[39.472108,48.002574],[39.472095,48.002585],[39.472113,48.002598]]]}},{"type":"Feature","properties":{"cadnum":"4412346700:01:001:0020"},"geometry":{"type":"Polygon","coordinates":[[[39.472616,48.00163],[39.47263,48.001614],[39.472607,48.001606],[39.472594,48.001618],[39.472616,48.00163]]]}},{"type":"Feature","properties":{"cadnum":"4412346700:03:001:0006"},"geometry":{"type":"Polygon","coordinates":[[[39.482138,47.997236],[39.48206,47.997331],[39.482060592592596,47.997331],[39.481962,47.997452],[39.482484,47.997642],[39.482654,47.997426],[39.48239600000001,47.997331],[39.482397,47.997331],[39.482138,47.997236]]]}},{"type":"Feature","properties":{"cadnum":"4412346700:03:002:0023"},"geometry":{"type":"Polygon","coordinates":[[[39.47593,47.996761],[39.475944,47.996746],[39.475922,47.996737],[39.475909,47.996752],[39.47593,47.996761]]]}},{"type":"Feature","properties":{"cadnum":"4412346700:03:002:0030"},"geometry":{"type":"Polygon","coordinates":[[[39.477152,47.993972],[39.477152,47.993953],[39.477075,47.993948],[39.477075,47.993966],[39.477152,47.993972]]]}},{"type":"Feature","properties":{"cadnum":"4412346700:03:002:0024"},"geometry":{"type":"Polygon","coordinates":[[[39.476227,47.996668],[39.47624,47.996653],[39.476173,47.996629],[39.47616,47.996641],[39.476227,47.996668]]]}},{"type":"Feature","properties":{"cadnum":"4412346700:03:001:0002"},"geometry":{"type":"Polygon","coordinates":[[[39.476945,47.997116],[39.476703,47.997172],[39.47672225,47.997216],[39.476721,47.997216],[39.476752,47.997284],[39.476703,47.997293],[39.476719,47.997331],[39.476719584745766,47.997331],[39.476909,47.997765],[39.477202,47.997705],[39.477010082551764,47.99726645966268],[39.476945,47.997116]]]}},{"type":"Feature","properties":{"cadnum":"4412346700:03:002:0026"},"geometry":{"type":"Polygon","coordinates":[[[39.476901,47.995833],[39.476905,47.995817],[39.476829,47.995811],[39.476825,47.995829],[39.476901,47.995833]]]}},{"type":"Feature","properties":{"cadnum":"4412346700:03:002:0053"},"geometry":{"type":"Polygon","coordinates":[[[39.474152,47.99469],[39.474655,47.994609],[39.474695,47.994576],[39.474637,47.994345],[39.474584,47.994345],[39.474498,47.994329],[39.474498,47.994332],[39.474287,47.994323],[39.474053,47.994347],[39.474102,47.994534],[39.474152,47.99469]]]}},{"type":"Feature","properties":{"cadnum":"4412346700:03:002:0029"},"geometry":{"type":"Polygon","coordinates":[[[39.477058,47.994438],[39.477067,47.994423],[39.477049,47.994414],[39.477035,47.994429],[39.477058,47.994438]]]}},{"type":"Feature","properties":{"cadnum":"4412346700:03:002:0028"},"geometry":{"type":"Polygon","coordinates":[[[39.476995,47.994904],[39.477008,47.994888],[39.476986,47.994879],[39.476972,47.994895],[39.476995,47.994904]]]}},{"type":"Feature","properties":{"cadnum":"4412346700:01:001:0001"},"geometry":{"type":"Polygon","coordinates":[[[39.474045,47.994678],[39.474012,47.994561],[39.473791,47.994596],[39.473791,47.99459606470588],[39.472603,47.994783],[39.472171,47.994853],[39.472423,47.994924],[39.4728,47.994828],[39.473699,47.994705],[39.473963,47.994686],[39.473963,47.994684456692916],[39.474045,47.994678]]]}},{"type":"Feature","properties":{"cadnum":"4412346700:03:001:0031"},"geometry":{"type":"Polygon","coordinates":[[[39.475926,47.996743],[39.476115,47.996682],[39.476102,47.996673],[39.47615,47.996644],[39.476186,47.996617],[39.476088,47.996553],[39.475819,47.996323],[39.47575,47.996343],[39.475626,47.99622],[39.475544,47.99625],[39.475819,47.996584],[39.475867,47.996659],[39.475922,47.996734],[39.475926,47.996743]]]}},{"type":"Feature","properties":{"cadnum":"4412346700:03:002:0021"},"geometry":{"type":"Polygon","coordinates":[[[39.475087,47.996962],[39.4751,47.996947],[39.475033,47.996923],[39.475018,47.996938],[39.475087,47.996962]]]}},{"type":"Feature","properties":{"cadnum":"4412346700:03:002:0025"},"geometry":{"type":"Polygon","coordinates":[[[39.476555,47.996262],[39.476569,47.996247],[39.476546,47.996238],[39.476532,47.996253],[39.476555,47.996262]]]}},{"type":"Feature","properties":{"cadnum":"4412346700:03:002:0027"},"geometry":{"type":"Polygon","coordinates":[[[39.476932,47.995369],[39.476945,47.995354],[39.476924,47.995345],[39.476909,47.99536],[39.476932,47.995369]]]}},{"type":"Feature","properties":{"cadnum":"4412346700:03:002:0022"},"geometry":{"type":"Polygon","coordinates":[[[39.475513,47.996869],[39.475527,47.996854],[39.475504,47.996845],[39.47549,47.99686],[39.475513,47.996869]]]}},{"type":"Feature","properties":{"cadnum":"4412346700:02:002:0009"},"geometry":{"type":"Polygon","coordinates":[[[39.486302,48.004403],[39.486379,48.003932],[39.486176,48.003893],[39.486144,48.004035],[39.486153,48.004049],[39.485998,48.004682],[39.48599890163934,48.004682],[39.485997,48.00469],[39.486247,48.004708],[39.48625835135131,48.00464178378404],[39.486302,48.004403]]]}},{"type":"Feature","properties":{"cadnum":"4412346700:02:002:0010"},"geometry":{"type":"Polygon","coordinates":[[[39.486243,48.004743],[39.486247,48.004708],[39.485997,48.00469],[39.485987,48.004726],[39.486243,48.004743]]]}},{"type":"Feature","properties":{"cadnum":"4412346700:02:001:0051"},"geometry":{"type":"Polygon","coordinates":[[[39.481882,48.000587],[39.481716,48.000533],[39.481469092827005,48.000892],[39.481469,48.000892],[39.48145519999993,48.0009122000001],[39.48139,48.001007],[39.48139043564356,48.001007],[39.481262,48.001195],[39.48145,48.001257],[39.481610958904106,48.001007],[39.481611,48.001007],[39.481882,48.000587]]]}},{"type":"Feature","properties":{"cadnum":"4412346700:03:001:0030"},"geometry":{"type":"Polygon","coordinates":[[[39.481173,47.999484],[39.481289,47.999411],[39.481182,47.999328],[39.480696,47.998985],[39.48062,47.999087],[39.48102,47.999385],[39.481163,47.999478],[39.481173,47.999484]]]}},{"type":"Feature","properties":{"cadnum":"4412346700:02:001:0061"},"geometry":{"type":"Polygon","coordinates":[[[39.479456,47.998541825454545],[39.479559,47.998604],[39.479717,47.998435],[39.47928647428646,47.99822421142894],[39.479282,47.998222],[39.479152,47.998357],[39.479284,47.99843732894737],[39.479284,47.998438],[39.47942049635013,47.998520394160444],[39.479456,47.998542],[39.479456,47.998541825454545]]]}},{"type":"Feature","properties":{"cadnum":"4412346700:03:001:0032"},"geometry":{"type":"Polygon","coordinates":[[[39.479456,48.000059],[39.479456,48.00005898540146],[39.479668,47.999929],[39.479519,47.99985],[39.479578,47.999796],[39.479284,47.999726],[39.479284,47.999726776859504],[39.478972,47.999652],[39.478792,47.999761],[39.478877,47.999776],[39.479066,47.99991],[39.479284,48.00003428658536],[39.479284,48.000035],[39.479394,48.000097],[39.479456,48.000059]]]}},{"type":"Feature","properties":{"cadnum":"4412346700:03:001:0007"},"geometry":{"type":"Polygon","coordinates":[[[39.480202,48.000338],[39.480544,48.000119],[39.480328,47.999823],[39.480067,47.999869],[39.479964,47.999914],[39.480202,48.000338]]]}},{"type":"Feature","properties":{"cadnum":"4412346700:02:001:0060"},"geometry":{"type":"Polygon","coordinates":[[[39.48027,47.998922],[39.480346,47.998841],[39.480413,47.998774],[39.480368,47.998751],[39.480381,47.998736],[39.480341,47.998714],[39.480324,47.998729],[39.479717,47.998435],[39.479559,47.998604],[39.479951,47.998834],[39.480094,47.998874],[39.480257,47.998919],[39.48027,47.998922]]]}},{"type":"Feature","properties":{"cadnum":"4412346700:03:001:0005"},"geometry":{"type":"Polygon","coordinates":[[[39.482272,47.997909],[39.482484,47.997642],[39.481962,47.997452],[39.481748,47.997723],[39.482272,47.997909]]]}},{"type":"Feature","properties":{"cadnum":"4412346700:03:001:0008"},"geometry":{"type":"Polygon","coordinates":[[[39.484106,48.001846],[39.48419,48.001795],[39.484352,48.00172],[39.484572,48.001645],[39.484232,48.001369],[39.484123,48.001407],[39.484039,48.001467],[39.483867,48.001657],[39.48393,48.001687],[39.483872,48.00175],[39.484106,48.001846]]]}},{"type":"Feature","properties":{"cadnum":"4412346700:03:001:0009"},"geometry":{"type":"Polygon","coordinates":[[[39.484689,48.001603],[39.484725,48.001597],[39.484761,48.001582],[39.484874,48.001561],[39.484949,48.001553],[39.484949,48.001552262135924],[39.484977,48.001549],[39.48485606976684,48.001451651162306],[39.484653,48.001287],[39.484604,48.001278],[39.484568,48.001255],[39.484482,48.001287],[39.484402,48.001324],[39.484272,48.001356],[39.484232,48.001369],[39.484572,48.001645],[39.484689,48.001603]]]}},{"type":"Feature","properties":{"cadnum":"4412346700:02:001:0031"},"geometry":{"type":"Polygon","coordinates":[[[39.480916,48.002021],[39.480966,48.001946],[39.480974,48.001946],[39.48102,48.001883],[39.481006,48.001877],[39.481064,48.001795],[39.48123,48.001603],[39.48145,48.001257],[39.481262,48.001195],[39.480907,48.001714],[39.480817,48.001813],[39.480773,48.001879],[39.480781,48.001888],[39.480741,48.001966],[39.480916,48.002021]]]}},{"type":"Feature","properties":{"cadnum":"4412346700:02:001:0063"},"geometry":{"type":"Polygon","coordinates":[[[39.482569,48.002639],[39.482695,48.002565],[39.482731,48.00255],[39.483324,48.002186],[39.483549,48.002035],[39.483603,48.001984],[39.48349,48.001921],[39.482457,48.002558],[39.482555,48.00263],[39.482569,48.002639]]]}},{"type":"Feature","properties":{"cadnum":"4412346700:02:002:0004"},"geometry":{"type":"Polygon","coordinates":[[[39.483176,48.003752],[39.483499,48.003725],[39.483463,48.003485],[39.483454,48.003391],[39.483446,48.003226],[39.48336,48.003229],[39.483045,48.003253],[39.483121,48.003545],[39.483176,48.003752]]]}},{"type":"Feature","properties":{"cadnum":"4412346700:02:002:0006"},"geometry":{"type":"Polygon","coordinates":[[[39.484918,48.00246],[39.484815,48.0024],[39.484777,48.00245],[39.484777,48.002450499999995],[39.484739,48.002501],[39.484685,48.002576],[39.484649,48.002616],[39.484622,48.002649],[39.484599,48.002681],[39.484452,48.00294],[39.484425,48.002995],[39.484325,48.003214],[39.484446,48.003231],[39.484452,48.003211],[39.48446,48.003211],[39.484509,48.00306],[39.484519,48.003064],[39.484523,48.003048],[39.484519,48.003046],[39.484532,48.003018],[39.484549,48.003022],[39.484777,48.00267474796748],[39.484777,48.002675],[39.484918,48.00246]]]}},{"type":"Feature","properties":{"cadnum":"4412346700:02:002:0005"},"geometry":{"type":"Polygon","coordinates":[[[39.483261,48.004073],[39.483553,48.004058],[39.483499,48.003725],[39.483176,48.003752],[39.483261,48.004073]]]}},{"type":"Feature","properties":{"cadnum":"4412346700:03:002:0063"},"geometry":{"type":"Polygon","coordinates":[[[39.476075,47.993533],[39.476106,47.993518],[39.475976,47.993391],[39.475966,47.993398],[39.47602,47.993445],[39.476075,47.993533]]]}},{"type":"Feature","properties":{"cadnum":"4412346700:03:002:0031"},"geometry":{"type":"Polygon","coordinates":[[[39.477188,47.993503],[39.477188,47.993485],[39.477165,47.993485],[39.477161,47.9935],[39.477188,47.993503]]]}},{"type":"Feature","properties":{"cadnum":"4412346700:03:002:0036"},"geometry":{"type":"Polygon","coordinates":[[[39.47749,47.991212],[39.477507,47.991161],[39.477481,47.991158],[39.477467,47.99121],[39.47749,47.991212]]]}},{"type":"Feature","properties":{"cadnum":"4412346700:03:002:0038"},"geometry":{"type":"Polygon","coordinates":[[[39.476752,47.990722],[39.476771,47.990711],[39.476752,47.990698],[39.476735,47.990711],[39.476752,47.990722]]]}},{"type":"Feature","properties":{"cadnum":"4412346700:03:002:0040"},"geometry":{"type":"Polygon","coordinates":[[[39.476025,47.990247],[39.476039,47.990235],[39.47602,47.990223],[39.476003,47.990235],[39.476025,47.990247]]]}},{"type":"Feature","properties":{"cadnum":"4412346700:03:002:0039"},"geometry":{"type":"Polygon","coordinates":[[[39.476389,47.990484],[39.476402,47.990473],[39.476385,47.990461],[39.476371,47.990473],[39.476389,47.990484]]]}},{"type":"Feature","properties":{"cadnum":"4412346700:03:002:0032"},"geometry":{"type":"Polygon","coordinates":[[[39.477247,47.993037],[39.477255,47.993022],[39.477228,47.993015],[39.477224,47.993034],[39.477247,47.993037]]]}},{"type":"Feature","properties":{"cadnum":"4412346700:03:002:0041"},"geometry":{"type":"Polygon","coordinates":[[[39.475653,47.99001],[39.475674,47.989998],[39.475657,47.989986],[39.475639,47.989998],[39.475653,47.99001]]]}},{"type":"Feature","properties":{"cadnum":"4412346700:03:002:0051"},"geometry":{"type":"Polygon","coordinates":[[[39.478324,47.99145],[39.478329,47.991431],[39.478303,47.991431],[39.478297,47.991447],[39.478324,47.99145]]]}},{"type":"Feature","properties":{"cadnum":"4412346700:03:002:0050"},"geometry":{"type":"Polygon","coordinates":[[[39.477763,47.991219],[39.477767,47.991201],[39.477745,47.991197],[39.477741,47.991215],[39.477763,47.991219]]]}},{"type":"Feature","properties":{"cadnum":"4412346700:03:002:0035"},"geometry":{"type":"Polygon","coordinates":[[[39.47744,47.99164],[39.47744,47.991621],[39.477413,47.991621],[39.477413,47.99164],[39.47744,47.99164]]]}},{"type":"Feature","properties":{"cadnum":"4412346700:03:002:0034"},"geometry":{"type":"Polygon","coordinates":[[[39.477377,47.992105],[39.477377,47.992087],[39.47735,47.992087],[39.47735,47.992105],[39.477377,47.992105]]]}},{"type":"Feature","properties":{"cadnum":"4412346700:03:002:0037"},"geometry":{"type":"Polygon","coordinates":[[[39.477121,47.99096],[39.477139,47.990948],[39.477121,47.990936],[39.477102,47.990948],[39.477121,47.99096]]]}},{"type":"Feature","properties":{"cadnum":"4412346700:03:002:0033"},"geometry":{"type":"Polygon","coordinates":[[[39.477314,47.992571],[39.477314,47.992553],[39.477291,47.992553],[39.477287,47.992568],[39.477314,47.992571]]]}},{"type":"Feature","properties":{"cadnum":"4412346700:03:002:0062"},"geometry":{"type":"Polygon","coordinates":[[[39.476106,47.993518],[39.476955,47.993103],[39.476802,47.992974],[39.475976,47.993391],[39.476106,47.993518]]]}},{"type":"Feature","properties":{"cadnum":"4412346700:03:002:0048"},"geometry":{"type":"Polygon","coordinates":[[[39.467307,47.990203],[39.467316,47.990187],[39.467248,47.990163],[39.467234,47.990178],[39.467307,47.990203]]]}},{"type":"Feature","properties":{"cadnum":"4412346700:03:002:0049"},"geometry":{"type":"Polygon","coordinates":[[[39.4672,47.990335],[39.46724,47.990292],[39.467158,47.990263],[39.467123,47.990308],[39.4672,47.990335]]]}},{"type":"Feature","properties":{"cadnum":"4412346700:03:002:0047"},"geometry":{"type":"Polygon","coordinates":[[[39.467676,47.989715],[39.467689,47.989704],[39.467666,47.989695],[39.467653,47.989706],[39.467676,47.989715]]]}},{"type":"Feature","properties":{"cadnum":"4412346700:03:002:0046"},"geometry":{"type":"Polygon","coordinates":[[[39.468152,47.989379],[39.468173,47.98937],[39.468156,47.989358],[39.468138,47.989367],[39.468152,47.989379]]]}},{"type":"Feature","properties":{"cadnum":"4412346700:04:001:0007"},"geometry":{"type":"Polygon","coordinates":[[[39.495329,48.004819],[39.495356,48.004761],[39.495289,48.004746],[39.495258,48.004804],[39.495329,48.004819]]]}},{"type":"Feature","properties":{"cadnum":"4412346700:02:002:0001"},"geometry":{"type":"Polygon","coordinates":[[[39.490555,48.004717],[39.490574,48.004672],[39.490461,48.00465],[39.490442,48.004692],[39.490555,48.004717]]]}},{"type":"Feature","properties":{"cadnum":"4412346700:02:002:0003"},"geometry":{"type":"Polygon","coordinates":[[[39.490547,48.004741],[39.490555,48.004717],[39.490442,48.004692],[39.490429,48.004719],[39.490547,48.004741]]]}},{"type":"Feature","properties":{"cadnum":"4412346700:04:001:0006"},"geometry":{"type":"Polygon","coordinates":[[[39.494935,48.004759],[39.495002,48.004734],[39.494993,48.004719],[39.494922,48.004743],[39.494935,48.004759]]]}},{"type":"Feature","properties":{"cadnum":"4412346700:02:002:0011"},"geometry":{"type":"Polygon","coordinates":[[[39.485893,48.003697],[39.486046,48.00352],[39.486226,48.003057],[39.4861,48.003015],[39.485813,48.003421],[39.485637,48.003596],[39.485893,48.003697]]]}},{"type":"Feature","properties":{"cadnum":"4412346700:02:001:0035"},"geometry":{"type":"Polygon","coordinates":[[[39.485551,48.004025],[39.485655,48.003887],[39.485655,48.003869],[39.485744,48.003743],[39.48566,48.003715],[39.48566,48.003712],[39.485488,48.003643],[39.485398,48.003785],[39.485475,48.003806],[39.48539,48.003904],[39.485358,48.003992],[39.485551,48.004025]]]}},{"type":"Feature","properties":{"cadnum":"4412346700:02:002:0014"},"geometry":{"type":"Polygon","coordinates":[[[39.487159,48.003256],[39.487165,48.003144],[39.486845,48.003133],[39.486832,48.003244],[39.487159,48.003256]]]}},{"type":"Feature","properties":{"cadnum":"4412346700:03:001:0029"},"geometry":{"type":"Polygon","coordinates":[[[39.485115,48.001732],[39.485417,48.001425],[39.485081,48.001251],[39.484882,48.001522],[39.485115,48.001732]]]}},{"type":"Feature","properties":{"cadnum":"4412346700:03:001:0028"},"geometry":{"type":"Polygon","coordinates":[[[39.485587,48.001873],[39.485848,48.001645],[39.485417,48.001425],[39.485115,48.001732],[39.485345,48.001855],[39.485534,48.001843],[39.485587,48.001873]]]}},{"type":"Feature","properties":{"cadnum":"4412346700:02:002:0013"},"geometry":{"type":"Polygon","coordinates":[[[39.486935,48.003904],[39.486976,48.003788],[39.487128,48.003565],[39.487123,48.003451],[39.487151,48.003373],[39.487159,48.003256],[39.486832,48.003244],[39.486782,48.003764],[39.48675,48.003878],[39.486935,48.003904]]]}},{"type":"Feature","properties":{"cadnum":"4412346700:03:001:0034"},"geometry":{"type":"Polygon","coordinates":[[[39.486432,48.001639],[39.486729,48.001467],[39.487033,48.001305],[39.486912,48.001164],[39.486729,48.001239],[39.486706,48.001221],[39.486652,48.001248],[39.486675,48.001266],[39.486266,48.001501],[39.486432,48.001639]]]}},{"type":"Feature","properties":{"cadnum":"4412346700:03:002:0042"},"geometry":{"type":"Polygon","coordinates":[[[39.475288,47.989773],[39.475307,47.98976],[39.475288,47.989748],[39.47527,47.98976],[39.475288,47.989773]]]}},{"type":"Feature","properties":{"cadnum":"4412346700:05:001:0025"},"geometry":{"type":"Polygon","coordinates":[[[39.47484,47.98879],[39.475028,47.988666],[39.475033,47.988672],[39.475091,47.988633],[39.474735,47.988381],[39.474538,47.988249],[39.474295,47.988402],[39.474484,47.988534],[39.47484,47.98879]]]}},{"type":"Feature","properties":{"cadnum":"4412346700:05:001:0026"},"geometry":{"type":"Polygon","coordinates":[[[39.474295,47.988402],[39.474538,47.988249],[39.474188,47.988011],[39.473955,47.988164],[39.474295,47.988402]]]}},{"type":"Feature","properties":{"cadnum":"4412346700:03:002:0043"},"geometry":{"type":"Polygon","coordinates":[[[39.474924,47.989535],[39.474943,47.989523],[39.47492,47.989511],[39.474907,47.989523],[39.474924,47.989535]]]}},{"type":"Feature","properties":{"cadnum":"4412346700:05:001:0012"},"geometry":{"type":"Polygon","coordinates":[[[39.474192,47.989063],[39.474215,47.989054],[39.474202,47.989039],[39.474179,47.989051],[39.474192,47.989063]]]}},{"type":"Feature","properties":{"cadnum":"4412346700:03:002:0052"},"geometry":{"type":"Polygon","coordinates":[[[39.474004,47.989884],[39.474081,47.989809],[39.474012,47.989778],[39.473936,47.989853],[39.474004,47.989884]]]}},{"type":"Feature","properties":{"cadnum":"4412346700:05:001:0024"},"geometry":{"type":"Polygon","coordinates":[[[39.474066,47.989225],[39.474125,47.989192],[39.474066,47.989141],[39.474004,47.989171],[39.474066,47.989225]]]}},{"type":"Feature","properties":{"cadnum":"4412346700:05:001:0008"},"geometry":{"type":"Polygon","coordinates":[[[39.475091,47.988633],[39.475131,47.988606],[39.475127,47.988603],[39.475167,47.988576],[39.475171,47.988579],[39.47523,47.988543],[39.474395,47.987972],[39.474232,47.988041],[39.474735,47.988381],[39.475091,47.988633]]]}},{"type":"Feature","properties":{"cadnum":"4412346700:05:001:0011"},"geometry":{"type":"Polygon","coordinates":[[[39.474565,47.989303],[39.474584,47.989292],[39.47457,47.989279],[39.474548,47.989292],[39.474565,47.989303]]]}},{"type":"Feature","properties":{"cadnum":"4412346700:05:001:0032"},"geometry":{"type":"Polygon","coordinates":[[[39.476618,47.988327],[39.476721,47.988287],[39.476649,47.9882],[39.476546,47.98824],[39.476618,47.988327]]]}},{"type":"Feature","properties":{"cadnum":"4412346700:05:001:0033"},"geometry":{"type":"Polygon","coordinates":[[[39.476689,47.988414],[39.476798,47.988372],[39.476721,47.988287],[39.476618,47.988327],[39.476689,47.988414]]]}},{"type":"Feature","properties":{"cadnum":"4412346700:05:001:0017"},"geometry":{"type":"Polygon","coordinates":[[[39.472486,47.987623],[39.472504,47.987611],[39.47249,47.987599],[39.472467,47.987608],[39.472486,47.987623]]]}},{"type":"Feature","properties":{"cadnum":"4412346700:05:001:0014"},"geometry":{"type":"Polygon","coordinates":[[[39.473509,47.988486],[39.473528,47.98848],[39.473519,47.988465],[39.473496,47.988471],[39.473509,47.988486]]]}},{"type":"Feature","properties":{"cadnum":"4412346700:03:002:0045"},"geometry":{"type":"Polygon","coordinates":[[[39.468641,47.989045],[39.468655,47.989029],[39.468636,47.98902],[39.468618,47.989033],[39.468641,47.989045]]]}},{"type":"Feature","properties":{"cadnum":"4412346700:03:002:0044"},"geometry":{"type":"Polygon","coordinates":[[[39.469125,47.988708],[39.469139,47.988693],[39.469121,47.988684],[39.469104,47.988696],[39.469125,47.988708]]]}},{"type":"Feature","properties":{"cadnum":"4412346700:05:001:0015"},"geometry":{"type":"Polygon","coordinates":[[[39.473163,47.988197],[39.473186,47.988191],[39.473177,47.988176],[39.473155,47.988182],[39.473163,47.988197]]]}},{"type":"Feature","properties":{"cadnum":"4412346700:05:001:0016"},"geometry":{"type":"Polygon","coordinates":[[[39.472823,47.987908],[39.472844,47.987903],[39.472831,47.987888],[39.472813,47.987897],[39.472823,47.987908]]]}},{"type":"Feature","properties":{"cadnum":"4412346700:05:001:0013"},"geometry":{"type":"Polygon","coordinates":[[[39.473851,47.988775],[39.473873,47.988768],[39.47386,47.988753],[39.473838,47.988759],[39.473851,47.988775]]]}},{"type":"Feature","properties":{"cadnum":"4412346700:05:001:0030"},"geometry":{"type":"Polygon","coordinates":[[[39.472553,47.988519],[39.473555,47.987875],[39.473389,47.987803],[39.472607,47.988302],[39.472427,47.988429],[39.472553,47.988519]]]}},{"type":"Feature","properties":{"cadnum":"4412346700:02:001:0062"},"geometry":{"type":"Polygon","coordinates":[[[39.477242,48.00089],[39.477314,48.000747],[39.477215,48.000725],[39.476838,48.000653],[39.476771,48.000783],[39.477242,48.00089]]]}},{"type":"Feature","properties":{"cadnum":"4412346700:03:002:0016"},"geometry":{"type":"Polygon","coordinates":[[[39.474102,47.998856],[39.474121,47.998841],[39.474098,47.998832],[39.474085,47.998843],[39.474102,47.998856]]]}},{"type":"Feature","properties":{"cadnum":"4412346700:03:002:0015"},"geometry":{"type":"Polygon","coordinates":[[[39.474108,47.999228],[39.474125,47.999213],[39.474102,47.999204],[39.474089,47.999217],[39.474108,47.999228]]]}},{"type":"Feature","properties":{"cadnum":"4412346700:03:002:0020"},"geometry":{"type":"Polygon","coordinates":[[[39.474947,47.997365],[39.474961,47.99735],[39.474943,47.997341],[39.474924,47.997353],[39.474947,47.997365]]]}},{"type":"Feature","properties":{"cadnum":"4412346700:03:002:0019"},"geometry":{"type":"Polygon","coordinates":[[[39.474741,47.997744],[39.474758,47.997732],[39.474735,47.997723],[39.474722,47.997735],[39.474741,47.997744]]]}},{"type":"Feature","properties":{"cadnum":"4412346700:03:001:0033"},"geometry":{"type":"Polygon","coordinates":[[[39.478792,47.999761],[39.478972,47.999652],[39.478496,47.999538],[39.478683,47.999736],[39.478792,47.999761]]]}},{"type":"Feature","properties":{"cadnum":"4412346700:03:002:0017"},"geometry":{"type":"Polygon","coordinates":[[[39.474295,47.998486],[39.474309,47.998475],[39.474287,47.998462],[39.474274,47.998477],[39.474295,47.998486]]]}},{"type":"Feature","properties":{"cadnum":"4412346700:03:001:0003"},"geometry":{"type":"Polygon","coordinates":[[[39.476964,47.997879],[39.477255,47.997822],[39.477202,47.997705],[39.476909,47.997765],[39.476964,47.997879]]]}},{"type":"Feature","properties":{"cadnum":"4412346700:03:002:0018"},"geometry":{"type":"Polygon","coordinates":[[[39.474538,47.998125],[39.474552,47.998114],[39.474534,47.998101],[39.474515,47.998117],[39.474538,47.998125]]]}},{"type":"Feature","properties":{"cadnum":"4412346700:01:001:0015"},"geometry":{"type":"Polygon","coordinates":[[[39.471624,47.999463],[39.471754,47.999333],[39.471112,47.998982],[39.471066,47.999024],[39.471075,47.99903],[39.47103,47.999075],[39.470995,47.999079],[39.470995,47.999201],[39.471624,47.999463]]]}},{"type":"Feature","properties":{"cadnum":"4412346700:01:001:0025"},"geometry":{"type":"Polygon","coordinates":[[[39.473721,47.999649],[39.473735,47.999634],[39.473716,47.999625],[39.473699,47.999638],[39.473721,47.999649]]]}},{"type":"Feature","properties":{"cadnum":"4412346700:01:001:0027"},"geometry":{"type":"Polygon","coordinates":[[[39.473232,48.000085],[39.473312,48.000043],[39.473267,48.000001],[39.473182,48.000043],[39.473232,48.000085]]]}},{"type":"Feature","properties":{"cadnum":"4412346700:01:001:0024"},"geometry":{"type":"Polygon","coordinates":[[[39.473515,48.000031],[39.473532,48.000016],[39.473509,48.000007],[39.473496,48.000019],[39.473515,48.000031]]]}},{"type":"Feature","properties":{"cadnum":"4412346700:01:001:0022"},"geometry":{"type":"Polygon","coordinates":[[[39.473114,48.000659],[39.473127,48.000647],[39.47311,48.000635],[39.473096,48.00065],[39.473114,48.000659]]]}},{"type":"Feature","properties":{"cadnum":"4412346700:01:001:0023"},"geometry":{"type":"Polygon","coordinates":[[[39.473393,48.000179],[39.473406,48.000163],[39.473339,48.000139],[39.473326,48.000154],[39.473393,48.000179]]]}},{"type":"Feature","properties":{"cadnum":"4412346700:04:001:0005"},"geometry":{"type":"Polygon","coordinates":[[[39.494683,48.00422],[39.494683,48.004205],[39.49466,48.004202],[39.494656,48.004218],[39.494683,48.00422]]]}},{"type":"Feature","properties":{"cadnum":"4412346700:04:001:0003"},"geometry":{"type":"Polygon","coordinates":[[[39.494094,48.00316],[39.494099,48.003142],[39.494073,48.003138],[39.494067,48.003157],[39.494094,48.00316]]]}},{"type":"Feature","properties":{"cadnum":"4412346700:04:001:0004"},"geometry":{"type":"Polygon","coordinates":[[[39.494386,48.003688],[39.49439,48.003674],[39.494369,48.00367],[39.494364,48.003688],[39.494386,48.003688]]]}},{"type":"Feature","properties":{"cadnum":"4412346700:01:001:0012"},"geometry":{"type":"Polygon","coordinates":[[[39.467639,47.999601],[39.467684,47.999496],[39.467873,47.99913],[39.467917,47.998997],[39.467842,47.998985],[39.467846,47.998967],[39.467653,47.998937],[39.467586,47.999112],[39.467357,47.999556],[39.467639,47.999601]]]}},{"type":"Feature","properties":{"cadnum":"4412346700:01:001:0013"},"geometry":{"type":"Polygon","coordinates":[[[39.467454,47.999794],[39.467621,47.999638],[39.467639,47.999601],[39.467357,47.999556],[39.467347,47.999571],[39.467393,47.999776],[39.467454,47.999794]]]}},{"type":"Feature","properties":{"cadnum":"4412346700:04:001:0021"},"geometry":{"type":"Polygon","coordinates":[[[39.507386,48.003412],[39.507447,48.002874],[39.50747,48.002634],[39.507296,48.002607],[39.507287,48.002625],[39.507254,48.002781],[39.507241,48.002883],[39.507241,48.002919],[39.507165,48.003364],[39.507386,48.003412]]]}},{"type":"Feature","properties":{"cadnum":"4412346700:05:001:0006"},"geometry":{"type":"Polygon","coordinates":[[[39.469871,47.984956],[39.47024,47.98471],[39.470114,47.984635],[39.469867,47.984472],[39.469615,47.984629],[39.469628,47.984637],[39.46949,47.984719],[39.469871,47.984956]]]}},{"type":"Feature","properties":{"cadnum":"4412346700:05:001:0018"},"geometry":{"type":"Polygon","coordinates":[[[39.469997,47.985684],[39.470016,47.985675],[39.470001,47.98566],[39.469984,47.985669],[39.469997,47.985684]]]}},{"type":"Feature","properties":{"cadnum":"4412346700:05:001:0023"},"geometry":{"type":"Polygon","coordinates":[[[39.469104,47.984689],[39.469162,47.984659],[39.469108,47.984611],[39.469049,47.984641],[39.469104,47.984689]]]}},{"type":"Feature","properties":{"cadnum":"4412346700:05:001:0020"},"geometry":{"type":"Polygon","coordinates":[[[39.469257,47.98514],[39.469278,47.985128],[39.469265,47.985116],[39.469242,47.985125],[39.469257,47.98514]]]}},{"type":"Feature","properties":{"cadnum":"4412346700:05:001:0007"},"geometry":{"type":"Polygon","coordinates":[[[39.46997,47.985016],[39.470339,47.98477],[39.47024,47.98471],[39.469871,47.984956],[39.46997,47.985016]]]}},{"type":"Feature","properties":{"cadnum":"4412346700:05:001:0031"},"geometry":{"type":"Polygon","coordinates":[[[39.470253,47.985224],[39.470387,47.985137],[39.469557,47.984545],[39.46953,47.984575],[39.469477,47.984677],[39.469517,47.984689],[39.469584,47.984737],[39.469553,47.984752],[39.469584,47.984782],[39.469615,47.984767],[39.470253,47.985224]]]}},{"type":"Feature","properties":{"cadnum":"4412346700:05:001:0021"},"geometry":{"type":"Polygon","coordinates":[[[39.468875,47.984884],[39.468942,47.98486],[39.468932,47.984845],[39.468865,47.984869],[39.468875,47.984884]]]}},{"type":"Feature","properties":{"cadnum":"4412346700:05:001:0022"},"geometry":{"type":"Polygon","coordinates":[[[39.468915,47.984686],[39.468911,47.984671],[39.468888,47.984671],[39.468888,47.984686],[39.468915,47.984686]]]}},{"type":"Feature","properties":{"cadnum":"4412346700:05:001:0019"},"geometry":{"type":"Polygon","coordinates":[[[39.469628,47.98541],[39.469647,47.985401],[39.469628,47.985386],[39.469611,47.985399],[39.469628,47.98541]]]}},{"type":"Feature","properties":{"cadnum":"4412346700:04:001:0001"},"geometry":{"type":"Polygon","coordinates":[[[39.503042,48.00359],[39.503109,48.003586],[39.503109,48.003568],[39.503132,48.003568],[39.503132,48.003523],[39.503038,48.003526],[39.503042,48.00359]]]}},{"type":"Feature","properties":{"cadnum":"4412346700:02:001:0001"},"geometry":{"type":"Polygon","coordinates":[[[39.477274,48.002219],[39.47731,48.002066],[39.477324,48.002066],[39.477328,48.002039],[39.477247,48.002026],[39.477247,48.002035],[39.477175,48.002057],[39.477071,48.002048],[39.477045,48.002204],[39.477207,48.002216],[39.477207,48.002207],[39.477274,48.002219]]]}},{"type":"Feature","properties":{"cadnum":"4412346700:02:001:0006"},"geometry":{"type":"Polygon","coordinates":[[[39.477857,48.00218],[39.47788,48.002144],[39.477821,48.002126],[39.4778,48.002165],[39.477857,48.00218]]]}},{"type":"Feature","properties":{"cadnum":"4412346700:02:001:0073"},"geometry":{"type":"Polygon","coordinates":[[[39.476959,48.002547],[39.477224,48.002312],[39.477269,48.002237],[39.476626,48.001921],[39.476555,48.001988],[39.476488,48.001981],[39.476286,48.002165],[39.476227,48.002219],[39.476959,48.002547]]]}},{"type":"Feature","properties":{"cadnum":"4412346700:02:001:0050"},"geometry":{"type":"Polygon","coordinates":[[[39.478234,48.002703],[39.478293,48.002574],[39.478001,48.002514],[39.477943,48.002643],[39.478234,48.002703]]]}},{"type":"Feature","properties":{"cadnum":"4412346700:02:001:0057"},"geometry":{"type":"Polygon","coordinates":[[[39.476272,48.002411],[39.476339,48.002354],[39.47629,48.002331],[39.476227,48.002384],[39.476272,48.002411]]]}},{"type":"Feature","properties":{"cadnum":"4412346700:02:001:0052"},"geometry":{"type":"Polygon","coordinates":[[[39.477144,48.001979],[39.477175,48.001948],[39.477198,48.001957],[39.477324,48.001825],[39.477134,48.001747],[39.477121,48.001744],[39.476999,48.001873],[39.477041,48.001888],[39.477018,48.001915],[39.477121,48.001957],[39.477112,48.001966],[39.477144,48.001979]]]}},{"type":"Feature","properties":{"cadnum":"4412346700:02:001:0074"},"geometry":{"type":"Polygon","coordinates":[[[39.478828,48.00203],[39.479003,48.001801],[39.479029,48.001705],[39.479083,48.001558],[39.478869,48.001471],[39.478806,48.001543],[39.478553,48.001955],[39.478828,48.00203]]]}},{"type":"Feature","properties":{"cadnum":"4412346700:02:001:0053"},"geometry":{"type":"Polygon","coordinates":[[[39.477903,48.002177],[39.47793,48.002147],[39.477867,48.002126],[39.477844,48.002156],[39.477903,48.002177]]]}},{"type":"Feature","properties":{"cadnum":"4412346700:02:001:0056"},"geometry":{"type":"Polygon","coordinates":[[[39.475261,48.001657],[39.47536,48.001536],[39.475293,48.001513],[39.475311,48.001492],[39.475248,48.001467],[39.47523,48.001489],[39.475185,48.001471],[39.475087,48.001588],[39.475261,48.001657]]]}},{"type":"Feature","properties":{"cadnum":"4412346700:02:001:0054"},"geometry":{"type":"Polygon","coordinates":[[[39.477125,48.001612],[39.477157,48.001573],[39.477058,48.00154],[39.477031,48.001582],[39.477125,48.001612]]]}},{"type":"Feature","properties":{"cadnum":"4412346700:02:001:0072"},"geometry":{"type":"Polygon","coordinates":[[[39.4781,48.003476],[39.478096,48.003385],[39.477668,48.003277],[39.47766,48.003069],[39.477607,48.003064],[39.477552,48.00346],[39.4781,48.003476]]]}},{"type":"Feature","properties":{"cadnum":"4412346700:02:001:0071"},"geometry":{"type":"Polygon","coordinates":[[[39.477552,48.00346],[39.477607,48.003064],[39.477134,48.003028],[39.477117,48.003193],[39.477188,48.003196],[39.477179,48.003265],[39.477134,48.003289],[39.477117,48.003442],[39.477171,48.003451],[39.477552,48.00346]]]}},{"type":"Feature","properties":{"cadnum":"4412346700:02:001:0004"},"geometry":{"type":"Polygon","coordinates":[[[39.475261,48.001657],[39.47536,48.001536],[39.475293,48.001513],[39.475311,48.001492],[39.475248,48.001467],[39.47523,48.001489],[39.475185,48.001471],[39.475087,48.001588],[39.475261,48.001657]]]}},{"type":"Feature","properties":{"cadnum":"4412346700:02:001:0058"},"geometry":{"type":"Polygon","coordinates":[[[39.476385,48.002456],[39.476442,48.002409],[39.476398,48.002384],[39.476339,48.002436],[39.476385,48.002456]]]}},{"type":"Feature","properties":{"cadnum":"4412346700:03:001:0004"},"geometry":{"type":"Polygon","coordinates":[[[39.472135,47.996539],[39.47227,47.996535],[39.472265,47.996488],[39.472135,47.99649],[39.472135,47.996539]]]}}]}