{"type":"FeatureCollection","features":[{"type":"Feature","properties":{"cadnum":"4420000000:01:222:2222"},"geometry":{"type":"Polygon","coordinates":[[[38.977168,48.703767],[38.977249,48.703642],[38.977302,48.703524],[38.977302,48.703497],[38.977181,48.703462],[38.977015,48.703726],[38.977168,48.703767]]]}},{"type":"Feature","properties":{"cadnum":"4420000000:01:222:1111"},"geometry":{"type":"Polygon","coordinates":[[[38.977015,48.703726],[38.977181,48.703462],[38.976611,48.70329],[38.976436,48.703568],[38.976602,48.703607],[38.977015,48.703726]]]}},{"type":"Feature","properties":{"cadnum":"4420000000:01:001:0027"},"geometry":{"type":"Polygon","coordinates":[[[38.897725,48.770598],[38.897767,48.770368],[38.897362,48.770361],[38.897346062500006,48.770616],[38.897346,48.770616],[38.897344187499904,48.770646000001626],[38.897339,48.770729],[38.897339172916666,48.770729],[38.897317,48.771096],[38.897304,48.771096],[38.897295,48.771173],[38.897662,48.771182],[38.897698,48.770874],[38.897711488372096,48.770729],[38.897712,48.770729],[38.897725,48.770598]]]}}]}