{"type":"FeatureCollection","features":[{"type":"Feature","properties":{"cadnum":"4420355601:01:001:1230"},"geometry":{"type":"Polygon","coordinates":[[[38.94647613580575,48.22757987654252],[38.946619,48.22755],[38.946619,48.22754985084746],[38.946742,48.227524],[38.94659,48.227054],[38.946612,48.227051],[38.946586,48.226997],[38.946482,48.227009],[38.946329,48.227018],[38.945907,48.227105],[38.945475,48.22721],[38.945328,48.227239],[38.94535,48.227297],[38.945507,48.227266],[38.945934,48.227162],[38.946006,48.227147],[38.946028,48.227173],[38.946176,48.227357],[38.94624,48.227335],[38.946356,48.227605],[38.946447,48.227585969581746],[38.946447,48.227586],[38.94647613580575,48.22757987654252]]]}}]}