{"type":"FeatureCollection","features":[{"type":"Feature","properties":{"cadnum":"4420382201:03:002:0303"},"geometry":{"type":"Polygon","coordinates":[[[39.144026,47.959063],[39.143953,47.959222],[39.144201,47.959291676190475],[39.144201,47.959292],[39.144475,47.959369],[39.144578,47.959219],[39.14421842144208,47.9591178983365],[39.144026,47.959063]]]}},{"type":"Feature","properties":{"cadnum":"4420382201:03:002:0302"},"geometry":{"type":"Polygon","coordinates":[[[39.144789,47.959745],[39.145144,47.959444],[39.145706,47.959065],[39.145876,47.958939],[39.145872,47.958936],[39.145876,47.958933],[39.145813,47.958894],[39.145809,47.958897],[39.14575,47.95887],[39.145701,47.958843],[39.145651,47.958813],[39.144991,47.959346],[39.144685,47.959249],[39.144578,47.959219],[39.144475,47.959369],[39.144951,47.959507],[39.144748,47.959725],[39.144789,47.959745]]]}},{"type":"Feature","properties":{"cadnum":"4420382201:01:002:0008"},"geometry":{"type":"Polygon","coordinates":[[[39.144309,47.938392],[39.144133,47.938448],[39.144149,47.938484],[39.14415005263157,47.938484],[39.144169,47.938524],[39.14416,47.938533],[39.144201,47.93864967114095],[39.144201,47.938652],[39.144309,47.938957],[39.144373,47.939149],[39.144373,47.93914798412699],[39.144435,47.939333],[39.144452,47.939541],[39.144775,47.939451],[39.144659,47.939168],[39.144479,47.938638],[39.144412,47.938527],[39.144373,47.938484880000004],[39.144373,47.938484],[39.144362,47.938473],[39.144309,47.938392]]]}},{"type":"Feature","properties":{"cadnum":"4420382201:01:002:0009"},"geometry":{"type":"Polygon","coordinates":[[[39.144488,47.940016],[39.144911,47.939775],[39.144775,47.939451],[39.144452,47.939541],[39.144488,47.940016]]]}}]}