{"type":"FeatureCollection","features":[{"type":"Feature","properties":{"cadnum":"4420557200:16:001:0019"},"geometry":{"type":"Polygon","coordinates":[[[38.710413,48.26062249599389],[38.712457677943156,48.261199],[38.712455,48.261199],[38.713553,48.261507],[38.713436,48.261199],[38.71343590243902,48.261199],[38.713417,48.261149],[38.713457,48.260662],[38.713239,48.259665],[38.713039,48.259224],[38.711813,48.258631],[38.710605,48.258173],[38.710413,48.25809335164835],[38.710413,48.258093],[38.710184,48.257998],[38.710103,48.260535],[38.710413,48.260623],[38.710413,48.26062249599389]]]}}]}