{"type":"FeatureCollection","features":[{"type":"Feature","properties":{"cadnum":"4420600000:02:002:0012"},"geometry":{"type":"Polygon","coordinates":[[[39.271425,49.181256],[39.272129,49.180552],[39.272647,49.180429],[39.272961,49.180115],[39.271532,49.179583],[39.270716,49.18052701619433],[39.270716,49.180527],[39.269648,49.181759],[39.269649075458865,49.181759],[39.268473,49.183118],[39.268622,49.184122],[39.269624,49.183523],[39.270716,49.182379],[39.270716,49.182378489067894],[39.27135188679215,49.18171113722159],[39.271515,49.181541],[39.271425,49.181256]]]}}]}