{"type":"FeatureCollection","features":[{"type":"Feature","properties":{"cadnum":"4421610101:00:001:0701"},"geometry":{"type":"Polygon","coordinates":[[[38.183069,49.106735173913044],[38.183174,49.106758],[38.183214,49.106767],[38.183233,49.106732],[38.183206,49.106726],[38.183269,49.106626],[38.183304,49.106553],[38.182931,49.106476],[38.182042,49.106282],[38.181988,49.106494],[38.182621,49.106638],[38.183069,49.106736],[38.183069,49.106735173913044]]]}},{"type":"Feature","properties":{"cadnum":"4421610101:01:001:0008"},"geometry":{"type":"Polygon","coordinates":[[[38.178216,49.107952],[38.178319,49.107826],[38.177793,49.107605],[38.17765,49.107723],[38.178216,49.107952]]]}},{"type":"Feature","properties":{"cadnum":"4421610101:01:001:0005"},"geometry":{"type":"Polygon","coordinates":[[[38.178485,49.107655],[38.17857,49.107584],[38.17861,49.107549],[38.178768,49.10744],[38.178755,49.107411],[38.178736,49.10739],[38.17866,49.107323],[38.178625,49.107267],[38.178583,49.107226],[38.178503,49.107276],[38.178485,49.107317],[38.178404,49.107337],[38.178422,49.107364],[38.178404,49.107379],[38.178287,49.107394],[38.17822,49.107399],[38.178153,49.107417],[38.17808,49.107431],[38.178166,49.107479],[38.178485,49.107655]]]}},{"type":"Feature","properties":{"cadnum":"4421610101:01:001:0007"},"geometry":{"type":"Polygon","coordinates":[[[38.178134,49.108043],[38.178216,49.107952],[38.17765,49.107723],[38.177547,49.10779],[38.177636,49.107849],[38.178072,49.108017],[38.178134,49.108043]]]}},{"type":"Feature","properties":{"cadnum":"4421610101:00:001:0917"},"geometry":{"type":"Polygon","coordinates":[[[38.181854,49.108493],[38.181858,49.108481],[38.181902,49.108484],[38.181957,49.108375],[38.181795,49.108361],[38.181795,49.108331],[38.181723,49.108329],[38.181665,49.108325],[38.181535,49.108308],[38.181418,49.108279],[38.180384,49.107893],[38.180268,49.107996],[38.181019,49.108258],[38.181422,49.108399],[38.181522,49.108431],[38.181625,49.108446],[38.181625,49.108458],[38.181665,49.108466],[38.181826,49.108481],[38.181826,49.10849],[38.181854,49.108493]]]}},{"type":"Feature","properties":{"cadnum":"4421610101:01:001:0006"},"geometry":{"type":"Polygon","coordinates":[[[38.182424,49.107481],[38.182434,49.107464],[38.182487,49.10739],[38.182491,49.10739],[38.182537,49.107399],[38.182554,49.107373],[38.182505,49.107364],[38.182379,49.107335],[38.182195,49.107291],[38.182061,49.107261],[38.18135,49.107114],[38.181279,49.107223],[38.182137,49.107409],[38.182145,49.107411],[38.182208,49.107423],[38.182222,49.107426],[38.182258,49.107438],[38.182371,49.107466],[38.182397,49.107476],[38.182424,49.107481]]]}},{"type":"Feature","properties":{"cadnum":"4421610101:01:001:0009"},"geometry":{"type":"Polygon","coordinates":[[[38.182451,49.107629],[38.182554,49.107517],[38.182424,49.107481],[38.182397,49.107476],[38.182371,49.107466],[38.182258,49.107438],[38.182222,49.107426],[38.182208,49.107423],[38.182145,49.107411],[38.182137,49.107409],[38.182042,49.107387],[38.181279,49.107223],[38.181189,49.107202],[38.18113,49.107314],[38.181252,49.107352],[38.181751,49.107488],[38.181961,49.107544],[38.182082,49.107567],[38.182208,49.107584],[38.182348,49.107599],[38.182397,49.107614],[38.182451,49.107629]]]}},{"type":"Feature","properties":{"cadnum":"4421610101:01:001:0011"},"geometry":{"type":"Polygon","coordinates":[[[38.182258,49.102363],[38.181846,49.102288],[38.181834,49.102245],[38.181809,49.102221],[38.181414,49.102164],[38.1814,49.102253],[38.18134386440678,49.102589],[38.181343,49.102589],[38.181331,49.102666],[38.181322,49.102702],[38.18132275757576,49.102702],[38.181263,49.102963],[38.181216,49.103131],[38.181129,49.103351],[38.181067,49.103344],[38.181012,49.103399],[38.180985,49.103406],[38.180855,49.103602],[38.180776,49.103654],[38.180708,49.10363],[38.180441,49.103587],[38.180344,49.103696],[38.180299,49.103693],[38.180272,49.103736],[38.180663,49.10381],[38.18073,49.103796],[38.180708,49.103866],[38.180395,49.103798],[38.18023,49.103854],[38.180195,49.103894],[38.180091,49.104056],[38.179847,49.104296],[38.179747,49.104395],[38.179641,49.104606],[38.179615,49.104616],[38.179467,49.104777],[38.179391,49.104944],[38.179311,49.105127],[38.179223,49.105304],[38.179151,49.105481],[38.179106,49.105658],[38.179503,49.105734],[38.179483,49.10579],[38.179424,49.105949],[38.179369,49.106054],[38.179066,49.105985],[38.17925252118644,49.106186],[38.179251,49.106186],[38.179285,49.106221],[38.179362,49.106348],[38.179392,49.106413],[38.179444,49.106425],[38.179377,49.106589],[38.179374,49.106743],[38.179299,49.107056],[38.179432,49.107089],[38.179259,49.10762],[38.179244,49.107697],[38.179568,49.107892],[38.179564,49.107906],[38.179774,49.108019],[38.179852,49.108036],[38.179957,49.107905],[38.180297,49.107994],[38.180906,49.106949],[38.181331,49.107065],[38.181451,49.106832],[38.181676,49.106357],[38.181738227273016,49.106213204544794],[38.181971,49.105683],[38.182136,49.105161],[38.182287,49.104545],[38.182314,49.104466],[38.182371,49.104326],[38.182399,49.10416],[38.182485,49.103373],[38.182074,49.103324],[38.182214,49.102589],[38.182258,49.102363]]]}},{"type":"Feature","properties":{"cadnum":"4421610101:01:001:0016"},"geometry":{"type":"Polygon","coordinates":[[[38.182258,49.102362],[38.181845,49.102289],[38.181835,49.102244],[38.181809,49.102221],[38.181413,49.102165],[38.1814,49.102253],[38.181332,49.102665],[38.181323,49.102702],[38.18132303030303,49.102702],[38.18126,49.102962],[38.181216,49.103129],[38.18113,49.103351],[38.181067,49.103344],[38.181013,49.103397],[38.180986,49.103406],[38.180856,49.1036],[38.180776,49.103656],[38.180709,49.10363],[38.180439,49.103588],[38.180344,49.103697],[38.1803,49.103695],[38.180273,49.103735],[38.180663,49.103809],[38.18073,49.103797],[38.180709,49.103865],[38.180394,49.103797],[38.180233,49.103853],[38.180197,49.103894],[38.180088,49.104056],[38.179845,49.104297],[38.179747,49.104397],[38.179639,49.104606],[38.179617,49.104615],[38.179468,49.104776],[38.179392,49.104944],[38.179311,49.105127],[38.179222,49.105303],[38.179149,49.105482],[38.179105,49.105659],[38.179505,49.105735],[38.179482,49.10579],[38.179424,49.105947],[38.179369,49.106053],[38.179065,49.105985],[38.17925317021277,49.106186],[38.179252,49.106186],[38.179285,49.10622],[38.179332,49.106298],[38.17933204761905,49.106298],[38.179361,49.106346],[38.179392,49.106414],[38.179446,49.106426],[38.179379,49.10659],[38.179374,49.106744],[38.179298,49.107056],[38.179432,49.107087],[38.179258,49.10762],[38.179244,49.107697],[38.179568,49.107893],[38.179562,49.107905],[38.179774,49.10802],[38.179851,49.108037],[38.179958,49.107905],[38.1803,49.107993],[38.180906,49.106949],[38.181332,49.107064],[38.181449,49.106832],[38.181674,49.106356],[38.181699929411764,49.106298],[38.1817,49.106298],[38.18170627799225,49.106283799227874],[38.18175,49.106186],[38.18174951386623,49.106186],[38.181971,49.105685],[38.182137,49.105162],[38.182289,49.104544],[38.182312,49.104465],[38.182371,49.104327],[38.182397,49.104159],[38.182482,49.103373],[38.182074,49.103324],[38.182214,49.102589],[38.182213935294115,49.102589],[38.182258,49.102362]],[[38.180191,49.105788],[38.18052,49.105862],[38.180453,49.106008],[38.18012,49.105938],[38.180191,49.105788]],[[38.180174,49.106764],[38.180533,49.106847],[38.180474,49.106988],[38.180115,49.106912],[38.180174,49.106764]]]}},{"type":"Feature","properties":{"cadnum":"4421610101:01:001:0012"},"geometry":{"type":"Polygon","coordinates":[[[38.182352,49.107773],[38.182442,49.107655],[38.182325,49.107632],[38.182069,49.107579],[38.182002,49.107567],[38.181971,49.107561],[38.181961,49.107558],[38.181216,49.10734],[38.181117,49.10747],[38.181755,49.107632],[38.181902,49.10767],[38.181961,49.107684],[38.182352,49.107773]]]}},{"type":"Feature","properties":{"cadnum":"4421610101:00:001:0806"},"geometry":{"type":"Polygon","coordinates":[[[38.18268,49.107405],[38.182765,49.107291],[38.182667,49.107255],[38.18259,49.107381],[38.18268,49.107405]]]}},{"type":"Feature","properties":{"cadnum":"4421610101:01:001:0014"},"geometry":{"type":"Polygon","coordinates":[[[38.180474,49.106988],[38.180533,49.106847],[38.180174,49.106764],[38.180115,49.106912],[38.180474,49.106988]]]}},{"type":"Feature","properties":{"cadnum":"4421610101:01:001:0001"},"geometry":{"type":"Polygon","coordinates":[[[38.18216662280702,49.106186],[38.182165,49.106186],[38.182155,49.106211],[38.182898,49.10635664768212],[38.182898,49.106357],[38.18291,49.106359],[38.183069,49.106388],[38.183069,49.106387592105264],[38.183138,49.1064],[38.183372,49.106426],[38.183421,49.106211],[38.183183,49.106191],[38.183166,49.10625],[38.18301243795756,49.106225934306785],[38.182208,49.106097],[38.18216662280702,49.106186]]]}},{"type":"Feature","properties":{"cadnum":"4421610101:01:001:0004"},"geometry":{"type":"Polygon","coordinates":[[[38.178319,49.107826],[38.178485,49.107655],[38.178166,49.107479],[38.17778,49.107599],[38.178319,49.107826]]]}},{"type":"Feature","properties":{"cadnum":"4421610101:01:023:0007"},"geometry":{"type":"Polygon","coordinates":[[[38.194533,49.091045],[38.194699,49.090801],[38.194466,49.090716],[38.19434,49.090669],[38.194214,49.090625],[38.19407,49.090625],[38.193884,49.090954],[38.193884,49.09095422413794],[38.193824,49.09106],[38.193738,49.091331],[38.193711,49.091386],[38.193663,49.091469],[38.193608,49.091551],[38.1935,49.091728],[38.19337,49.091787],[38.19336303225806,49.091799],[38.193362,49.091799],[38.193324181818205,49.09186590909087],[38.193298,49.091911],[38.193298695652175,49.091911],[38.193258,49.091983],[38.193365,49.092013],[38.192992,49.092672],[38.193042,49.092683],[38.19293,49.092863],[38.192678,49.093254],[38.192405,49.093468],[38.192013,49.094007],[38.191879,49.09436],[38.191749,49.094693],[38.191726,49.095154],[38.191635079096045,49.095396],[38.191635,49.095396],[38.191626449101676,49.095418970060194],[38.191593,49.095508],[38.19159330656934,49.095508],[38.19138,49.096081],[38.191294,49.096354],[38.190944,49.097481],[38.190895,49.097666],[38.190864,49.097771],[38.190805,49.097889],[38.190667,49.098159],[38.190585,49.098298],[38.190321,49.098372],[38.189887,49.099105],[38.18988811764706,49.099105],[38.189804,49.099248],[38.189579,49.099463],[38.189508,49.099536],[38.188609,49.100386],[38.18849337425605,49.10051276400369],[38.188003,49.101047],[38.18763,49.101453],[38.187374,49.101974],[38.186975,49.102401],[38.1869112923588,49.102589],[38.18691,49.102589],[38.186705,49.103198],[38.18652,49.103597],[38.18634,49.103924],[38.186309,49.103977],[38.186277,49.104035],[38.18616,49.104262],[38.186099,49.104438],[38.185941,49.104973],[38.185856,49.105215],[38.185806,49.10533],[38.185761,49.105491],[38.185717,49.105641],[38.185623,49.105632],[38.185483,49.106073],[38.185474,49.106112],[38.18545052688172,49.106186],[38.18545,49.106186],[38.18542906501561,49.1062536594423],[38.185415,49.106298],[38.18541534529148,49.106298],[38.185312,49.106632],[38.184908,49.107867],[38.184885,49.107946],[38.184581,49.10856],[38.184292,49.109043],[38.184445,49.109061],[38.184571,49.109072],[38.184935,49.109113],[38.185298,49.10827],[38.18534,49.107869],[38.185353,49.107714],[38.185434,49.107438],[38.185464,49.10734],[38.18547,49.10732],[38.185671,49.10674],[38.185811418772566,49.106298],[38.185812,49.106298],[38.185851,49.106176],[38.186036,49.105615],[38.186026,49.105335],[38.186134,49.105077],[38.186323,49.104336],[38.186395,49.104156],[38.186633,49.103735],[38.186718,49.103582],[38.186835,49.103397],[38.186871,49.103329],[38.186885,49.1033],[38.186948,49.103185],[38.187279,49.102653],[38.187504,49.102303],[38.187778,49.10196],[38.188391,49.101486362480124],[38.188391,49.101487],[38.188407,49.101474],[38.188914,49.100916],[38.189625,49.100071],[38.189548,49.100039],[38.18957,49.100016],[38.189642,49.099951],[38.189722,49.099866],[38.189839,49.099912],[38.190164,49.099607],[38.190482,49.099275],[38.190518,49.099227],[38.19059985470085,49.099105],[38.1906,49.099105],[38.19068,49.098987],[38.190783,49.098801],[38.19094,49.098507],[38.190743,49.098462],[38.191106,49.097725],[38.191533,49.097328],[38.191843,49.096513],[38.192171,49.095536],[38.1921804,49.095508],[38.192181,49.095508],[38.192499,49.094557],[38.192621,49.094242],[38.193015,49.093533],[38.193447,49.092851],[38.193787,49.092284],[38.193621,49.092242],[38.193766,49.092036],[38.193884,49.09188149171271],[38.193884,49.091882],[38.194107,49.091593],[38.194349,49.091251],[38.194533,49.091045]]]}},{"type":"Feature","properties":{"cadnum":"4421610101:01:019:0002"},"geometry":{"type":"Polygon","coordinates":[[[38.193034,49.091802],[38.193128,49.091639],[38.192602,49.091516],[38.192705,49.091331],[38.192525,49.091286],[38.192323,49.091701],[38.193034,49.091802]]]}},{"type":"Feature","properties":{"cadnum":"4421610101:01:019:0003"},"geometry":{"type":"Polygon","coordinates":[[[38.192566,49.091766],[38.192233,49.09171],[38.19221090780142,49.091799],[38.19221,49.091799],[38.192198,49.091851],[38.192441,49.09191],[38.192566,49.091766]]]}},{"type":"Feature","properties":{"cadnum":"4421610101:00:019:0310"},"geometry":{"type":"Polygon","coordinates":[[[38.192822,49.09136],[38.192938,49.091168],[38.192818,49.091145],[38.192705,49.091331],[38.192822,49.09136]]]}},{"type":"Feature","properties":{"cadnum":"4421610101:01:023:0005"},"geometry":{"type":"Polygon","coordinates":[[[38.192323,49.091701],[38.192516,49.09131],[38.192116,49.091246],[38.191959,49.091586],[38.192013,49.09166],[38.192323,49.091701]]]}},{"type":"Feature","properties":{"cadnum":"4421610101:00:019:0309"},"geometry":{"type":"Polygon","coordinates":[[[38.193604,49.091545],[38.193738,49.091331],[38.193365,49.091251],[38.192938,49.091168],[38.192822,49.09136],[38.193191,49.091451],[38.193604,49.091545]]]}},{"type":"Feature","properties":{"cadnum":"4421610101:01:019:0001"},"geometry":{"type":"Polygon","coordinates":[[[38.193491,49.091728],[38.193523,49.091672],[38.193604,49.091545],[38.193191,49.091451],[38.192822,49.09136],[38.192705,49.091331],[38.192602,49.091516],[38.193128,49.091639],[38.193491,49.091728]]]}},{"type":"Feature","properties":{"cadnum":"4421610101:01:023:0004"},"geometry":{"type":"Polygon","coordinates":[[[38.192139,49.091707],[38.191986,49.091686],[38.191864,49.091911],[38.19186530456852,49.091911],[38.19182,49.091996],[38.191955,49.092025],[38.192061363636356,49.0918400909091],[38.192139,49.091707]]]}},{"type":"Feature","properties":{"cadnum":"4421610101:01:021:0002"},"geometry":{"type":"Polygon","coordinates":[[[38.188699,49.091845],[38.188659,49.091889],[38.188635,49.091911],[38.188635450704226,49.091911],[38.188583,49.09196],[38.188802,49.092033],[38.188927,49.091904],[38.188699,49.091845]]]}},{"type":"Feature","properties":{"cadnum":"4421610101:00:020:0209"},"geometry":{"type":"Polygon","coordinates":[[[38.190944,49.090792],[38.191147,49.09028],[38.19085,49.090239],[38.190787,49.090233],[38.190747,49.090228],[38.190697,49.090378],[38.190738,49.090383],[38.190697,49.090572],[38.190648,49.090736],[38.19064,49.09076],[38.190944,49.090792]]]}},{"type":"Feature","properties":{"cadnum":"4421610101:00:021:0203"},"geometry":{"type":"Polygon","coordinates":[[[38.189342,49.09178],[38.189323,49.091799],[38.189211,49.091911],[38.18921194276094,49.091911],[38.188734,49.092393],[38.188694,49.092448],[38.188493,49.092687],[38.188627,49.092739],[38.18878,49.092598],[38.189418,49.091931],[38.189516,49.091819],[38.189342,49.09178]]]}},{"type":"Feature","properties":{"cadnum":"4421610101:00:020:0210"},"geometry":{"type":"Polygon","coordinates":[[[38.190833,49.091074],[38.190944,49.090792],[38.19064,49.09076],[38.190518,49.091028],[38.190833,49.091074]]]}},{"type":"Feature","properties":{"cadnum":"4421610101:00:020:0205"},"geometry":{"type":"Polygon","coordinates":[[[38.191416,49.090662],[38.19152,49.090404],[38.191596,49.090228],[38.191196,49.09016],[38.191021,49.090598],[38.191416,49.090662]]]}},{"type":"Feature","properties":{"cadnum":"4421610101:01:023:0006"},"geometry":{"type":"Polygon","coordinates":[[[38.191996,49.091654],[38.191946,49.091586],[38.192076,49.091298],[38.19147,49.09121],[38.191326,49.091586],[38.191996,49.091654]]]}},{"type":"Feature","properties":{"cadnum":"4421610101:00:020:0206"},"geometry":{"type":"Polygon","coordinates":[[[38.191304,49.090995],[38.191416,49.090662],[38.191021,49.090598],[38.190994,49.090671],[38.190881,49.090951],[38.191304,49.090995]]]}},{"type":"Feature","properties":{"cadnum":"4421610101:01:007:0006"},"geometry":{"type":"Polygon","coordinates":[[[38.189916,49.103762],[38.190109,49.103306],[38.189849,49.103283],[38.189714,49.103577],[38.189655,49.103715],[38.189916,49.103762]]]}},{"type":"Feature","properties":{"cadnum":"4421610101:01:005:0002"},"geometry":{"type":"Polygon","coordinates":[[[38.188456,49.10383],[38.18855,49.103641],[38.188281,49.103588],[38.188267,49.103609],[38.188183,49.103776],[38.187962,49.104188],[38.18825,49.104244],[38.188391,49.103960631067956],[38.188391,49.103962],[38.188456,49.10383]]]}},{"type":"Feature","properties":{"cadnum":"4421610101:00:008:0117"},"geometry":{"type":"Polygon","coordinates":[[[38.194367,49.102412],[38.194107,49.102309],[38.194093,49.102324],[38.193946,49.102533],[38.193900739726026,49.102589],[38.1939,49.102589],[38.193887,49.102606],[38.193884,49.10261],[38.193815,49.102702],[38.19381591603053,49.102702],[38.193693,49.102868],[38.193884,49.10292687969925],[38.193884,49.102927],[38.193959,49.10295],[38.194056,49.102819],[38.194056,49.10281882383419],[38.194152,49.102689],[38.194367,49.102412]]]}},{"type":"Feature","properties":{"cadnum":"4421610101:01:007:0002"},"geometry":{"type":"Polygon","coordinates":[[[38.191933,49.103617],[38.192206,49.103103],[38.192265,49.102956],[38.192072,49.10293],[38.191942,49.1029],[38.191676,49.103418],[38.191403,49.103371],[38.191304,49.103532],[38.191592,49.10358],[38.191888,49.103612],[38.191933,49.103617]]]}},{"type":"Feature","properties":{"cadnum":"4421610101:01:007:0011"},"geometry":{"type":"Polygon","coordinates":[[[38.193896,49.104241],[38.193994,49.104024],[38.193711,49.10397],[38.193621,49.104186],[38.193523,49.104415],[38.193527,49.104417],[38.193797,49.104471],[38.193884,49.10426887878789],[38.193884,49.104269],[38.193896,49.104241]]]}},{"type":"Feature","properties":{"cadnum":"4421610101:00:005:0213"},"geometry":{"type":"Polygon","coordinates":[[[38.18904,49.104476],[38.189202,49.104094],[38.189332,49.103785],[38.189072,49.103741],[38.188963,49.104006],[38.188789,49.104438],[38.18904,49.104476]]]}},{"type":"Feature","properties":{"cadnum":"4421610101:01:007:0003"},"geometry":{"type":"Polygon","coordinates":[[[38.189418,49.103712],[38.189426,49.103689],[38.189431,49.103676],[38.189462,49.103591],[38.189476,49.103562],[38.189503,49.103497],[38.189646,49.103162],[38.1893,49.103109],[38.189246,49.1032],[38.189363,49.103218],[38.189238,49.103553],[38.189225,49.103553],[38.189197,49.103621],[38.189206,49.103621],[38.189189,49.103674],[38.189418,49.103712]]]}},{"type":"Feature","properties":{"cadnum":"4421610101:01:007:0009"},"geometry":{"type":"Polygon","coordinates":[[[38.191682,49.104083],[38.191772,49.103876],[38.19187,49.103641],[38.191583,49.103595],[38.191489,49.103826],[38.191407,49.104033],[38.191682,49.104083]]]}},{"type":"Feature","properties":{"cadnum":"4421610101:01:007:0005"},"geometry":{"type":"Polygon","coordinates":[[[38.192849,49.103797],[38.192961,49.103591],[38.192629,49.103506],[38.192495,49.103735],[38.192849,49.103797]]]}},{"type":"Feature","properties":{"cadnum":"4421610101:01:007:0007"},"geometry":{"type":"Polygon","coordinates":[[[38.19169,49.102488],[38.1912,49.102401],[38.191156,49.102518],[38.1911282173913,49.102589],[38.191128,49.102589],[38.19110706250009,49.10264306249978],[38.191084,49.102702],[38.191084236994215,49.102702],[38.191061,49.102762],[38.191246,49.102795],[38.191529,49.102841],[38.19159188095238,49.102702],[38.191592,49.102702],[38.19169,49.102488]]]}},{"type":"Feature","properties":{"cadnum":"4421610101:01:007:0010"},"geometry":{"type":"Polygon","coordinates":[[[38.188562,49.10354589130435],[38.188583,49.10355],[38.188591,49.10353],[38.188672,49.103347],[38.188694,49.103294],[38.18878,49.103098],[38.188506,49.103035],[38.188397,49.103312],[38.188376,49.103362],[38.188334,49.103453],[38.188317,49.103495],[38.188313,49.103503],[38.188361,49.103515],[38.188367,49.103503],[38.188391,49.10350836470589],[38.188391,49.103509],[38.188537,49.103541],[38.188562,49.103546],[38.188562,49.10354589130435]]]}},{"type":"Feature","properties":{"cadnum":"4421610101:01:008:0003"},"geometry":{"type":"Polygon","coordinates":[[[38.193946,49.102533],[38.194056,49.102378],[38.194056,49.102376605442174],[38.194093,49.102324],[38.19399888079492,49.10229517880801],[38.193806,49.102235],[38.193608,49.102527],[38.193566548571425,49.102589],[38.193566,49.102589],[38.193433,49.102789],[38.193693,49.102868],[38.193887,49.102606],[38.193946,49.102533]]]}},{"type":"Feature","properties":{"cadnum":"4421610101:01:007:0004"},"geometry":{"type":"Polygon","coordinates":[[[38.192961,49.103591],[38.193101,49.103342],[38.193181,49.103188],[38.193227,49.103109],[38.192881,49.10303],[38.192755,49.103262],[38.192629,49.103506],[38.192961,49.103591]]]}},{"type":"Feature","properties":{"cadnum":"4421610101:00:007:0805"},"geometry":{"type":"Polygon","coordinates":[[[38.18851,49.103035],[38.188245,49.102989],[38.188051,49.103444],[38.188317,49.103491],[38.188391,49.10331616062175],[38.188391,49.103317],[38.18851,49.103035]]]}},{"type":"Feature","properties":{"cadnum":"4421610101:01:007:0001"},"geometry":{"type":"Polygon","coordinates":[[[38.192179,49.103674],[38.192525,49.103053],[38.192252,49.102994],[38.192193,49.103129],[38.191923,49.103645],[38.192179,49.103674]]]}},{"type":"Feature","properties":{"cadnum":"4421610101:01:007:0008"},"geometry":{"type":"Polygon","coordinates":[[[38.191214,49.10353],[38.191529,49.102841],[38.191246,49.102795],[38.191061,49.102762],[38.190814,49.103397],[38.190931,49.103423],[38.190923,49.103451],[38.191053,49.103509],[38.191214,49.10353]]]}},{"type":"Feature","properties":{"cadnum":"4421610101:00:014:0209"},"geometry":{"type":"Polygon","coordinates":[[[38.194772,49.097651],[38.194919,49.097463],[38.195328,49.096989],[38.195082,49.096892],[38.194906,49.097098],[38.194659,49.097398],[38.194529,49.097563],[38.194772,49.097651]]]}},{"type":"Feature","properties":{"cadnum":"4421610101:01:017:0003"},"geometry":{"type":"Polygon","coordinates":[[[38.197533,49.09638],[38.197762,49.096057],[38.197345,49.095933],[38.197009,49.096225],[38.197533,49.09638]]]}},{"type":"Feature","properties":{"cadnum":"4421610101:00:014:0517"},"geometry":{"type":"Polygon","coordinates":[[[38.195634,49.096772],[38.196124,49.096242],[38.196181,49.096177],[38.195881,49.096013],[38.195638,49.09623],[38.195305,49.096607],[38.195634,49.096772]]]}},{"type":"Feature","properties":{"cadnum":"4421610101:01:014:0005"},"geometry":{"type":"Polygon","coordinates":[[[38.194353,49.096731],[38.19451,49.096559],[38.19412,49.09646],[38.1939,49.096757],[38.194056,49.096818],[38.194056,49.09681721884498],[38.194229,49.096884],[38.194353,49.096731]],[[38.194286,49.096727],[38.1943,49.09671],[38.194322,49.096718],[38.194313,49.096733],[38.194286,49.096727]]]}},{"type":"Feature","properties":{"cadnum":"4421610101:01:013:0001"},"geometry":{"type":"Polygon","coordinates":[[[38.198082,49.098763],[38.197673,49.098619],[38.19746058252427,49.098993],[38.197459,49.098993],[38.197439,49.099031],[38.197652,49.099105],[38.19765214529915,49.099105],[38.197776,49.099148],[38.197869512690424,49.09902919289332],[38.198082,49.098763]]]}},{"type":"Feature","properties":{"cadnum":"4421610101:01:014:0004"},"geometry":{"type":"Polygon","coordinates":[[[38.193634,49.096668],[38.193374,49.097045],[38.19333,49.097113],[38.1936,49.097193],[38.193841,49.097265],[38.193884,49.09727672727272],[38.193884,49.097278],[38.193896,49.09728],[38.193904,49.097283],[38.193967,49.097189],[38.194056,49.097091],[38.194056,49.09708901234567],[38.194129,49.097007],[38.194229,49.096884],[38.1939,49.096757],[38.193634,49.096668]],[[38.194056,49.097049],[38.194034,49.097042],[38.194049,49.097028],[38.194076,49.097036],[38.194062,49.097051],[38.194056,49.09704907142857],[38.194056,49.097049]]]}},{"type":"Feature","properties":{"cadnum":"4421610101:00:010:0313"},"geometry":{"type":"Polygon","coordinates":[[[38.19421,49.099098],[38.194516,49.098689],[38.194206,49.098592],[38.194187,49.098606],[38.19402018709606,49.098791531183586],[38.193873,49.098954],[38.19384902752294,49.098993],[38.193849,49.098993],[38.193806,49.099063],[38.193771,49.099105],[38.193771746397694,49.099105],[38.193523,49.09941],[38.19377,49.099495],[38.193884,49.09936386013986],[38.193884,49.099364],[38.19389678350507,49.09934915463928],[38.194056,49.099166],[38.194056,49.09916425806451],[38.19407,49.099148],[38.194147,49.099066],[38.19421,49.099098]]]}},{"type":"Feature","properties":{"cadnum":"4421610101:01:013:0003"},"geometry":{"type":"Polygon","coordinates":[[[38.197066,49.099027],[38.197305,49.098692],[38.197322,49.098669],[38.19734,49.098642],[38.197412,49.098539],[38.197188,49.098475],[38.197156,49.098466],[38.197139,49.09846],[38.19703,49.09861],[38.196789,49.098948],[38.197066,49.099027]]]}},{"type":"Feature","properties":{"cadnum":"4421610101:01:014:0007"},"geometry":{"type":"Polygon","coordinates":[[[38.196254,49.097045],[38.196326,49.096881],[38.195715,49.096686],[38.195634,49.096772],[38.195548,49.096866],[38.195934,49.09701],[38.196254,49.097045]]]}},{"type":"Feature","properties":{"cadnum":"4421610101:01:015:0002"},"geometry":{"type":"Polygon","coordinates":[[[38.197862,49.09771],[38.198014,49.097598],[38.198234,49.097422],[38.198064,49.097322],[38.197992,49.097269],[38.197726,49.097525],[38.197632,49.097604],[38.197862,49.09771]]]}},{"type":"Feature","properties":{"cadnum":"4421610101:01:014:0009"},"geometry":{"type":"Polygon","coordinates":[[[38.194056,49.09639890909091],[38.19417,49.09643],[38.194179,49.096415],[38.194282,49.096239],[38.19398,49.096166],[38.19386,49.096345],[38.193884,49.096351734693876],[38.193884,49.096352],[38.19391764705924,49.0963611764707],[38.194056,49.0964],[38.194056,49.09639890909091]]]}},{"type":"Feature","properties":{"cadnum":"4421610101:01:017:0004"},"geometry":{"type":"Polygon","coordinates":[[[38.198208,49.096189],[38.198347,49.095948],[38.198369,49.095907],[38.197638,49.095683],[38.197345,49.095933],[38.197762,49.096057],[38.198208,49.096189]]]}},{"type":"Feature","properties":{"cadnum":"4421610101:00:017:0309"},"geometry":{"type":"Polygon","coordinates":[[[38.195818,49.09536],[38.19593,49.095201],[38.196173,49.094833],[38.195778,49.094736],[38.195629,49.094951],[38.195539,49.095077],[38.195332,49.095378],[38.195719,49.095504],[38.195818,49.09536]]]}},{"type":"Feature","properties":{"cadnum":"4421610101:00:017:0605"},"geometry":{"type":"Polygon","coordinates":[[[38.198315,49.096578],[38.198634,49.096031],[38.198347,49.095948],[38.198158,49.096269],[38.198037,49.09653],[38.198315,49.096578]]]}},{"type":"Feature","properties":{"cadnum":"4421610101:01:015:0004"},"geometry":{"type":"Polygon","coordinates":[[[38.197642,49.097633],[38.197732,49.097548],[38.197498,49.097448],[38.197403,49.097551],[38.197642,49.097633]]]}},{"type":"Feature","properties":{"cadnum":"4421610101:00:014:0420"},"geometry":{"type":"Polygon","coordinates":[[[38.19421,49.095833],[38.194363,49.09561],[38.194084,49.095536],[38.194089,49.09553],[38.194026,49.095513],[38.193563,49.096225],[38.193518,49.096293],[38.193689,49.096343],[38.193707,49.096315],[38.193856,49.096348],[38.194056,49.096058],[38.194056,49.09605691411042],[38.19421,49.095833]]]}},{"type":"Feature","properties":{"cadnum":"4421610101:01:014:0006"},"geometry":{"type":"Polygon","coordinates":[[[38.196326,49.096881],[38.196437,49.096578],[38.19647,49.096498],[38.196491,49.096378],[38.196456,49.096301],[38.196181,49.096177],[38.196124,49.096242],[38.195984,49.096393],[38.195715,49.096686],[38.196326,49.096881]]]}},{"type":"Feature","properties":{"cadnum":"4421610101:01:014:0003"},"geometry":{"type":"Polygon","coordinates":[[[38.194449,49.097454],[38.194579,49.097292],[38.194825,49.096989],[38.194879,49.09693],[38.194596,49.096819],[38.194313,49.097198],[38.194273,49.097251],[38.194196,49.097366],[38.194449,49.097454]]]}},{"type":"Feature","properties":{"cadnum":"4421610101:01:014:0008"},"geometry":{"type":"Polygon","coordinates":[[[38.194282,49.096239],[38.194615,49.095683],[38.194615,49.09568],[38.194628,49.095666],[38.194573,49.095651],[38.194367,49.095601],[38.194363,49.09561],[38.19421,49.095833],[38.19398,49.096166],[38.194282,49.096239]]]}},{"type":"Feature","properties":{"cadnum":"4421610101:01:017:0008"},"geometry":{"type":"Polygon","coordinates":[[[38.19952206024094,49.096255202409665],[38.199549,49.096223],[38.199549,49.09622274],[38.199577,49.096189],[38.19946953731473,49.09614977611988],[38.199307,49.09609],[38.199061,49.096393],[38.198867,49.096633],[38.199087,49.096689],[38.19916,49.096707],[38.199213,49.096613],[38.19924,49.096618],[38.199286,49.096545],[38.199303,49.096522],[38.199334,49.09648],[38.199377,49.0964286],[38.199377,49.09643],[38.19952206024094,49.096255202409665]]]}},{"type":"Feature","properties":{"cadnum":"4421610101:00:015:0518"},"geometry":{"type":"Polygon","coordinates":[[[38.198315,49.09773],[38.198481,49.097557],[38.198234,49.097422],[38.198014,49.097598],[38.198315,49.09773]]]}},{"type":"Feature","properties":{"cadnum":"4421610101:00:014:0505"},"geometry":{"type":"Polygon","coordinates":[[[38.194403,49.096498],[38.194785,49.096027],[38.194929,49.095737],[38.194628,49.095666],[38.194166,49.096433],[38.194403,49.096498]]]}},{"type":"Feature","properties":{"cadnum":"4421610101:01:015:0003"},"geometry":{"type":"Polygon","coordinates":[[[38.197732,49.097548],[38.197974,49.097324],[38.198095,49.097189],[38.198238,49.097036],[38.197965,49.096934],[38.197825,49.097089],[38.197498,49.097448],[38.197732,49.097548]]]}},{"type":"Feature","properties":{"cadnum":"4421610101:00:017:0606"},"geometry":{"type":"Polygon","coordinates":[[[38.198634,49.096031],[38.198657,49.095986],[38.198369,49.095907],[38.198347,49.095948],[38.198634,49.096031]]]}},{"type":"Feature","properties":{"cadnum":"4421610101:01:017:0002"},"geometry":{"type":"Polygon","coordinates":[[[38.198037,49.09653],[38.198158,49.096269],[38.198208,49.096189],[38.197762,49.096057],[38.197533,49.09638],[38.198037,49.09653]]]}},{"type":"Feature","properties":{"cadnum":"4421610101:01:015:0001"},"geometry":{"type":"Polygon","coordinates":[[[38.198244,49.097413],[38.198458,49.097237],[38.198535,49.097165],[38.198208,49.097034],[38.198055,49.097213],[38.198001,49.09726],[38.198072,49.097316],[38.198244,49.097413]]]}},{"type":"Feature","properties":{"cadnum":"4421610101:00:015:0517"},"geometry":{"type":"Polygon","coordinates":[[[38.198487,49.097551],[38.198787,49.097242],[38.198562,49.097143],[38.198458,49.097237],[38.198244,49.097413],[38.198487,49.097551]]]}},{"type":"Feature","properties":{"cadnum":"4421610101:01:014:0010"},"geometry":{"type":"Polygon","coordinates":[[[38.194056,49.096547],[38.194056,49.096546399999994],[38.19412,49.09646],[38.193973205741166,49.096417081339574],[38.19385,49.09638],[38.193634,49.096668],[38.193884,49.09675164661654],[38.193884,49.096752],[38.1939,49.096757],[38.194056,49.096547]]]}},{"type":"Feature","properties":{"cadnum":"4421610101:01:013:0002"},"geometry":{"type":"Polygon","coordinates":[[[38.197396,49.099105],[38.19739678360656,49.099105],[38.197265,49.099336],[38.197561,49.099419],[38.197776,49.099148],[38.197439,49.099031],[38.197396,49.099105]]]}},{"type":"Feature","properties":{"cadnum":"4421610101:00:009:0205"},"geometry":{"type":"Polygon","coordinates":[[[38.185021,49.098263],[38.185141,49.098004],[38.185847,49.096569],[38.185694,49.096537],[38.184971,49.09796],[38.184908,49.098074],[38.184849,49.098213],[38.184975,49.098248],[38.185021,49.098263]]]}},{"type":"Feature","properties":{"cadnum":"4421610101:00:009:0209"},"geometry":{"type":"Polygon","coordinates":[[[38.184849,49.098213],[38.184908,49.098074],[38.184971,49.09796],[38.185371,49.097169],[38.185097,49.097115],[38.184675,49.097969],[38.184566,49.09813],[38.184607,49.098142],[38.184849,49.098213]]]}},{"type":"Feature","properties":{"cadnum":"4421610101:00:009:0206"},"geometry":{"type":"Polygon","coordinates":[[[38.185847,49.096569],[38.18595,49.096369],[38.185793,49.096336],[38.185694,49.096537],[38.185847,49.096569]]]}},{"type":"Feature","properties":{"cadnum":"4421610101:01:010:0001"},"geometry":{"type":"Polygon","coordinates":[[[38.187382,49.098715],[38.187738,49.098227],[38.187518,49.098174],[38.187046,49.098616],[38.187382,49.098715]]]}},{"type":"Feature","properties":{"cadnum":"4421610101:00:009:0210"},"geometry":{"type":"Polygon","coordinates":[[[38.185371,49.097169],[38.185793,49.096336],[38.18551,49.09628],[38.185097,49.097115],[38.185371,49.097169]]]}},{"type":"Feature","properties":{"cadnum":"4421610101:01:009:0004"},"geometry":{"type":"Polygon","coordinates":[[[38.183069,49.0980315638051],[38.183484,49.098124],[38.183529,49.09806],[38.183552,49.098022],[38.18352,49.098013],[38.183323,49.097974],[38.18312,49.097921],[38.18294,49.097863],[38.182898,49.097849],[38.182898,49.0978498588957],[38.182451,49.09771],[38.182338,49.097795],[38.182438,49.09783],[38.182898,49.097978097560976],[38.182898,49.097979],[38.183053,49.098028],[38.183069,49.098032],[38.183069,49.0980315638051]]]}},{"type":"Feature","properties":{"cadnum":"4421610101:01:009:0006"},"geometry":{"type":"Polygon","coordinates":[[[38.183179,49.097592],[38.18347,49.09766],[38.183812,49.097039],[38.183537,49.096966],[38.182898,49.097404],[38.182898,49.09740404368932],[38.182451,49.09771],[38.18294,49.097863],[38.183013,49.097886],[38.183069,49.097787],[38.183069,49.09778681927711],[38.183179,49.097592]]]}},{"type":"Feature","properties":{"cadnum":"4421610101:01:009:0007"},"geometry":{"type":"Polygon","coordinates":[[[38.183069,49.09874299438202],[38.183076,49.098745],[38.183097,49.098751],[38.183103,49.098748],[38.183116,49.098721],[38.183187,49.098613],[38.18321,49.09858],[38.183179,49.098571],[38.182999491400466,49.09851797788697],[38.182864,49.098477],[38.182814,49.098462],[38.18233,49.098313],[38.182208,49.098483],[38.182707,49.098639],[38.182898,49.09869387292817],[38.182898,49.098694],[38.18306176000396,49.098740920001134],[38.183069,49.098743],[38.183069,49.09874299438202]]]}},{"type":"Feature","properties":{"cadnum":"4421610101:01:009:0001"},"geometry":{"type":"Polygon","coordinates":[[[38.182434,49.097836],[38.182317,49.097992],[38.182898,49.09815656515958],[38.182898,49.098157],[38.183367,49.098289],[38.18348,49.09813],[38.183048,49.098033],[38.182434,49.097836]]]}},{"type":"Feature","properties":{"cadnum":"4421610101:01:009:0005"},"geometry":{"type":"Polygon","coordinates":[[[38.183552,49.098022],[38.183646,49.097848],[38.183709,49.097727],[38.1836,49.097698],[38.18347,49.09766],[38.183179,49.097592],[38.183013,49.097886],[38.18312,49.097921],[38.183323,49.097974],[38.18352,49.098013],[38.183552,49.098022]]]}},{"type":"Feature","properties":{"cadnum":"4421610101:01:009:0002"},"geometry":{"type":"Polygon","coordinates":[[[38.183069,49.09853772597865],[38.183179,49.098571],[38.183291,49.098401],[38.182898,49.098289],[38.182898,49.0982901759134],[38.18233,49.098128],[38.182227,49.098283],[38.183069,49.098539],[38.183069,49.09853772597865]]]}},{"type":"Feature","properties":{"cadnum":"4421610101:01:023:0002"},"geometry":{"type":"Polygon","coordinates":[[[38.183759,49.099009],[38.183992,49.098771],[38.183453,49.098542],[38.183201,49.098769],[38.183677,49.098974],[38.183759,49.099009]],[[38.183537,49.098904],[38.183516,49.098895],[38.183529,49.098883],[38.183552,49.098889],[38.183537,49.098904]]]}},{"type":"Feature","properties":{"cadnum":"4421610101:00:009:0610"},"geometry":{"type":"Polygon","coordinates":[[[38.180394,49.098901],[38.18032238323353,49.098993],[38.180321,49.098993],[38.180264,49.099068],[38.180399,49.099105],[38.18040061538461,49.099105],[38.180744,49.099198],[38.18086,49.099033],[38.180394,49.098901]]]}},{"type":"Feature","properties":{"cadnum":"4421610101:00:009:0609"},"geometry":{"type":"Polygon","coordinates":[[[38.18086,49.099033],[38.180809,49.099105],[38.18080938181818,49.099105],[38.180744,49.099198],[38.18086,49.09923],[38.182128,49.09956],[38.182434,49.099636],[38.182531,49.099498],[38.182375,49.099454],[38.182379,49.099451],[38.182294,49.099427],[38.181902,49.099325],[38.181116931506864,49.099105],[38.181117,49.099105],[38.18086,49.099033]]]}},{"type":"Feature","properties":{"cadnum":"4421610101:01:009:0003"},"geometry":{"type":"Polygon","coordinates":[[[38.182227,49.098283],[38.18233,49.098128],[38.182181,49.098087],[38.182082,49.098239],[38.182227,49.098283]]]}},{"type":"Feature","properties":{"cadnum":"4421610101:01:018:0002"},"geometry":{"type":"Polygon","coordinates":[[[38.196496,49.091589],[38.196307,49.091539],[38.19624,49.091519],[38.196047,49.091751],[38.1960071,49.091799],[38.196007,49.091799],[38.19599863636363,49.09180918181819],[38.195914,49.091911],[38.195915,49.091911],[38.1958,49.092051],[38.196137,49.09211],[38.196339,49.091837],[38.196496,49.091589]]]}},{"type":"Feature","properties":{"cadnum":"4421610101:01:018:0001"},"geometry":{"type":"Polygon","coordinates":[[[38.194789,49.091442],[38.195049,49.091057],[38.194862,49.091004],[38.194731,49.090972],[38.194538,49.091045],[38.194349,49.091251],[38.194596,49.09136],[38.194789,49.091442]]]}},{"type":"Feature","properties":{"cadnum":"4421610101:01:004:0002"},"geometry":{"type":"Polygon","coordinates":[[[38.188231,49.107646],[38.188391,49.107677879699246],[38.188391,49.107679],[38.188497,49.107699],[38.188816,49.107196],[38.18856,49.107132],[38.188231,49.107646]]]}},{"type":"Feature","properties":{"cadnum":"4421610101:01:004:0005"},"geometry":{"type":"Polygon","coordinates":[[[38.191399,49.108143],[38.191493,49.10802],[38.191726,49.107717],[38.19138,49.107608],[38.19116,49.107887],[38.191047,49.108035],[38.191399,49.108143]]]}},{"type":"Feature","properties":{"cadnum":"4421610101:01:004:0003"},"geometry":{"type":"Polygon","coordinates":[[[38.190617,49.108041],[38.19076,49.107849],[38.190984,49.107538],[38.190697,49.107449],[38.190504,49.107693],[38.190307,49.107941],[38.190617,49.108041]]]}},{"type":"Feature","properties":{"cadnum":"4421610101:01:004:0004"},"geometry":{"type":"Polygon","coordinates":[[[38.190984,49.107538],[38.191164,49.107287],[38.19086,49.107246],[38.190697,49.107449],[38.190984,49.107538]]]}},{"type":"Feature","properties":{"cadnum":"4421610101:25:004:0001"},"geometry":{"type":"Polygon","coordinates":[[[38.191852,49.108099],[38.19187,49.108076],[38.191892,49.108085],[38.191915,49.108063],[38.191942,49.108072],[38.192103,49.107884],[38.192359,49.107561],[38.192139,49.107481],[38.191753,49.107934],[38.191726,49.107926],[38.19165,49.108032],[38.191843,49.108099],[38.191852,49.108099]]]}},{"type":"Feature","properties":{"cadnum":"4421610101:01:009:0008"},"geometry":{"type":"Polygon","coordinates":[[[38.181854,49.100901],[38.181975,49.100689],[38.181661,49.100618],[38.181117,49.100495],[38.181275,49.100818],[38.181432,49.100838],[38.18144,49.100812],[38.181548,49.100836],[38.181854,49.100901]]]}},{"type":"Feature","properties":{"cadnum":"4421610101:01:001:0003"},"geometry":{"type":"Polygon","coordinates":[[[38.183069,49.101787274809155],[38.18316,49.101797],[38.183291,49.101806],[38.183331,49.101624],[38.182927,49.101592],[38.182307,49.101521],[38.182231,49.101697],[38.183069,49.101788],[38.183069,49.101787274809155]]]}},{"type":"Feature","properties":{"cadnum":"4421610101:01:001:0002"},"geometry":{"type":"Polygon","coordinates":[[[38.183069,49.10236097478992],[38.183264,49.102379],[38.183264,49.102159],[38.183061,49.102154],[38.182891,49.102135],[38.182055,49.10205],[38.182002,49.102139],[38.182784,49.102303],[38.182898,49.102328551724135],[38.182898,49.102329],[38.183026,49.102357],[38.183069,49.102361],[38.183069,49.10236097478992]]]}},{"type":"Feature","properties":{"cadnum":"4421610101:01:001:0013"},"geometry":{"type":"Polygon","coordinates":[[[38.182248,49.101718],[38.182218,49.101716],[38.182137,49.101886],[38.182145,49.101886],[38.182541,49.10193],[38.182725,49.101936],[38.182793,49.101939],[38.182898,49.10194356521739],[38.182898,49.101944],[38.183286,49.10196],[38.183309,49.101821],[38.183174,49.101812],[38.183008,49.101797],[38.182248,49.101718]]]}},{"type":"Feature","properties":{"cadnum":"4421610101:00:001:0117"},"geometry":{"type":"Polygon","coordinates":[[[38.183069,49.102154197044335],[38.183264,49.102159],[38.183286,49.10196],[38.183069,49.10195105154639],[38.183069,49.101951],[38.182725,49.101936],[38.182541,49.10193],[38.182145,49.101886],[38.182055,49.10205],[38.183061,49.102154],[38.183069,49.102155],[38.183069,49.102154197044335]]]}},{"type":"Feature","properties":{"cadnum":"4421610101:00:002:5909"},"geometry":{"type":"Polygon","coordinates":[[[38.187235,49.102062],[38.187271,49.102012],[38.187194,49.101989],[38.187158,49.102039],[38.187235,49.102062]]]}},{"type":"Feature","properties":{"cadnum":"4421610101:01:002:0001"},"geometry":{"type":"Polygon","coordinates":[[[38.185092,49.101995],[38.185586,49.101612],[38.185766,49.101453],[38.185608,49.101374],[38.185613,49.101365],[38.185527,49.101327],[38.185478,49.101371],[38.185518,49.101389],[38.18534,49.101565],[38.184917,49.101921],[38.185092,49.101995]]]}},{"type":"Feature","properties":{"cadnum":"4421610101:00:007:1005"},"geometry":{"type":"Polygon","coordinates":[[[38.188424,49.102521],[38.188451,49.10248],[38.188308,49.102442],[38.188281,49.102483],[38.188141,49.102442],[38.187994,49.102702],[38.18799433802817,49.102702],[38.187858,49.102944],[38.187994,49.103013],[38.188065,49.103048],[38.188133,49.102956],[38.188281,49.102741],[38.18831911111151,49.10268188888827],[38.188424,49.102521]]]}},{"type":"Feature","properties":{"cadnum":"4421610101:01:007:0012"},"geometry":{"type":"Polygon","coordinates":[[[38.188141,49.102442],[38.187801,49.10235],[38.187684,49.102538],[38.187652280487804,49.102589],[38.187652,49.102589],[38.18754,49.102768],[38.187868,49.10293],[38.18803,49.102642],[38.188141,49.102442]]]}},{"type":"Feature","properties":{"cadnum":"4421610101:00:013:0209"},"geometry":{"type":"Polygon","coordinates":[[[38.187679,49.102407],[38.187998,49.101865],[38.187738,49.101801],[38.187418,49.102344],[38.187679,49.102407]]]}},{"type":"Feature","properties":{"cadnum":"4421610101:01:001:0015"},"geometry":{"type":"Polygon","coordinates":[[[38.180453,49.106008],[38.18052,49.105862],[38.180191,49.105788],[38.18012,49.105938],[38.180453,49.106008]]]}},{"type":"Feature","properties":{"cadnum":"4421610101:00:001:0609"},"geometry":{"type":"Polygon","coordinates":[[[38.183069,49.106234798507465],[38.183166,49.10625],[38.183183,49.106191],[38.183421,49.106211],[38.183457,49.105976],[38.183116,49.105932],[38.183084,49.105988],[38.183069,49.105986145161296],[38.183069,49.105986],[38.182294,49.105888],[38.182227,49.106049],[38.182208,49.106097],[38.182898,49.10620759233449],[38.182898,49.106208],[38.18301243795756,49.106225934306785],[38.183069,49.106235],[38.183069,49.106234798507465]]]}},{"type":"Feature","properties":{"cadnum":"4421610101:00:001:0313"},"geometry":{"type":"Polygon","coordinates":[[[38.1829,49.103747],[38.183069,49.10374],[38.183069,49.10373997106691],[38.183453,49.103724],[38.183583,49.103712],[38.183493,49.103447],[38.183439,49.103453],[38.183309,49.103477],[38.18308,49.103477],[38.182898,49.103479],[38.182898,49.10347927137547],[38.182531,49.103482],[38.182568,49.103647],[38.182594,49.103759],[38.182898,49.10374707843137],[38.182898,49.103748],[38.1829,49.103747]]]}},{"type":"Feature","properties":{"cadnum":"4421610101:01:001:0010"},"geometry":{"type":"Polygon","coordinates":[[[38.179369,49.106053],[38.179424,49.105947],[38.179482,49.10579],[38.179505,49.105735],[38.179105,49.105659],[38.179145,49.105729],[38.179082,49.105744],[38.179006,49.105794],[38.179065,49.105985],[38.179369,49.106053]]]}},{"type":"Feature","properties":{"cadnum":"4421610101:01:010:5722"},"geometry":{"type":"Polygon","coordinates":[[[38.191174,49.098898],[38.191363,49.098621],[38.191106,49.09853],[38.19108,49.098554],[38.191061,49.098548],[38.191053,49.09856],[38.19107,49.098566],[38.19107,49.09858],[38.190917,49.098815],[38.191174,49.098898]]]}},{"type":"Feature","properties":{"cadnum":"4421610101:01:022:0006"},"geometry":{"type":"Polygon","coordinates":[[[38.189139,49.095277],[38.188749,49.095277],[38.188766,49.095396],[38.188765,49.095396],[38.188776,49.095466],[38.18913,49.095478],[38.189139,49.095277]]]}},{"type":"Feature","properties":{"cadnum":"4421610101:01:010:0002"},"geometry":{"type":"Polygon","coordinates":[[[38.189575,49.099045],[38.189592,49.099051],[38.189875,49.09858],[38.189625,49.098512],[38.189376,49.098928],[38.18934405084746,49.098993],[38.189344,49.098993],[38.189340634146035,49.098999951220144],[38.189289,49.099105],[38.189289768421055,49.099105],[38.189252,49.099183],[38.189462,49.099233],[38.18953893617021,49.099105],[38.189539,49.099105],[38.189575,49.099045]]]}},{"type":"Feature","properties":{"cadnum":"4421610101:01:014:0001"},"geometry":{"type":"Polygon","coordinates":[[[38.193558,49.095404],[38.193495,49.095508],[38.19349552650177,49.095508],[38.193388,49.095687],[38.193208,49.095972],[38.193474,49.096048],[38.193846,49.095471],[38.193558,49.095404]]]}},{"type":"Feature","properties":{"cadnum":"4421610101:00:010:0301"},"geometry":{"type":"Polygon","coordinates":[[[38.192948,49.098815],[38.193351,49.098377],[38.192921,49.098266],[38.192615,49.098692],[38.192948,49.098815]]]}},{"type":"Feature","properties":{"cadnum":"4421610101:01:014:0002"},"geometry":{"type":"Polygon","coordinates":[[[38.193393,49.096177],[38.193474,49.096048],[38.193208,49.095972],[38.193118,49.096107],[38.193393,49.096177]]]}},{"type":"Feature","properties":{"cadnum":"4421610101:01:022:0009"},"geometry":{"type":"Polygon","coordinates":[[[38.189799,49.095995],[38.189866,49.095896],[38.189875,49.095863],[38.189938,49.095778],[38.189942,49.095763],[38.189948,49.095757],[38.189956,49.095731],[38.189952,49.095716],[38.189952,49.095707],[38.189768,49.095701],[38.189692,49.095695],[38.189252,49.095657],[38.189179,49.095907],[38.189566,49.09596],[38.189799,49.095995]]]}},{"type":"Feature","properties":{"cadnum":"4421610101:01:022:0005"},"geometry":{"type":"Polygon","coordinates":[[[38.189988,49.095286],[38.189916,49.09529],[38.189889,49.09529],[38.189889,49.095277],[38.189139,49.095277],[38.18913367164179,49.095396],[38.189132,49.095396],[38.18913,49.095478],[38.189669,49.095495],[38.190011,49.09551],[38.189999,49.095396],[38.189998405405404,49.095396],[38.189988,49.095286]]]}},{"type":"Feature","properties":{"cadnum":"4421610101:01:022:0003"},"geometry":{"type":"Polygon","coordinates":[[[38.187617,49.093439],[38.187684,49.093387],[38.187837,49.093274],[38.188011,49.093125],[38.187518,49.092931],[38.187315,49.093193],[38.187527,49.093381],[38.187567,49.093413],[38.187617,49.093439]]]}},{"type":"Feature","properties":{"cadnum":"4421610101:01:021:0001"},"geometry":{"type":"Polygon","coordinates":[[[38.188479,49.092366],[38.188562,49.092281],[38.188562,49.09228043034056],[38.188802,49.092033],[38.188583,49.09196],[38.188562,49.091980453125004],[38.188562,49.09198],[38.188223,49.09231],[38.187971,49.092548],[38.188038,49.092578],[38.188061,49.092572],[38.188114,49.092589],[38.188241,49.092624],[38.188391,49.09246139495798],[38.188391,49.092463],[38.188479,49.092366]]]}},{"type":"Feature","properties":{"cadnum":"4421610101:01:022:0004"},"geometry":{"type":"Polygon","coordinates":[[[38.188483,49.092751],[38.188391,49.092727],[38.188391,49.092727066165416],[38.187818,49.092578],[38.187768,49.092604],[38.187518,49.092931],[38.188011,49.093125],[38.1882,49.09296],[38.188391,49.092818943462895],[38.188391,49.092819],[38.188483,49.092751]]]}},{"type":"Feature","properties":{"cadnum":"4421610101:01:021:0004"},"geometry":{"type":"Polygon","coordinates":[[[38.188694,49.092448],[38.188734,49.092393],[38.189059,49.092066],[38.188797,49.092027],[38.188474,49.092351],[38.188227,49.092607],[38.188391,49.09265632330827],[38.188391,49.092657],[38.188493,49.092687],[38.188694,49.092448]]]}},{"type":"Feature","properties":{"cadnum":"4421610101:00:017:0310"},"geometry":{"type":"Polygon","coordinates":[[[38.196173,49.094833],[38.19646,49.094398],[38.196429,49.09439],[38.196078,49.094298],[38.196038,49.094357],[38.195778,49.094736],[38.196173,49.094833]]]}},{"type":"Feature","properties":{"cadnum":"4421610101:01:017:0010"},"geometry":{"type":"Polygon","coordinates":[[[38.194412,49.09308],[38.194628,49.092877],[38.194789,49.092725],[38.194453,49.092566],[38.194282,49.092716],[38.194057,49.092912],[38.194412,49.09308]]]}},{"type":"Feature","properties":{"cadnum":"4421610101:01:017:0009"},"geometry":{"type":"Polygon","coordinates":[[[38.195261,49.094996],[38.195387,49.09481],[38.195768,49.094263],[38.1958,49.094201],[38.195611,49.094148],[38.195208,49.094754],[38.195104,49.094907],[38.195086,49.094939],[38.195261,49.094996]]]}},{"type":"Feature","properties":{"cadnum":"4421610101:00:017:1011"},"geometry":{"type":"Polygon","coordinates":[[[38.19704,49.094839],[38.197188,49.094604],[38.196837,49.094521],[38.196716,49.094751],[38.19704,49.094839]]]}},{"type":"Feature","properties":{"cadnum":"4421610101:00:017:0813"},"geometry":{"type":"Polygon","coordinates":[[[38.194942,49.093148],[38.195028,49.093054],[38.195189,49.092881],[38.195036,49.09281],[38.195001,49.092796],[38.194996,49.092801],[38.194875,49.092927],[38.194852,49.092942],[38.194785,49.093004],[38.194942,49.093148]]]}},{"type":"Feature","properties":{"cadnum":"4421610101:01:017:0917"},"geometry":{"type":"Polygon","coordinates":[[[38.196343,49.093916],[38.196416,49.093804],[38.196519,49.093648],[38.196496,49.093613],[38.1962,49.093537],[38.196191,49.093542],[38.196091,49.093707],[38.196024,49.093821],[38.196343,49.093916]]]}},{"type":"Feature","properties":{"cadnum":"4421610101:01:017:0001"},"geometry":{"type":"Polygon","coordinates":[[[38.197974,49.095054],[38.198464,49.094377],[38.198279,49.094313],[38.197942,49.094824],[38.197888,49.095001],[38.197974,49.095054]]]}},{"type":"Feature","properties":{"cadnum":"4421610101:01:017:0006"},"geometry":{"type":"Polygon","coordinates":[[[38.197668,49.094257],[38.197803,49.094007],[38.197898,49.094028],[38.197955,49.093871],[38.197659,49.093804],[38.197628,49.093851],[38.197489,49.094116],[38.197462,49.09416],[38.197583,49.094201],[38.197668,49.094257]]]}},{"type":"Feature","properties":{"cadnum":"4421610101:00:017:0909"},"geometry":{"type":"Polygon","coordinates":[[[38.195688,49.093727],[38.195782,49.093595],[38.195881,49.093463],[38.196015,49.09326],[38.195768,49.093154],[38.195688,49.093254],[38.195428,49.093651],[38.195688,49.093727]]]}},{"type":"Feature","properties":{"cadnum":"4421610101:01:017:0005"},"geometry":{"type":"Polygon","coordinates":[[[38.197538,49.094498],[38.197664,49.094263],[38.197579,49.094207],[38.197453,49.094169],[38.197296,49.094427],[38.197538,49.094498]]]}},{"type":"Feature","properties":{"cadnum":"4421610101:01:017:0007"},"geometry":{"type":"Polygon","coordinates":[[[38.196038,49.094357],[38.196074,49.094301],[38.196334,49.093925],[38.196015,49.093839],[38.195858,49.094098],[38.195768,49.094263],[38.196038,49.094357]]]}},{"type":"Feature","properties":{"cadnum":"4421610101:00:017:0305"},"geometry":{"type":"Polygon","coordinates":[[[38.195539,49.095077],[38.195629,49.094951],[38.196038,49.094357],[38.195768,49.094263],[38.195261,49.094996],[38.195539,49.095077]]]}},{"type":"Feature","properties":{"cadnum":"4421610101:00:017:1009"},"geometry":{"type":"Polygon","coordinates":[[[38.197489,49.094116],[38.197628,49.093851],[38.197355,49.093786],[38.197363,49.093766],[38.197269,49.093748],[38.197259,49.093771],[38.19712,49.094024],[38.197489,49.094116]]]}},{"type":"Feature","properties":{"cadnum":"4421610101:00:017:0914"},"geometry":{"type":"Polygon","coordinates":[[[38.195858,49.094098],[38.196015,49.093839],[38.195678,49.093745],[38.195512,49.093993],[38.195858,49.094098]]]}},{"type":"Feature","properties":{"cadnum":"4421610101:00:017:0814"},"geometry":{"type":"Polygon","coordinates":[[[38.1946,49.093481],[38.194929,49.093163],[38.194772,49.093019],[38.194457,49.093319],[38.194376,49.093398],[38.1946,49.093481]]]}},{"type":"Feature","properties":{"cadnum":"4421610101:00:017:0913"},"geometry":{"type":"Polygon","coordinates":[[[38.196024,49.093821],[38.196091,49.093707],[38.196191,49.093542],[38.196133,49.093522],[38.19594,49.093481],[38.195881,49.093463],[38.195782,49.093595],[38.195688,49.093727],[38.196024,49.093821]]]}},{"type":"Feature","properties":{"cadnum":"4421610101:25:017:0901"},"geometry":{"type":"Polygon","coordinates":[[[38.194942,49.09386],[38.195238,49.093433],[38.195319,49.09331],[38.195395,49.093215],[38.195544,49.093051],[38.195355,49.092966],[38.195126,49.093198],[38.195059,49.093269],[38.195045,49.093283],[38.195001,49.093328],[38.194605,49.093745],[38.194686,49.093775],[38.194942,49.09386]]]}},{"type":"Feature","properties":{"cadnum":"4421610101:00:017:1002"},"geometry":{"type":"Polygon","coordinates":[[[38.196424,49.094392],[38.196676,49.094024],[38.196334,49.093925],[38.196074,49.094301],[38.196424,49.094392]]]}},{"type":"Feature","properties":{"cadnum":"4421610101:00:018:0117"},"geometry":{"type":"Polygon","coordinates":[[[38.195508,49.092892],[38.195607,49.092813],[38.195629,49.092792],[38.195651,49.092775],[38.196154,49.092389],[38.19576,49.092278],[38.195279,49.092796],[38.195508,49.092892]]]}},{"type":"Feature","properties":{"cadnum":"4421610101:01:018:0003"},"geometry":{"type":"Polygon","coordinates":[[[38.196001,49.092289],[38.196137,49.09211],[38.1958,49.092051],[38.195647,49.092227],[38.196001,49.092289]]]}},{"type":"Feature","properties":{"cadnum":"4421610101:00:017:0818"},"geometry":{"type":"Polygon","coordinates":[[[38.194592,49.093763],[38.194605,49.093745],[38.195001,49.093328],[38.195045,49.093283],[38.194929,49.093163],[38.1946,49.093481],[38.194394,49.093675],[38.194592,49.093763]]]}},{"type":"Feature","properties":{"cadnum":"4421610101:00:017:0910"},"geometry":{"type":"Polygon","coordinates":[[[38.195499,49.094013],[38.195512,49.093993],[38.195678,49.093745],[38.195418,49.093666],[38.195252,49.093913],[38.195346,49.093939],[38.195338,49.093957],[38.195499,49.094013]]]}},{"type":"Feature","properties":{"cadnum":"4421610101:00:017:0817"},"geometry":{"type":"Polygon","coordinates":[[[38.195059,49.093269],[38.195126,49.093198],[38.195355,49.092966],[38.195364,49.092954],[38.195238,49.09289],[38.195198,49.092872],[38.195189,49.092881],[38.195028,49.093054],[38.194942,49.093148],[38.195059,49.093269]]]}},{"type":"Feature","properties":{"cadnum":"4421610101:00:017:1001"},"geometry":{"type":"Polygon","coordinates":[[[38.19668,49.094015],[38.19677,49.093878],[38.196846,49.093742],[38.196766,49.093716],[38.196622,49.093681],[38.196519,49.093648],[38.196343,49.093916],[38.19668,49.094015]]]}},{"type":"Feature","properties":{"cadnum":"4421610101:00:017:1010"},"geometry":{"type":"Polygon","coordinates":[[[38.197188,49.094604],[38.197485,49.094124],[38.197116,49.094034],[38.196846,49.094513],[38.196837,49.094521],[38.197188,49.094604]]]}},{"type":"Feature","properties":{"cadnum":"4421610101:00:008:0617"},"geometry":{"type":"Polygon","coordinates":[[[38.19664,49.102545],[38.196905,49.102139],[38.197013,49.101965],[38.196797,49.10191],[38.196451,49.102415],[38.19664,49.102545]]]}},{"type":"Feature","properties":{"cadnum":"4421610101:01:008:0001"},"geometry":{"type":"Polygon","coordinates":[[[38.194053,49.101474],[38.194056,49.101471],[38.194056,49.101469691489356],[38.194147,49.101339],[38.194056,49.101310281368825],[38.194056,49.10131],[38.193824,49.101236],[38.193747,49.101345],[38.193869,49.101383],[38.193864,49.101404],[38.193856,49.101415],[38.193766,49.101553],[38.193437,49.101995],[38.193634,49.10205],[38.193884,49.101706324582345],[38.193884,49.101707],[38.194053,49.101474]]]}},{"type":"Feature","properties":{"cadnum":"4421610101:00:008:0901"},"geometry":{"type":"Polygon","coordinates":[[[38.198141,49.102386],[38.197921,49.102348],[38.197796,49.102702],[38.19779653968254,49.102702],[38.197682,49.10303],[38.197844,49.10305],[38.197892,49.103039],[38.198027891304285,49.10268139130451],[38.198141,49.102386]]]}},{"type":"Feature","properties":{"cadnum":"4421610101:01:022:0002"},"geometry":{"type":"Polygon","coordinates":[[[38.189197,49.094492],[38.189611,49.094372],[38.189728,49.094336],[38.189759,49.094327],[38.189745,49.094307],[38.189615,49.094034],[38.189063,49.09421],[38.189197,49.094492]]]}},{"type":"Feature","properties":{"cadnum":"4421610101:01:022:0007"},"geometry":{"type":"Polygon","coordinates":[[[38.18878,49.094939],[38.189611,49.094902],[38.189629,49.094924],[38.189881,49.094928],[38.189875,49.094913],[38.189902,49.09491],[38.189849,49.094751],[38.18957,49.094813],[38.189435,49.094786],[38.189332,49.094704],[38.188806,49.094754],[38.18878,49.094939]]]}},{"type":"Feature","properties":{"cadnum":"4421610101:00:021:0117"},"geometry":{"type":"Polygon","coordinates":[[[38.189099,49.092966],[38.189225,49.092798],[38.189197,49.092786],[38.189975,49.091942],[38.189759,49.091898],[38.189659,49.092013],[38.18891,49.092881],[38.189099,49.092966]]]}},{"type":"Feature","properties":{"cadnum":"4421610101:01:021:0003"},"geometry":{"type":"Polygon","coordinates":[[[38.190971,49.093595],[38.191399,49.093001],[38.190271,49.092628],[38.189984,49.092942],[38.189795,49.093207],[38.190971,49.093595]]]}},{"type":"Feature","properties":{"cadnum":"4421610101:01:022:0001"},"geometry":{"type":"Polygon","coordinates":[[[38.188793,49.095125],[38.189498,49.095116],[38.189925,49.09511],[38.189894,49.094983],[38.189921,49.094981],[38.189912,49.094942],[38.189885,49.094945],[38.189881,49.094928],[38.189583,49.094939],[38.188797,49.094974],[38.188793,49.095125]]]}},{"type":"Feature","properties":{"cadnum":"4421610101:00:021:0201"},"geometry":{"type":"Polygon","coordinates":[[[38.18891,49.092881],[38.189659,49.092013],[38.189418,49.091931],[38.18878,49.092598],[38.188627,49.092739],[38.18891,49.092881]]]}},{"type":"Feature","properties":{"cadnum":"4421610101:01:022:0008"},"geometry":{"type":"Polygon","coordinates":[[[38.188703,49.094145],[38.189093,49.094022],[38.18957,49.093866],[38.189525,49.093771],[38.189493,49.093704],[38.188569,49.093963],[38.188703,49.094145]]]}},{"type":"Feature","properties":{"cadnum":"4421610101:01:023:0003"},"geometry":{"type":"Polygon","coordinates":[[[38.185717,49.107758],[38.185833,49.107367],[38.18547,49.107323],[38.185353,49.107714],[38.185717,49.107758]]]}},{"type":"Feature","properties":{"cadnum":"4421610101:01:004:0001"},"geometry":{"type":"Polygon","coordinates":[[[38.187032,49.107335],[38.187244,49.107078],[38.1867,49.106873],[38.186539,49.107123],[38.186629,49.107208],[38.187032,49.107335]]]}},{"type":"Feature","properties":{"cadnum":"4421610101:01:004:4949"},"geometry":{"type":"Polygon","coordinates":[[[38.187585,49.107496],[38.187917,49.106993],[38.187657,49.106908],[38.187428,49.107261],[38.187329,49.107417],[38.187342,49.10742],[38.187334,49.107429],[38.187585,49.107496]]]}},{"type":"Feature","properties":{"cadnum":"4421610101:01:011:0001"},"geometry":{"type":"Polygon","coordinates":[[[38.200538,49.100936],[38.200619,49.100807],[38.200655,49.100744],[38.200749,49.100609],[38.200471,49.100527],[38.200408,49.100657],[38.200278,49.100874],[38.200538,49.100936]]]}},{"type":"Feature","properties":{"cadnum":"4421610101:25:011:0417"},"geometry":{"type":"Polygon","coordinates":[[[38.201481,49.101171],[38.201513,49.10113],[38.201531,49.101133],[38.201634,49.100989],[38.201688,49.100903],[38.201536,49.10086],[38.201374,49.100816],[38.201177,49.101097],[38.201267,49.101121],[38.201298,49.101127],[38.201397,49.101154],[38.201481,49.101171]]]}},{"type":"Feature","properties":{"cadnum":"4421610101:01:011:0002"},"geometry":{"type":"Polygon","coordinates":[[[38.200552,49.101221],[38.200601,49.101145],[38.200728,49.101097],[38.200839,49.101042],[38.200875,49.100992],[38.200898,49.100966],[38.200965,49.100888],[38.201074,49.100733],[38.201078,49.100724],[38.200736,49.10063],[38.200642,49.100768],[38.200619,49.100809],[38.200606,49.100827],[38.200565,49.100888],[38.200525,49.100956],[38.200386,49.101177],[38.200552,49.101221]]]}},{"type":"Feature","properties":{"cadnum":"4421610101:00:008:0317"},"geometry":{"type":"Polygon","coordinates":[[[38.197085,49.104106],[38.197292,49.104029],[38.197816,49.10385],[38.197799,49.103826],[38.197678,49.103689],[38.196797,49.103985],[38.196873,49.104018],[38.196913,49.104024],[38.196982,49.104018],[38.197085,49.104106]]]}},{"type":"Feature","properties":{"cadnum":"4421610101:00:008:0909"},"geometry":{"type":"Polygon","coordinates":[[[38.198171,49.103253],[38.198261,49.103098],[38.197911,49.103035],[38.197862,49.103048],[38.197699,49.103033],[38.197408,49.103013],[38.197349,49.103009],[38.197292,49.103139],[38.198162,49.103253],[38.198171,49.103253]]]}},{"type":"Feature","properties":{"cadnum":"4421610101:01:008:0004"},"geometry":{"type":"Polygon","coordinates":[[[38.1966,49.103821],[38.196703,49.103612],[38.196887,49.103233],[38.196617,49.103174],[38.196411,49.103553],[38.196303,49.103762],[38.1966,49.103821]]]}},{"type":"Feature","properties":{"cadnum":"4421610101:01:008:0005"},"geometry":{"type":"Polygon","coordinates":[[[38.197961,49.10348],[38.198014,49.103386],[38.198095,49.103401],[38.198162,49.103253],[38.197808,49.103207],[38.197292,49.103139],[38.197233,49.103268],[38.197426,49.103286],[38.197699,49.103318],[38.197768,49.103324],[38.197844,49.103388],[38.197915,49.103447],[38.197961,49.10348]]]}},{"type":"Feature","properties":{"cadnum":"4421610101:01:008:0002"},"geometry":{"type":"Polygon","coordinates":[[[38.19355,49.102165],[38.193634,49.10205],[38.193437,49.101995],[38.193351,49.102109],[38.19355,49.102165]]]}},{"type":"Feature","properties":{"cadnum":"4421610101:01:023:0001"},"geometry":{"type":"Polygon","coordinates":[[[38.189625,49.100071],[38.189646,49.100051],[38.18957,49.100016],[38.189548,49.100039],[38.189625,49.100071]]]}},{"type":"Feature","properties":{"cadnum":"4421610101:00:010:0314"},"geometry":{"type":"Polygon","coordinates":[[[38.193684,49.099595],[38.19377,49.099495],[38.193523,49.09941],[38.193433,49.099515],[38.193684,49.099595]]]}},{"type":"Feature","properties":{"cadnum":"4421610101:00:002:0418"},"geometry":{"type":"Polygon","coordinates":[[[38.185883,49.10343],[38.186036,49.103168],[38.185671,49.103089],[38.185541,49.103329],[38.185883,49.10343]]]}},{"type":"Feature","properties":{"cadnum":"4421610101:01:002:0002"},"geometry":{"type":"Polygon","coordinates":[[[38.184432,49.1037],[38.184441,49.1035],[38.184063,49.103497],[38.184082,49.103691],[38.184432,49.1037]]]}},{"type":"Feature","properties":{"cadnum":"4421610101:01:006:0001"},"geometry":{"type":"Polygon","coordinates":[[[38.187334,49.104453],[38.187455,49.104268],[38.186866,49.104112],[38.186512,49.104015],[38.18643,49.104168],[38.186749,49.104268],[38.187334,49.104453]]]}},{"type":"Feature","properties":{"cadnum":"4421610101:01:002:0306"},"geometry":{"type":"Polygon","coordinates":[[[38.184552,49.105121],[38.184602,49.104909],[38.184149,49.10487],[38.183745,49.104835],[38.183713,49.105018],[38.183709,49.105059],[38.184103,49.105088],[38.184552,49.105121]]]}},{"type":"Feature","properties":{"cadnum":"4421610101:00:002:0417"},"geometry":{"type":"Polygon","coordinates":[[[38.186476,49.103586],[38.186619,49.1033],[38.18616,49.103198],[38.186036,49.103168],[38.185883,49.10343],[38.186076,49.103488],[38.186476,49.103586]]]}},{"type":"Feature","properties":{"cadnum":"4421610101:00:002:0605"},"geometry":{"type":"Polygon","coordinates":[[[38.18582,49.105208],[38.185914,49.104964],[38.185636,49.104935],[38.185424,49.10492],[38.185105,49.104885],[38.185034,49.104935],[38.184988,49.105135],[38.185514,49.105173],[38.18582,49.105208]]]}},{"type":"Feature","properties":{"cadnum":"4421610101:00:006:0201"},"geometry":{"type":"Polygon","coordinates":[[[38.187266,49.104691],[38.187388,49.104471],[38.186749,49.104268],[38.186395,49.104156],[38.186323,49.104336],[38.186669,49.104447],[38.186686,49.104453],[38.186763,49.104491],[38.187266,49.104691]]]}},{"type":"Feature","properties":{"cadnum":"4421610101:01:023:0008"},"geometry":{"type":"Polygon","coordinates":[[[38.188038,49.104661],[38.18825,49.104244],[38.187962,49.104188],[38.187801,49.104494],[38.187747,49.104606],[38.188038,49.104661]]]}},{"type":"Feature","properties":{"cadnum":"4421610101:01:007:0809"},"geometry":{"type":"Polygon","coordinates":[[[38.187841,49.103532],[38.187864,49.10343],[38.187917,49.103436],[38.187921,49.103421],[38.188051,49.103444],[38.188245,49.102989],[38.188133,49.102956],[38.188065,49.103048],[38.187994,49.103013],[38.187864,49.103162],[38.187747,49.103336],[38.187742,49.103388],[38.187675,49.103523],[38.187841,49.103532]]]}},{"type":"Feature","properties":{"cadnum":"4421610101:01:005:0001"},"geometry":{"type":"Polygon","coordinates":[[[38.187801,49.104494],[38.188267,49.103609],[38.1882,49.1036],[38.187895,49.103591],[38.187684,49.104018],[38.187827,49.104065],[38.187621,49.104456],[38.187801,49.104494]]]}},{"type":"Feature","properties":{"cadnum":"4421610101:00:006:0301"},"geometry":{"type":"Polygon","coordinates":[[[38.186633,49.105474],[38.186665,49.105411],[38.186848,49.105459],[38.18692,49.105344],[38.186134,49.105077],[38.186026,49.105335],[38.186633,49.105474]]]}}]}