{"type":"FeatureCollection","features":[{"type":"Feature","properties":{"cadnum":"4421482205:04:001:0001"},"geometry":{"type":"Polygon","coordinates":[[[39.670089,48.271873],[39.669967,48.271836],[39.669859,48.271795],[39.669647,48.271741],[39.669324,48.271693],[39.668978,48.271651],[39.668597,48.27166],[39.66755,48.271776],[39.667349,48.271909],[39.668615,48.271768],[39.66897,48.271759],[39.669293,48.271798],[39.669599,48.271842],[39.669787,48.271893],[39.669895,48.271935],[39.670016,48.271971],[39.670555,48.272175],[39.670771,48.272283],[39.670771670807454,48.272283],[39.670878,48.272336],[39.671545,48.27277340949556],[39.671545,48.272774],[39.671552,48.272778],[39.671668,48.272865],[39.671717,48.272887],[39.671717,48.272886159090916],[39.6718,48.272922],[39.671966,48.272957],[39.677038,48.27346874444877],[39.677038,48.27347],[39.6771,48.273475],[39.677144,48.273478],[39.67721,48.273526],[39.67721,48.27352574468085],[39.677238,48.273546],[39.677274,48.273382],[39.677121,48.273367],[39.676934,48.273314],[39.676825,48.273301],[39.676754,48.273305],[39.676672,48.273322],[39.672532,48.272904],[39.672006,48.272853],[39.671871,48.272823],[39.671773,48.272782],[39.671717,48.272740399999996],[39.671717,48.27274],[39.671668,48.272704],[39.670982,48.272255],[39.670813,48.272168],[39.67081252601157,48.272168],[39.670645,48.272082],[39.670089,48.271873]]]}},{"type":"Feature","properties":{"cadnum":"4421482205:20:001:0001"},"geometry":{"type":"Polygon","coordinates":[[[39.677121,48.264596],[39.676964,48.264565],[39.676775,48.26484],[39.676748,48.264855],[39.676747,48.264855],[39.676368,48.265065],[39.674827,48.265902],[39.674714,48.265986],[39.674691,48.266063],[39.674638,48.266718],[39.67466,48.266894],[39.674643,48.267011],[39.674823,48.267008],[39.674823,48.266894],[39.6748,48.266718],[39.67485,48.266076],[39.674863,48.266036],[39.674939,48.265983],[39.676471,48.265146],[39.676907,48.264906],[39.677121,48.264596]]]}},{"type":"Feature","properties":{"cadnum":"4421482205:20:001:0002"},"geometry":{"type":"Polygon","coordinates":[[[39.675519,48.267756],[39.675666,48.267711],[39.675599,48.267639],[39.674894,48.267107],[39.674823,48.267008],[39.674643,48.267011],[39.674754,48.267167],[39.675469,48.267705],[39.675519,48.267756]]]}}]}