{"type":"FeatureCollection","features":[{"type":"Feature","properties":{"cadnum":"4421488801:06:002:0130"},"geometry":{"type":"Polygon","coordinates":[[[39.616503,48.363442],[39.616149,48.36346],[39.61615316438356,48.363492],[39.616153,48.363492],[39.616184,48.363728],[39.61622,48.364108],[39.61622,48.364134],[39.616014,48.364143],[39.616027,48.364256],[39.616356,48.364265],[39.616364,48.364181],[39.616369,48.364104],[39.616477,48.364104],[39.61649,48.363884],[39.616507,48.363701],[39.616513,48.363675],[39.616505,48.363492],[39.616504829268294,48.363492],[39.616503,48.363442]]]}}]}