{"type":"FeatureCollection","features":[{"type":"Feature","properties":{"cadnum":"4421610102:00:000:0305"},"geometry":{"type":"Polygon","coordinates":[[[38.147408,49.005467],[38.147582,49.005186],[38.147659,49.005063],[38.147335,49.004989],[38.147264,49.005116],[38.147093,49.00539],[38.14709239473684,49.005391],[38.147091,49.005391],[38.14704683333341,49.00546627536219],[38.147024,49.005504],[38.14702469897959,49.005504],[38.146976,49.005587],[38.147272,49.005675],[38.14738380769231,49.005504],[38.147384,49.005504],[38.147408,49.005467]]]}},{"type":"Feature","properties":{"cadnum":"4421610102:26:001:0702"},"geometry":{"type":"Polygon","coordinates":[[[38.141645,49.003964],[38.141905,49.002965],[38.141475,49.003104],[38.141259,49.003919],[38.141645,49.003964]]]}},{"type":"Feature","properties":{"cadnum":"4421610102:26:001:0701"},"geometry":{"type":"Polygon","coordinates":[[[38.141515,49.004438],[38.141613,49.0041],[38.141645,49.003964],[38.141259,49.003919],[38.141219,49.004087],[38.141133,49.004364],[38.141515,49.004438]]]}},{"type":"Feature","properties":{"cadnum":"4421610102:00:000:0614"},"geometry":{"type":"Polygon","coordinates":[[[38.142628,49.003507],[38.142781,49.002886],[38.142525,49.002856],[38.142359,49.003475],[38.142628,49.003507]]]}},{"type":"Feature","properties":{"cadnum":"4421610102:00:000:0613"},"geometry":{"type":"Polygon","coordinates":[[[38.142359,49.004591],[38.142628,49.003507],[38.142359,49.003475],[38.142076,49.004533],[38.142359,49.004591]]]}}]}