{"type":"FeatureCollection","features":[{"type":"Feature","properties":{"cadnum":"4422355300:07:001:0264"},"geometry":{"type":"Polygon","coordinates":[[[39.025433,49.702891],[39.02553,49.702643],[39.025271,49.70262],[39.025229,49.702864],[39.025433,49.702891]]]}},{"type":"Feature","properties":{"cadnum":"4422355300:07:001:0263"},"geometry":{"type":"Polygon","coordinates":[[[39.025229,49.702864],[39.025271,49.70262],[39.024851,49.702581],[39.02448,49.702551],[39.024433,49.702776],[39.024822,49.702809],[39.025229,49.702864]]]}}]}