{"type":"FeatureCollection","features":[{"type":"Feature","properties":{"cadnum":"4422255301:02:009:0163"},"geometry":{"type":"Polygon","coordinates":[[[39.031719,48.487315],[39.031601,48.487216],[39.031211,48.487414],[39.031178999999995,48.48743],[39.031178,48.48743],[39.031092,48.4874735],[39.030953,48.487543],[39.03095459770114,48.487543],[39.030834,48.487604],[39.030946,48.487705],[39.031323,48.487514],[39.031491,48.48743],[39.03149015577889,48.48743],[39.031719,48.487315]]]}},{"type":"Feature","properties":{"cadnum":"4422255301:02:001:0096"},"geometry":{"type":"Polygon","coordinates":[[[39.040962,48.505337],[39.040966,48.505322],[39.040975,48.505266],[39.040661,48.505236],[39.040575,48.505637],[39.040554,48.505744],[39.0405550621118,48.505744],[39.040545,48.505798],[39.040589,48.505802],[39.040692,48.505811],[39.040778,48.505819],[39.040854,48.505828],[39.040862,48.505828],[39.040895,48.505668],[39.040962,48.505337]]]}},{"type":"Feature","properties":{"cadnum":"4422255301:02:002:0130"},"geometry":{"type":"Polygon","coordinates":[[[39.05238,48.49562],[39.052816,48.495477],[39.053044,48.495408],[39.052977,48.495302],[39.05282,48.495361],[39.052734,48.495388],[39.052307,48.49554],[39.05238,48.49562]]]}},{"type":"Feature","properties":{"cadnum":"4422255301:02:007:0037"},"geometry":{"type":"Polygon","coordinates":[[[39.03451,48.49239764],[39.034602,48.492405],[39.034638,48.492176],[39.034665,48.491988],[39.034427,48.491977],[39.034404,48.492158],[39.034382,48.492328],[39.034396,48.492331],[39.034377,48.492387],[39.03451,48.492398],[39.03451,48.49239764]]]}},{"type":"Feature","properties":{"cadnum":"4422255301:02:005:0226"},"geometry":{"type":"Polygon","coordinates":[[[39.042251,48.492661],[39.042283,48.492438],[39.04231,48.492215],[39.041905,48.492188],[39.041891,48.492277],[39.041847,48.492637],[39.042251,48.492661]]]}},{"type":"Feature","properties":{"cadnum":"4422255301:02:005:0083"},"geometry":{"type":"Polygon","coordinates":[[[39.05234,48.489312],[39.052344,48.489128],[39.051921,48.489101],[39.051711,48.489089],[39.051705,48.489274],[39.051912,48.489285],[39.05234,48.489312]]]}},{"type":"Feature","properties":{"cadnum":"4422255301:02:004:0225"},"geometry":{"type":"Polygon","coordinates":[[[39.066183,48.500034],[39.066335,48.499858],[39.066605,48.499549],[39.066317,48.499451],[39.066114,48.499382],[39.06536,48.499198],[39.064879,48.499507],[39.065563,48.499846],[39.066183,48.500034]]]}}]}