{"type":"FeatureCollection","features":[{"type":"Feature","properties":{"cadnum":"4422210101:01:004:0012"},"geometry":{"type":"Polygon","coordinates":[[[39.204186,48.401667],[39.204271,48.401619],[39.204334,48.401599],[39.204366,48.401568],[39.204483,48.401446],[39.204464,48.401413],[39.204536,48.40119],[39.204276,48.401152],[39.20428,48.40113],[39.204194,48.401119],[39.204123,48.401324],[39.2041,48.401322],[39.204096,48.40134],[39.204114,48.401342],[39.20411,48.401366],[39.204056,48.401378],[39.203997,48.401628],[39.20402,48.401661],[39.204186,48.401667]]]}},{"type":"Feature","properties":{"cadnum":"4422210101:01:006:0259"},"geometry":{"type":"Polygon","coordinates":[[[39.224532,48.404813],[39.224857,48.404417],[39.224708,48.404354],[39.224645,48.404327],[39.224322,48.404735],[39.224532,48.404813]]]}},{"type":"Feature","properties":{"cadnum":"4422210101:01:004:0032"},"geometry":{"type":"Polygon","coordinates":[[[39.202946,48.399466],[39.202968,48.399371],[39.203032,48.399377],[39.203041,48.399338],[39.202892,48.39932],[39.202888,48.399333],[39.20269,48.399309],[39.20269,48.399278],[39.202699,48.399231],[39.202712,48.399168],[39.202618,48.399156],[39.202609,48.399132],[39.202407,48.399106],[39.202053,48.399067],[39.20203,48.399141],[39.201993,48.3993],[39.202309,48.399338],[39.202353,48.399344],[39.202492,48.399362],[39.202483,48.399392],[39.202529,48.399398],[39.202551,48.399389],[39.202722,48.399395],[39.202856,48.399455],[39.202946,48.399466]]]}},{"type":"Feature","properties":{"cadnum":"4422210101:01:012:0262"},"geometry":{"type":"Polygon","coordinates":[[[39.200974,48.395626],[39.201073,48.395315],[39.200858,48.395286],[39.20075,48.395593],[39.200974,48.395626]]]}}]}