{"type":"FeatureCollection","features":[{"type":"Feature","properties":{"cadnum":"4422385900:06:004:0008"},"geometry":{"type":"Polygon","coordinates":[[[39.040003,49.379569],[39.039873,49.37943],[39.039831,49.379444],[39.039831,49.37944416138328],[39.038832,49.379781],[39.039831,49.380907967549106],[39.039831,49.380909],[39.041179,49.382429],[39.041179342578936,49.382429],[39.044086,49.385706],[39.045076,49.385354],[39.042397,49.382317],[39.042396866666664,49.382317],[39.042311,49.382219],[39.04061,49.38022],[39.040003,49.37956934871099],[39.040003,49.379569]]]}}]}