{"type":"FeatureCollection","features":[{"type":"Feature","properties":{"cadnum":"4423665700:01:022:0003"},"geometry":{"type":"Polygon","coordinates":[[[38.747716,48.42175],[38.747783,48.421761],[38.747886,48.421472],[38.747823,48.42144],[38.747666,48.421428],[38.747649,48.42147],[38.747554,48.421732],[38.747527,48.421827],[38.747516925,48.421853],[38.747516,48.421853],[38.747496,48.421907],[38.747473,48.421967],[38.747473735849056,48.421967],[38.747437,48.422066],[38.747595,48.422093],[38.747653181946326,48.421924763046775],[38.747716,48.42175]]]}}]}