{"type":"FeatureCollection","features":[{"type":"Feature","properties":{"cadnum":"4423885500:09:001:0240"},"geometry":{"type":"Polygon","coordinates":[[[38.598116,48.703491],[38.598173,48.703444],[38.598066,48.703385],[38.598007,48.703429],[38.598116,48.703491]]]}},{"type":"Feature","properties":{"cadnum":"4423885500:09:001:0239"},"geometry":{"type":"Polygon","coordinates":[[[38.598743,48.704849],[38.598789,48.70484],[38.598775,48.704811],[38.59873,48.704819],[38.598743,48.704849]]]}},{"type":"Feature","properties":{"cadnum":"4423885500:09:001:0231"},"geometry":{"type":"Polygon","coordinates":[[[38.62714,48.71618],[38.627163,48.716153],[38.627121,48.716135],[38.6271,48.716164],[38.62714,48.71618]]]}},{"type":"Feature","properties":{"cadnum":"4423885500:09:001:0232"},"geometry":{"type":"Polygon","coordinates":[[[38.624238,48.71502],[38.62426,48.714994],[38.62422,48.71498],[38.624197,48.715006],[38.624238,48.71502]]]}},{"type":"Feature","properties":{"cadnum":"4423885500:09:001:0229"},"geometry":{"type":"Polygon","coordinates":[[[38.634388,48.719072],[38.634411,48.719045],[38.634371,48.71903],[38.634348,48.719057],[38.634388,48.719072]]]}},{"type":"Feature","properties":{"cadnum":"4423885500:09:001:0233"},"geometry":{"type":"Polygon","coordinates":[[[38.62139,48.713886],[38.621417,48.713859],[38.621377,48.713844],[38.621354,48.713871],[38.62139,48.713886]]]}},{"type":"Feature","properties":{"cadnum":"4423885500:09:001:0235"},"geometry":{"type":"Polygon","coordinates":[[[38.61424,48.711032],[38.614262,48.711005],[38.614222,48.710987],[38.614199,48.711013],[38.61424,48.711032]]]}},{"type":"Feature","properties":{"cadnum":"4423885500:09:001:0236"},"geometry":{"type":"Polygon","coordinates":[[[38.610345,48.709475],[38.610372,48.709449],[38.610332,48.709434],[38.610305,48.70946],[38.610345,48.709475]]]}},{"type":"Feature","properties":{"cadnum":"4423885500:09:001:0227"},"geometry":{"type":"Polygon","coordinates":[[[38.641229,48.721801],[38.641252,48.721774],[38.641212,48.721759],[38.641189,48.721786],[38.641229,48.721801]]]}},{"type":"Feature","properties":{"cadnum":"4423885500:09:001:0238"},"geometry":{"type":"Polygon","coordinates":[[[38.602378,48.706296],[38.6024,48.706268],[38.602359,48.706251],[38.602337,48.706277],[38.602378,48.706296]]]}},{"type":"Feature","properties":{"cadnum":"4423885500:09:001:0237"},"geometry":{"type":"Polygon","coordinates":[[[38.605477,48.707531],[38.6055,48.707505],[38.605458,48.70749],[38.605437,48.707516],[38.605477,48.707531]]]}},{"type":"Feature","properties":{"cadnum":"4423885500:09:001:0230"},"geometry":{"type":"Polygon","coordinates":[[[38.630612,48.717566],[38.630633,48.717539],[38.630593,48.717522],[38.630572,48.717548],[38.630612,48.717566]]]}},{"type":"Feature","properties":{"cadnum":"4423885500:09:001:0234"},"geometry":{"type":"Polygon","coordinates":[[[38.617918,48.712502],[38.617945,48.712475],[38.617905,48.712457],[38.617878,48.712484],[38.617918,48.712502]]]}}]}