{"type":"FeatureCollection","features":[{"type":"Feature","properties":{"cadnum":"4423657700:01:025:0003"},"geometry":{"type":"Polygon","coordinates":[[[38.7605348097561,48.400089],[38.760454,48.400591],[38.75968,48.400566],[38.75968,48.40056647014925],[38.758243,48.40052],[38.757157,48.400555],[38.754315813420845,48.40078841734859],[38.754,48.400814],[38.754094,48.401121],[38.754187,48.40110514772728],[38.754187,48.401106],[38.756788,48.400657],[38.756865,48.400847],[38.754358,48.4012832442121],[38.754358,48.401283],[38.754152,48.401318],[38.754175,48.401384],[38.754187,48.40138255737705],[38.754187,48.401383],[38.755333,48.401243],[38.758325,48.401059],[38.75968,48.40112026802097],[38.75968,48.401121],[38.762111,48.401229],[38.763841,48.401289],[38.764199,48.401161],[38.764941,48.401017],[38.765173,48.40099688439307],[38.765173,48.400998],[38.765287,48.400987],[38.765345,48.400988],[38.765345,48.400987427255984],[38.76583,48.400991],[38.766293,48.40102],[38.766289,48.400629],[38.767964,48.400853],[38.769065,48.401145],[38.7707,48.401769],[38.771516,48.40193],[38.772388,48.401939],[38.773564,48.401784],[38.774908,48.401431],[38.774593,48.400859],[38.773413,48.401148],[38.772115,48.401303],[38.771543,48.401252],[38.770838,48.40105344241733],[38.770838,48.401053],[38.77065,48.400999],[38.769123,48.400442],[38.767857,48.400162],[38.76734089784946,48.400089],[38.767347,48.400089],[38.766046,48.399905],[38.765173,48.399846],[38.765173,48.399846229661016],[38.760625,48.399535],[38.760534,48.400089],[38.7605348097561,48.400089]]]}},{"type":"Feature","properties":{"cadnum":"4423657700:01:005:0009"},"geometry":{"type":"Polygon","coordinates":[[[38.741971,48.403597],[38.741594,48.403513],[38.741383,48.403468],[38.741095,48.403331],[38.741024,48.403301],[38.740928,48.403385],[38.741018,48.403442],[38.741046,48.403468],[38.741207,48.40357],[38.741221,48.403575],[38.741261,48.403588],[38.741333352,48.403622],[38.741333,48.403622],[38.741527,48.403713],[38.741634,48.403736],[38.74163454054054,48.403736],[38.741873,48.403787],[38.74192945528453,48.4036761056911],[38.741971,48.403597]]]}},{"type":"Feature","properties":{"cadnum":"4423657700:01:005:0001"},"geometry":{"type":"Polygon","coordinates":[[[38.741527,48.403062],[38.741643,48.402923],[38.741288,48.402792],[38.740987,48.402702],[38.740682,48.402609],[38.74066,48.402664],[38.740727,48.402675],[38.740641,48.402774],[38.740853,48.402857],[38.74124,48.402997],[38.741351,48.403024],[38.741481,48.403051],[38.741527,48.403062]]]}},{"type":"Feature","properties":{"cadnum":"4423657700:01:007:0006"},"geometry":{"type":"Polygon","coordinates":[[[38.740399,48.402297],[38.740444,48.402192],[38.740458,48.402153],[38.740192,48.402109],[38.739825,48.402067],[38.739689,48.402046],[38.73929,48.401968],[38.739245,48.402105],[38.739613,48.402165],[38.739726,48.402192],[38.739829,48.402231],[38.740161,48.40227],[38.740399,48.402297]]]}},{"type":"Feature","properties":{"cadnum":"4423657700:01:025:0006"},"geometry":{"type":"Polygon","coordinates":[[[38.74297175221239,48.403622],[38.742971,48.403622],[38.742115,48.404309],[38.742819,48.4047],[38.7432,48.404737893309225],[38.7432,48.404738],[38.74326139999992,48.404743999999994],[38.743372,48.404755],[38.743372,48.40475480781759],[38.743507,48.404768],[38.744347,48.404297],[38.743821,48.403895],[38.74352804395605,48.403736],[38.743529,48.403736],[38.7432,48.403558],[38.7432,48.40355806153846],[38.743112,48.40351],[38.74297175221239,48.403622]]]}},{"type":"Feature","properties":{"cadnum":"4423657700:01:006:0005"},"geometry":{"type":"Polygon","coordinates":[[[38.739101,48.401811],[38.73916,48.401601],[38.738984,48.401566],[38.73893,48.40178],[38.739101,48.401811]]]}},{"type":"Feature","properties":{"cadnum":"4423657700:01:009:0007"},"geometry":{"type":"Polygon","coordinates":[[[38.737798,48.401983],[38.737749,48.401972],[38.737767,48.401941],[38.737821,48.401939],[38.737852,48.401876],[38.737707,48.401845],[38.737707,48.401845138513515],[38.737556,48.401813],[38.737008,48.4017],[38.736932,48.401906],[38.737462,48.402016],[38.737758,48.402079],[38.737798,48.401983]]]}},{"type":"Feature","properties":{"cadnum":"4423657700:01:005:0008"},"geometry":{"type":"Polygon","coordinates":[[[38.741114,48.403668],[38.741221,48.403575],[38.741207,48.40357],[38.741046,48.403468],[38.741018,48.403442],[38.740928,48.403385],[38.740898,48.403364],[38.740871,48.40334],[38.740758,48.403289],[38.740678,48.403256],[38.740641,48.403239],[38.740426,48.403164],[38.740377,48.403227],[38.740368,48.403224],[38.740332,48.403269],[38.740273,48.40325],[38.740251,48.403292],[38.740507,48.403385],[38.740515,48.403385],[38.740709,48.403429],[38.740695,48.403451],[38.740808,48.403504],[38.740898,48.403555],[38.741114,48.403668]]]}},{"type":"Feature","properties":{"cadnum":"4423657700:01:007:0007"},"geometry":{"type":"Polygon","coordinates":[[[38.740202,48.402735],[38.740242,48.402646],[38.740278,48.402565],[38.740295,48.402526],[38.740305,48.402514],[38.740139,48.402463],[38.740008,48.402452],[38.739528,48.402404],[38.739506,48.402646],[38.739905,48.40269],[38.739976,48.402696],[38.740045,48.402705],[38.740085,48.402708],[38.740202,48.402735]]]}},{"type":"Feature","properties":{"cadnum":"4423657700:01:006:0006"},"geometry":{"type":"Polygon","coordinates":[[[38.73893,48.40178],[38.738984,48.401566],[38.7385,48.401462],[38.738238,48.401411],[38.738207,48.401479],[38.738189,48.401536],[38.738167,48.401596],[38.738148,48.40164],[38.738311,48.40167],[38.738441,48.401691],[38.73893,48.40178]]]}},{"type":"Feature","properties":{"cadnum":"4423657700:01:006:0003"},"geometry":{"type":"Polygon","coordinates":[[[38.741347,48.400051],[38.740844,48.399923],[38.740399,48.399773],[38.740309,48.399976],[38.74079,48.400051],[38.741244,48.400185],[38.741307,48.400203],[38.741311,48.400195],[38.741441,48.400209],[38.741454,48.400155],[38.741477,48.400066],[38.741347,48.400051]]]}},{"type":"Feature","properties":{"cadnum":"4423657700:01:005:0012"},"geometry":{"type":"Polygon","coordinates":[[[38.742043,48.399875],[38.741958329341315,48.399976],[38.741958,48.399976],[38.741903,48.400042],[38.742102,48.400116],[38.742303,48.400224],[38.742806,48.400414],[38.742919,48.40029],[38.742695,48.4002],[38.742465,48.400066],[38.742043,48.399875]]]}},{"type":"Feature","properties":{"cadnum":"4423657700:01:026:0001"},"geometry":{"type":"Polygon","coordinates":[[[38.770776991100604,48.41363863798195],[38.770838,48.413633],[38.770838,48.413632942252164],[38.771705,48.413552],[38.771715,48.412985],[38.770772794746016,48.41298140722496],[38.770618,48.41298],[38.769631,48.413227],[38.76981,48.413728],[38.770666,48.41364889494163],[38.770666,48.413649],[38.770776991100604,48.41363863798195]]]}},{"type":"Feature","properties":{"cadnum":"4423657700:01:012:0001"},"geometry":{"type":"Polygon","coordinates":[[[38.770776991100604,48.41363863798195],[38.770838,48.413633],[38.770838,48.413632942252164],[38.771705,48.413552],[38.771715,48.412985],[38.770772794746016,48.41298140722496],[38.770618,48.41298],[38.769631,48.413227],[38.76981,48.413728],[38.770666,48.41364889494163],[38.770666,48.413649],[38.770776991100604,48.41363863798195]]]}},{"type":"Feature","properties":{"cadnum":"4423657700:01:022:0004"},"geometry":{"type":"Polygon","coordinates":[[[38.747595,48.421619],[38.747649,48.42147],[38.747666,48.421428],[38.747352,48.421437],[38.74723,48.4215],[38.747209,48.421562],[38.747595,48.421619]]]}},{"type":"Feature","properties":{"cadnum":"4423657700:01:022:0002"},"geometry":{"type":"Polygon","coordinates":[[[38.747519,48.421851],[38.747519,48.421842],[38.747595,48.421616],[38.747209,48.421565],[38.747132,48.421786],[38.747071,48.421967],[38.747072,48.421967],[38.747056,48.422015],[38.747437,48.422066],[38.747496,48.421907],[38.747519,48.421851]]]}},{"type":"Feature","properties":{"cadnum":"4423657700:01:022:0003"},"geometry":{"type":"Polygon","coordinates":[[[38.747716,48.42175],[38.747783,48.421761],[38.747886,48.421472],[38.747823,48.42144],[38.747666,48.421428],[38.747649,48.42147],[38.747554,48.421732],[38.747527,48.421827],[38.747516925,48.421853],[38.747516,48.421853],[38.747496,48.421907],[38.747473,48.421967],[38.747473735849056,48.421967],[38.747437,48.422066],[38.747595,48.422093],[38.747653181946326,48.421924763046775],[38.747716,48.42175]]]}},{"type":"Feature","properties":{"cadnum":"4423657700:02:004:0007"},"geometry":{"type":"Polygon","coordinates":[[[38.7066,48.417901],[38.706501,48.415305],[38.704748,48.415636],[38.704748,48.415636102739725],[38.704336,48.415713],[38.70435800345092,48.418208],[38.704358,48.418208],[38.704358065312,48.41821501450877],[38.704359,48.418321],[38.70435905214153,48.418321],[38.70439193854749,48.421853],[38.704391,48.421853],[38.704394,48.422095],[38.70447985740677,48.421948679630724],[38.704748,48.42149622616408],[38.704748,48.421497],[38.70482229044488,48.42137087133359],[38.70492,48.421206],[38.70492,48.42120498222223],[38.704973,48.421115],[38.705576,48.420206],[38.70629,48.419154],[38.706285,48.418435],[38.70632668281938,48.418321],[38.706327,48.418321],[38.706465,48.417946],[38.7066,48.417901]]]}},{"type":"Feature","properties":{"cadnum":"4423657700:01:008:0005"},"geometry":{"type":"Polygon","coordinates":[[[38.495406,48.331674],[38.495748,48.331435],[38.495545,48.331291],[38.495335,48.331435],[38.495335,48.331444],[38.495195,48.331543],[38.495406,48.331674]]]}},{"type":"Feature","properties":{"cadnum":"4423657700:01:005:0006"},"geometry":{"type":"Polygon","coordinates":[[[38.74137,48.404611],[38.74162,48.404419],[38.740772,48.40416],[38.74075,48.404175],[38.74057,48.404309],[38.741001,48.404485],[38.74137,48.404611]]]}},{"type":"Feature","properties":{"cadnum":"4423657700:01:005:0016"},"geometry":{"type":"Polygon","coordinates":[[[38.740089,48.404465],[38.740278,48.404273],[38.740269,48.404264],[38.739909,48.404116],[38.739811,48.404107],[38.739622,48.40402],[38.739586,48.404005],[38.73951,48.404074],[38.739519,48.404079],[38.73941,48.404181],[38.739492,48.404223],[38.739689,48.404315],[38.739896,48.404386],[38.740089,48.404465]]]}},{"type":"Feature","properties":{"cadnum":"4423657700:01:005:0015"},"geometry":{"type":"Polygon","coordinates":[[[38.741657,48.404432],[38.74176,48.404235],[38.741297,48.404172],[38.740924,48.404029],[38.740804,48.404169],[38.74162,48.404419],[38.741657,48.404432]]]}},{"type":"Feature","properties":{"cadnum":"4423657700:01:005:0004"},"geometry":{"type":"Polygon","coordinates":[[[38.741557,48.405171],[38.741751,48.404938],[38.741576,48.404801],[38.741297,48.404959],[38.741557,48.405171]]]}},{"type":"Feature","properties":{"cadnum":"4423657700:01:005:0003"},"geometry":{"type":"Polygon","coordinates":[[[38.74057,48.404309],[38.74075,48.404175],[38.740592,48.404101],[38.739892,48.403796],[38.739819,48.403853],[38.739726,48.403922],[38.739775,48.403946],[38.739909,48.404011],[38.740426,48.404249],[38.74057,48.404309]]]}},{"type":"Feature","properties":{"cadnum":"4423657700:01:007:0004"},"geometry":{"type":"Polygon","coordinates":[[[38.739029,48.4058],[38.739038,48.405776],[38.739142,48.405716],[38.738211,48.405505],[38.738181,48.405499],[38.73814,48.405579],[38.738167,48.405586],[38.738122,48.405657],[38.739029,48.4058]]]}},{"type":"Feature","properties":{"cadnum":"4423657700:01:005:0013"},"geometry":{"type":"Polygon","coordinates":[[[38.74075,48.404175],[38.740772,48.40416],[38.740804,48.404169],[38.740924,48.404029],[38.740624,48.403859],[38.740129,48.403698],[38.740008,48.403847],[38.740592,48.404101],[38.74075,48.404175]]]}},{"type":"Feature","properties":{"cadnum":"4423657700:01:005:0017"},"geometry":{"type":"Polygon","coordinates":[[[38.741315,48.40529],[38.741486,48.405111],[38.741297,48.404959],[38.741433,48.404885],[38.74136,48.404819],[38.741244,48.404804],[38.740785,48.40475],[38.740552,48.404679],[38.740372,48.404598],[38.740135,48.404423],[38.739941,48.404611],[38.740215,48.404733],[38.740722,48.404971],[38.741046,48.405171],[38.741315,48.40529]]]}},{"type":"Feature","properties":{"cadnum":"4423657700:01:005:0005"},"geometry":{"type":"Polygon","coordinates":[[[38.741244,48.404804],[38.741248,48.404726],[38.740928,48.4047],[38.740632,48.404598],[38.740282,48.404399],[38.739577,48.40407],[38.739473,48.404172],[38.739662,48.404258],[38.739762,48.404264],[38.740121,48.404414],[38.740372,48.404598],[38.740552,48.404679],[38.740785,48.40475],[38.741244,48.404804]]]}},{"type":"Feature","properties":{"cadnum":"4423657700:01:015:0001"},"geometry":{"type":"Polygon","coordinates":[[[38.732386,48.417591],[38.728303,48.417535],[38.72829,48.417899],[38.732214,48.41795073242187],[38.732214,48.417951],[38.735036,48.417988],[38.737707,48.41813456208231],[38.737707,48.418135],[38.739599,48.418239],[38.739645,48.417877],[38.737707,48.417772],[38.737707,48.417772579505304],[38.735049,48.417627],[38.732386,48.41759130546737],[38.732386,48.417591]]]}},{"type":"Feature","properties":{"cadnum":"4423657700:01:017:0001"},"geometry":{"type":"Polygon","coordinates":[[[38.732674472727254,48.421853],[38.732671,48.421853],[38.732817,48.421867],[38.734839,48.421958],[38.734888,48.421765],[38.73611,48.421818],[38.736312,48.421604],[38.734605,48.421527],[38.734556,48.42172],[38.732854,48.421642],[38.732214,48.421584],[38.732214,48.42158432613909],[38.731969,48.421562],[38.730504,48.421491],[38.729404,48.421446],[38.72877,48.421485],[38.727297,48.421487],[38.726929,48.421207],[38.72686171981811,48.42121411617308],[38.725415,48.421363],[38.724082,48.421467],[38.721228,48.421664],[38.721228,48.42166468796434],[38.720726,48.421699],[38.72075075,48.421853],[38.72075,48.421853],[38.720762,48.421923],[38.721228,48.421890811616954],[38.721228,48.421891],[38.724118,48.42169],[38.725464,48.421586],[38.726799,48.421449],[38.726892,48.42152],[38.726892,48.42151941428572],[38.727149,48.421714],[38.728789,48.421711],[38.729412,48.421672],[38.730481,48.421714],[38.731932,48.421786],[38.732386,48.421827],[38.732386,48.421826688225536],[38.732674472727254,48.421853]]]}},{"type":"Feature","properties":{"cadnum":"4423657700:01:008:0010"},"geometry":{"type":"Polygon","coordinates":[[[38.738616,48.398948],[38.739114,48.398861],[38.739276,48.398798],[38.739439,48.398572],[38.739133,48.398504],[38.737879,48.39831845021038],[38.737879,48.398318],[38.737605,48.398277],[38.73527,48.398009],[38.735077,48.397987],[38.734511,48.397969],[38.734138,48.398074],[38.732584,48.39932],[38.734389,48.39989],[38.735131,48.3993],[38.73567,48.399001],[38.736047,48.398992],[38.736523,48.399031],[38.736609,48.399008],[38.736949,48.399094],[38.737326,48.398989],[38.737879,48.398972],[38.737879,48.398971512651265],[38.738616,48.398948]],[[38.738544,48.398641],[38.738548,48.398581],[38.738665,48.398586],[38.738657,48.398646],[38.738544,48.398641]],[[38.735261,48.399031],[38.735297,48.39896],[38.735408,48.398984],[38.735368,48.399055],[38.735261,48.399031]],[[38.735095,48.398628],[38.735104,48.39861],[38.735126,48.398617],[38.735117,48.398635],[38.735095,48.398628]],[[38.734659,48.399439],[38.734668,48.399424],[38.73469,48.399431],[38.734682,48.399446],[38.734659,48.399439]]]}},{"type":"Feature","properties":{"cadnum":"4423657700:01:025:0004"},"geometry":{"type":"Polygon","coordinates":[[[38.765345,48.40162238495857],[38.766742,48.401658],[38.766908,48.401322],[38.765992,48.401152],[38.765377,48.401139],[38.765173,48.401157],[38.765173,48.40115764492754],[38.764793,48.40119],[38.764119,48.401357],[38.764199,48.401592],[38.765345,48.401623],[38.765345,48.40162238495857]]]}},{"type":"Feature","properties":{"cadnum":"4423657700:02:001:0001"},"geometry":{"type":"Polygon","coordinates":[[[38.677282,48.423522],[38.67753,48.424039],[38.677989440559436,48.425499],[38.677989,48.425499],[38.678196,48.426153],[38.678603,48.426084],[38.679228,48.428039],[38.67957474137931,48.429144],[38.679574,48.429144],[38.679592,48.429199],[38.679621,48.429258],[38.67962165364583,48.429258],[38.679785,48.429583],[38.680423,48.430834],[38.681379,48.432369],[38.681874,48.432286],[38.681924,48.432358],[38.681425,48.432441],[38.681641028199564,48.432788],[38.681641,48.432788],[38.68164660286473,48.43279695442732],[38.681712,48.432902],[38.68171233081285,48.432902],[38.681972,48.433317],[38.682775,48.43398740205129],[38.682775,48.433988],[38.683626,48.434697],[38.685408,48.436008],[38.686482,48.436398],[38.687672,48.435367],[38.6861,48.43475],[38.685274,48.434172],[38.684501,48.433347],[38.684042,48.432788],[38.68404158333333,48.432788],[38.683899,48.432614],[38.683522,48.432084],[38.682947,48.4321825274431],[38.682947,48.432182],[38.682358,48.432283],[38.682305,48.432208],[38.682947,48.432098],[38.682947,48.432097108262106],[38.683477,48.432005],[38.682947,48.431117136752135],[38.682947,48.431116],[38.682413,48.43022],[38.68198564312268,48.429258],[38.681986,48.429258],[38.681295,48.427699],[38.68035585,48.425612],[38.680356,48.425612],[38.68027,48.425419],[38.680702,48.425315],[38.68019,48.424298],[38.679156,48.42251],[38.678986,48.422209],[38.678519,48.422358],[38.677603,48.422653],[38.677282,48.422756],[38.677282,48.422756461224495],[38.676964,48.422859],[38.677282,48.42352160816326],[38.677282,48.423522]]]}},{"type":"Feature","properties":{"cadnum":"4423657700:02:001:0002"},"geometry":{"type":"Polygon","coordinates":[[[38.680926,48.424647],[38.680594,48.423941],[38.680284,48.423285],[38.680095,48.422835],[38.679987,48.422346],[38.679983,48.422254],[38.679983,48.422218],[38.679915,48.422328],[38.679884,48.422298],[38.679884,48.422352],[38.679991,48.42285],[38.680184,48.423306],[38.680494,48.423962],[38.680827,48.424665],[38.681196,48.425446],[38.681220584337346,48.425499],[38.68122,48.425499],[38.6812465709569,48.42555502310189],[38.681273,48.425612],[38.68127359428572,48.425612],[38.681469,48.426024],[38.681784,48.426689],[38.681972,48.4271],[38.682238,48.427655],[38.682588,48.4284],[38.682775,48.428793880398665],[38.682775,48.428795],[38.682889,48.429034],[38.6829405625,48.429144],[38.68294,48.429144],[38.683136,48.429559],[38.68341,48.430138],[38.683746,48.430858],[38.684008,48.431404],[38.684138,48.431678],[38.684151,48.431713],[38.684155,48.431722],[38.684173,48.431755],[38.684196,48.431806],[38.684142,48.431815],[38.684178,48.431886],[38.684232,48.431877],[38.684438,48.432316],[38.684712,48.4329],[38.684712,48.432902],[38.68471293768546,48.432902],[38.68487,48.433237],[38.685018,48.433553],[38.685014,48.433553],[38.685027,48.433579],[38.685031,48.433576],[38.685283,48.434092],[38.68545,48.434298],[38.685719,48.434483],[38.685377,48.434062],[38.68513,48.433558],[38.685144,48.433555],[38.685125,48.433531],[38.685117,48.433535],[38.684968,48.433216],[38.68482171513353,48.432902],[38.684822,48.432902],[38.684811,48.432879],[38.684532,48.432295],[38.684331,48.431863],[38.684339,48.431859],[38.684304,48.431788],[38.684295,48.431788],[38.684272,48.431738],[38.684255,48.431705],[38.684249,48.431689],[38.684232,48.431657],[38.684106,48.431382],[38.683846,48.430838],[38.683509,48.430119],[38.683234,48.429538],[38.683048,48.429144],[38.68304773770492,48.429144],[38.682987,48.429014],[38.682947,48.42893003773585],[38.682947,48.428929],[38.682687,48.428382],[38.682337,48.427633],[38.682071,48.427079],[38.681882,48.426668],[38.681569,48.426003],[38.68133,48.425499],[38.68132982352941,48.425499],[38.681295,48.425425],[38.680926,48.424647]]]}},{"type":"Feature","properties":{"cadnum":"4423657700:02:001:0004"},"geometry":{"type":"Polygon","coordinates":[[[38.682916,48.432188],[38.682821,48.432202],[38.682857,48.432369],[38.683088118198874,48.432788],[38.683088,48.432788],[38.68310457894807,48.43281784210652],[38.683151,48.432902],[38.683151333333335,48.432902],[38.683213,48.433013],[38.684039,48.434026],[38.684286,48.434214],[38.684353,48.434172],[38.684115,48.433991],[38.683297,48.432986],[38.683210478261365,48.43283026087046],[38.682947,48.432352],[38.682916,48.432188]]]}},{"type":"Feature","properties":{"cadnum":"4423657700:01:009:0003"},"geometry":{"type":"Polygon","coordinates":[[[38.737708,48.402266],[38.737735,48.402207],[38.737672,48.402195],[38.737691,48.402153],[38.737722,48.40216],[38.737745,48.402111],[38.737758,48.402079],[38.737727,48.402072],[38.737273,48.401977],[38.736886,48.401897],[38.736783,48.402085],[38.737169,48.402162],[38.737708,48.402266]]]}},{"type":"Feature","properties":{"cadnum":"4423657700:01:009:0004"},"geometry":{"type":"Polygon","coordinates":[[[38.736783,48.402085],[38.736886,48.401897],[38.736599,48.401835],[38.736506,48.402031],[38.736783,48.402085]]]}},{"type":"Feature","properties":{"cadnum":"4423657700:02:004:0002"},"geometry":{"type":"Polygon","coordinates":[[[38.732494,48.402347],[38.732687,48.402335],[38.733235,48.402299],[38.733365,48.40229],[38.733586,48.402275],[38.733796,48.401884],[38.73385,48.401789],[38.734026,48.401468],[38.734066,48.401396],[38.733666,48.401229],[38.733621,48.401211],[38.732827,48.40201],[38.732741,48.402096],[38.732494,48.402347]]]}},{"type":"Feature","properties":{"cadnum":"4423657700:01:009:0005"},"geometry":{"type":"Polygon","coordinates":[[[38.736932,48.401906],[38.737008,48.4017],[38.736653,48.401628],[38.736586,48.401831],[38.736932,48.401906]]]}},{"type":"Feature","properties":{"cadnum":"4423657700:02:004:0005"},"geometry":{"type":"Polygon","coordinates":[[[38.732386,48.402353],[38.732386,48.402351817843865],[38.732494,48.402347],[38.732741,48.402096],[38.73225574257681,48.401893425743644],[38.730868,48.401312],[38.730841,48.401331],[38.729984,48.401939],[38.729858,48.402025],[38.730244,48.402118],[38.730931,48.402242],[38.731349,48.40229],[38.731645,48.402311],[38.732225,48.402359],[38.732386,48.402353]]]}},{"type":"Feature","properties":{"cadnum":"4423657700:02:004:0004"},"geometry":{"type":"Polygon","coordinates":[[[38.732386,48.40194780265655],[38.732741,48.402096],[38.733621,48.401214],[38.732386,48.40070051385928],[38.732386,48.4007],[38.731986,48.400534],[38.731429,48.400925],[38.730868,48.401312],[38.732214,48.40187593675889],[38.732214,48.401876],[38.73225574257681,48.401893425743644],[38.732386,48.401948],[38.732386,48.40194780265655]]]}},{"type":"Feature","properties":{"cadnum":"4423657700:01:014:0001"},"geometry":{"type":"Polygon","coordinates":[[[38.754358,48.413062],[38.754103,48.413033],[38.753744,48.414038],[38.753725,48.414166],[38.753807,48.41433],[38.754187,48.41438724137931],[38.754187,48.414388],[38.754821,48.414482],[38.754916,48.414244],[38.755132,48.413555],[38.7548,48.413477],[38.75488,48.41312],[38.754358,48.413062000000004],[38.754358,48.413062]]]}},{"type":"Feature","properties":{"cadnum":"4423657700:01:024:0013"},"geometry":{"type":"Polygon","coordinates":[[[38.747909,48.425148],[38.747635,48.425097],[38.747394,48.425612],[38.74739497206704,48.425612],[38.74728,48.425857],[38.74754,48.425908],[38.747739,48.425499],[38.747737282327584,48.425499],[38.747909,48.425148]]]}},{"type":"Feature","properties":{"cadnum":"4423657700:02:004:0006"},"geometry":{"type":"Polygon","coordinates":[[[38.731429,48.400925],[38.731986,48.400534],[38.731322,48.400266],[38.730783,48.400633],[38.731429,48.400925]]]}},{"type":"Feature","properties":{"cadnum":"4423657700:02:004:0003"},"geometry":{"type":"Polygon","coordinates":[[[38.730841,48.401331],[38.731429,48.400925],[38.730783,48.400633],[38.73019,48.401056],[38.730841,48.401331]]]}},{"type":"Feature","properties":{"cadnum":"4423657700:02:004:0001"},"geometry":{"type":"Polygon","coordinates":[[[38.729984,48.401939],[38.73032,48.4017],[38.73077,48.401384],[38.730841,48.401331],[38.73019,48.401056],[38.729359,48.401673],[38.729984,48.401939]]]}},{"type":"Feature","properties":{"cadnum":"4423657700:01:024:0005"},"geometry":{"type":"Polygon","coordinates":[[[38.732682,48.421532],[38.732691,48.421308],[38.732359,48.421034],[38.731016,48.421138],[38.731116,48.421688],[38.731546,48.421851],[38.732386,48.421616],[38.732386,48.42161548717949],[38.732682,48.421532]]]}},{"type":"Feature","properties":{"cadnum":"4423657700:01:024:0007"},"geometry":{"type":"Polygon","coordinates":[[[38.737879,48.421311970972425],[38.738396,48.421372],[38.73862,48.421386],[38.738647,48.421207],[38.737879,48.42112856595745],[38.737879,48.421128],[38.737552,48.421094],[38.735966,48.420975],[38.73594,48.421154],[38.73606,48.421162],[38.737519,48.42127],[38.737707,48.421291933333336],[38.737707,48.421292],[38.73782682608727,48.42130591304352],[38.737879,48.421312],[38.737879,48.421311970972425]]]}},{"type":"Feature","properties":{"cadnum":"4423657700:01:024:0006"},"geometry":{"type":"Polygon","coordinates":[[[38.737879,48.4216758],[38.738567,48.421735],[38.738584,48.42161],[38.738351,48.421595],[38.73771392473039,48.42152179569883],[38.737475,48.421494],[38.736024,48.421386],[38.735903,48.421377],[38.735885,48.421502],[38.737707,48.42166099097292],[38.737707,48.421661],[38.737714428024994,48.42166163915564],[38.737879,48.421676],[38.737879,48.4216758]]]}},{"type":"Feature","properties":{"cadnum":"4423657700:02:003:0001"},"geometry":{"type":"Polygon","coordinates":[[[38.700321,48.425622],[38.699255,48.427187],[38.699255,48.427187244949494],[38.697843,48.429258],[38.69784328732395,48.429258],[38.697195,48.430209],[38.698187,48.430468],[38.698721,48.430527],[38.699099,48.430447],[38.699207,48.430459],[38.699255,48.43038874545454],[38.699255,48.430389],[38.699311265402386,48.4303063933656],[38.699427,48.430137],[38.699427,48.43013647641509],[38.700103,48.429144],[38.700102710492224,48.429144],[38.70213,48.42617],[38.700321,48.425622]],[[38.699985,48.428212],[38.700011,48.428223],[38.699993,48.428241],[38.699966,48.42823],[38.699985,48.428212]]]}},{"type":"Feature","properties":{"cadnum":"4423657700:01:026:0002"},"geometry":{"type":"Polygon","coordinates":[[[38.769967,48.414282],[38.769958,48.414253],[38.76981,48.413728],[38.769631,48.413227],[38.766572,48.413558],[38.768134,48.413871],[38.768251,48.413895],[38.768413,48.413928],[38.768642,48.414107],[38.768683,48.414136],[38.76923206666666,48.414562],[38.769231,48.414562],[38.770273,48.415367],[38.77005709360351,48.41460469890711],[38.769967,48.414282]]]}},{"type":"Feature","properties":{"cadnum":"4423657700:02:005:0004"},"geometry":{"type":"Polygon","coordinates":[[[38.69384614179091,48.418920865671666],[38.693933,48.418904],[38.693933,48.41890317818182],[38.694037,48.418882],[38.694312,48.418844],[38.694719,48.418796],[38.695245,48.418734],[38.69604,48.418644],[38.696031,48.418608],[38.695236,48.418697],[38.694706,48.41876],[38.694302,48.418811],[38.694023,48.418849],[38.69386496330303,48.41887988073389],[38.693727,48.418906],[38.693727,48.418894],[38.693018,48.419001],[38.691769,48.419136],[38.691436,48.419156],[38.691046,48.419165],[38.690624,48.419187],[38.689819,48.419273],[38.689482,48.4193],[38.688922,48.41932],[38.68844,48.419341405819296],[38.68844,48.419341],[38.688207,48.41935],[38.68822,48.419416],[38.68844,48.419408],[38.68844,48.41940783116883],[38.688962,48.419389],[38.688962,48.419392],[38.689123,48.419386],[38.689195,48.419383],[38.689681,48.419365],[38.690224,48.419357],[38.690668,48.419315],[38.691553,48.419234],[38.691697,48.419222],[38.691756,48.419225],[38.691765,48.419222],[38.69176,48.419189],[38.692614,48.419097],[38.693448,48.418995],[38.693727,48.418944],[38.693762,48.418937203883495],[38.693762,48.418938],[38.69384614179091,48.418920865671666]]]}},{"type":"Feature","properties":{"cadnum":"4423657700:02:005:0005"},"geometry":{"type":"Polygon","coordinates":[[[38.69390678048748,48.4200829268293],[38.693933,48.42008],[38.693933,48.42007983490566],[38.693974,48.420075],[38.694037,48.420069],[38.694042,48.420086],[38.694086,48.42008],[38.694082,48.42006],[38.695637,48.419905],[38.695771,48.419899],[38.695784,48.419964],[38.696081,48.419934],[38.696031,48.419711],[38.69617,48.419613],[38.696197,48.419505],[38.69614,48.419485],[38.69627,48.418825],[38.696337,48.418781],[38.69635,48.418712],[38.695968,48.418679],[38.695928,48.418888],[38.695784,48.418912],[38.695767,48.41901],[38.695124,48.419085],[38.695218,48.419467],[38.694069,48.419598],[38.694145,48.419881],[38.693762,48.419927],[38.693762,48.41992738846154],[38.693673,48.419938],[38.693507,48.419982],[38.693543,48.420126],[38.693718,48.420104],[38.693762,48.4200990883721],[38.693762,48.4201],[38.69390678048748,48.4200829268293]]]}},{"type":"Feature","properties":{"cadnum":"4423657700:02:005:0001"},"geometry":{"type":"Polygon","coordinates":[[[38.691823,48.420021],[38.693241,48.419887],[38.693022,48.419112],[38.69327,48.419082],[38.693296,48.419183],[38.693767,48.419123],[38.693727,48.418944],[38.693448,48.418995],[38.692614,48.419097],[38.69176,48.419189],[38.691809,48.419434],[38.691823,48.420021]]]}},{"type":"Feature","properties":{"cadnum":"4423657700:01:025:0002"},"geometry":{"type":"Polygon","coordinates":[[[38.776331,48.40722889814815],[38.777023,48.407144],[38.77705,48.406626],[38.776331,48.40658484511784],[38.776331,48.406584],[38.775524,48.406536],[38.773987,48.406447],[38.772595,48.406313],[38.771203,48.406176],[38.77073566120897,48.40627695214108],[38.769859,48.406465],[38.769495,48.406393],[38.769321,48.406569],[38.769864,48.406823],[38.770245,48.407071],[38.770501,48.407261],[38.77050801639345,48.407269],[38.770508,48.407269],[38.77050971335547,48.4072709348539],[38.770608,48.407383],[38.77060894949496,48.407383],[38.770666,48.40744742585551],[38.770666,48.407448],[38.770771,48.407566],[38.770887,48.407792],[38.770901,48.40789],[38.772931,48.407643],[38.774966,48.407396],[38.77569387833502,48.40730668546034],[38.776159,48.407249972288206],[38.776159,48.40725],[38.776195788316954,48.40724548661852],[38.776331,48.407229],[38.776331,48.40722889814815]]]}},{"type":"Feature","properties":{"cadnum":"4423657700:01:024:0010"},"geometry":{"type":"Polygon","coordinates":[[[38.72686171981811,48.42121411617308],[38.725415,48.421363],[38.724082,48.421467],[38.721228,48.421664],[38.721228,48.42166468796434],[38.720726,48.421699],[38.72075075,48.421853],[38.72075,48.421853],[38.720762,48.421923],[38.721228,48.421890811616954],[38.721228,48.421891],[38.724118,48.42169],[38.725464,48.421586],[38.726799,48.421449],[38.726892,48.421457],[38.726892,48.42145609638555],[38.727297,48.421487],[38.726929,48.421207],[38.72686171981811,48.42121411617308]]]}},{"type":"Feature","properties":{"cadnum":"4423657700:01:024:0011"},"geometry":{"type":"Polygon","coordinates":[[[38.72686171981811,48.42121411617308],[38.725415,48.421363],[38.724082,48.421467],[38.721228,48.421664],[38.721228,48.42166468796434],[38.720726,48.421699],[38.72075075,48.421853],[38.72075,48.421853],[38.720762,48.421923],[38.721228,48.421890811616954],[38.721228,48.421891],[38.724118,48.42169],[38.725464,48.421586],[38.726799,48.421449],[38.726892,48.421457],[38.726892,48.42145609638555],[38.727297,48.421487],[38.726929,48.421207],[38.72686171981811,48.42121411617308]]]}},{"type":"Feature","properties":{"cadnum":"4423657700:04:002:0004"},"geometry":{"type":"Polygon","coordinates":[[[38.763738,48.345041],[38.763876,48.344951],[38.763759,48.344847],[38.763755,48.344847],[38.763616,48.344936],[38.763729,48.345041],[38.763738,48.345041]]]}},{"type":"Feature","properties":{"cadnum":"4423657700:04:002:0003"},"geometry":{"type":"Polygon","coordinates":[[[38.760589,48.34487],[38.760729,48.344781],[38.760611,48.344677],[38.760606,48.344673],[38.760467,48.344766],[38.760584,48.34487],[38.760589,48.34487]]]}},{"type":"Feature","properties":{"cadnum":"4423657700:01:001:0013"},"geometry":{"type":"Polygon","coordinates":[[[38.751219,48.395798],[38.751618,48.395739],[38.751916,48.395715],[38.751901,48.395527],[38.751897,48.395465],[38.751794,48.395467],[38.751412,48.395515],[38.751138,48.395571],[38.751219,48.395798]]]}},{"type":"Feature","properties":{"cadnum":"4423657700:01:001:0005"},"geometry":{"type":"Polygon","coordinates":[[[38.749957,48.396013],[38.750263,48.395927],[38.750303,48.39592],[38.750605,48.395879],[38.750635,48.39567],[38.75037,48.395706],[38.750293,48.395715],[38.750272,48.39573],[38.749894,48.395768],[38.749957,48.396013]]]}},{"type":"Feature","properties":{"cadnum":"4423657700:01:002:0001"},"geometry":{"type":"Polygon","coordinates":[[[38.749481,48.393633],[38.749706,48.39352],[38.749616,48.393448],[38.749513,48.39335],[38.749184,48.392971],[38.748924,48.39304],[38.749297,48.393457],[38.749423,48.393564],[38.749481,48.393633]]]}},{"type":"Feature","properties":{"cadnum":"4423657700:01:001:0014"},"geometry":{"type":"Polygon","coordinates":[[[38.751916,48.395715],[38.752647,48.39567],[38.752675,48.395491],[38.752288,48.39547],[38.751897,48.395465],[38.751901,48.395527],[38.751916,48.395715]]]}},{"type":"Feature","properties":{"cadnum":"4423657700:01:003:0001"},"geometry":{"type":"Polygon","coordinates":[[[38.751655,48.392562],[38.751341,48.392569],[38.75133746315789,48.392681],[38.751337,48.392681],[38.751335,48.392759],[38.751327,48.392899],[38.751246,48.393069],[38.751246,48.393097],[38.75166,48.393097],[38.75165579439252,48.39274709345766],[38.751655,48.392562]]]}},{"type":"Feature","properties":{"cadnum":"4423657700:01:003:0005"},"geometry":{"type":"Polygon","coordinates":[[[38.752553,48.392523],[38.75232,48.392521],[38.752304233576645,48.392681],[38.752304,48.392681],[38.75229822811676,48.39274194429662],[38.752293,48.392795],[38.752293203342624,48.392795],[38.75227,48.39304],[38.752266,48.393243],[38.752351,48.393245],[38.752351,48.393234],[38.7524,48.393234],[38.7524,48.393239],[38.75253,48.393239],[38.75253,48.393156],[38.752536,48.393037],[38.752548,48.392681],[38.752547772058826,48.392681],[38.752553,48.392523]]]}},{"type":"Feature","properties":{"cadnum":"4423657700:01:001:0004"},"geometry":{"type":"Polygon","coordinates":[[[38.751211,48.395864],[38.751605,48.395819],[38.751934,48.395792],[38.752356,48.395772],[38.752689,48.395768],[38.752715,48.395578],[38.75258,48.395554],[38.752171,48.395545],[38.751777,48.395538],[38.751408,48.395589],[38.751152,48.39564],[38.751211,48.395864]]]}},{"type":"Feature","properties":{"cadnum":"4423657700:01:001:0010"},"geometry":{"type":"Polygon","coordinates":[[[38.753205,48.395566],[38.753255,48.395387],[38.753241,48.395199],[38.75298,48.395235],[38.752976,48.395205],[38.752639,48.395226],[38.752679,48.395494],[38.752813,48.3955],[38.75289,48.395503],[38.75289,48.395533],[38.75302,48.395545],[38.753205,48.395566]]]}},{"type":"Feature","properties":{"cadnum":"4423657700:01:001:0015"},"geometry":{"type":"Polygon","coordinates":[[[38.75166,48.395396],[38.751834,48.395372],[38.75183,48.395166],[38.751744,48.394862],[38.751498,48.394883],[38.751618,48.395294],[38.75166,48.395396]]]}},{"type":"Feature","properties":{"cadnum":"4423657700:01:003:0003"},"geometry":{"type":"Polygon","coordinates":[[[38.755459,48.392571],[38.755159,48.392595],[38.755137,48.392795],[38.755137972477065,48.392795],[38.755104,48.393117],[38.755096,48.393305],[38.755293,48.393311],[38.755434,48.392681],[38.75543395535714,48.392681],[38.755459,48.392571]]]}},{"type":"Feature","properties":{"cadnum":"4423657700:01:003:0007"},"geometry":{"type":"Polygon","coordinates":[[[38.758639,48.3927],[38.758611,48.392795],[38.75861157391304,48.392795],[38.758473,48.393275],[38.758769,48.393296],[38.758949,48.3927],[38.758639,48.3927]]]}},{"type":"Feature","properties":{"cadnum":"4423657700:01:003:0008"},"geometry":{"type":"Polygon","coordinates":[[[38.756851,48.392446],[38.756618,48.392455],[38.756637541353385,48.392681],[38.756637,48.392681],[38.756641,48.392721],[38.756641,48.392795],[38.75664210447761,48.392795],[38.756645,48.392989],[38.756641,48.393025],[38.756601,48.393168],[38.756591,48.393192],[38.756884,48.393197],[38.756892,48.393027],[38.75687523699422,48.392795],[38.756876,48.392795],[38.756851,48.392446]]]}},{"type":"Feature","properties":{"cadnum":"4423657700:01:003:0009"},"geometry":{"type":"Polygon","coordinates":[[[38.757023,48.392193],[38.756838,48.392189],[38.756851,48.392446],[38.75686783381089,48.392681],[38.756867,48.392681],[38.756892,48.393027],[38.756884,48.393197],[38.756884,48.393206],[38.757067,48.393212],[38.757067,48.39312],[38.757046,48.392681],[38.757045697674414,48.392681],[38.757023,48.392193]]]}},{"type":"Feature","properties":{"cadnum":"4423657700:01:003:0004"},"geometry":{"type":"Polygon","coordinates":[[[38.754876,48.392491],[38.754677,48.392476],[38.75463330094044,48.392681],[38.754633,48.392681],[38.754566,48.392998],[38.754503,48.393269],[38.754704,48.393285],[38.754763,48.393022],[38.75481644251632,48.39276532537935],[38.754876,48.392491]]]}},{"type":"Feature","properties":{"cadnum":"4423657700:01:018:0001"},"geometry":{"type":"Polygon","coordinates":[[[38.73225259813067,48.41062510280384],[38.732386,48.410547],[38.732386,48.410545966101694],[38.732391,48.410543],[38.732799,48.410159],[38.733011,48.410088],[38.73355,48.409792],[38.733294,48.409772],[38.73315,48.409745],[38.733028,48.409709],[38.733011,48.409703],[38.732948,48.409745],[38.732799,48.409789],[38.732768,48.409807],[38.732642,48.409926],[38.732512,48.410007],[38.732399,48.410055],[38.73222550259058,48.41015253367881],[38.732144,48.410198],[38.731923,48.410234],[38.731825,48.410249],[38.731716,48.410299],[38.731762,48.410362],[38.731779,48.41043],[38.731785,48.410514],[38.731757,48.410598],[38.73164,48.410791],[38.731676,48.41089],[38.731661,48.411029],[38.73166239041096,48.411029],[38.731659,48.411062],[38.731196,48.411331],[38.730994,48.411414],[38.730976,48.411414],[38.730944,48.411477],[38.730859,48.411557],[38.730657,48.41171],[38.730585,48.41179],[38.730428,48.411888],[38.730141,48.412008],[38.729762,48.412189],[38.729449,48.412306],[38.7293,48.412326],[38.729183,48.412333],[38.72904,48.412377],[38.728829,48.412481],[38.72873,48.412523],[38.728563,48.412592],[38.728443,48.412702],[38.728321,48.412786],[38.728168,48.412854],[38.728034,48.412887],[38.727926,48.412908],[38.728204,48.413117],[38.728676,48.412911],[38.729156,48.412688],[38.729602,48.412505],[38.730019,48.412366],[38.73045,48.412222],[38.730747,48.412103],[38.730823,48.41207],[38.73098,48.411758],[38.731097,48.411581],[38.7312,48.411474],[38.73155,48.411241],[38.731915,48.410949],[38.731986,48.410863],[38.732062,48.4108],[38.732152,48.410684],[38.732214,48.4106477008547],[38.732214,48.410648],[38.73225259813067,48.41062510280384]]]}},{"type":"Feature","properties":{"cadnum":"4423657700:01:016:0014"},"geometry":{"type":"Polygon","coordinates":[[[38.750905,48.413892],[38.750981,48.413531],[38.749391,48.413436],[38.749355,48.413654],[38.750905,48.413892]]]}},{"type":"Feature","properties":{"cadnum":"4423657700:01:016:0010"},"geometry":{"type":"Polygon","coordinates":[[[38.750411,48.41346],[38.750433,48.413203],[38.750438,48.413126],[38.750456,48.412938],[38.750123,48.412932],[38.750079,48.413412],[38.75028,48.413412],[38.75028,48.413453],[38.750411,48.41346]]]}},{"type":"Feature","properties":{"cadnum":"4423657700:01:016:0013"},"geometry":{"type":"Polygon","coordinates":[[[38.750622,48.412941],[38.750649,48.412655],[38.750649,48.412422],[38.750509,48.412425],[38.750456,48.412938],[38.750622,48.412941]]]}},{"type":"Feature","properties":{"cadnum":"4423657700:01:016:0015"},"geometry":{"type":"Polygon","coordinates":[[[38.748861,48.412005],[38.748865,48.412006],[38.748865,48.41200520338983],[38.74892,48.412008],[38.748924,48.411873],[38.748722,48.411867],[38.748714,48.412002],[38.748775,48.412005],[38.748775,48.412019],[38.748857,48.412023],[38.748861,48.412005]]]}},{"type":"Feature","properties":{"cadnum":"4423657700:01:016:0009"},"geometry":{"type":"Polygon","coordinates":[[[38.749494,48.414061],[38.749521,48.413961],[38.74958,48.41374],[38.749045,48.413677],[38.748974,48.413898],[38.748942,48.414002],[38.749494,48.414061]]]}},{"type":"Feature","properties":{"cadnum":"4423657700:01:007:0014"},"geometry":{"type":"Polygon","coordinates":[[[38.738418,48.407882],[38.738746,48.407845],[38.73872,48.40758],[38.738701,48.407336],[38.738391,48.407401],[38.738405,48.407577],[38.738414,48.407831],[38.73841,48.407831],[38.738418,48.407882]]]}},{"type":"Feature","properties":{"cadnum":"4423657700:01:007:0005"},"geometry":{"type":"Polygon","coordinates":[[[38.741792,48.407915],[38.741859,48.40769],[38.741913,48.407526],[38.74136,48.407613],[38.741311,48.407694],[38.741217,48.407834],[38.741441,48.407849],[38.741792,48.407915]]]}},{"type":"Feature","properties":{"cadnum":"4423657700:05:002:0008"},"geometry":{"type":"Polygon","coordinates":[[[38.914799,48.446776],[38.914937,48.44661],[38.914956,48.446565],[38.91496,48.446559],[38.914793,48.446538],[38.914227,48.44646],[38.914227,48.446467],[38.914187,48.44646],[38.914191,48.446452],[38.914174,48.446452],[38.914111,48.446443],[38.914053,48.446434],[38.914003,48.446428],[38.913994,48.446458],[38.91399,48.446478],[38.913971,48.446577],[38.913963,48.446606],[38.913954,48.446654],[38.914703,48.446747],[38.914709,48.446743],[38.914799,48.446776]]]}},{"type":"Feature","properties":{"cadnum":"4423657700:02:007:0003"},"geometry":{"type":"Polygon","coordinates":[[[38.686213,48.422388],[38.686182,48.422474],[38.685961,48.42504],[38.688269,48.42526530697862],[38.688269,48.425266],[38.689236,48.42536],[38.689901,48.422543],[38.688269,48.422474],[38.688269,48.42247478221823],[38.686213,48.422388]]]}},{"type":"Feature","properties":{"cadnum":"4423657700:02:007:0002"},"geometry":{"type":"Polygon","coordinates":[[[38.685961,48.42504],[38.684928,48.424832],[38.684861299999994,48.425499],[38.684861,48.425499],[38.684677,48.427374],[38.68844,48.427536],[38.68844,48.42753515638766],[38.688723,48.427547],[38.68919189786738,48.42554219241673],[38.689236,48.42536],[38.68844,48.42528262254395],[38.68844,48.425282],[38.685961,48.42504]],[[38.686069,48.426137],[38.686083,48.426259],[38.685831,48.426263],[38.685822,48.426129],[38.686069,48.426137]]]}},{"type":"Feature","properties":{"cadnum":"4423657700:01:003:0011"},"geometry":{"type":"Polygon","coordinates":[[[38.761266,48.39273],[38.761256,48.392795],[38.76125661371841,48.392795],[38.761226,48.393007],[38.761136,48.393559],[38.761348,48.39357],[38.761371,48.393409],[38.761501,48.39273],[38.761266,48.39273]]]}},{"type":"Feature","properties":{"cadnum":"4423657700:01:024:0019"},"geometry":{"type":"Polygon","coordinates":[[[38.744859,48.424218],[38.744863,48.424206],[38.744909,48.424209],[38.744936,48.424203],[38.745008,48.423857],[38.744836,48.423831],[38.744752,48.423824],[38.744527,48.423816],[38.744509,48.423908],[38.744442,48.42418],[38.744859,48.424218]]]}},{"type":"Feature","properties":{"cadnum":"4423657700:01:023:0001"},"geometry":{"type":"Polygon","coordinates":[[[38.746098,48.42406],[38.746121,48.423926],[38.746135,48.423824],[38.746121,48.423822],[38.74609,48.423816],[38.746131,48.423652],[38.745708,48.423687],[38.745718,48.423994],[38.745892,48.424036],[38.746098,48.42406]]]}},{"type":"Feature","properties":{"cadnum":"4423657700:01:024:0018"},"geometry":{"type":"Polygon","coordinates":[[[38.747442,48.423323],[38.747492,48.423064],[38.747186,48.423029],[38.747182,48.423034],[38.747159,48.423136],[38.747123,48.423273],[38.747222,48.423297],[38.747312,48.423309],[38.747442,48.423323]]]}},{"type":"Feature","properties":{"cadnum":"4423657700:01:024:0020"},"geometry":{"type":"Polygon","coordinates":[[[38.744769,48.424683],[38.744859,48.424218],[38.744442,48.42418],[38.744419,48.424293],[38.744393,48.42437],[38.744446,48.424376],[38.744374,48.424638],[38.744769,48.424683]]]}},{"type":"Feature","properties":{"cadnum":"4423657700:01:024:0014"},"geometry":{"type":"Polygon","coordinates":[[[38.747909,48.425151],[38.748012,48.424933],[38.748201,48.424549],[38.747922,48.424489],[38.747743,48.424876],[38.747639,48.425091],[38.747909,48.425151]]]}},{"type":"Feature","properties":{"cadnum":"4423657700:01:005:0014"},"geometry":{"type":"Polygon","coordinates":[[[38.742286,48.399976],[38.742456,48.399782],[38.742326,48.399726],[38.742249,48.399699],[38.742137,48.399667],[38.742075,48.399649],[38.741999,48.399753],[38.742066,48.399771],[38.742003,48.399857],[38.742286,48.399976]]]}},{"type":"Feature","properties":{"cadnum":"4423657700:01:006:0008"},"geometry":{"type":"Polygon","coordinates":[[[38.742358,48.398548],[38.742461,48.398351],[38.742439,48.398345],[38.742475,48.398277],[38.741903,48.398148],[38.741773,48.39839],[38.742137,48.39848],[38.742129,48.398491],[38.742358,48.398548]]]}},{"type":"Feature","properties":{"cadnum":"4423657700:01:008:0004"},"geometry":{"type":"Polygon","coordinates":[[[38.742551,48.397823],[38.742681,48.39762],[38.742236,48.397483],[38.742102,48.39768],[38.742551,48.397823]]]}},{"type":"Feature","properties":{"cadnum":"4423657700:01:008:0011"},"geometry":{"type":"Polygon","coordinates":[[[38.739622,48.399309],[38.739752,48.399094],[38.738962,48.398957],[38.738863,48.399198],[38.739439,48.399258],[38.739622,48.399309]]]}},{"type":"Feature","properties":{"cadnum":"4423657700:01:006:0001"},"geometry":{"type":"Polygon","coordinates":[[[38.743372,48.39835791696751],[38.743754,48.398471],[38.74411,48.39794],[38.743261,48.39768],[38.7432,48.397814],[38.7432,48.397814871559625],[38.743152,48.397921],[38.743125,48.397976],[38.742999,48.398247],[38.7432,48.398306815013406],[38.7432,48.398307],[38.743318714286076,48.39834214285725],[38.743372,48.398358],[38.743372,48.39835791696751]]]}},{"type":"Feature","properties":{"cadnum":"4423657700:01:004:0020"},"geometry":{"type":"Polygon","coordinates":[[[38.744846,48.397528],[38.744248,48.397421],[38.743951,48.397892],[38.743261,48.39768],[38.7432,48.397816],[38.7432,48.39781715976331],[38.742923,48.39844],[38.743125,48.398491],[38.7432,48.398511286885245],[38.7432,48.398512],[38.743247,48.398524],[38.743372,48.398551],[38.743372,48.39855027388535],[38.743561,48.39859],[38.74379,48.398646],[38.744311,48.398778],[38.744846,48.397528]]]}},{"type":"Feature","properties":{"cadnum":"4423657700:01:006:0004"},"geometry":{"type":"Polygon","coordinates":[[[38.740309,48.399976],[38.740399,48.399773],[38.740395,48.399773],[38.740295,48.399974],[38.740309,48.399976]]]}},{"type":"Feature","properties":{"cadnum":"4423657700:01:004:0019"},"geometry":{"type":"Polygon","coordinates":[[[38.742919,48.397227],[38.743121,48.396926],[38.742923,48.396869],[38.742941,48.396839],[38.742869,48.396818],[38.742848,48.396848],[38.74264,48.396789],[38.742496,48.396634],[38.74251,48.396583],[38.742393,48.396571],[38.742385,48.396621],[38.742479,48.39663],[38.742622,48.396789],[38.742595,48.396833],[38.742663,48.396854],[38.742496,48.397099],[38.742919,48.397227]]]}},{"type":"Feature","properties":{"cadnum":"4423657700:01:005:0002"},"geometry":{"type":"Polygon","coordinates":[[[38.743372,48.39939597365119],[38.743997,48.399603],[38.744083,48.399496],[38.743768,48.399392],[38.74326626666669,48.39924448333334],[38.742748,48.39909],[38.742532,48.399055],[38.742519,48.399094],[38.742492,48.399154],[38.742654,48.399183],[38.742811,48.39921],[38.7432,48.39933897326203],[38.7432,48.399339],[38.74328663042094,48.399367695647584],[38.743372,48.399396],[38.743372,48.39939597365119]]]}},{"type":"Feature","properties":{"cadnum":"4423657700:01:004:0015"},"geometry":{"type":"Polygon","coordinates":[[[38.743359,48.398697],[38.743121,48.398655],[38.743135,48.398619],[38.743085,48.39861],[38.742919,48.398584],[38.742896,48.398641],[38.742829,48.398632],[38.742806,48.398697],[38.742982,48.398727],[38.743314,48.398814],[38.743359,48.398697]]]}},{"type":"Feature","properties":{"cadnum":"4423657700:01:004:0018"},"geometry":{"type":"Polygon","coordinates":[[[38.74273,48.397439],[38.742834,48.397293],[38.742672,48.397242],[38.742636,48.397304],[38.742676,48.397317],[38.742613,48.397403],[38.74273,48.397439]]]}},{"type":"Feature","properties":{"cadnum":"4423657700:01:005:0011"},"geometry":{"type":"Polygon","coordinates":[[[38.742286,48.399976],[38.742456,48.399782],[38.742326,48.399726],[38.742249,48.399699],[38.742137,48.399667],[38.742075,48.399649],[38.741999,48.399753],[38.742066,48.399771],[38.742003,48.399857],[38.742286,48.399976]]]}},{"type":"Feature","properties":{"cadnum":"4423657700:01:006:0002"},"geometry":{"type":"Polygon","coordinates":[[[38.744248,48.397421],[38.743777,48.397328],[38.743467,48.397275],[38.743261,48.39768],[38.743372,48.397715],[38.743372,48.39771410434783],[38.743951,48.397892],[38.744248,48.397421]]]}},{"type":"Feature","properties":{"cadnum":"4423657700:01:004:0012"},"geometry":{"type":"Polygon","coordinates":[[[38.744248,48.397421],[38.743777,48.397328],[38.743467,48.397275],[38.743261,48.39768],[38.743372,48.397715],[38.743372,48.39771410434783],[38.743951,48.397892],[38.744248,48.397421]]]}},{"type":"Feature","properties":{"cadnum":"4423657700:01:006:0009"},"geometry":{"type":"Polygon","coordinates":[[[38.742658,48.397853],[38.742793,48.397665],[38.742739,48.397594],[38.742703,48.397578],[38.742213,48.397489],[38.742089,48.397492],[38.741993,48.397543],[38.741899,48.397662],[38.742362,48.397784],[38.742658,48.397853]]]}},{"type":"Feature","properties":{"cadnum":"4423657700:01:008:0006"},"geometry":{"type":"Polygon","coordinates":[[[38.742039,48.396311],[38.742028358778626,48.396328],[38.742028,48.396328],[38.74200911214943,48.396358747663704],[38.741957,48.396442],[38.74195797142857,48.396442],[38.741899,48.396538],[38.742245,48.396636],[38.742389,48.396409],[38.742039,48.396311]]]}},{"type":"Feature","properties":{"cadnum":"4423657700:01:004:0005"},"geometry":{"type":"Polygon","coordinates":[[[38.743372,48.398535042201836],[38.743745,48.398572],[38.743827,48.398438],[38.743597,48.398378],[38.743372,48.39832942857143],[38.743372,48.398329],[38.743282,48.39831],[38.743161,48.398279],[38.742959,48.398226],[38.742861,48.398393],[38.742829,48.39844],[38.743049,48.398471],[38.743125,48.398482],[38.743112,48.398509],[38.743372,48.398536],[38.743372,48.398535042201836]]]}},{"type":"Feature","properties":{"cadnum":"4423657700:01:004:0014"},"geometry":{"type":"Polygon","coordinates":[[[38.743364,48.396571],[38.743165,48.396517],[38.743108,48.396619],[38.7432,48.39664313861386],[38.7432,48.396644],[38.74331,48.396672],[38.743364,48.396571]]]}},{"type":"Feature","properties":{"cadnum":"4423657700:01:008:0009"},"geometry":{"type":"Polygon","coordinates":[[[38.738657,48.398646],[38.738665,48.398586],[38.738548,48.398581],[38.738544,48.398641],[38.738657,48.398646]]]}},{"type":"Feature","properties":{"cadnum":"4423657700:04:002:0006"},"geometry":{"type":"Polygon","coordinates":[[[38.770736,48.34522],[38.770726,48.34522],[38.770587,48.345312],[38.770633,48.345354],[38.7706338,48.345354],[38.770666,48.3453828974359],[38.770666,48.345384],[38.770704,48.345417],[38.770708,48.345417],[38.770838,48.345334],[38.770838,48.34533376258993],[38.770847,48.345328],[38.770838,48.34531924324324],[38.770838,48.345319],[38.770838,48.345318],[38.770736,48.34522]]]}},{"type":"Feature","properties":{"cadnum":"4423657700:01:003:0010"},"geometry":{"type":"Polygon","coordinates":[[[38.762637,48.393615],[38.762654,48.39344],[38.762681,48.393329],[38.762704,48.393156],[38.762771,48.392819],[38.762547,48.392804],[38.762475,48.393177],[38.762417,48.393517],[38.762408,48.393606],[38.762637,48.393615]]]}},{"type":"Feature","properties":{"cadnum":"4423657700:01:002:0008"},"geometry":{"type":"Polygon","coordinates":[[[38.742227,48.392795],[38.742227220220215,48.392795],[38.742079,48.393687],[38.742326,48.393782],[38.742353,48.393889],[38.742276,48.394367],[38.742249,48.394459],[38.742555,48.394498],[38.742856,48.394537],[38.743139,48.39283],[38.742245,48.392688],[38.742227,48.392795]]]}},{"type":"Feature","properties":{"cadnum":"4423657700:01:027:0002"},"geometry":{"type":"Polygon","coordinates":[[[38.739806,48.392244],[38.740341,48.392169],[38.740309,48.392136],[38.740354,48.391975],[38.740039,48.391891],[38.739726,48.391811],[38.739756,48.392079],[38.739806,48.392244]]]}},{"type":"Feature","properties":{"cadnum":"4423657700:01:027:0008"},"geometry":{"type":"Polygon","coordinates":[[[38.73986,48.392407],[38.740098,48.392399],[38.740444,48.39239],[38.740511,48.392326],[38.740377,48.392202],[38.740341,48.392169],[38.739806,48.392244],[38.73986,48.392407]]]}},{"type":"Feature","properties":{"cadnum":"4423657700:01:027:0012"},"geometry":{"type":"Polygon","coordinates":[[[38.740354,48.391975],[38.740431,48.391653],[38.740305,48.39162],[38.740076,48.391563],[38.739873,48.391501],[38.739752,48.391471],[38.739613,48.391781],[38.739726,48.391811],[38.740039,48.391891],[38.740354,48.391975]]]}},{"type":"Feature","properties":{"cadnum":"4423657700:01:002:0009"},"geometry":{"type":"Polygon","coordinates":[[[38.741423,48.392661],[38.74139538805969,48.392681],[38.741395,48.392681],[38.74135016535486,48.39271375590513],[38.741238,48.392795],[38.7412389625,48.392795],[38.740957,48.393001],[38.740924,48.393403],[38.741181,48.39355],[38.742123,48.393433],[38.742245,48.392688],[38.741423,48.392661]]]}},{"type":"Feature","properties":{"cadnum":"4423657700:01:004:0001"},"geometry":{"type":"Polygon","coordinates":[[[38.741068,48.391891],[38.741185,48.391295],[38.741041,48.39128],[38.741037,48.391313],[38.740961,48.391307],[38.740867,48.391873],[38.741068,48.391891]]]}},{"type":"Feature","properties":{"cadnum":"4423657700:01:027:0010"},"geometry":{"type":"Polygon","coordinates":[[[38.74322,48.391751],[38.743068,48.391855],[38.743072,48.391879],[38.7432,48.391941720000005],[38.7432,48.391943],[38.74366,48.392166],[38.743607,48.391859],[38.743597,48.391802],[38.743574,48.391667],[38.743561,48.391629],[38.743381,48.391629],[38.743215,48.391626],[38.74322,48.391751]]]}},{"type":"Feature","properties":{"cadnum":"4423657700:01:009:0009"},"geometry":{"type":"Polygon","coordinates":[[[38.733558,48.405422],[38.73438,48.40538],[38.73438,48.40523],[38.73367,48.405245],[38.733357,48.405225],[38.733248,48.405398],[38.733324,48.405413],[38.733558,48.405422]]]}},{"type":"Feature","properties":{"cadnum":"4423657700:01:013:0010"},"geometry":{"type":"Polygon","coordinates":[[[38.736276,48.407133],[38.735969,48.407383],[38.73596943636363,48.407383],[38.735907,48.407434],[38.735944,48.407449],[38.736087,48.407502],[38.736263,48.407557],[38.736437,48.407634],[38.73654,48.407699],[38.736532,48.407592],[38.736437,48.407378],[38.736276,48.407133]]]}},{"type":"Feature","properties":{"cadnum":"4423657700:01:013:0009"},"geometry":{"type":"Polygon","coordinates":[[[38.736276,48.407133],[38.736249,48.4071],[38.736047,48.406978],[38.735917,48.407011],[38.735777,48.407071],[38.735512,48.407264],[38.735788,48.407383],[38.73578861818182,48.407383],[38.735907,48.407434],[38.736109,48.407269],[38.736108992,48.407269],[38.736276,48.407133]]]}},{"type":"Feature","properties":{"cadnum":"4423657700:01:019:0009"},"geometry":{"type":"Polygon","coordinates":[[[38.745349,48.416283],[38.745322,48.415853],[38.745089,48.415857],[38.745052,48.416283],[38.745349,48.416283]]]}},{"type":"Feature","properties":{"cadnum":"4423657700:01:019:0010"},"geometry":{"type":"Polygon","coordinates":[[[38.747693,48.414488],[38.74737,48.414485],[38.747352,48.414676],[38.74735315662651,48.414676],[38.74732,48.41506],[38.747626,48.415066],[38.747684,48.414562],[38.74768394680851,48.414562],[38.747693,48.414488]]]}},{"type":"Feature","properties":{"cadnum":"4423657700:01:019:0013"},"geometry":{"type":"Polygon","coordinates":[[[38.747995,48.415746],[38.748039,48.415632],[38.748111,48.415367],[38.748138,48.415338],[38.748169,48.41517],[38.747855,48.415153],[38.74772,48.415672],[38.747712,48.415731],[38.747995,48.415746]]]}},{"type":"Feature","properties":{"cadnum":"4423657700:03:002:0001"},"geometry":{"type":"Polygon","coordinates":[[[38.768759,48.416343],[38.765421,48.416065],[38.765421,48.416897],[38.768759,48.416897],[38.770666,48.41713640692641],[38.770666,48.417137],[38.773201,48.417454],[38.773201,48.416897],[38.770704,48.41662],[38.770666,48.416614],[38.770666,48.41661458817481],[38.768759,48.416343]]]}},{"type":"Feature","properties":{"cadnum":"4423657700:02:007:0001"},"geometry":{"type":"Polygon","coordinates":[[[38.682947,48.427368],[38.682215,48.427366],[38.682775,48.42855638251366],[38.682775,48.428557],[38.682983,48.428999],[38.688269,48.429159809630455],[38.688269,48.429161],[38.688341,48.429162],[38.688723,48.427547],[38.688269,48.427528],[38.688269,48.427528638320496],[38.684677,48.427374],[38.682947,48.427368542586755],[38.682947,48.427368]]]}},{"type":"Feature","properties":{"cadnum":"4423657700:01:024:0016"},"geometry":{"type":"Polygon","coordinates":[[[38.750209,48.423234],[38.750218,48.423186],[38.75024,48.423112],[38.750272,48.42302],[38.75028,48.422969],[38.750322,48.422835],[38.750272,48.422829],[38.750096,48.422808],[38.75006,48.422906],[38.750052,48.422942],[38.750047,48.422966],[38.75002,48.423062],[38.749984,48.42321],[38.750209,48.423234]]]}},{"type":"Feature","properties":{"cadnum":"4423657700:01:024:0015"},"geometry":{"type":"Polygon","coordinates":[[[38.752144,48.423401],[38.752154,48.423356],[38.752167,48.423294],[38.752176,48.423237],[38.752221,48.423007],[38.751997,48.422978],[38.751943,48.423225],[38.751911,48.42338],[38.752144,48.423401]]]}},{"type":"Feature","properties":{"cadnum":"4423657700:02:001:0003"},"geometry":{"type":"Polygon","coordinates":[[[38.709376,48.4284],[38.709363,48.428265],[38.705621,48.427127],[38.706277,48.427816],[38.707067,48.427806],[38.70779,48.427958],[38.707952,48.42815],[38.708141,48.428203],[38.708541,48.428287],[38.708818,48.428301],[38.709376,48.4284]]]}},{"type":"Feature","properties":{"cadnum":"4423657700:01:025:0005"},"geometry":{"type":"Polygon","coordinates":[[[38.778874,48.400036],[38.778726,48.399368],[38.778461,48.399389],[38.778604,48.400057],[38.778874,48.400036]]]}},{"type":"Feature","properties":{"cadnum":"4423657700:01:024:0002"},"geometry":{"type":"Polygon","coordinates":[[[38.730454,48.421803],[38.730163,48.42167],[38.729718,48.421684],[38.729535448113204,48.421853],[38.729534,48.421853],[38.729489,48.421896],[38.729374,48.421967],[38.729375399999995,48.421967],[38.729265,48.422036],[38.728433,48.421991],[38.727967,48.421988],[38.727238,48.42203],[38.726988,48.422069],[38.726721,48.422101],[38.726721,48.42210141791045],[38.726691,48.422105],[38.726057,48.421976],[38.72612,48.422212],[38.726705,48.422271],[38.726721,48.42226963101604],[38.726721,48.422271],[38.727141,48.422233],[38.727611,48.422214],[38.728065,48.422191],[38.728474,48.422176],[38.728977,48.422179],[38.729372,48.422182],[38.729682,48.422105],[38.730707,48.422004],[38.73063165137569,48.421944431192294],[38.730454,48.421803]]]}},{"type":"Feature","properties":{"cadnum":"4423657700:01:016:0011"},"geometry":{"type":"Polygon","coordinates":[[[38.750991,48.410883],[38.751008,48.410755],[38.750735,48.410741],[38.750721,48.410866],[38.750991,48.410883]]]}},{"type":"Feature","properties":{"cadnum":"4423657700:01:016:0012"},"geometry":{"type":"Polygon","coordinates":[[[38.751327,48.410538],[38.751417,48.410218],[38.750618,48.410127],[38.750528,48.410443],[38.751327,48.410538]]]}},{"type":"Feature","properties":{"cadnum":"4423657700:01:003:0002"},"geometry":{"type":"Polygon","coordinates":[[[38.747712,48.391578],[38.747968,48.391572],[38.747873,48.39102],[38.747859,48.390878],[38.747576,48.390874],[38.747603,48.391035],[38.74763,48.391199],[38.747712,48.391578]]]}},{"type":"Feature","properties":{"cadnum":"4423657700:01:027:0011"},"geometry":{"type":"Polygon","coordinates":[[[38.743876,48.392342],[38.7438,48.391844],[38.743772,48.391665],[38.743768,48.391626],[38.743638,48.391629],[38.743561,48.391629],[38.743574,48.391667],[38.743597,48.391802],[38.743607,48.391859],[38.74366,48.392166],[38.743664,48.392202],[38.743687,48.392321],[38.743876,48.392342]]]}},{"type":"Feature","properties":{"cadnum":"4423657700:01:027:0003"},"geometry":{"type":"Polygon","coordinates":[[[38.748471,48.391506],[38.748708,48.391411],[38.748538,48.391134],[38.748457,48.391002],[38.748452,48.391002],[38.748381,48.390878],[38.748138,48.39094],[38.748291,48.391199],[38.748471,48.391506]]]}},{"type":"Feature","properties":{"cadnum":"4423657700:01:027:0004"},"geometry":{"type":"Polygon","coordinates":[[[38.748865,48.391347],[38.748865,48.39134639380531],[38.748934,48.391318],[38.748781,48.391015],[38.748821,48.391006],[38.748798,48.390964],[38.748731,48.390836],[38.748714,48.390836],[38.748693,48.390838],[38.748693,48.39083871384615],[38.748389,48.390878],[38.748465,48.391],[38.748457,48.391002],[38.748693,48.391386557768925],[38.748693,48.391387],[38.748708,48.391411],[38.748865,48.391347]]]}},{"type":"Feature","properties":{"cadnum":"4423657700:01:027:0001"},"geometry":{"type":"Polygon","coordinates":[[[38.748232,48.391674],[38.748529,48.391605],[38.748484,48.39153],[38.748196,48.391599],[38.748228,48.391665],[38.748232,48.391674]]]}},{"type":"Feature","properties":{"cadnum":"4423657700:01:027:0009"},"geometry":{"type":"Polygon","coordinates":[[[38.748196,48.391599],[38.748484,48.39153],[38.748471,48.391506],[38.748138,48.39094],[38.747886,48.390993],[38.747959,48.39113],[38.748196,48.391599]]]}},{"type":"Feature","properties":{"cadnum":"4423657700:04:002:0001"},"geometry":{"type":"Polygon","coordinates":[[[38.753689,48.344483],[38.753829,48.344393],[38.753717,48.344286],[38.753712,48.344286],[38.753568,48.344375],[38.753681,48.344483],[38.753689,48.344483]]]}},{"type":"Feature","properties":{"cadnum":"4423657700:02:004:0008"},"geometry":{"type":"Polygon","coordinates":[[[38.704013,48.417589],[38.701314,48.417618],[38.701302,48.418321],[38.70130219632881,48.418321],[38.70124581963288,48.421853],[38.701245,48.421853],[38.701241,48.422174],[38.70148,48.42217],[38.701461,48.422161],[38.701497,48.422132],[38.701516,48.422143],[38.701503,48.422158],[38.70152,48.42217],[38.70421,48.422141],[38.70420033333333,48.421967],[38.704201,48.421967],[38.704057,48.419293],[38.704031020276496,48.418321],[38.704032,48.418321],[38.704013,48.417589]]]}},{"type":"Feature","properties":{"cadnum":"4423657700:01:024:0004"},"geometry":{"type":"Polygon","coordinates":[[[38.727827,48.421073],[38.729175,48.42101],[38.729125,48.420519],[38.727778,48.420579],[38.727827,48.421073]]]}},{"type":"Feature","properties":{"cadnum":"4423657700:01:024:0003"},"geometry":{"type":"Polygon","coordinates":[[[38.727871,48.421476],[38.729219,48.421416],[38.729202,48.421237],[38.72785,48.421297],[38.727871,48.421476]]]}},{"type":"Feature","properties":{"cadnum":"4423657700:03:001:0001"},"geometry":{"type":"Polygon","coordinates":[[[38.748693,48.366019],[38.748693,48.36601929146608],[38.74658,48.366244],[38.746455,48.367255],[38.74645607275223,48.367255],[38.746292,48.368598],[38.748865,48.368407],[38.748865,48.36840613320464],[38.750765,48.368264],[38.75131487355298,48.367255],[38.751315,48.367255],[38.752194,48.365645],[38.748693,48.366019]]]}},{"type":"Feature","properties":{"cadnum":"4423657700:01:008:0007"},"geometry":{"type":"Polygon","coordinates":[[[38.73876,48.395628],[38.738831,48.39533],[38.738561,48.395291],[38.738464,48.395584],[38.73876,48.395628]]]}},{"type":"Feature","properties":{"cadnum":"4423657700:01:002:0010"},"geometry":{"type":"Polygon","coordinates":[[[38.742263,48.395094],[38.742366,48.395062],[38.742389,48.395056],[38.742335,48.394841],[38.742506,48.39482],[38.742555,48.394498],[38.742249,48.394459],[38.742102,48.394966],[38.742079,48.395056],[38.74216,48.395076],[38.742263,48.395094]]]}},{"type":"Feature","properties":{"cadnum":"4423657700:01:002:0006"},"geometry":{"type":"Polygon","coordinates":[[[38.74321828919918,48.39495917769907],[38.743372,48.394618],[38.743372,48.39461608839779],[38.743381,48.394596],[38.7432,48.39455],[38.7432,48.39455017021277],[38.743184,48.394546],[38.742915,48.395131],[38.743117,48.395184],[38.7432,48.39499977254901],[38.7432,48.395],[38.74321828919918,48.39495917769907]]]}},{"type":"Feature","properties":{"cadnum":"4423657700:01:004:0002"},"geometry":{"type":"Polygon","coordinates":[[[38.742443,48.395554],[38.742964,48.395467],[38.743013,48.395384],[38.742811,48.395348],[38.742852,48.395222],[38.742874,48.395199],[38.742882,48.395172],[38.742645,48.395094],[38.742626,48.395241],[38.742622,48.395255],[38.742586,48.395246],[38.742546,48.395378],[38.742443,48.395554]]]}},{"type":"Feature","properties":{"cadnum":"4423657700:01:002:0011"},"geometry":{"type":"Polygon","coordinates":[[[38.742389,48.395056],[38.742613,48.395002],[38.742712,48.394966],[38.742775,48.394868],[38.742815,48.394722],[38.742856,48.394537],[38.742555,48.394498],[38.742506,48.39482],[38.742335,48.394841],[38.742389,48.395056]]]}},{"type":"Feature","properties":{"cadnum":"4423657700:01:004:0006"},"geometry":{"type":"Polygon","coordinates":[[[38.739878,48.395759],[38.739968,48.395518],[38.740112,48.395157],[38.740192,48.394957],[38.740238,48.394844],[38.740255,48.394802],[38.740156,48.394787],[38.740148,48.394811],[38.740045,48.394797],[38.739932,48.395122],[38.73986,48.395324],[38.739703,48.395748],[38.739878,48.395759]]]}},{"type":"Feature","properties":{"cadnum":"4423657700:01:004:0003"},"geometry":{"type":"Polygon","coordinates":[[[38.742915,48.395131],[38.743018,48.394904],[38.742793,48.39485],[38.742752,48.394952],[38.742681,48.395076],[38.742915,48.395131]]]}},{"type":"Feature","properties":{"cadnum":"4423657700:01:008:0008"},"geometry":{"type":"Polygon","coordinates":[[[38.738638,48.396144],[38.738693,48.395914],[38.73876,48.395635],[38.73876,48.395628],[38.738464,48.395584],[38.738396,48.395783],[38.738341,48.395864],[38.73836,48.395867],[38.738328,48.395905],[38.738221,48.396031],[38.738265,48.396046],[38.738252,48.396075],[38.738445,48.396121],[38.738468,48.396102],[38.738557,48.396124],[38.738557,48.39613],[38.738611,48.396144],[38.738611,48.396139],[38.738638,48.396144]]]}},{"type":"Feature","properties":{"cadnum":"4423657700:01:004:0013"},"geometry":{"type":"Polygon","coordinates":[[[38.743511,48.393645],[38.74327491240809,48.393608562043696],[38.743089,48.393579],[38.742793,48.39485],[38.743022,48.394897],[38.743372,48.394002],[38.743372,48.394000768488745],[38.743511,48.393645]]]}},{"type":"Feature","properties":{"cadnum":"4423657700:01:002:0005"},"geometry":{"type":"Polygon","coordinates":[[[38.743018,48.395378],[38.743072,48.39527],[38.743098,48.395226],[38.742959,48.39519],[38.742901,48.395175],[38.742882,48.395202],[38.742834,48.395303],[38.742819,48.395327],[38.743018,48.395378]]]}},{"type":"Feature","properties":{"cadnum":"4423657700:01:002:0007"},"geometry":{"type":"Polygon","coordinates":[[[38.743853,48.394289],[38.743974,48.393774],[38.743521,48.393681],[38.74320675789761,48.3944876526242],[38.743184,48.394546],[38.743372,48.394595],[38.743372,48.394593712707184],[38.743381,48.394596],[38.743597,48.39465],[38.743628,48.394659],[38.743853,48.394289]]]}},{"type":"Feature","properties":{"cadnum":"4423657700:01:004:0004"},"geometry":{"type":"Polygon","coordinates":[[[38.741226,48.39632],[38.74132,48.396055],[38.74158,48.396102],[38.741607,48.396034],[38.741639,48.395945],[38.741387,48.395882],[38.741397,48.395867],[38.741118,48.395807],[38.741046,48.395998],[38.740943,48.396263],[38.741226,48.39632]]]}},{"type":"Feature","properties":{"cadnum":"4423657700:04:002:0002"},"geometry":{"type":"Polygon","coordinates":[[[38.757058,48.34468],[38.757216,48.344605],[38.757216,48.344599],[38.757081,48.344507],[38.756924,48.344584],[38.756924,48.344587],[38.757058,48.34468]]]}},{"type":"Feature","properties":{"cadnum":"4423657700:01:001:0006"},"geometry":{"type":"Polygon","coordinates":[[[38.746444,48.396442],[38.746445449275356,48.396442],[38.74644,48.396446],[38.746418,48.396442],[38.746333,48.396499],[38.746521,48.396616],[38.746809,48.396798],[38.746912,48.396693],[38.746719,48.396532],[38.746534,48.396377],[38.746444,48.396442]]]}},{"type":"Feature","properties":{"cadnum":"4423657700:01:004:0010"},"geometry":{"type":"Polygon","coordinates":[[[38.745389,48.399088],[38.745416,48.398867],[38.745192,48.398849],[38.745138,48.398846],[38.745089,48.398843],[38.744999,48.398798],[38.744904,48.398748],[38.74485,48.398724],[38.744747,48.398822],[38.74467,48.398935],[38.744855,48.398975],[38.745182,48.399061],[38.745389,48.399088]]]}},{"type":"Feature","properties":{"cadnum":"4423657700:01:004:0007"},"geometry":{"type":"Polygon","coordinates":[[[38.74494,48.397042],[38.744936,48.396899],[38.744607,48.396869],[38.743984,48.396767],[38.743664,48.396696],[38.743601,48.396815],[38.743947,48.396899],[38.74445,48.396988],[38.74494,48.397042]]]}},{"type":"Feature","properties":{"cadnum":"4423657700:01:005:0007"},"geometry":{"type":"Polygon","coordinates":[[[38.745215,48.399691],[38.745295,48.399583],[38.745335,48.399517],[38.745142,48.399479],[38.745003,48.399446],[38.744814,48.399407],[38.744725,48.399484],[38.744676,48.399455],[38.744643,48.399392],[38.744553,48.399353],[38.744464,48.39932],[38.744446,48.399338],[38.74449,48.399466],[38.744527,48.399616],[38.744747,48.399636],[38.745039,48.399667],[38.745215,48.399691]]]}},{"type":"Feature","properties":{"cadnum":"4423657700:01:004:0016"},"geometry":{"type":"Polygon","coordinates":[[[38.744316,48.399121],[38.744397,48.399013],[38.743781,48.398814],[38.743701,48.398897],[38.744207,48.399121],[38.744316,48.399121]]]}},{"type":"Feature","properties":{"cadnum":"4423657700:01:004:0017"},"geometry":{"type":"Polygon","coordinates":[[[38.745339,48.399424],[38.745425,48.399222],[38.744626,48.39907],[38.744549,48.399245],[38.744918,48.399338],[38.745339,48.399424]]]}},{"type":"Feature","properties":{"cadnum":"4423657700:01:004:0009"},"geometry":{"type":"Polygon","coordinates":[[[38.745416,48.398867],[38.745429,48.398754],[38.745408,48.398751],[38.745429,48.398667],[38.745448,48.398617],[38.745353,48.398593],[38.745309,48.398584],[38.745102,48.398524],[38.745003,48.398491],[38.744886,48.398458],[38.744733,48.398617],[38.744796,48.398709],[38.74485,48.398724],[38.744904,48.398748],[38.744999,48.398798],[38.745089,48.398843],[38.745138,48.398846],[38.745416,48.398867]]]}},{"type":"Feature","properties":{"cadnum":"4423657700:01:004:0008"},"geometry":{"type":"Polygon","coordinates":[[[38.745842,48.396344],[38.745865,48.396302],[38.745744,48.396276],[38.745663,48.396261],[38.745645,48.396296],[38.74562858974359,48.396328],[38.745628,48.396328],[38.745605,48.396374],[38.745566,48.396442],[38.74556774468085,48.396442],[38.745502,48.396562],[38.745318,48.396762],[38.745223,48.396785],[38.745345,48.397114],[38.745502,48.396955],[38.745582,48.396789],[38.745672,48.396621],[38.745781855595666,48.396442],[38.745782,48.396442],[38.745842,48.396344]]]}},{"type":"Feature","properties":{"cadnum":"4423657700:00:000:0000"},"geometry":{"type":"Polygon","coordinates":[[[38.745339,48.399424],[38.745425,48.399222],[38.744626,48.39907],[38.744549,48.399245],[38.744918,48.399338],[38.745339,48.399424]]]}},{"type":"Feature","properties":{"cadnum":"4423657700:01:001:0012"},"geometry":{"type":"Polygon","coordinates":[[[38.747733,48.396433],[38.747747,48.396424],[38.747415,48.396368],[38.747406,48.396398],[38.74719,48.396374],[38.746993,48.396353],[38.74698,48.396413],[38.746921,48.3964],[38.7469,48.396442],[38.746901105263156,48.396442],[38.746894,48.396457],[38.74736,48.396625],[38.747536,48.396597],[38.74772218902439,48.396442],[38.747723,48.396442],[38.747733,48.396433]]]}},{"type":"Feature","properties":{"cadnum":"4423657700:01:001:0009"},"geometry":{"type":"Polygon","coordinates":[[[38.748066,48.396272],[38.747926,48.396296],[38.74794054545454,48.396328],[38.74794,48.396328],[38.747941,48.396329],[38.747792,48.396344],[38.747712,48.396347],[38.747613,48.396353],[38.747532,48.396362],[38.747456,48.396371],[38.747389,48.396371],[38.747383,48.396374],[38.74728,48.396383],[38.747263,48.396392],[38.747249,48.396431],[38.747423,48.396446],[38.747433,48.396413],[38.74746,48.396413],[38.747519,48.396418],[38.74768,48.396442],[38.747747,48.396464],[38.747761,48.396493],[38.747837,48.396508],[38.747886,48.396532],[38.748115,48.396588],[38.748174,48.396559],[38.748115,48.396475],[38.748119,48.396422],[38.748086,48.396328],[38.748085786666664,48.396328],[38.748066,48.396272]]]}},{"type":"Feature","properties":{"cadnum":"4423657700:01:024:0008"},"geometry":{"type":"Polygon","coordinates":[[[38.742263,48.42144],[38.741859,48.421413],[38.741643,48.421624],[38.740426,48.421538],[38.740363,48.421732],[38.740135,48.421717],[38.74011596,48.421853],[38.740114,48.421853],[38.740094,48.422006],[38.74215,48.422146],[38.742181846153755,48.42194315384675],[38.742263,48.42144]]]}},{"type":"Feature","properties":{"cadnum":"4423657700:04:002:0007"},"geometry":{"type":"Polygon","coordinates":[[[38.773772,48.345584],[38.77391,48.345492],[38.773794,48.34539],[38.773786,48.34539],[38.77365,48.345483],[38.773767,48.345584],[38.773772,48.345584]]]}},{"type":"Feature","properties":{"cadnum":"4423657700:01:019:0012"},"geometry":{"type":"Polygon","coordinates":[[[38.739496,48.41752],[38.73959,48.417508],[38.739536,48.417225],[38.739514,48.41713],[38.739506,48.417049],[38.739456,48.416757],[38.739416,48.416736],[38.739353,48.416733],[38.739259,48.41675],[38.73916,48.416787],[38.739146,48.416819],[38.739173,48.416882],[38.739272,48.417037],[38.739326,48.417309],[38.73933,48.417338],[38.739357,48.417424],[38.739456,48.417457],[38.739496,48.41752]]]}},{"type":"Feature","properties":{"cadnum":"4423657700:01:020:0001"},"geometry":{"type":"Polygon","coordinates":[[[38.753788,48.416882],[38.753972,48.416399],[38.753551,48.41633],[38.753371,48.416814],[38.753788,48.416882]]]}},{"type":"Feature","properties":{"cadnum":"4423657700:01:021:0002"},"geometry":{"type":"Polygon","coordinates":[[[38.520334,48.329874],[38.520397,48.329861],[38.520361,48.32979],[38.520298,48.329804],[38.520334,48.329874]]]}},{"type":"Feature","properties":{"cadnum":"4423657700:01:001:0016"},"geometry":{"type":"Polygon","coordinates":[[[38.746691,48.396327],[38.746836,48.395905],[38.746727,48.395879],[38.746553,48.395834],[38.746418,48.396004],[38.74627,48.396172],[38.746238,48.396213],[38.746364,48.396252],[38.746517,48.39629],[38.746691,48.396327]]]}},{"type":"Feature","properties":{"cadnum":"4423657700:01:001:0017"},"geometry":{"type":"Polygon","coordinates":[[[38.746691,48.396327],[38.7468,48.396323],[38.7468,48.396314],[38.747006,48.396309],[38.747051,48.396305],[38.747119,48.395843],[38.747047,48.39584],[38.746836,48.395905],[38.746691,48.396327]]]}},{"type":"Feature","properties":{"cadnum":"4423657700:01:001:0008"},"geometry":{"type":"Polygon","coordinates":[[[38.747851,48.394384],[38.747909,48.394188],[38.747658,48.394155],[38.747293,48.394105],[38.747167,48.394083],[38.74711,48.394077],[38.74706,48.394095],[38.746912,48.39409],[38.746794,48.394086],[38.74676,48.394203],[38.746871,48.394218],[38.747096,48.394238],[38.747217,48.39426],[38.747743,48.394352],[38.747851,48.394384]]]}},{"type":"Feature","properties":{"cadnum":"4423657700:01:013:0011"},"geometry":{"type":"Polygon","coordinates":[[[38.756241,48.406957],[38.756326,48.406954],[38.756609,48.406912],[38.756528,48.406578],[38.756497,48.406444],[38.756138,48.406474],[38.756188,48.406787],[38.756241,48.406957]]]}},{"type":"Feature","properties":{"cadnum":"4423657700:01:013:0007"},"geometry":{"type":"Polygon","coordinates":[[[38.734282,48.409247],[38.734546,48.4091],[38.73429,48.408978],[38.734138,48.408898],[38.734124,48.408892],[38.733994,48.40883],[38.733855,48.408761],[38.733684,48.408937],[38.733737,48.408958],[38.733827,48.408996],[38.734016,48.4091],[38.734196,48.40919],[38.734282,48.409247]]]}},{"type":"Feature","properties":{"cadnum":"4423657700:01:013:0006"},"geometry":{"type":"Polygon","coordinates":[[[38.734834,48.408719],[38.734995,48.40857],[38.734834,48.408477],[38.734533,48.408368],[38.734376,48.408313],[38.734246,48.408272],[38.734232,48.408275],[38.734142,48.408382],[38.734286,48.40845],[38.734483,48.408549],[38.734834,48.408719]]]}},{"type":"Feature","properties":{"cadnum":"4423657700:01:013:0008"},"geometry":{"type":"Polygon","coordinates":[[[38.736284,48.407902],[38.73637,48.407795],[38.735378,48.40736],[38.735328,48.407398],[38.735261,48.407458],[38.735215,48.407502],[38.736284,48.407902]]]}},{"type":"Feature","properties":{"cadnum":"4423657700:01:019:0008"},"geometry":{"type":"Polygon","coordinates":[[[38.743296,48.414613],[38.743628,48.414584],[38.743664,48.414038],[38.743314,48.414038],[38.743296,48.414613]]]}},{"type":"Feature","properties":{"cadnum":"4423657700:01:019:0001"},"geometry":{"type":"Polygon","coordinates":[[[38.746444,48.414038],[38.746454,48.413906],[38.746463,48.413599],[38.746068,48.413588],[38.746031,48.413939],[38.746027,48.414035],[38.746444,48.414038]]]}},{"type":"Feature","properties":{"cadnum":"4423657700:01:019:0003"},"geometry":{"type":"Polygon","coordinates":[[[38.746414,48.41439],[38.746444,48.414038],[38.746027,48.414035],[38.746018,48.414372],[38.746414,48.41439]]]}},{"type":"Feature","properties":{"cadnum":"4423657700:01:017:0006"},"geometry":{"type":"Polygon","coordinates":[[[38.746907,48.412812],[38.746957,48.41281],[38.746953,48.412788],[38.74701,48.412783],[38.747006,48.412765],[38.747119,48.412664],[38.747257,48.412658],[38.747257,48.412595],[38.74736,48.412547],[38.747383,48.412353],[38.747146,48.412348],[38.747154,48.412156],[38.747127,48.412156],[38.747114,48.412359],[38.74693,48.412357],[38.746926,48.41255],[38.746903,48.412762],[38.746907,48.412812]]]}},{"type":"Feature","properties":{"cadnum":"4423657700:01:019:0004"},"geometry":{"type":"Polygon","coordinates":[[[38.746027,48.414041],[38.746027,48.414035],[38.746031,48.413939],[38.746035,48.413901],[38.746068,48.413588],[38.745655,48.413582],[38.745641,48.413898],[38.745632,48.414026],[38.745632,48.414038],[38.746027,48.414041]]]}},{"type":"Feature","properties":{"cadnum":"4423657700:01:019:0007"},"geometry":{"type":"Polygon","coordinates":[[[38.743664,48.414038],[38.743697,48.413531],[38.743328,48.413531],[38.743314,48.414038],[38.743664,48.414038]]]}},{"type":"Feature","properties":{"cadnum":"4423657700:01:019:0011"},"geometry":{"type":"Polygon","coordinates":[[[38.745196,48.414061],[38.745259,48.413576],[38.744863,48.413567],[38.744855,48.413612],[38.744842,48.413898],[38.744823,48.414032],[38.745196,48.414061]]]}},{"type":"Feature","properties":{"cadnum":"4423657700:01:017:0004"},"geometry":{"type":"Polygon","coordinates":[[[38.7441,48.412786],[38.744297,48.41275],[38.744379,48.412756],[38.74437,48.412699],[38.744393,48.412649],[38.744356,48.412616],[38.744343,48.412577],[38.744347,48.412509],[38.744383,48.412395],[38.744427,48.412288],[38.744446,48.41216],[38.744173,48.412165],[38.7441,48.412786]]]}},{"type":"Feature","properties":{"cadnum":"4423657700:01:019:0002"},"geometry":{"type":"Polygon","coordinates":[[[38.746018,48.414372],[38.746027,48.414041],[38.745632,48.414038],[38.745587,48.414345],[38.746018,48.414372]]]}},{"type":"Feature","properties":{"cadnum":"4423657700:01:015:0002"},"geometry":{"type":"Polygon","coordinates":[[[38.747828,48.41167],[38.747828,48.41165],[38.747783,48.41151],[38.747788,48.411343],[38.747639,48.411349],[38.747464,48.411358],[38.747326,48.411367],[38.74732,48.41167],[38.747828,48.41167]]]}},{"type":"Feature","properties":{"cadnum":"4423657700:01:017:0005"},"geometry":{"type":"Polygon","coordinates":[[[38.747347,48.412821],[38.747635,48.41281],[38.747626,48.412669],[38.747339,48.412682],[38.747347,48.412821]]]}},{"type":"Feature","properties":{"cadnum":"4423657700:01:015:0003"},"geometry":{"type":"Polygon","coordinates":[[[38.747482,48.411972],[38.747486,48.411918],[38.747356,48.411915],[38.747352,48.411969],[38.747482,48.411972]]]}},{"type":"Feature","properties":{"cadnum":"4423657700:04:002:0005"},"geometry":{"type":"Polygon","coordinates":[[[38.767132,48.345223],[38.767268,48.345131],[38.767155,48.345026],[38.767151,48.345026],[38.767012,48.345115],[38.767124,48.345223],[38.767132,48.345223]]]}}]}