{"type":"FeatureCollection","features":[{"type":"Feature","properties":{"cadnum":"4423155000:12:002:0001"},"geometry":{"type":"Polygon","coordinates":[[[38.93894,49.01026],[38.93934,49.009518],[38.938994,49.009447],[38.938536,49.01018],[38.93894,49.01026]]]}},{"type":"Feature","properties":{"cadnum":"4423155000:12:002:0002"},"geometry":{"type":"Polygon","coordinates":[[[38.93894,49.01026],[38.93934,49.009518],[38.938994,49.009447],[38.938536,49.01018],[38.93894,49.01026]]]}},{"type":"Feature","properties":{"cadnum":"4423155000:33:555:9999"},"geometry":{"type":"Polygon","coordinates":[[[39.027591,48.947533],[39.027694,48.947373],[39.027465,48.947314],[39.027316,48.947291],[39.027425,48.947486],[39.027591,48.947533]]]}}]}