{"type":"FeatureCollection","features":[{"type":"Feature","properties":{"cadnum":"4423681100:01:005:0001"},"geometry":{"type":"Polygon","coordinates":[[[38.726721,48.359863],[38.726721,48.35986369578313],[38.72656,48.35987],[38.726529,48.359956],[38.72653051428571,48.359956],[38.726512,48.36001],[38.726601,48.360275],[38.726721,48.36025850515464],[38.726721,48.360259],[38.727458,48.360156],[38.727405,48.360043],[38.727019,48.359852],[38.726721,48.359863]]]}},{"type":"Feature","properties":{"cadnum":"4423681100:04:001:0003"},"geometry":{"type":"Polygon","coordinates":[[[38.737879,48.36682505882353],[38.737879,48.366825],[38.734655800000034,48.367141],[38.734653,48.367141],[38.73429731249565,48.36717614583376],[38.733493,48.367255],[38.73349928215764,48.367255],[38.732386,48.36736500451004],[38.732386,48.367365],[38.730611,48.367539],[38.730428,48.369317],[38.732386,48.369199],[38.732386,48.36919864660194],[38.737879,48.368868],[38.737879,48.368867557142856],[38.738827,48.36881],[38.738989,48.367808],[38.737707,48.36793],[38.737707,48.36793036783082],[38.734758,48.368211],[38.734839,48.367808],[38.737707,48.36751176578947],[38.737707,48.367512],[38.739056,48.367372],[38.7390847773723,48.3671970638684],[38.739169,48.366698],[38.737879,48.36682505882353]]]}},{"type":"Feature","properties":{"cadnum":"4423681100:05:002:0003"},"geometry":{"type":"Polygon","coordinates":[[[38.72594,48.287063],[38.725154,48.290437],[38.72525525000007,48.290446],[38.725254,48.290446],[38.725694,48.290485],[38.726892,48.290595],[38.726892,48.29059450186916],[38.727791,48.290676],[38.727842,48.290446],[38.72784154327808,48.290446],[38.728546,48.287302],[38.726892,48.2871515539726],[38.726892,48.287151],[38.72594,48.287063]]]}},{"type":"Feature","properties":{"cadnum":"4423681100:05:002:0006"},"geometry":{"type":"Polygon","coordinates":[[[38.725677,48.29056],[38.725678778820374,48.29056],[38.724960136193026,48.294101],[38.72496,48.294101],[38.7249473496098,48.29416400390413],[38.724937,48.294215],[38.72493711023622,48.294215],[38.724858,48.294609],[38.726721,48.29478854396423],[38.726721,48.294789],[38.726871,48.294803],[38.727027,48.294101],[38.72702644786663,48.294101],[38.727791,48.290676],[38.726721,48.290579],[38.726721,48.29057929883139],[38.726510818181794,48.29056],[38.726516,48.29056],[38.725694,48.290485],[38.725677,48.29056]]]}},{"type":"Feature","properties":{"cadnum":"4423681100:05:002:0010"},"geometry":{"type":"Polygon","coordinates":[[[38.732359,48.291203],[38.730267,48.290984],[38.730257,48.290984],[38.729530568245124,48.294101],[38.72953,48.294101],[38.729323,48.294998],[38.731425,48.295216],[38.731684,48.294101],[38.73168356972111,48.294101],[38.732214,48.29182513675215],[38.732214,48.291826],[38.732359,48.291203]]]}},{"type":"Feature","properties":{"cadnum":"4423681100:05:004:0001"},"geometry":{"type":"Polygon","coordinates":[[[38.71636371657754,48.283136],[38.716363,48.283136],[38.716864,48.283704],[38.717367,48.284141],[38.718417,48.28475],[38.719451,48.285342],[38.72064,48.285847],[38.721399,48.28609],[38.721399,48.286089566292134],[38.722118,48.286319],[38.723034,48.286549],[38.724684,48.286791],[38.726619,48.286959],[38.726721,48.2869660989011],[38.726721,48.286967],[38.732386,48.287373],[38.732386,48.287372357281555],[38.737707,48.28775464271845],[38.737707,48.287755],[38.738823,48.287834],[38.74215,48.288094],[38.742852,48.288145],[38.7432,48.28821928461538],[38.7432,48.28822],[38.743511,48.288286],[38.745263,48.288456],[38.74879,48.288719],[38.748865,48.288734],[38.748865,48.28873387747958],[38.749647,48.288889],[38.751071,48.289311],[38.754161,48.290019],[38.754346678158676,48.29010005747028],[38.75513516603774,48.290446],[38.755135,48.290446],[38.755836,48.290754],[38.757727,48.291558],[38.758989,48.292075],[38.75968,48.29240286426914],[38.75968,48.292403],[38.75973214484549,48.29242760584897],[38.759851,48.292484],[38.759851,48.292483690625],[38.76032,48.292705],[38.762098,48.293318],[38.762426,48.291662],[38.761213,48.291316],[38.75968,48.290667],[38.75968,48.290667886925796],[38.759568,48.29062],[38.75943903448276,48.29056],[38.75944,48.29056],[38.756222,48.289063],[38.754358,48.288621502211306],[38.754358,48.288621],[38.753448,48.288405],[38.752935,48.288264],[38.752756,48.288339],[38.751812,48.288246],[38.751628,48.288049],[38.750905,48.287906],[38.750645,48.288255],[38.748865,48.28811548155738],[38.748865,48.288115],[38.746781,48.287951],[38.74329182051208,48.28763043589737],[38.742789,48.287583],[38.738284,48.287183],[38.737707,48.287144],[38.737707,48.287144485355654],[38.734533,48.286932],[38.73414772340421,48.286905],[38.734151,48.286905],[38.73355320840643,48.28686333667262],[38.732521,48.286791],[38.73251531111119,48.286791],[38.73235373610397,48.28677973896439],[38.72688345220699,48.286396384558905],[38.726642,48.286379],[38.725038,48.286241],[38.723007,48.285817],[38.721812,48.285452],[38.721228,48.285172],[38.721228,48.28517291494083],[38.720047,48.284606],[38.719288,48.283802],[38.718425,48.283136],[38.71842445602606,48.283136],[38.71738,48.282329],[38.716522,48.28113],[38.715906,48.28098538071066],[38.715906,48.280985],[38.71521,48.28082],[38.715734,48.282208552962295],[38.715734,48.282211],[38.715767,48.282296],[38.715906,48.282516],[38.715906,48.28251507608695],[38.716135,48.282876],[38.71636371657754,48.283136]]]}},{"type":"Feature","properties":{"cadnum":"4423681100:05:002:0033"},"geometry":{"type":"Polygon","coordinates":[[[38.754533763546796,48.290446],[38.754533,48.290446],[38.754351629031966,48.29115785483988],[38.753568,48.294215],[38.753568906249996,48.294215],[38.753402,48.294869],[38.754187,48.29495275523012],[38.754187,48.294953],[38.755572,48.295099],[38.755799,48.294101],[38.75579793592233,48.294101],[38.756475,48.291125],[38.756025,48.290946],[38.755891,48.291128],[38.755567,48.291023],[38.755693,48.290814],[38.75506145108695,48.29056],[38.755062,48.29056],[38.754557,48.290357],[38.754533763546796,48.290446]]]}},{"type":"Feature","properties":{"cadnum":"4423681100:06:001:0003"},"geometry":{"type":"Polygon","coordinates":[[[38.719661,48.381616],[38.71857,48.381479],[38.718564,48.381851],[38.718564851385395,48.381851],[38.718562,48.382134],[38.718552,48.382567],[38.720493,48.383137],[38.721095,48.383191],[38.720376,48.381893],[38.719974,48.381737],[38.71997302553192,48.381737],[38.719661,48.381616]]]}},{"type":"Feature","properties":{"cadnum":"4423681100:06:001:0002"},"geometry":{"type":"Polygon","coordinates":[[[38.719661,48.381616],[38.71857,48.381479],[38.718564,48.381851],[38.718564851385395,48.381851],[38.718562,48.382134],[38.718552,48.382794],[38.721301,48.383569],[38.720376,48.381893],[38.719974,48.381737],[38.71997302553192,48.381737],[38.719661,48.381616]]]}},{"type":"Feature","properties":{"cadnum":"4423681100:05:003:0011"},"geometry":{"type":"Polygon","coordinates":[[[38.748138,48.309698],[38.747842,48.310668],[38.747482,48.312485],[38.74748254061624,48.312485],[38.747083,48.314513],[38.74732,48.314436],[38.748693,48.31450531650486],[38.748693,48.314506],[38.752086,48.314677],[38.752213,48.313871],[38.752194,48.313862],[38.75228,48.313013],[38.752387,48.312371],[38.75238627087577,48.312371],[38.75245,48.311994],[38.7524,48.311648],[38.752184,48.311239],[38.751125,48.310579],[38.750501,48.31031],[38.749777,48.30988],[38.748991,48.309656],[38.748693,48.309624],[38.748693,48.30962487673956],[38.748362,48.30959],[38.748138,48.309698]]]}},{"type":"Feature","properties":{"cadnum":"4423681100:01:050:0001"},"geometry":{"type":"Polygon","coordinates":[[[38.726555958552076,48.37815493437001],[38.726088,48.378088],[38.72608516806721,48.378088],[38.725213,48.377964],[38.72525103361344,48.378088],[38.725251,48.378088],[38.725415,48.378626],[38.725433,48.378686],[38.726721,48.37886873886223],[38.726721,48.378869],[38.728955,48.379184],[38.72873,48.378465],[38.726892,48.37820334345446],[38.726892,48.378203],[38.72688500869567,48.378202],[38.726887,48.378202],[38.726555958552076,48.37815493437001]]]}},{"type":"Feature","properties":{"cadnum":"4423681100:05:003:0007"},"geometry":{"type":"Polygon","coordinates":[[[38.72305213389121,48.312371],[38.723052,48.312371],[38.722854,48.313348],[38.726721,48.313854598068346],[38.726721,48.313855],[38.727558,48.313964],[38.727888,48.312371],[38.727887070381236,48.312371],[38.727935,48.312144],[38.726721,48.311986],[38.726721,48.31198662878169],[38.723223,48.311529],[38.72305213389121,48.312371]]]}},{"type":"Feature","properties":{"cadnum":"4423681100:01:047:0001"},"geometry":{"type":"Polygon","coordinates":[[[38.726305,48.364791],[38.72569,48.36477],[38.72569,48.364805],[38.725698,48.364893],[38.726292,48.364922],[38.726721,48.364981345],[38.726721,48.364982],[38.727009,48.365021],[38.727297,48.36488],[38.726721,48.364828],[38.726721,48.364828560477],[38.726305,48.364791]]]}},{"type":"Feature","properties":{"cadnum":"4423681100:01:014:0001"},"geometry":{"type":"Polygon","coordinates":[[[38.72409,48.363433],[38.724018,48.363274],[38.723829,48.363296],[38.723613,48.36332],[38.723573,48.363409],[38.723623,48.363412],[38.723843,48.363606],[38.72384383333333,48.363606],[38.723919,48.363672],[38.723965,48.363756],[38.723955,48.363814],[38.723959,48.363838],[38.723965,48.363856],[38.724126,48.363847],[38.724122,48.363821],[38.724153,48.363821],[38.724225,48.363812],[38.724238,48.363812],[38.724234,48.363803],[38.724212,48.363716],[38.72413923255806,48.36354967441842],[38.72409,48.363433]]]}},{"type":"Feature","properties":{"cadnum":"4423681100:05:003:0005"},"geometry":{"type":"Polygon","coordinates":[[[38.743234,48.312485],[38.74323468085106,48.312485],[38.743215,48.312559],[38.743234,48.312966],[38.7432,48.313079],[38.7432,48.313080720689655],[38.742654,48.314923],[38.742565,48.315286],[38.743372,48.315393],[38.743372,48.31539245144858],[38.746341,48.31578],[38.747198754690054,48.31238778916658],[38.747352,48.311786],[38.743368,48.311624],[38.743278,48.31232],[38.743234,48.312485]]]}},{"type":"Feature","properties":{"cadnum":"4423681100:05:002:0031"},"geometry":{"type":"Polygon","coordinates":[[[38.73134,48.300129],[38.73156,48.300242],[38.731726,48.300308],[38.731875,48.300331],[38.732171,48.300364],[38.732214,48.30038327586207],[38.732214,48.300384],[38.732345,48.300442],[38.732552,48.300625],[38.732655,48.300836],[38.733033,48.300857],[38.733634,48.300926],[38.734502,48.30101],[38.735584,48.301063],[38.735539,48.301234],[38.734995,48.301221],[38.734906,48.301314],[38.73490462857143,48.30141],[38.734904,48.30141],[38.734903161904754,48.30151266666722],[38.734903,48.301524],[38.734903069387755,48.301524],[38.734902,48.301655],[38.735445,48.30175],[38.736864,48.301891],[38.737062,48.301882],[38.737529,48.301873],[38.737879,48.301861],[38.737879,48.301859995012464],[38.738108,48.301852],[38.738324,48.30199],[38.738886,48.302023],[38.739173,48.301923],[38.739528,48.301823],[38.74066,48.30141],[38.740947,48.301281],[38.74101,48.300911],[38.737707,48.300624],[38.737707,48.300624001235654],[38.732214,48.300145],[38.732214,48.30014501889893],[38.731169,48.300054],[38.73134,48.300129]]]}},{"type":"Feature","properties":{"cadnum":"4423681100:02:001:0012"},"geometry":{"type":"Polygon","coordinates":[[[38.738091,48.302127],[38.738081,48.301873],[38.737707,48.301886],[38.737707,48.3018863250774],[38.737556,48.301891],[38.737578,48.302145],[38.737879,48.302135],[38.737879,48.30213417708333],[38.738091,48.302127]]]}},{"type":"Feature","properties":{"cadnum":"4423681100:02:001:0001"},"geometry":{"type":"Polygon","coordinates":[[[38.748865,48.299981],[38.748865,48.29998049894023],[38.751052,48.300203],[38.751089,48.300047],[38.750689,48.300009],[38.750685,48.300038],[38.748865,48.299857096385544],[38.748865,48.299857],[38.748259,48.299797],[38.743467,48.299316],[38.7432,48.299668],[38.7432,48.29966875197472],[38.742106,48.301111],[38.741308184019374,48.30141],[38.741308,48.30141],[38.741115669325936,48.30148214933611],[38.741004,48.301524],[38.74100410674156,48.301524],[38.740359,48.301766],[38.740839,48.304191],[38.741395,48.305178],[38.741395357446805,48.305178],[38.741729,48.305769],[38.741773,48.305954],[38.741832,48.305973],[38.742196,48.305975],[38.742097,48.305706],[38.74176885046729,48.305178],[38.741769,48.305178],[38.741127,48.30414],[38.740924,48.30311],[38.740678,48.301867],[38.74160267396061,48.301524],[38.741603,48.301524],[38.74187313217859,48.30142367580713],[38.74191,48.30141],[38.74190995555556,48.30141],[38.74233,48.301254],[38.743372,48.299878],[38.743372,48.29987700203666],[38.743691,48.299456],[38.748865,48.299981]]]}},{"type":"Feature","properties":{"cadnum":"4423681100:05:003:0001"},"geometry":{"type":"Polygon","coordinates":[[[38.741832,48.305973],[38.741773,48.305954],[38.741944,48.306429],[38.742689,48.308491],[38.74269297653959,48.308717],[38.742692,48.308717],[38.742726,48.310722],[38.74278765400594,48.312371],[38.742786,48.312371],[38.742789,48.312407],[38.74279,48.312485],[38.74279147850468,48.312485],[38.742806,48.312942],[38.742681,48.313372],[38.742236,48.314868],[38.741916,48.316138],[38.741916400696866,48.316138],[38.741729,48.316885],[38.741217,48.318534],[38.740939661097855,48.319677],[38.740939,48.319677],[38.74092025563895,48.31975697594047],[38.740912,48.319791],[38.74091228125,48.319791],[38.740894,48.319869],[38.742689,48.319677],[38.74268686792453,48.319677],[38.743108,48.319632],[38.743372,48.319607],[38.743372,48.3196059376],[38.74445,48.319499],[38.745874,48.319426],[38.748865,48.319524],[38.748865,48.31952355995829],[38.749652,48.319549],[38.751767,48.319645],[38.752542441860435,48.319677],[38.75254,48.319677],[38.753851,48.319731],[38.754187,48.319742266272186],[38.754187,48.319743],[38.755308307002124,48.31977950446628],[38.755652,48.319791],[38.755661415094494,48.319791],[38.755815,48.319796],[38.755815,48.319821],[38.756381,48.319887],[38.756412,48.319749],[38.756442,48.319597],[38.756012,48.319537],[38.754187,48.319452],[38.754187,48.31945205335628],[38.753196,48.319406],[38.749701,48.319256],[38.748865,48.319230289682544],[38.748865,48.31923],[38.745811,48.319134],[38.744324,48.319218],[38.743372,48.31931540213523],[38.743372,48.319315],[38.741427,48.319513],[38.741647,48.318587],[38.742156,48.316942],[38.74235393464052,48.316138],[38.742354,48.316138],[38.742654,48.314923],[38.743234,48.312966],[38.743206,48.312371],[38.743205844544946,48.312371],[38.743131,48.310716],[38.74309518609305,48.308832],[38.743096,48.308832],[38.743089,48.308458],[38.742196,48.305975],[38.741832,48.305973]]]}},{"type":"Feature","properties":{"cadnum":"4423681100:05:002:0032"},"geometry":{"type":"Polygon","coordinates":[[[38.712744,48.297782],[38.713206,48.29737],[38.713755,48.296665],[38.714554,48.296686],[38.71478,48.29541],[38.710881,48.295123],[38.710669,48.296207],[38.710396,48.297606],[38.710795,48.297753],[38.712744,48.297782]]]}},{"type":"Feature","properties":{"cadnum":"4423681100:05:001:0004"},"geometry":{"type":"Polygon","coordinates":[[[38.72798,48.343053],[38.72812,48.342963],[38.728003,48.342858],[38.727998,48.342858],[38.727858,48.342948],[38.727975,48.343053],[38.72798,48.343053]]]}},{"type":"Feature","properties":{"cadnum":"4423681100:05:001:0005"},"geometry":{"type":"Polygon","coordinates":[[[38.731057,48.343199],[38.731196,48.343106],[38.731079,48.343002],[38.73107,48.343002],[38.730936,48.343095],[38.731053,48.343199],[38.731057,48.343199]]]}},{"type":"Feature","properties":{"cadnum":"4423681100:05:002:0026"},"geometry":{"type":"Polygon","coordinates":[[[38.743062,48.293325],[38.742891,48.294215],[38.7428912051282,48.294215],[38.742488,48.296324],[38.742416,48.296364],[38.742389,48.296506],[38.7432,48.29658602746694],[38.7432,48.296587],[38.745102,48.296772],[38.74566777573943,48.294215],[38.745669,48.294215],[38.745807,48.293593],[38.744684,48.293483],[38.743372,48.29335569002696],[38.743372,48.293355],[38.743062,48.293325]]]}},{"type":"Feature","properties":{"cadnum":"4423681100:05:002:0028"},"geometry":{"type":"Polygon","coordinates":[[[38.74326869035527,48.289342071066336],[38.743372,48.288756],[38.743372,48.288754117647045],[38.743404,48.288572],[38.7432,48.288414],[38.7432,48.28841422222222],[38.743192,48.288408],[38.741549,48.288292],[38.741022,48.29056],[38.741022611111106,48.29056],[38.740674,48.292066],[38.740768,48.292075],[38.742752,48.292282],[38.74305528918919,48.290552686486464],[38.7432,48.28973174842767],[38.7432,48.289733],[38.74326869035527,48.289342071066336]]]}},{"type":"Feature","properties":{"cadnum":"4423681100:05:002:0009"},"geometry":{"type":"Polygon","coordinates":[[[38.741549,48.288292],[38.739542,48.288145],[38.738976,48.29056],[38.73897641885188,48.29056],[38.738674,48.291857],[38.740674,48.292066],[38.741049,48.290446],[38.74104848941799,48.290446],[38.741549,48.288292]]]}},{"type":"Feature","properties":{"cadnum":"4423681100:05:002:0011"},"geometry":{"type":"Polygon","coordinates":[[[38.745775,48.288554],[38.744001,48.28839],[38.74360969677419,48.290446],[38.743609,48.290446],[38.7432,48.292599],[38.7432,48.29260027741935],[38.743062,48.293325],[38.7432,48.29333835483871],[38.7432,48.293339],[38.744684,48.293483],[38.74532981264406,48.29056],[38.74533,48.29056],[38.745775,48.288554]]]}},{"type":"Feature","properties":{"cadnum":"4423681100:05:002:0005"},"geometry":{"type":"Polygon","coordinates":[[[38.736563,48.291639],[38.735962,48.294215],[38.735962466150866,48.294215],[38.735628,48.295652],[38.737707,48.29586792282039],[38.737707,48.295868],[38.737727,48.29587],[38.737879,48.295222],[38.737879,48.29521893946732],[38.73814,48.294101],[38.7381396870229,48.294101],[38.738665,48.291857],[38.737707,48.291758],[38.737707,48.29175800950871],[38.736617,48.291644],[38.736563,48.291639]]]}},{"type":"Feature","properties":{"cadnum":"4423681100:05:002:0004"},"geometry":{"type":"Polygon","coordinates":[[[38.740768,48.292075],[38.740674,48.292066],[38.738674,48.291857],[38.738665,48.291857],[38.738113,48.294215],[38.738113384963256,48.294215],[38.737727,48.29587],[38.737879,48.295886],[38.737879,48.29588576403425],[38.739829,48.296088],[38.740293,48.294101],[38.74029274205608,48.294101],[38.740768,48.292075]]]}},{"type":"Feature","properties":{"cadnum":"4423681100:05:003:0002"},"geometry":{"type":"Polygon","coordinates":[[[38.710413,48.310705],[38.710413,48.310703962962954],[38.710445,48.310557],[38.713338,48.310827],[38.715734,48.311050925233644],[38.715734,48.311051],[38.715851746475195,48.31106192957712],[38.715906,48.311067],[38.715906,48.31106696555024],[38.717824,48.311245],[38.717837,48.311203],[38.715906,48.311023030432715],[38.715906,48.311023],[38.711226,48.310585],[38.710453,48.310513],[38.710453,48.310501],[38.7102504222216,48.31048284444439],[38.707817,48.310256],[38.707817,48.310265],[38.7077,48.310805],[38.710241,48.31104397155859],[38.710241,48.311044],[38.710337,48.311053],[38.710413,48.310705]]]}},{"type":"Feature","properties":{"cadnum":"4423681100:05:003:0012"},"geometry":{"type":"Polygon","coordinates":[[[38.753159,48.301733],[38.752154,48.301948],[38.751394,48.30216],[38.750452,48.302372],[38.750182,48.302557],[38.750016,48.303301],[38.749796,48.304403],[38.749777,48.304622],[38.754187,48.305072530451866],[38.754187,48.305073],[38.754857,48.305141],[38.754871,48.305145],[38.755559,48.301777],[38.754561,48.301658],[38.754187,48.301678],[38.754187,48.30167812760634],[38.753159,48.301733]]]}},{"type":"Feature","properties":{"cadnum":"4423681100:05:003:0009"},"geometry":{"type":"Polygon","coordinates":[[[38.759906,48.302204],[38.759906,48.302202],[38.75970996685047,48.30202418232012],[38.759597,48.301921],[38.758603,48.301846],[38.756851,48.30204],[38.756056,48.301834],[38.755559,48.301777],[38.754887546318294,48.305064],[38.754887,48.305064],[38.754871,48.305145],[38.755235,48.305178],[38.75523655154634,48.305178],[38.759169,48.305533],[38.75924090831557,48.305178],[38.759241,48.305178],[38.759601,48.30342],[38.759735,48.302399],[38.759851,48.302267],[38.759851,48.30226671929825],[38.759906,48.302204]]]}},{"type":"Feature","properties":{"cadnum":"4423681100:05:003:0010"},"geometry":{"type":"Polygon","coordinates":[[[38.749777,48.304622],[38.749765075539564,48.305064],[38.749765,48.305064],[38.749764333333324,48.305091511111485],[38.749762,48.305178],[38.7497622374798,48.305178],[38.74975,48.305683],[38.750838,48.305659],[38.751012,48.305706],[38.751134,48.30594],[38.751777,48.30594],[38.752526,48.306038],[38.752656,48.306139],[38.752616,48.306232],[38.75245,48.306295],[38.751767,48.306295],[38.751107,48.306268],[38.750949,48.306591],[38.750882,48.306907],[38.750865,48.307047],[38.750963,48.307308],[38.751157,48.307475],[38.751916,48.30784],[38.751974,48.308165],[38.7524,48.30852],[38.752549,48.308667],[38.75288,48.308832],[38.75288185185185,48.308832],[38.752922,48.308852],[38.753061,48.309073],[38.753048,48.309208],[38.752876,48.30945],[38.752903,48.309674],[38.753137,48.31011],[38.753519,48.310606],[38.753622,48.310668],[38.753731,48.310677],[38.75410470663265,48.308832],[38.754105,48.308832],[38.754187,48.308431283018855],[38.754187,48.308434],[38.754211,48.308314],[38.754857,48.305141],[38.754358,48.30509035522388],[38.754358,48.30509],[38.749777,48.304622]]]}},{"type":"Feature","properties":{"cadnum":"4423681100:05:002:0015"},"geometry":{"type":"Polygon","coordinates":[[[38.718562,48.294098],[38.718561410256406,48.294101],[38.71856,48.294101],[38.718327,48.295314],[38.71797364710485,48.297755],[38.717973,48.297755],[38.717937,48.29801],[38.718305,48.298144],[38.718925,48.298278],[38.720003,48.298123],[38.720051812499996,48.29787],[38.720053,48.29787],[38.720749,48.294316],[38.71973383255815,48.294215],[38.719735,48.294215],[38.718562,48.294098]]]}},{"type":"Feature","properties":{"cadnum":"4423681100:05:002:0016"},"geometry":{"type":"Polygon","coordinates":[[[38.720075521102984,48.297755],[38.720074,48.297755],[38.720003,48.298123],[38.720587,48.298249],[38.721053,48.298269],[38.721206,48.298192],[38.721228,48.29815780310881],[38.721228,48.298159],[38.721332192308104,48.297995846153206],[38.721399,48.297892],[38.721399,48.29789123255814],[38.72141255940594,48.29787],[38.721413,48.29787],[38.721508,48.297722],[38.721678,48.297018],[38.721751,48.29665],[38.722105,48.296668],[38.722118,48.297059],[38.722137,48.297556],[38.722451,48.297777],[38.722864,48.297795],[38.723489,48.294592],[38.721228,48.294364],[38.721228,48.29436463692308],[38.720749,48.294316],[38.720075521102984,48.297755]]]}},{"type":"Feature","properties":{"cadnum":"4423681100:05:002:0025"},"geometry":{"type":"Polygon","coordinates":[[[38.736563,48.291639],[38.734525,48.291427],[38.734462,48.29142],[38.73381,48.294215],[38.73381048837209,48.294215],[38.733527,48.295434],[38.735628,48.295652],[38.735989,48.294101],[38.73598859704969,48.294101],[38.736563,48.291639]]]}},{"type":"Feature","properties":{"cadnum":"4423681100:05:002:0024"},"geometry":{"type":"Polygon","coordinates":[[[38.737466,48.287996],[38.736064,48.287894],[38.735781,48.287963],[38.735512,48.287867],[38.735355,48.287856],[38.73475251849113,48.290446],[38.734751,48.290446],[38.734525,48.291427],[38.736563,48.291639],[38.736617,48.291644],[38.73686764106845,48.29056],[38.736869,48.29056],[38.737466,48.287996]]]}},{"type":"Feature","properties":{"cadnum":"4423681100:05:001:0012"},"geometry":{"type":"Polygon","coordinates":[[[38.754358,48.323091],[38.754358,48.323090775956274],[38.754413,48.322939],[38.755473,48.322968],[38.756111,48.320086],[38.754358,48.32000217671518],[38.754358,48.320002],[38.752526,48.319913],[38.752149559048426,48.32333],[38.752149,48.32333],[38.752095,48.323841],[38.754075,48.323867],[38.754228603351955,48.323444],[38.75423,48.323444],[38.7543529286392,48.3231047706951],[38.754358,48.323091]]]}},{"type":"Feature","properties":{"cadnum":"4423681100:05:001:0013"},"geometry":{"type":"Polygon","coordinates":[[[38.752526,48.319913],[38.749261,48.319752],[38.748792913867824,48.32333],[38.748791,48.32333],[38.748731,48.323796],[38.748865,48.323798],[38.748865,48.32379779250892],[38.752095,48.323841],[38.75213695303327,48.323444],[38.752137,48.323444],[38.752526,48.319913]]]}},{"type":"Feature","properties":{"cadnum":"4423681100:05:002:0027"},"geometry":{"type":"Polygon","coordinates":[[[38.747981,48.293808],[38.74789,48.294215],[38.74789068347041,48.294215],[38.747104538604404,48.297755],[38.747104,48.297755],[38.747064,48.297938],[38.747865,48.298034],[38.748331,48.298129],[38.748498,48.298243],[38.748402,48.299184],[38.748542,48.299784],[38.748693,48.29979658333333],[38.748693,48.299798],[38.748722,48.299799],[38.749174,48.297755],[38.74917341655611,48.297755],[38.749981,48.294101],[38.749980884057976,48.294101],[38.750002,48.294008],[38.749638,48.293972],[38.74873439549461,48.293884030037574],[38.747999,48.293811],[38.747981,48.293808]]]}},{"type":"Feature","properties":{"cadnum":"4423681100:05:006:0001"},"geometry":{"type":"Polygon","coordinates":[[[38.76066,48.298366],[38.759851,48.29887533979592],[38.759851,48.298875],[38.759568,48.299053],[38.758572,48.299862],[38.758388,48.300012],[38.75828,48.300857],[38.758693,48.300926],[38.759851,48.30121],[38.759851,48.30120954577465],[38.759964,48.301237],[38.76066,48.298366]]]}},{"type":"Feature","properties":{"cadnum":"4423681100:03:002:0001"},"geometry":{"type":"Polygon","coordinates":[[[38.701197,48.342405],[38.701287,48.342292],[38.70113,48.342214],[38.701124,48.342214],[38.701035,48.342327],[38.701188,48.342405],[38.701197,48.342405]]]}},{"type":"Feature","properties":{"cadnum":"4423681100:03:002:0002"},"geometry":{"type":"Polygon","coordinates":[[[38.703648,48.342022],[38.703761,48.341918],[38.703761,48.341915],[38.703591,48.341852],[38.703474,48.341957],[38.703478,48.341963],[38.703648,48.342022]]]}},{"type":"Feature","properties":{"cadnum":"4423681100:01:046:0001"},"geometry":{"type":"Polygon","coordinates":[[[38.731281,48.35179],[38.731384,48.351635],[38.730729,48.351465],[38.730374,48.351369],[38.729952,48.35124],[38.729852,48.351417],[38.730617,48.351638],[38.731281,48.35179]]]}},{"type":"Feature","properties":{"cadnum":"4423681100:05:003:0003"},"geometry":{"type":"Polygon","coordinates":[[[38.736661,48.319791],[38.73666173954984,48.319791],[38.736567,48.320299],[38.737707,48.320190387195126],[38.737707,48.320191],[38.738131,48.32015],[38.740808,48.319803],[38.740841,48.319677],[38.740840944560674,48.319677],[38.741329,48.317879],[38.737707,48.317406],[38.737707,48.317407338603424],[38.73712,48.31733],[38.736661,48.319791]]]}},{"type":"Feature","properties":{"cadnum":"4423681100:05:003:0004"},"geometry":{"type":"Polygon","coordinates":[[[38.737506,48.315271],[38.737342,48.316138],[38.73734270137825,48.316138],[38.73712,48.31733],[38.737879,48.31743],[38.737879,48.31742846162341],[38.741329,48.317879],[38.74181685458369,48.31606179065713],[38.741877,48.315842],[38.737879,48.315320438369305],[38.737879,48.31532],[38.737506,48.315271]]]}},{"type":"Feature","properties":{"cadnum":"4423681100:02:002:0002"},"geometry":{"type":"Polygon","coordinates":[[[38.749796,48.300743],[38.749863,48.300096],[38.749031,48.300032],[38.748964,48.30069],[38.749796,48.300743]]]}},{"type":"Feature","properties":{"cadnum":"4423681100:02:002:0001"},"geometry":{"type":"Polygon","coordinates":[[[38.750263,48.300756],[38.750348,48.300134],[38.749863,48.300096],[38.749796,48.300743],[38.750263,48.300756]]]}},{"type":"Feature","properties":{"cadnum":"4423681100:05:003:0008"},"geometry":{"type":"Polygon","coordinates":[[[38.739429,48.312007],[38.738976,48.311582],[38.738701,48.311517],[38.738557,48.311549],[38.738315,48.311779],[38.738085,48.312171],[38.738026,48.312485],[38.73802669917808,48.312485],[38.737707,48.314196],[38.737707,48.3141964852547],[38.737506,48.315271],[38.737707,48.315297404825735],[38.737707,48.315298],[38.741877,48.315842],[38.742578,48.313256],[38.741966,48.313309],[38.741297,48.313348],[38.740884,48.313459],[38.740228,48.313417],[38.740121,48.313309],[38.740165,48.312712],[38.739662,48.312521],[38.739594,48.312371],[38.73959348535565,48.312371],[38.739429,48.312007]],[[38.739487,48.31278],[38.739577,48.312972],[38.739429,48.313127],[38.739353,48.312963],[38.739487,48.31278]]]}},{"type":"Feature","properties":{"cadnum":"4423681100:04:001:0002"},"geometry":{"type":"Polygon","coordinates":[[[38.7432,48.366604],[38.7432,48.36660423817292],[38.74092,48.366846],[38.740868,48.367255],[38.7408685755102,48.367255],[38.740821,48.367631],[38.743372,48.367403],[38.743372,48.36740258908342],[38.745142,48.367244],[38.745144,48.367255],[38.74514424301676,48.367255],[38.745215,48.367602],[38.743372,48.367770293796525],[38.743372,48.36777],[38.740777,48.368005],[38.740645,48.369022],[38.7432,48.36883086688669],[38.7432,48.368831],[38.746292,48.368598],[38.74647,48.367141],[38.746469094955486,48.367141],[38.74658,48.366244],[38.7432,48.366604]]]}},{"type":"Feature","properties":{"cadnum":"4423681100:02:001:0006"},"geometry":{"type":"Polygon","coordinates":[[[38.745532,48.300248],[38.745043,48.30022],[38.744737,48.301524],[38.744737338709676,48.301524],[38.744706,48.301658],[38.745282,48.301721],[38.74531493890675,48.301524],[38.745315,48.301524],[38.745532,48.300248]]]}},{"type":"Feature","properties":{"cadnum":"4423681100:05:002:0020"},"geometry":{"type":"Polygon","coordinates":[[[38.731191,48.295374],[38.729624,48.295219],[38.729005,48.29787],[38.72900520123398,48.29787],[38.728541,48.299862],[38.72872,48.299883],[38.729471,48.299904],[38.730212,48.299582],[38.73060837438424,48.29787],[38.73061,48.29787],[38.731191,48.295374]]]}},{"type":"Feature","properties":{"cadnum":"4423681100:05:002:0018"},"geometry":{"type":"Polygon","coordinates":[[[38.729624,48.295219],[38.727674,48.295028],[38.727548,48.296029],[38.727395,48.296889],[38.727151,48.29787],[38.72715239303483,48.29787],[38.727131,48.297956],[38.727382,48.298045],[38.72772837931034,48.29787],[38.727729,48.29787],[38.72811,48.297678],[38.728474,48.297571],[38.728346615384616,48.297755],[38.728345,48.297755],[38.728267,48.29787],[38.727517,48.298601],[38.727252,48.298751],[38.727112,48.298951],[38.727068,48.29933],[38.727194,48.299429],[38.728244,48.299826],[38.728541,48.299862],[38.729032,48.297755],[38.72903185213127,48.297755],[38.729624,48.295219]]]}},{"type":"Feature","properties":{"cadnum":"4423681100:05:002:0019"},"geometry":{"type":"Polygon","coordinates":[[[38.731191,48.295374],[38.73063676883013,48.297755],[38.730635,48.297755],[38.730212,48.299582],[38.730904,48.299283],[38.732214,48.299026653273806],[38.732214,48.299027],[38.732248,48.29902],[38.732386,48.298917],[38.732386,48.29891694972067],[38.732785,48.298619],[38.733082,48.297861],[38.733235,48.296958],[38.733573,48.295607],[38.732386,48.29549170640177],[38.732386,48.295491],[38.731191,48.295374]]]}},{"type":"Feature","properties":{"cadnum":"4423681100:05:005:0003"},"geometry":{"type":"Polygon","coordinates":[[[38.740695,48.285982],[38.740208,48.286905],[38.74020921428571,48.286905],[38.73999,48.287323],[38.743372,48.287632],[38.743372,48.287631691839835],[38.745173,48.287796],[38.745718,48.286937],[38.74537761374842,48.286872459230224],[38.743372,48.28649165730098],[38.743372,48.286491],[38.740695,48.285982]]]}},{"type":"Feature","properties":{"cadnum":"4423681100:05:003:0006"},"geometry":{"type":"Polygon","coordinates":[[[38.7077,48.310805],[38.707817,48.310265],[38.707184,48.310205],[38.704893,48.309996],[38.705256,48.310489],[38.705864,48.310856],[38.706268,48.310976],[38.706788,48.311292],[38.708971,48.31152],[38.709057,48.311935],[38.710241,48.31228164306785],[38.710241,48.312283],[38.710799,48.312446],[38.710843,48.312485],[38.71084312035011,48.312485],[38.711316,48.312903],[38.712273,48.313232],[38.713319,48.31342],[38.7142044932958,48.31237396118548],[38.714367,48.312183],[38.711011,48.310608],[38.710445,48.310557],[38.710337,48.311053],[38.7077,48.310805]]]}},{"type":"Feature","properties":{"cadnum":"4423681100:05:002:0021"},"geometry":{"type":"Polygon","coordinates":[[[38.715134,48.284104],[38.713172,48.284044],[38.712551,48.284026],[38.712093,48.285973],[38.712197,48.285922],[38.712273,48.286098],[38.712107,48.286173],[38.712061,48.286107],[38.711873,48.286905],[38.711873442522894,48.286905],[38.711671,48.287774],[38.714214,48.28804],[38.714505,48.286791],[38.714504699036056,48.286791],[38.715134,48.284104]]]}},{"type":"Feature","properties":{"cadnum":"4423681100:03:002:0003"},"geometry":{"type":"MultiPolygon","coordinates":[[[[38.705864,48.341378],[38.705769,48.341384],[38.705774,48.341446],[38.705868,48.341444],[38.705864,48.341378]]],[[[38.705877,48.341553],[38.705782,48.341557],[38.705784953846155,48.341589],[38.705783,48.341589],[38.705788,48.341622],[38.705881,48.341617],[38.705877,48.341553]]],[[[38.705891,48.34173],[38.705796,48.341733],[38.705801,48.341796],[38.705895,48.341792],[38.705891,48.34173]]]]}},{"type":"Feature","properties":{"cadnum":"4423681100:05:002:0014"},"geometry":{"type":"Polygon","coordinates":[[[38.749634,48.288919],[38.749557,48.288904],[38.749094,48.288862],[38.748865,48.28989891199999],[38.748865,48.289898],[38.748743314199395,48.290446],[38.748743,48.290446],[38.747999,48.293811],[38.748693,48.29387991916859],[38.748693,48.29388],[38.74873439549461,48.293884030037574],[38.748865,48.293897],[38.748865,48.293896744973544],[38.749638,48.293972],[38.750393749290986,48.29056],[38.750394,48.29056],[38.750689,48.289233],[38.749634,48.288919]]]}},{"type":"Feature","properties":{"cadnum":"4423681100:05:002:0029"},"geometry":{"type":"Polygon","coordinates":[[[38.754175,48.290064],[38.754148,48.290052],[38.752373,48.289642],[38.75219520915032,48.290446],[38.752195,48.290446],[38.75138629294022,48.294101],[38.751385,48.294101],[38.751377,48.294143],[38.751551,48.294161],[38.753196,48.294322],[38.7532197239819,48.294215],[38.75322,48.294215],[38.754086,48.290446],[38.75408566129032,48.290446],[38.754175,48.290064]]]}},{"type":"Feature","properties":{"cadnum":"4423681100:03:002:0006"},"geometry":{"type":"Polygon","coordinates":[[[38.715579,48.342369],[38.715718,48.342276],[38.715602,48.342172],[38.715596,48.342172],[38.715457,48.342265],[38.715574,48.342369],[38.715579,48.342369]]]}},{"type":"Feature","properties":{"cadnum":"4423681100:03:002:0005"},"geometry":{"type":"Polygon","coordinates":[[[38.712233,48.34219],[38.712371,48.3421],[38.71226,48.341996],[38.712254,48.341996],[38.712116,48.342086],[38.712227,48.34219],[38.712233,48.34219]]]}},{"type":"Feature","properties":{"cadnum":"4423681100:01:026:0002"},"geometry":{"type":"Polygon","coordinates":[[[38.720516,48.358628],[38.720537,48.358586],[38.720487,48.358574],[38.720461,48.358616],[38.720516,48.358628]]]}},{"type":"Feature","properties":{"cadnum":"4423681100:01:026:0003"},"geometry":{"type":"Polygon","coordinates":[[[38.720847,48.359165],[38.721103,48.358383],[38.717941,48.35778],[38.717797,48.358571],[38.720847,48.359165]],[[38.720516,48.358628],[38.720461,48.358616],[38.720487,48.358574],[38.720537,48.358586],[38.720516,48.358628]]]}},{"type":"Feature","properties":{"cadnum":"4423681100:01:002:0001"},"geometry":{"type":"Polygon","coordinates":[[[38.727238,48.361407],[38.727149,48.360911],[38.727019,48.360932],[38.727032,48.360962],[38.726915,48.36098],[38.726902,48.360944],[38.726722,48.360965],[38.726785,48.361463],[38.726892,48.36145],[38.726892,48.36144977262693],[38.727238,48.361407]]]}},{"type":"Feature","properties":{"cadnum":"4423681100:01:008:0001"},"geometry":{"type":"Polygon","coordinates":[[[38.728672,48.363382],[38.728348,48.363215],[38.72825,48.363203],[38.7282,48.363224],[38.72803,48.363376],[38.727944,48.363436],[38.727908,48.36348],[38.727894285714285,48.363492],[38.727894,48.363492],[38.727870285714175,48.3635130000001],[38.727764,48.363606],[38.727765265306125,48.363606],[38.727728,48.363639],[38.728106,48.363809],[38.728263,48.363767],[38.72837,48.363675],[38.72854925581398,48.36350051162788],[38.728672,48.363382]]]}},{"type":"Feature","properties":{"cadnum":"4423681100:05:002:0008"},"geometry":{"type":"Polygon","coordinates":[[[38.725154,48.290437],[38.723579,48.290294],[38.72354757142857,48.290446],[38.723546,48.290446],[38.7228041387636,48.294101],[38.722803,48.294101],[38.722743,48.294403],[38.724858,48.294609],[38.724947349609806,48.29416400390412],[38.725694,48.290485],[38.725154,48.290437]]]}},{"type":"Feature","properties":{"cadnum":"4423681100:05:002:0023"},"geometry":{"type":"Polygon","coordinates":[[[38.725154,48.290437],[38.72594,48.287063],[38.724049,48.28689],[38.723785,48.287371],[38.722716,48.287231],[38.722034,48.290156],[38.723579,48.290294],[38.725154,48.290437]],[[38.722854,48.288025],[38.722703,48.287954],[38.722904,48.287924],[38.723057,48.288005],[38.722854,48.288025]]]}},{"type":"Feature","properties":{"cadnum":"4423681100:05:002:0022"},"geometry":{"type":"Polygon","coordinates":[[[38.720739,48.285975],[38.720439,48.285799],[38.72034,48.285757],[38.719191,48.285353],[38.718979,48.28522],[38.718584,48.286905],[38.71858444318182,48.286905],[38.717914,48.289783],[38.718826,48.289867],[38.71981,48.289954],[38.720521401201395,48.286905],[38.720522,48.286905],[38.720739,48.285975]]]}},{"type":"Feature","properties":{"cadnum":"4423681100:05:002:0007"},"geometry":{"type":"Polygon","coordinates":[[[38.718826,48.289867],[38.717914,48.289783],[38.716351,48.289642],[38.71618809803921,48.290446],[38.716188,48.290446],[38.715734,48.292688],[38.715734,48.29268959416445],[38.715529,48.293701],[38.715734,48.29372111936339],[38.715734,48.293722],[38.718,48.293939],[38.718684893215,48.29056],[38.718685,48.29056],[38.718826,48.289867]]]}},{"type":"Feature","properties":{"cadnum":"4423681100:01:013:0004"},"geometry":{"type":"Polygon","coordinates":[[[38.724791,48.359938],[38.724881,48.359927],[38.724849,48.359697],[38.724414,48.359625],[38.72437309584665,48.359842],[38.724373,48.359842],[38.724355,48.359938],[38.724629,48.359947],[38.724791,48.359938]]]}},{"type":"Feature","properties":{"cadnum":"4423681100:01:026:0001"},"geometry":{"type":"Polygon","coordinates":[[[38.722833,48.359908],[38.722824,48.35989],[38.722877,48.359879],[38.722879,48.359842],[38.72287851020408,48.359842],[38.722883,48.359732],[38.722657,48.359735],[38.72253063348416,48.359842],[38.72253,48.359842],[38.722450000000016,48.359910275862056],[38.722396,48.359956],[38.722396424242426,48.359956],[38.722298,48.36004],[38.721638,48.360532],[38.721718,48.360559],[38.721669,48.360619],[38.721718,48.360738],[38.722357,48.360679],[38.722841,48.360702],[38.722877,48.359896],[38.722833,48.359908]]]}},{"type":"Feature","properties":{"cadnum":"4423681100:01:014:0002"},"geometry":{"type":"Polygon","coordinates":[[[38.724975,48.361051],[38.724975,48.360938],[38.724818,48.360938],[38.724814,48.361051],[38.724975,48.361051]]]}},{"type":"Feature","properties":{"cadnum":"4423681100:05:002:0012"},"geometry":{"type":"Polygon","coordinates":[[[38.747456,48.28871],[38.745775,48.288554],[38.745355289132604,48.290446],[38.745355,48.290446],[38.744684,48.293483],[38.745807,48.293593],[38.746364,48.29365],[38.747045844569286,48.29056],[38.747047,48.29056],[38.747456,48.28871]]]}},{"type":"Feature","properties":{"cadnum":"4423681100:05:002:0013"},"geometry":{"type":"Polygon","coordinates":[[[38.747456,48.28871],[38.74707220324324,48.290446],[38.747071,48.290446],[38.746364,48.29365],[38.747981,48.293808],[38.747999,48.293811],[38.748717794650815,48.29056],[38.748718,48.29056],[38.748719,48.29056],[38.749094,48.288862],[38.74872205797047,48.2888286086956],[38.747456,48.28871]]]}},{"type":"Feature","properties":{"cadnum":"4423681100:01:008:0002"},"geometry":{"type":"Polygon","coordinates":[[[38.727791,48.364298],[38.7279,48.363949],[38.727324,48.363902],[38.727265,48.364086],[38.727334,48.364239],[38.727791,48.364298]]]}},{"type":"Feature","properties":{"cadnum":"4423681100:01:009:0001"},"geometry":{"type":"Polygon","coordinates":[[[38.727953,48.363851],[38.728106,48.363809],[38.727728,48.363639],[38.727603,48.363749],[38.727571,48.3638],[38.727867,48.363838],[38.727953,48.363851]]]}},{"type":"Feature","properties":{"cadnum":"4423681100:05:002:0030"},"geometry":{"type":"Polygon","coordinates":[[[38.758783,48.292051],[38.756475,48.291125],[38.755772,48.294215],[38.755773070140286,48.294215],[38.755572,48.295099],[38.755769,48.29512],[38.758033,48.295362],[38.75829132513878,48.294215],[38.758292,48.294215],[38.758783,48.292051]]]}},{"type":"Feature","properties":{"cadnum":"4423681100:05:001:0008"},"geometry":{"type":"Polygon","coordinates":[[[38.740943,48.343677],[38.741081,48.343584],[38.74097,48.34348],[38.740961,48.34348],[38.740825,48.343569],[38.740938,48.343677],[38.740943,48.343677]]]}},{"type":"Feature","properties":{"cadnum":"4423681100:05:001:0007"},"geometry":{"type":"Polygon","coordinates":[[[38.738085,48.343515],[38.738225,48.343423],[38.738108,48.343318],[38.738104,48.343318],[38.737965,48.343411],[38.738081,48.343515],[38.738085,48.343515]]]}},{"type":"Feature","properties":{"cadnum":"4423681100:02:001:0007"},"geometry":{"type":"Polygon","coordinates":[[[38.745794,48.299483],[38.745928,48.298813],[38.745524,48.2987],[38.745376,48.29945],[38.745794,48.299483]]]}},{"type":"Feature","properties":{"cadnum":"4423681100:02:001:0008"},"geometry":{"type":"Polygon","coordinates":[[[38.745928,48.298813],[38.746139,48.298003],[38.745829,48.298012],[38.745569,48.298464],[38.745524,48.2987],[38.745928,48.298813]]]}},{"type":"Feature","properties":{"cadnum":"4423681100:02:001:0005"},"geometry":{"type":"Polygon","coordinates":[[[38.745532,48.300248],[38.745559,48.300092],[38.745685,48.300087],[38.745735,48.299748],[38.745125,48.299674],[38.745083,48.300041],[38.745043,48.30022],[38.745532,48.300248]]]}},{"type":"Feature","properties":{"cadnum":"4423681100:02:001:0011"},"geometry":{"type":"Polygon","coordinates":[[[38.747941,48.300734],[38.747985,48.299952],[38.747617,48.299922],[38.74754,48.300716],[38.747941,48.300734]]]}},{"type":"Feature","properties":{"cadnum":"4423681100:02:001:0004"},"geometry":{"type":"Polygon","coordinates":[[[38.743934,48.301359],[38.744073,48.300466],[38.743723,48.300426],[38.743511,48.301323],[38.743934,48.301359]]]}},{"type":"Feature","properties":{"cadnum":"4423681100:02:001:0003"},"geometry":{"type":"Polygon","coordinates":[[[38.744073,48.300466],[38.74411,48.300218],[38.744289,48.299578],[38.743947,48.299545],[38.743723,48.300426],[38.744073,48.300466]]]}},{"type":"Feature","properties":{"cadnum":"4423681100:02:001:0010"},"geometry":{"type":"Polygon","coordinates":[[[38.745928,48.298813],[38.746364,48.298765],[38.746521,48.298039],[38.746135,48.298019],[38.745928,48.298813]]]}},{"type":"Feature","properties":{"cadnum":"4423681100:02:001:0009"},"geometry":{"type":"Polygon","coordinates":[[[38.746207,48.299527],[38.746364,48.298765],[38.745928,48.298813],[38.745794,48.299483],[38.746207,48.299527]]]}},{"type":"Feature","properties":{"cadnum":"4423681100:05:001:0011"},"geometry":{"type":"Polygon","coordinates":[[[38.750756,48.344312],[38.750901,48.344226],[38.750788,48.344118],[38.750784,48.344115],[38.750639,48.344204],[38.750748,48.344312],[38.750756,48.344312]]]}},{"type":"Feature","properties":{"cadnum":"4423681100:06:001:0001"},"geometry":{"type":"Polygon","coordinates":[[[38.724139,48.383852],[38.725317,48.383435],[38.726107,48.383343],[38.725972,48.382636],[38.724068,48.382647],[38.724139,48.383852]]]}},{"type":"Feature","properties":{"cadnum":"4423681100:05:001:0010"},"geometry":{"type":"Polygon","coordinates":[[[38.7468,48.343999],[38.746939,48.343909],[38.746827,48.343805],[38.746823,48.343805],[38.746678,48.343894],[38.74679,48.343999],[38.7468,48.343999]]]}},{"type":"Feature","properties":{"cadnum":"4423681100:05:001:0009"},"geometry":{"type":"Polygon","coordinates":[[[38.743898,48.343838],[38.744037,48.343748],[38.74392,48.343641],[38.743916,48.343641],[38.743777,48.343733],[38.743894,48.343838],[38.743898,48.343838]]]}},{"type":"Feature","properties":{"cadnum":"4423681100:03:002:0004"},"geometry":{"type":"Polygon","coordinates":[[[38.708694,48.341924],[38.708837,48.341838],[38.708729,48.34173],[38.708725,48.34173],[38.708581,48.341816],[38.708688,48.341924],[38.708694,48.341924]]]}},{"type":"Feature","properties":{"cadnum":"4423681100:05:001:0002"},"geometry":{"type":"Polygon","coordinates":[[[38.722208,48.34273],[38.722347,48.342637],[38.722231,48.342533],[38.722227,48.342533],[38.722087,48.342622],[38.722204,48.342727],[38.722208,48.34273]]]}},{"type":"Feature","properties":{"cadnum":"4423681100:05:001:0003"},"geometry":{"type":"Polygon","coordinates":[[[38.724185,48.342829],[38.724319,48.342739],[38.724208,48.342635],[38.724198,48.342635],[38.724063,48.342724],[38.724175,48.342829],[38.724185,48.342829]]]}},{"type":"Feature","properties":{"cadnum":"4423681100:05:002:0017"},"geometry":{"type":"Polygon","coordinates":[[[38.725581,48.296519],[38.725254,48.296262],[38.725298,48.296139],[38.72573,48.296008],[38.726017,48.294842],[38.723489,48.294592],[38.72287180518264,48.297755],[38.72287,48.297755],[38.722864,48.297795],[38.723076,48.297819],[38.723078,48.29787],[38.723078966759005,48.29787],[38.723097,48.29818],[38.723394,48.29832],[38.725011,48.298428],[38.72517682466568,48.29787],[38.725177,48.29787],[38.725581,48.296519]]]}},{"type":"Feature","properties":{"cadnum":"4423681100:01:013:0001"},"geometry":{"type":"Polygon","coordinates":[[[38.724328,48.35987],[38.724342,48.359798],[38.724275,48.359792],[38.724261,48.359863],[38.724328,48.35987]]]}},{"type":"Feature","properties":{"cadnum":"4423681100:01:013:0003"},"geometry":{"type":"Polygon","coordinates":[[[38.723632,48.359189],[38.723659,48.359135],[38.723538,48.359109],[38.72351,48.359162],[38.723632,48.359189]]]}},{"type":"Feature","properties":{"cadnum":"4423681100:01:013:0005"},"geometry":{"type":"Polygon","coordinates":[[[38.72329,48.35958],[38.723313,48.359443],[38.723048,48.359425],[38.72303,48.359562],[38.72329,48.35958]]]}},{"type":"Feature","properties":{"cadnum":"4423681100:01:001:0001"},"geometry":{"type":"Polygon","coordinates":[[[38.724782,48.358963],[38.724818,48.358894],[38.725034,48.358918],[38.725038,48.358828],[38.7255,48.358873],[38.725491,48.358774],[38.72489,48.358684],[38.724715,48.358664],[38.724584,48.358652],[38.724602,48.358825],[38.724615,48.358908],[38.724607,48.358954],[38.724782,48.358963]]]}},{"type":"Feature","properties":{"cadnum":"4423681100:01:030:0001"},"geometry":{"type":"Polygon","coordinates":[[[38.723394,48.357437],[38.723453,48.357115],[38.722613,48.356918],[38.722474,48.35724],[38.723394,48.357437]]]}},{"type":"Feature","properties":{"cadnum":"4423681100:05:001:0006"},"geometry":{"type":"Polygon","coordinates":[[[38.734057,48.343339],[38.734196,48.343246],[38.734079,48.343142],[38.73407,48.343142],[38.733936,48.343235],[38.734053,48.343339],[38.734057,48.343339]]]}},{"type":"Feature","properties":{"cadnum":"4423681100:05:001:0001"},"geometry":{"type":"Polygon","coordinates":[[[38.718938,48.342548],[38.719078,48.342458],[38.718961,48.342354],[38.718956,48.342354],[38.718818,48.342443],[38.718929,48.342548],[38.718938,48.342548]]]}}]}