{"type":"FeatureCollection","features":[{"type":"Feature","properties":{"cadnum":"4424253300:13:002:0038"},"geometry":{"type":"Polygon","coordinates":[[[39.753752,47.853762],[39.753721,47.853645],[39.75358966666664,47.853659],[39.753583,47.853659],[39.753524,47.853666],[39.753552,47.853775],[39.753552635593216,47.853775],[39.753555,47.853784],[39.7536355909091,47.853775],[39.753637,47.853775],[39.753752,47.853762]]]}},{"type":"Feature","properties":{"cadnum":"4424253300:01:003:0006"},"geometry":{"type":"Polygon","coordinates":[[[39.736163,47.961291],[39.736196,47.96127],[39.736177,47.961259],[39.736146,47.961279],[39.736163,47.961291]]]}}]}