{"type":"FeatureCollection","features":[{"type":"Feature","properties":{"cadnum":"4424200000:00:000:0003"},"geometry":{"type":"Polygon","coordinates":[[[39.43764,48.15603],[39.436036,48.156695],[39.435511,48.15700608321377],[39.435511,48.157006],[39.435084,48.157258],[39.434828,48.157777],[39.434595,48.158421],[39.434595,48.1587],[39.434595,48.158815],[39.434595,48.158963],[39.434891,48.159434],[39.435339,48.16002290322581],[39.435339,48.160024],[39.436122,48.161055],[39.437212,48.162479],[39.43721315649868,48.162479],[39.437703,48.163118],[39.438705,48.162732],[39.439353312499996,48.162479],[39.439354,48.162479],[39.439841,48.162289],[39.441004,48.16184],[39.441004,48.16183939574468],[39.441067,48.161815],[39.441736,48.161552],[39.441004,48.16060299115045],[39.441004,48.160602],[39.439537,48.1587],[39.43953649051491,48.1587],[39.438489,48.157339],[39.43764,48.15603]]]}}]}