{"type":"FeatureCollection","features":[{"type":"Feature","properties":{"cadnum":"4424585000:03:003:0039"},"geometry":{"type":"Polygon","coordinates":[[[38.518152,49.759752403347555],[38.518152,49.759752],[38.51511438434157,49.759922],[38.515113,49.759922],[38.512487,49.760069],[38.512487,49.76006960519481],[38.511119,49.760146],[38.511291,49.761216],[38.51137,49.76146],[38.512659,49.761388],[38.512659,49.76138737528685],[38.517981,49.761089568755516],[38.517981,49.76109],[38.520389,49.760955],[38.520645,49.76038],[38.520867,49.759922],[38.520866993212664,49.759922],[38.521028,49.759591],[38.518152,49.759752403347555]]]}},{"type":"Feature","properties":{"cadnum":"4424585000:03:003:0041"},"geometry":{"type":"Polygon","coordinates":[[[38.523702,49.757807],[38.52381,49.757198],[38.523474,49.757217],[38.523474,49.757217570444915],[38.518152,49.757515429555085],[38.518152,49.757515],[38.512487,49.757832],[38.512487,49.75783258598726],[38.512031,49.757858],[38.511861,49.758162],[38.511805,49.758381],[38.511394,49.758783],[38.511327,49.75899],[38.512487,49.758924684684686],[38.512487,49.758926],[38.517981,49.758617598940866],[38.517981,49.758618],[38.523474,49.75830960063559],[38.523474,49.758311],[38.523691,49.758298],[38.523702,49.757807]]]}},{"type":"Feature","properties":{"cadnum":"4424585000:03:003:0042"},"geometry":{"type":"Polygon","coordinates":[[[38.523474,49.756077],[38.523474,49.756077570444916],[38.518195410094584,49.756373],[38.518172,49.756373],[38.51804976000038,49.75638067999998],[38.51619,49.756484],[38.51620036393441,49.756484],[38.512691,49.75668],[38.512659,49.756872524590165],[38.512659,49.756872],[38.51263,49.757047],[38.512263,49.757442],[38.512031,49.757858],[38.512659,49.757823],[38.512659,49.75782237528685],[38.517981,49.757524568755514],[38.517981,49.757525],[38.523645,49.757208],[38.523645,49.75720733035714],[38.52381,49.757198],[38.523936,49.756489],[38.523947,49.756373],[38.5239469472477,49.756373],[38.523979,49.756048],[38.523474,49.756077]]]}},{"type":"Feature","properties":{"cadnum":"4424585000:03:003:0040"},"geometry":{"type":"Polygon","coordinates":[[[38.52369,49.75837],[38.523691,49.758298],[38.523645,49.758300755760374],[38.523645,49.7583],[38.518152,49.758608399364405],[38.518152,49.758608],[38.512659,49.758916344924984],[38.512659,49.758915],[38.511327,49.75899],[38.511064,49.759803],[38.51108314347826,49.759922],[38.511083,49.759922],[38.511119,49.760146],[38.512659,49.76006],[38.512659,49.760059371667936],[38.51313010204082,49.760033],[38.513131,49.760033],[38.517981,49.75976157000597],[38.517981,49.759762],[38.521028,49.759591],[38.521101,49.75944],[38.521371,49.759129],[38.522178,49.759021],[38.523161,49.758862],[38.523474,49.758743467455616],[38.523474,49.758745],[38.523499,49.758734],[38.52369,49.75837]]]}},{"type":"Feature","properties":{"cadnum":"4424585000:03:004:0046"},"geometry":{"type":"Polygon","coordinates":[[[38.556604,49.755341],[38.556604,49.75534074088398],[38.561863,49.755179],[38.561796,49.754297],[38.560215,49.754177],[38.558274,49.75396],[38.556433,49.75367],[38.556433,49.75367102225519],[38.554582,49.753379],[38.553356,49.753202],[38.554025,49.755419],[38.556604,49.755341]],[[38.553869,49.754519],[38.553869,49.75454],[38.553836,49.75454],[38.553836,49.754519],[38.553869,49.754519]]]}}]}