{"type":"FeatureCollection","features":[{"type":"Feature","properties":{"cadnum":"4424581500:13:001:0111"},"geometry":{"type":"Polygon","coordinates":[[[38.47386182864448,49.965301],[38.473861,49.965301],[38.474035,49.965361346820806],[38.474035,49.965362],[38.474341,49.965467],[38.474462,49.965301],[38.47446191954023,49.965301],[38.474637,49.965063],[38.474735,49.96493],[38.474035,49.964687],[38.474035,49.964687308561345],[38.468714,49.96284069143866],[38.468714,49.96284],[38.467517,49.962424],[38.4671,49.962956],[38.468714,49.963516],[38.468714,49.963515652297325],[38.47386182864448,49.965301]]]}},{"type":"Feature","properties":{"cadnum":"4424581500:13:001:0113"},"geometry":{"type":"Polygon","coordinates":[[[38.46801869668247,49.961767],[38.468018,49.961767],[38.468003,49.961803],[38.467945,49.961878],[38.46794524137931,49.961878],[38.467936,49.96189],[38.468542,49.962100308483286],[38.468542,49.962101],[38.474035,49.96400633892321],[38.474035,49.964007],[38.475148,49.964392],[38.475611,49.963786],[38.474035,49.963275],[38.474035,49.963275230303026],[38.469917,49.96194],[38.469382,49.961767],[38.46938053926703,49.961767],[38.468542,49.961496],[38.468542,49.96149618975332],[38.468187,49.961381],[38.46801869668247,49.961767]]]}},{"type":"Feature","properties":{"cadnum":"4424581500:13:001:0112"},"geometry":{"type":"Polygon","coordinates":[[[38.468714,49.96216],[38.467936,49.96189],[38.467517,49.962424],[38.468542,49.96278022389306],[38.468542,49.962781],[38.474207,49.964747],[38.474207,49.964746708571425],[38.474735,49.96493],[38.475148,49.964392],[38.474207,49.964066496855345],[38.474207,49.964066],[38.468714,49.96216066107679],[38.468714,49.96216]]]}}]}