{"type":"FeatureCollection","features":[{"type":"Feature","properties":{"cadnum":"4424244000:31:001:0001"},"geometry":{"type":"Polygon","coordinates":[[[39.620928,48.0356],[39.620496,48.035838],[39.619715,48.036682],[39.620906,48.03775],[39.62090725195313,48.03775],[39.62135,48.038147],[39.622107,48.03786149353448],[39.622107,48.037862],[39.62240167379678,48.03775],[39.622402,48.03775],[39.622599,48.037675],[39.622701,48.03775],[39.62270192740047,48.03775],[39.623771,48.038529],[39.623995,48.038778],[39.624417,48.03927],[39.624679,48.039676],[39.624948,48.040261],[39.625351108527134,48.041308],[39.625351,48.041308],[39.625532,48.041778],[39.626061,48.043126],[39.626403,48.043991],[39.626807726178534,48.04498],[39.626807,48.04498],[39.626811,48.044988],[39.626851,48.045095],[39.62685255339806,48.045095],[39.627771,48.04746],[39.627771,48.047459364864864],[39.627822,48.047591],[39.628226,48.048615],[39.628240749999996,48.048653],[39.628239,48.048653],[39.62886,48.050248],[39.628438,48.049519],[39.628019450346414,48.048767],[39.628021,48.048767],[39.627692,48.048174],[39.6276,48.04803],[39.6276,48.0480306407767],[39.627486,48.047853],[39.627094,48.047519],[39.626501,48.047096],[39.626134,48.046901],[39.625811,48.046763],[39.625406,48.046634],[39.624769,48.046465],[39.624368,48.046411],[39.623448,48.046345],[39.622972,48.04636],[39.622589,48.046387],[39.622172,48.04646],[39.62127,48.046696],[39.620586,48.047],[39.619953,48.047399],[39.619436,48.047831],[39.619037,48.048378],[39.61890338817481,48.048653],[39.618903,48.048653],[39.618834,48.048795],[39.618601,48.049297],[39.618322,48.049888],[39.618026,48.050519],[39.617811,48.050819],[39.617501,48.05118],[39.617199,48.051443],[39.616613,48.051832],[39.616613,48.05183261788618],[39.616293,48.052044],[39.615821,48.052293],[39.615488,48.052431],[39.61546,48.052439],[39.61546082591093,48.052439],[39.614649,48.052678],[39.613781,48.052909],[39.611765,48.053392],[39.61112,48.053547],[39.61112,48.05354723418424],[39.610391,48.053722],[39.61013,48.053782],[39.610247,48.053831],[39.610427,48.053788],[39.61112,48.05362376300578],[39.61112,48.053624],[39.61123798312052,48.0535958016882],[39.611292,48.053583],[39.611292,48.0535828914956],[39.611802,48.053461],[39.613817,48.052978],[39.614689,48.052744],[39.615538,48.052495],[39.615884,48.052353],[39.615937,48.052325],[39.61593670588234,48.052325],[39.616364,48.052098],[39.616613,48.051932394299286],[39.616613,48.051933],[39.61728,48.051489],[39.617591,48.051218],[39.617905,48.050853],[39.618125,48.050546],[39.618427,48.049909],[39.618704,48.049318],[39.618938,48.048819],[39.619017,48.048653],[39.61901679558011,48.048653],[39.619136,48.048405],[39.619526,48.047871],[39.620035,48.04745],[39.620649,48.047054],[39.621318,48.04676],[39.622107,48.04655405762712],[39.622107,48.046555],[39.622203,48.046529],[39.622608,48.04646],[39.622976,48.046433],[39.623444,48.046417],[39.62435,48.046484],[39.62474,48.046534],[39.625365,48.0467],[39.625761,48.046825],[39.626071,48.046958],[39.626425,48.047147],[39.627014,48.047568],[39.627396,48.047889],[39.627593,48.048201],[39.627771,48.048523],[39.627771,48.048521579804564],[39.627907,48.048767],[39.62790740449438,48.048767],[39.628339,48.049543],[39.629027,48.05078],[39.62913,48.050765],[39.628968,48.05023],[39.62839560240964,48.048767],[39.628396,48.048767],[39.628329,48.048594],[39.627926,48.047573],[39.6276,48.046735],[39.6276,48.04673708548009],[39.62696170186618,48.045095],[39.626963,48.045095],[39.626914,48.04497],[39.626507,48.043973],[39.626165,48.043108],[39.625635,48.04176],[39.62550488495575,48.041422],[39.625505,48.041422],[39.625052,48.040243],[39.624782,48.039652],[39.624512,48.039237],[39.62409,48.038739],[39.624238,48.038703],[39.625941,48.040303],[39.626727,48.039649],[39.626794,48.039526],[39.624636,48.037635],[39.6246348765728,48.037635],[39.622863,48.036081],[39.622107,48.035689],[39.622107,48.03569003043478],[39.621588,48.03542],[39.621071,48.0357],[39.620928,48.0356]]]}},{"type":"Feature","properties":{"cadnum":"4424244000:30:001:0001"},"geometry":{"type":"Polygon","coordinates":[[[39.531087,48.027776],[39.531015,48.027851],[39.531559,48.028115],[39.532273,48.028662],[39.534024,48.030403],[39.53402448218029,48.030403],[39.534216,48.03059371816284],[39.534216,48.030594],[39.53431957142783,48.03069685714212],[39.534388,48.030765],[39.534388,48.030764813793105],[39.534941,48.031314],[39.53777,48.034077],[39.53777085648574,48.034077],[39.539709,48.03596816876122],[39.539709,48.035969],[39.540578,48.036817],[39.541537,48.03775],[39.54153732457293,48.03775],[39.542985,48.039157],[39.544597,48.040829],[39.545097001686344,48.041308],[39.545096,48.041308],[39.545374,48.041574],[39.545374,48.0415736381323],[39.545716,48.041901],[39.546309,48.042685],[39.546494,48.043015],[39.546664,48.043348],[39.546812,48.04394],[39.546964,48.044592],[39.547095,48.044577],[39.546943,48.043928],[39.546943,48.043277],[39.547205416106905,48.04140490828079],[39.54723,48.041231],[39.547194,48.040832],[39.547046,48.04043],[39.546871,48.040051],[39.546547,48.039598],[39.545389,48.038451],[39.54529000000057,48.03832923529482],[39.544728,48.037635],[39.544727230483275,48.037635],[39.544603,48.037481],[39.544486,48.037523],[39.544668,48.03775],[39.544668746234066,48.03775],[39.545202,48.03841120402299],[39.545202,48.038412],[39.545272,48.038498],[39.545374,48.038599],[39.545374,48.03859815821152],[39.546435,48.03964],[39.54675,48.040084],[39.54692,48.040453],[39.54706,48.040847],[39.5471,48.041228],[39.54708845360825,48.041308],[39.547088,48.041308],[39.546808,48.043273],[39.546794,48.043328],[39.546618,48.042985],[39.546435,48.042649],[39.546264,48.042423],[39.545829,48.041853],[39.545263,48.041308],[39.54526246467818,48.041308],[39.54471,48.040778],[39.543093,48.039105],[39.541583,48.037635],[39.54158296138212,48.037635],[39.540691,48.036766],[39.539709,48.035808],[39.539709,48.03580816666667],[39.537934855014896,48.034077],[39.537935,48.034077],[39.535053,48.031263],[39.534388,48.03060435603345],[39.534388,48.030604],[39.53407,48.030288],[39.53406910306407,48.030288],[39.532376,48.028608],[39.531649,48.028052],[39.531087,48.027776]]]}}]}