{"type":"FeatureCollection","features":[{"type":"Feature","properties":{"cadnum":"4424562000:05:001:0078"},"geometry":{"type":"Polygon","coordinates":[[[38.741832,48.683651],[38.741976,48.683627],[38.741909,48.683449],[38.741684,48.683478],[38.741405,48.68352],[38.741284,48.683541],[38.741198,48.683553],[38.740992,48.683585],[38.740951,48.683592],[38.740965,48.683627],[38.741005,48.683621],[38.741042,48.683764],[38.741043072580645,48.683764],[38.741046,48.683775],[38.74136,48.683728],[38.741832,48.683651]]]}},{"type":"Feature","properties":{"cadnum":"4424562000:05:001:0083"},"geometry":{"type":"Polygon","coordinates":[[[38.76035,48.6772],[38.760517,48.676993],[38.760486,48.676984],[38.760377,48.67694],[38.760279,48.676907],[38.760184,48.676871],[38.760014,48.676809],[38.759956,48.676883],[38.759941,48.676901],[38.75991,48.676943],[38.759851,48.677013],[38.759924,48.677043],[38.75996,48.677055],[38.760113,48.677103],[38.760306,48.677185],[38.76035,48.6772]]]}},{"type":"Feature","properties":{"cadnum":"4424562000:05:001:0084"},"geometry":{"type":"Polygon","coordinates":[[[38.743534,48.682091],[38.743593,48.682079],[38.744033,48.682002],[38.74428,48.681969],[38.744828,48.681895],[38.74476,48.681737],[38.744226,48.681836],[38.743924,48.681892],[38.74392,48.681889],[38.743794,48.68191],[38.743557,48.681948],[38.743489,48.681957],[38.743511,48.682025],[38.743534,48.682091]]]}},{"type":"Feature","properties":{"cadnum":"4424562000:05:001:0082"},"geometry":{"type":"Polygon","coordinates":[[[38.746624,48.6832],[38.746894,48.683152],[38.746947,48.683126],[38.74697,48.683099],[38.746926,48.682743],[38.746427,48.68285],[38.746544,48.683054],[38.746624,48.6832]]]}},{"type":"Feature","properties":{"cadnum":"4424562000:05:001:0081"},"geometry":{"type":"Polygon","coordinates":[[[38.758383,48.672262],[38.758895,48.672232],[38.758846,48.67201],[38.758819,48.671895],[38.758622,48.671895],[38.758379,48.671909],[38.758293,48.671966],[38.758307,48.672028],[38.758383,48.672262]]]}}]}