{"type":"FeatureCollection","features":[{"type":"Feature","properties":{"cadnum":"4424554000:02:004:0055"},"geometry":{"type":"Polygon","coordinates":[[[38.90391,48.563694],[38.9038792016129,48.563828],[38.903879,48.563828],[38.90386236673391,48.563901246491035],[38.903853,48.563942],[38.903853112175106,48.563942],[38.903713,48.564559],[38.903417,48.565016],[38.902662,48.565756],[38.902455,48.565857],[38.900704,48.566297],[38.899595,48.566648],[38.899015,48.566898],[38.898467,48.567086],[38.897641,48.567311],[38.897009,48.567573],[38.897009,48.567574],[38.897009,48.567574205787786],[38.895937,48.568018],[38.896872,48.568749],[38.897009,48.568792893203884],[38.897009,48.568793],[38.89703656321879,48.568801724138055],[38.897181,48.568848],[38.897181,48.56884744036697],[38.897227,48.568862],[38.899073,48.568512],[38.901354,48.568167],[38.902502,48.568076551515155],[38.902502,48.568077],[38.90265743096214,48.56806430543935],[38.902674,48.568063],[38.902674,48.568062952191234],[38.903004,48.568036],[38.906031,48.567727],[38.907063,48.567679],[38.908167,48.567519],[38.908167,48.567517975409835],[38.908483,48.567472],[38.910455,48.567076],[38.910126,48.566568],[38.908491,48.566773],[38.90802690156477,48.56681417002248],[38.90621,48.566972],[38.90348,48.567192],[38.902502,48.567284],[38.902502,48.567284125],[38.90149,48.567379],[38.900085,48.567577],[38.90008634065936,48.567577],[38.899595,48.567646],[38.89839,48.567769],[38.89805,48.567765],[38.898785,48.567464],[38.89878322222222,48.567464],[38.898947,48.567397],[38.899446,48.567231],[38.899499,48.567117],[38.899463,48.567005],[38.899792,48.566848],[38.900375,48.567326],[38.902502,48.567078975641586],[38.902502,48.567079],[38.90262429188962,48.56706477297324],[38.902674,48.567059],[38.902674,48.56705899009901],[38.904522,48.566844],[38.907706,48.566518],[38.908167,48.566484],[38.908167,48.56648320302648],[38.908788,48.566437],[38.908167,48.565923284993694],[38.908167,48.565923],[38.90577372505966,48.563942],[38.905774,48.563942],[38.904099,48.562555],[38.90404,48.563239],[38.90391,48.563694]],[[38.904,48.564226],[38.903969,48.56427],[38.903901,48.564249],[38.903933,48.564205],[38.904,48.564226]],[[38.904908,48.567317],[38.904705,48.567391],[38.9044,48.567362],[38.904688,48.567282],[38.904908,48.567317]],[[38.90338,48.567379],[38.903183,48.567459],[38.902927,48.567436],[38.903157,48.56735],[38.90338,48.567379]]]}},{"type":"Feature","properties":{"cadnum":"4424554000:05:002:0048"},"geometry":{"type":"Polygon","coordinates":[[[38.907711,48.544565],[38.907876,48.544238],[38.907683,48.544182],[38.907589,48.544319],[38.907575,48.544312],[38.907455,48.544482],[38.907711,48.544565]]]}},{"type":"Feature","properties":{"cadnum":"4424554000:03:001:0010"},"geometry":{"type":"Polygon","coordinates":[[[38.881102,48.558747],[38.881192,48.558723],[38.881148,48.558634],[38.881052,48.558655],[38.881102,48.558747]]]}}]}