{"type":"FeatureCollection","features":[{"type":"Feature","properties":{"cadnum":"4424880503:12:003:0149"},"geometry":{"type":"Polygon","coordinates":[[[39.58459,48.673736],[39.584789,48.673366],[39.584879,48.673197],[39.584604,48.67312],[39.584523,48.67322],[39.584487,48.673285],[39.58447,48.673312],[39.58446,48.673324],[39.584451,48.67333],[39.584407,48.673398],[39.584384,48.673416],[39.584277,48.673564],[39.58429,48.673585],[39.58424,48.673668],[39.584438,48.673733],[39.58459,48.673736]]]}},{"type":"Feature","properties":{"cadnum":"4424880503:12:003:0150"},"geometry":{"type":"Polygon","coordinates":[[[39.585462,48.672757],[39.585305,48.672594],[39.585049,48.672526],[39.584852,48.672583],[39.584596,48.672707],[39.584514,48.672772],[39.584483,48.672802],[39.584442,48.672883],[39.58444305479452,48.672883],[39.584411,48.672948],[39.584573,48.672995],[39.58468,48.673021],[39.585067,48.673122],[39.585336,48.673102],[39.585529,48.673027],[39.585692,48.672944],[39.585552,48.672823],[39.585462,48.672757]]]}}]}