{"type":"FeatureCollection","features":[{"type":"Feature","properties":{"cadnum":"4425180302:02:001:0019"},"geometry":{"type":"Polygon","coordinates":[[[39.143217,49.33189],[39.142917,49.331969],[39.143201,49.332338],[39.14320177647059,49.332338],[39.143576,49.332821],[39.143877,49.332745],[39.143476,49.332226],[39.14347575,49.332226],[39.143217,49.33189]]]}},{"type":"Feature","properties":{"cadnum":"4425180302:02:001:0146"},"geometry":{"type":"Polygon","coordinates":[[[39.142593,49.331999],[39.142876,49.331919],[39.142373,49.33127],[39.142098,49.331346],[39.142593,49.331999]]]}}]}