{"type":"FeatureCollection","features":[{"type":"Feature","properties":{"cadnum":"4425182004:07:004:0165"},"geometry":{"type":"Polygon","coordinates":[[[39.079666,49.339254],[39.07938351440329,49.339385],[39.079383,49.339385],[39.078455,49.33981609818182],[39.078455,49.339816],[39.076108,49.340905],[39.075286,49.340811],[39.074599,49.340946],[39.0738,49.341267],[39.073544,49.341987],[39.074613,49.342535],[39.076108,49.342248],[39.078283,49.342505626757564],[39.078283,49.342506],[39.078678,49.342553],[39.080421,49.342816],[39.082477,49.342371],[39.08109,49.340931],[39.080704,49.34048],[39.07987091872146,49.339497],[39.079871,49.339497],[39.079666,49.339254]]]}}]}