{"type":"FeatureCollection","features":[{"type":"Feature","properties":{"cadnum":"4425485700:04:002:0009"},"geometry":{"type":"Polygon","coordinates":[[[38.417136,49.745755],[38.414769,49.746475],[38.41361,49.746847],[38.41361,49.74684801721854],[38.412272,49.747276],[38.411656,49.747482],[38.409796,49.748144],[38.410718,49.749215],[38.413782,49.748108],[38.413782,49.74810784948454],[38.41749,49.746768],[38.417136,49.745755]]]}},{"type":"Feature","properties":{"cadnum":"4425485700:04:004:0039"},"geometry":{"type":"Polygon","coordinates":[[[38.49603673999593,49.74547530000038],[38.49618,49.745462],[38.49618,49.745461841336116],[38.501277,49.744983],[38.501036,49.743744],[38.496008,49.744215],[38.496008,49.7442150179833],[38.494623,49.744344],[38.494943,49.745045],[38.495049,49.745567],[38.496008,49.745477968169766],[38.496008,49.745478],[38.49603673999593,49.74547530000038]]]}}]}