{"type":"FeatureCollection","features":[{"type":"Feature","properties":{"cadnum":"4425180201:06:007:0012"},"geometry":{"type":"Polygon","coordinates":[[[39.014448,49.254039],[39.014408,49.254045],[39.014345,49.253934],[39.014372,49.253922],[39.014098,49.253488],[39.013375,49.253658],[39.012365,49.253896],[39.012365,49.253896442012355],[39.007044,49.25514755798764],[39.007044,49.255147],[39.006794,49.255206],[39.006705,49.255227],[39.006548,49.255268],[39.006408,49.2553],[39.006872,49.25622523260437],[39.006872,49.256226],[39.006911,49.256303],[39.007044,49.256276],[39.007044,49.25627560085837],[39.007144,49.256255],[39.007044,49.256058676470595],[39.007044,49.256058],[39.00684,49.255657],[39.00692,49.25564],[39.007095,49.255983],[39.012365,49.25477734950386],[39.012365,49.254778],[39.014592,49.254268],[39.014448,49.254039]]]}},{"type":"Feature","properties":{"cadnum":"4425180201:06:007:0013"},"geometry":{"type":"Polygon","coordinates":[[[39.016016,49.256663],[39.01456722121897,49.256994],[39.014566,49.256994],[39.012365,49.257497],[39.012365,49.25749729801324],[39.008007,49.258493],[39.008393,49.259266],[39.012365,49.258365015444014],[39.012365,49.258366],[39.013123,49.258193],[39.015387,49.257672],[39.016452,49.257428],[39.016267999998654,49.25710599999764],[39.016016,49.256663]]]}},{"type":"Feature","properties":{"cadnum":"4425180201:06:007:0014"},"geometry":{"type":"Polygon","coordinates":[[[39.015571,49.255883],[39.015356,49.255511],[39.015306,49.255429],[39.015221,49.255403],[39.01514,49.255262],[39.01518,49.255215],[39.0151,49.255077],[39.012365,49.255701],[39.012365,49.2557012310757],[39.007517,49.256807],[39.007612063545146,49.256994],[39.007612,49.256994],[39.00762411810971,49.25701771259739],[39.007669,49.257106],[39.00766923659306,49.257106],[39.007936,49.257628],[39.010709,49.256994],[39.01070897920606,49.256994],[39.012537,49.256577],[39.012537,49.25657667498441],[39.015571,49.255883]]]}},{"type":"Feature","properties":{"cadnum":"4425180201:06:007:0010"},"geometry":{"type":"Polygon","coordinates":[[[39.015597,49.255924],[39.015571,49.255883],[39.012365,49.256616],[39.012365,49.25661623587753],[39.010218,49.257106],[39.010219132492104,49.257106],[39.007936,49.257628],[39.008309,49.258354],[39.008232,49.258372],[39.007917,49.257756],[39.007666,49.257812],[39.008007,49.258493],[39.012537,49.257458],[39.012537,49.257457692412544],[39.01407591650099,49.257106],[39.014077,49.257106],[39.016016,49.256663],[39.015597,49.255924]]]}}]}