{"type":"FeatureCollection","features":[{"type":"Feature","properties":{"cadnum":"4425184801:04:001:0216"},"geometry":{"type":"Polygon","coordinates":[[[39.260739,49.306236],[39.260429,49.306017],[39.259558,49.306543],[39.259558,49.30654315609756],[39.259114,49.306811],[39.259428,49.307042],[39.259729,49.306857],[39.259729,49.30685688060965],[39.260739,49.306236]]]}},{"type":"Feature","properties":{"cadnum":"4425184801:04:001:0094"},"geometry":{"type":"Polygon","coordinates":[[[39.254231,49.309435],[39.25438,49.309359],[39.254594,49.30927],[39.254366,49.309066],[39.254285,49.309101],[39.254236,49.3091255],[39.254236,49.309125],[39.253674,49.309405],[39.253369,49.309557],[39.253625,49.309751],[39.253854,49.309633],[39.253917,49.309602],[39.254065,49.309523286624206],[39.254065,49.309524],[39.254231,49.309435]]]}},{"type":"Feature","properties":{"cadnum":"4425184801:04:001:0095"},"geometry":{"type":"Polygon","coordinates":[[[39.254594,49.30927],[39.25481,49.309177],[39.25503,49.309092],[39.254896,49.308873],[39.254766,49.308908],[39.254366,49.309066],[39.254594,49.30927]]]}}]}