{"type":"FeatureCollection","features":[{"type":"Feature","properties":{"cadnum":"4425482502:08:001:0445"},"geometry":{"type":"Polygon","coordinates":[[[38.223544,49.944917],[38.224204,49.944729],[38.224032,49.94447],[38.223352,49.944686],[38.223544,49.944917]]]}},{"type":"Feature","properties":{"cadnum":"4425482502:08:001:0444"},"geometry":{"type":"Polygon","coordinates":[[[38.224204,49.944729],[38.224736,49.944578],[38.225184,49.944404],[38.225023,49.944162],[38.22435,49.944369],[38.224032,49.94447],[38.224204,49.944729]]]}}]}