{"type":"FeatureCollection","features":[{"type":"Feature","properties":{"cadnum":"4425184805:05:001:0039"},"geometry":{"type":"Polygon","coordinates":[[[39.28189,49.301651],[39.281976,49.301606],[39.282115,49.301539],[39.282366,49.301408],[39.282106,49.301178],[39.281882,49.301304],[39.281783,49.301354],[39.281737,49.30138],[39.281674,49.301413],[39.28154,49.301477],[39.28131,49.301589],[39.281234,49.301624],[39.28149,49.301855],[39.281557,49.30182],[39.281702,49.301747],[39.281702,49.30174641141141],[39.28189,49.301651]]]}},{"type":"Feature","properties":{"cadnum":"4425184805:05:001:0043"},"geometry":{"type":"Polygon","coordinates":[[[39.28154,49.301477],[39.281674,49.301413],[39.281702,49.301399],[39.281702,49.30139833333333],[39.281737,49.30138],[39.281783,49.301354],[39.281882,49.301304],[39.282106,49.301178],[39.282002,49.301091],[39.281899,49.300991],[39.281859,49.30095],[39.28176,49.300989],[39.281723,49.301003],[39.281702,49.301013010362695],[39.281702,49.301013],[39.28168439999805,49.30102140000093],[39.28153,49.301095],[39.28153,49.301095090909094],[39.281526,49.301097],[39.281396,49.301158],[39.281033,49.301337],[39.28131,49.301589],[39.28153,49.301481869565215],[39.28153,49.301483],[39.28154,49.301477]]]}},{"type":"Feature","properties":{"cadnum":"4425184805:05:001:0047"},"geometry":{"type":"Polygon","coordinates":[[[39.281723,49.301003],[39.28176,49.300989],[39.281859,49.30095],[39.281764,49.300863],[39.281729,49.30083],[39.281697,49.300801],[39.281593,49.30071],[39.281154,49.30093],[39.280767,49.301108],[39.280718,49.301132],[39.280974,49.301366],[39.281033,49.301337],[39.281396,49.301158],[39.281526,49.301097],[39.28168439999805,49.30102140000093],[39.281723,49.301003]]]}},{"type":"Feature","properties":{"cadnum":"4425184805:05:001:0035"},"geometry":{"type":"Polygon","coordinates":[[[39.281989,49.301975],[39.28207,49.30194],[39.282159,49.301894],[39.282411,49.30177],[39.282483,49.301732],[39.282635,49.301656],[39.282641,49.301653],[39.282505,49.301533],[39.282469,49.301504],[39.282366,49.301408],[39.282115,49.301539],[39.281976,49.301606],[39.28189,49.301651],[39.281557,49.30182],[39.281702,49.301953],[39.281702,49.301952462406014],[39.281823,49.302063],[39.281989,49.301975]]]}},{"type":"Feature","properties":{"cadnum":"4425184805:05:001:0027"},"geometry":{"type":"Polygon","coordinates":[[[39.282676,49.3025],[39.28331,49.302248],[39.282905,49.301882],[39.282689,49.301993],[39.28233,49.302183],[39.282676,49.3025]]]}},{"type":"Feature","properties":{"cadnum":"4425184805:05:001:0031"},"geometry":{"type":"Polygon","coordinates":[[[39.282079,49.302312],[39.28233,49.302183],[39.282689,49.301993],[39.282905,49.301882],[39.282784,49.301779],[39.282744,49.301744],[39.282635,49.301656],[39.282483,49.301732],[39.282411,49.30177],[39.282159,49.301894],[39.28207,49.30194],[39.281989,49.301975],[39.281823,49.302063],[39.281809,49.302069],[39.282079,49.302312]]]}}]}