{"type":"FeatureCollection","features":[{"type":"Feature","properties":{"cadnum":"4425181504:01:005:0102"},"geometry":{"type":"Polygon","coordinates":[[[39.183183,49.381297],[39.183219,49.381283],[39.183206,49.381268],[39.183256,49.381251],[39.183269,49.381266],[39.183304,49.381251],[39.18329,49.381236],[39.183345,49.381216],[39.183264,49.38113],[39.183183,49.38116],[39.18316,49.381139],[39.183107,49.381099],[39.183071,49.381061],[39.182954,49.381104],[39.18299,49.381143],[39.183053,49.381212],[39.18313,49.381297],[39.18317,49.381283],[39.183183,49.381297]]]}}]}