{"type":"FeatureCollection","features":[{"type":"Feature","properties":{"cadnum":"4425181501:05:002:0080"},"geometry":{"type":"Polygon","coordinates":[[[39.249627,49.387865],[39.250112,49.387798],[39.249196,49.386054],[39.248743,49.386148224],[39.248743,49.386148],[39.24841,49.386216],[39.247004,49.386561],[39.244835,49.38707],[39.244912,49.387902],[39.245648,49.389242],[39.248369,49.388429],[39.248571,49.388116],[39.248743,49.388076],[39.248743,49.388075117424236],[39.249627,49.387865]]]}},{"type":"Feature","properties":{"cadnum":"4425181501:04:001:0057"},"geometry":{"type":"Polygon","coordinates":[[[39.230398,49.362945],[39.230444,49.362782],[39.230403,49.362729],[39.229909,49.362554],[39.229618,49.362448],[39.229312,49.362793],[39.229819,49.362881],[39.230398,49.362945]]]}},{"type":"Feature","properties":{"cadnum":"4425181501:04:001:0058"},"geometry":{"type":"Polygon","coordinates":[[[39.229312,49.362793],[39.229618,49.362448],[39.228728,49.362135],[39.228386,49.362526],[39.229289,49.36279],[39.229312,49.362793]]]}}]}