{"type":"FeatureCollection","features":[{"type":"Feature","properties":{"cadnum":"4425583300:14:003:0030"},"geometry":{"type":"Polygon","coordinates":[[[39.800215,49.457025],[39.799135,49.457469],[39.79913640319999,49.457469],[39.797888,49.457983],[39.797888,49.45798342383046],[39.795558,49.458943],[39.797216,49.460008],[39.798059,49.459661],[39.798059,49.459660527488545],[39.80269,49.457752],[39.801726076142145,49.457469],[39.801727,49.457469],[39.800215,49.457025]]]}},{"type":"Feature","properties":{"cadnum":"4425583300:17:010:0007"},"geometry":{"type":"Polygon","coordinates":[[[39.828641,49.511459],[39.828995,49.511448],[39.829264,49.511387],[39.829381,49.510994],[39.82841,49.511247],[39.828641,49.511459]]]}}]}