{"type":"FeatureCollection","features":[{"type":"Feature","properties":{"cadnum":"4425486501:01:001:0269"},"geometry":{"type":"Polygon","coordinates":[[[38.381625,49.656893],[38.38160685365853,49.656905],[38.381606,49.656905],[38.381252,49.65714],[38.380823,49.65740839267887],[38.380823,49.657408],[38.38065,49.657516],[38.380651,49.657516768786124],[38.380651,49.657517],[38.3806895650223,49.657546417040265],[38.380823,49.657649],[38.380823,49.6576482],[38.380866,49.657681],[38.381504,49.657295],[38.381885,49.657056],[38.381720914896924,49.65695319149143],[38.381625,49.656893]]]}},{"type":"Feature","properties":{"cadnum":"4425486501:01:001:0279"},"geometry":{"type":"Polygon","coordinates":[[[38.37987,49.659511],[38.380476,49.659158],[38.38009,49.658871],[38.379919,49.658972],[38.379829,49.65901],[38.379483,49.659222],[38.37987,49.659511]]]}},{"type":"Feature","properties":{"cadnum":"4425486501:01:001:0278"},"geometry":{"type":"Polygon","coordinates":[[[38.387388,49.661432],[38.387011,49.6612],[38.386158,49.66172],[38.386316,49.661815],[38.386316,49.66181423857868],[38.386552,49.661955],[38.387388,49.661432]]]}},{"type":"Feature","properties":{"cadnum":"4425486501:01:001:0277"},"geometry":{"type":"Polygon","coordinates":[[[38.387388,49.661432],[38.387441,49.6614],[38.388007,49.661005],[38.38777,49.660865],[38.387724,49.660836],[38.387608,49.660757],[38.387087,49.661153],[38.387011,49.6612],[38.387388,49.661432]]]}}]}