{"type":"FeatureCollection","features":[{"type":"Feature","properties":{"cadnum":"4428683300:05:043:0001"},"geometry":{"type":"Polygon","coordinates":[[[38.80929,48.527094173310225],[38.809695,48.527104],[38.80975,48.526844],[38.809757,48.526822],[38.809739,48.526819],[38.80975,48.526782],[38.809745,48.526782],[38.809758,48.526715],[38.809455,48.526697],[38.809319,48.526697],[38.80929,48.52669945273632],[38.80929,48.526699],[38.808953,48.526726],[38.808944,48.527086],[38.80929,48.527095],[38.80929,48.527094173310225]]]}}]}