{"type":"FeatureCollection","features":[{"type":"Feature","properties":{"cadnum":"4486600001:01:008:0039"},"geometry":{"type":"Polygon","coordinates":[[[39.279827,48.501487],[39.278805,48.501378],[39.2790870137741,48.501991],[39.279087,48.501991],[39.27908826582283,48.501993721519085],[39.279139,48.502104],[39.27913955813954,48.502104],[39.279147,48.50212],[39.279229,48.502119],[39.279432,48.502112],[39.279438,48.502211],[39.28012,48.502192],[39.28004814285714,48.5020220789916],[39.279827,48.501487]]]}},{"type":"Feature","properties":{"cadnum":"4486600001:01:008:0004"},"geometry":{"type":"Polygon","coordinates":[[[39.278805,48.501378],[39.278776,48.501376],[39.278812,48.501647],[39.278481,48.501664],[39.278431950000005,48.501991],[39.278431,48.501991],[39.27841890909087,48.502077939394255],[39.278415,48.502104],[39.27841528476821,48.502104],[39.27841,48.502142],[39.279147,48.50212],[39.27908826582283,48.501993721519085],[39.278805,48.501378]]]}}]}