{"type":"FeatureCollection","features":[{"type":"Feature","properties":{"cadnum":"6320483701:00:000:0039"},"geometry":{"type":"Polygon","coordinates":[[[37.081308,48.981823],[37.081656,48.981765],[37.081625,48.981682],[37.08151,48.981377],[37.081171,48.981425],[37.081182,48.981462],[37.081275,48.981731],[37.081278,48.981739],[37.081308,48.981823]]]}},{"type":"Feature","properties":{"cadnum":"6320483701:00:000:0009"},"geometry":{"type":"Polygon","coordinates":[[[37.079104,48.982151],[37.079159,48.982142],[37.079382,48.982105],[37.079372,48.982081],[37.079351,48.982025],[37.079346,48.982026],[37.079344,48.98202],[37.079287,48.98203],[37.079283,48.98202],[37.079226,48.982029],[37.079225,48.982027],[37.079217,48.982005],[37.07925,48.981998],[37.079228,48.981941],[37.079215,48.98191],[37.079207,48.98189],[37.079147,48.981688],[37.078865,48.981724],[37.078933,48.981836],[37.078891,48.981844],[37.078927,48.98193],[37.078949,48.981926],[37.078959,48.981952],[37.078978,48.981948],[37.079102,48.982151],[37.079104,48.982151]]]}},{"type":"Feature","properties":{"cadnum":"6320483701:00:000:0045"},"geometry":{"type":"Polygon","coordinates":[[[37.079756,48.983357],[37.080024,48.98323],[37.079971,48.983069],[37.079877,48.98279],[37.07973,48.982386],[37.079383,48.982438],[37.07954,48.982844],[37.079689,48.983198],[37.079739,48.983314],[37.079756,48.983357]]]}},{"type":"Feature","properties":{"cadnum":"6320483701:00:000:0010"},"geometry":{"type":"Polygon","coordinates":[[[37.08203,48.981694],[37.08247,48.981623],[37.082319,48.981242],[37.08188,48.981313],[37.08203,48.981694]]]}},{"type":"Feature","properties":{"cadnum":"6320483701:00:000:0022"},"geometry":{"type":"Polygon","coordinates":[[[37.080358,48.983084],[37.080669,48.982945],[37.080657,48.982912],[37.080638,48.982866],[37.080417,48.982297],[37.080089,48.982348],[37.08033,48.983008],[37.080347,48.983056],[37.080358,48.983084]]]}},{"type":"Feature","properties":{"cadnum":"6320483701:00:000:0003"},"geometry":{"type":"Polygon","coordinates":[[[37.080962,48.981876],[37.081308,48.981823],[37.081275,48.981731],[37.081182,48.981462],[37.080817,48.981517],[37.080962,48.981876]]]}},{"type":"Feature","properties":{"cadnum":"6320483701:00:000:0008"},"geometry":{"type":"Polygon","coordinates":[[[37.079382,48.982105],[37.079551,48.982078],[37.079394,48.981618],[37.079147,48.981688],[37.079207,48.98189],[37.079215,48.98191],[37.079228,48.981941],[37.07925,48.981998],[37.079217,48.982005],[37.079225,48.982027],[37.079226,48.982029],[37.079283,48.98202],[37.079287,48.98203],[37.079344,48.98202],[37.079346,48.982026],[37.079351,48.982025],[37.079372,48.982081],[37.079382,48.982105]]]}},{"type":"Feature","properties":{"cadnum":"6320483701:00:000:0043"},"geometry":{"type":"Polygon","coordinates":[[[37.079897,48.982025],[37.080241,48.981967],[37.080212,48.981886],[37.080101,48.981594],[37.079759,48.981651],[37.079867,48.981945],[37.079897,48.982025]]]}},{"type":"Feature","properties":{"cadnum":"6320483701:00:000:0026"},"geometry":{"type":"Polygon","coordinates":[[[37.080055,48.983219],[37.080358,48.983084],[37.080347,48.983056],[37.08033,48.983008],[37.080089,48.982348],[37.079756,48.982399],[37.08003,48.983148],[37.080046,48.983195],[37.080055,48.983219]]]}},{"type":"Feature","properties":{"cadnum":"6320483701:00:000:0021"},"geometry":{"type":"Polygon","coordinates":[[[37.080669,48.982945],[37.080958,48.982818],[37.080944,48.982781],[37.080928,48.982733],[37.080758,48.982246],[37.080417,48.982297],[37.080638,48.982866],[37.080657,48.982912],[37.080669,48.982945]]]}},{"type":"Feature","properties":{"cadnum":"6320483701:00:000:0044"},"geometry":{"type":"Polygon","coordinates":[[[37.079446,48.983478],[37.079739,48.983314],[37.079689,48.983198],[37.07954,48.982844],[37.079383,48.982438],[37.079076,48.982484],[37.079242,48.982887],[37.079399,48.983343],[37.079446,48.983478]],[[37.079584,48.98337],[37.079567,48.983356],[37.07959,48.983344],[37.079606,48.983358],[37.079584,48.98337]]]}},{"type":"Feature","properties":{"cadnum":"6320483701:00:000:0033"},"geometry":{"type":"Polygon","coordinates":[[[37.072977,48.983761],[37.072965,48.983726],[37.072864,48.983462],[37.072837,48.983388],[37.072474,48.983445],[37.072557286486486,48.983766],[37.072557,48.983766],[37.07257,48.983815],[37.072627,48.983827],[37.072645,48.983878],[37.072646428571424,48.983878],[37.072715,48.984058],[37.073068,48.984002],[37.0730207118644,48.983878],[37.073021,48.983878],[37.072977,48.983761]]]}},{"type":"Feature","properties":{"cadnum":"6320483701:00:000:0015"},"geometry":{"type":"Polygon","coordinates":[[[37.067957,48.986754],[37.067957,48.98675280115273],[37.068143,48.986726],[37.067858,48.985875],[37.067486,48.985926],[37.06749,48.985933],[37.067655,48.986304],[37.067785,48.98673917730496],[37.067785,48.986741],[37.067796,48.986776],[37.067957,48.986754]]]}},{"type":"Feature","properties":{"cadnum":"6320483701:00:000:0042"},"geometry":{"type":"Polygon","coordinates":[[[37.069176,48.985458],[37.069458,48.985398],[37.069433,48.985351],[37.069407,48.985289],[37.069318,48.985113],[37.069301,48.985075],[37.069239,48.984932],[37.069228,48.98486],[37.069018,48.984889],[37.068973,48.984759],[37.068858,48.984778],[37.068936,48.984932],[37.068897,48.984947],[37.068998,48.985159],[37.069085,48.985273],[37.06913,48.985355],[37.069176,48.985458]]]}},{"type":"Feature","properties":{"cadnum":"6320483701:00:000:0041"},"geometry":{"type":"Polygon","coordinates":[[[37.069018,48.984889],[37.069228,48.98486],[37.069098,48.984463],[37.069145,48.984456],[37.069121,48.984385],[37.069114,48.984363],[37.0691,48.984319],[37.069039,48.984124],[37.069058,48.984108],[37.069032,48.984037],[37.069073,48.984031],[37.069049,48.98396],[37.068695,48.984018],[37.068783,48.984208],[37.068862,48.984424],[37.069018,48.984889]]]}},{"type":"Feature","properties":{"cadnum":"6320483701:00:000:0032"},"geometry":{"type":"Polygon","coordinates":[[[37.069458,48.985398],[37.069692,48.985353],[37.069609,48.985153],[37.069471,48.984886],[37.069239,48.984932],[37.069301,48.985075],[37.069318,48.985113],[37.069407,48.985289],[37.069433,48.985351],[37.069458,48.985398]]]}},{"type":"Feature","properties":{"cadnum":"6320483701:00:000:0025"},"geometry":{"type":"Polygon","coordinates":[[[37.068298,48.984869],[37.068236,48.984535],[37.068174,48.984297],[37.068114,48.984304],[37.06804,48.984127],[37.06795420560718,48.98414146728977],[37.067658,48.984191],[37.067785,48.98450064214047],[37.067785,48.984502],[37.067957,48.98492],[37.068298,48.984869]]]}},{"type":"Feature","properties":{"cadnum":"6320483701:01:000:0005"},"geometry":{"type":"Polygon","coordinates":[[[37.070618,48.986675],[37.071011,48.986597],[37.070893,48.986338],[37.070501,48.986418],[37.070618,48.986675]]]}},{"type":"Feature","properties":{"cadnum":"6320483701:00:000:0030"},"geometry":{"type":"Polygon","coordinates":[[[37.069912,48.983844],[37.070111,48.984223],[37.070485,48.984158],[37.070329,48.983769],[37.069912,48.983844]]]}},{"type":"Feature","properties":{"cadnum":"6320483701:00:000:0023"},"geometry":{"type":"Polygon","coordinates":[[[37.068298,48.984869],[37.068654,48.984813],[37.068542,48.984441],[37.068429,48.984072],[37.068428,48.984069],[37.06804,48.984127],[37.06804,48.984128],[37.068114,48.984304],[37.068174,48.984297],[37.068236,48.984535],[37.068298,48.984869]]]}},{"type":"Feature","properties":{"cadnum":"6320483701:00:000:0027"},"geometry":{"type":"Polygon","coordinates":[[[37.06821,48.986916],[37.068143,48.986726],[37.067796,48.986776],[37.067862,48.986975],[37.067957,48.986959],[37.067957,48.986958893678164],[37.06821,48.986916]]]}},{"type":"Feature","properties":{"cadnum":"6320483701:00:000:0036"},"geometry":{"type":"Polygon","coordinates":[[[37.062331,48.983766],[37.06233089690721,48.983766],[37.061907,48.98252],[37.061089,48.982551],[37.060838,48.982913],[37.061355,48.983448],[37.061371,48.98359],[37.06145961111111,48.983766],[37.061459,48.983766],[37.062008,48.984854],[37.062292,48.984804829850745],[37.062292,48.984805],[37.062343,48.984796],[37.062255,48.984605],[37.062443609756,48.98457341463416],[37.062625,48.984544],[37.062474,48.984108],[37.062292,48.984139],[37.062292,48.98413917663817],[37.061762,48.984226],[37.061654,48.984019],[37.062292,48.98391942265193],[37.062292,48.98392],[37.062378,48.983906],[37.0623686,48.983878],[37.062369,48.983878],[37.062338704918204,48.983788950820184],[37.062331,48.983766]]]}},{"type":"Feature","properties":{"cadnum":"6320483701:00:000:0012"},"geometry":{"type":"Polygon","coordinates":[[[37.062464,48.986852],[37.062334,48.986874],[37.062426,48.987122],[37.062426,48.987127],[37.062516471910115,48.987371],[37.062516,48.987371],[37.06256,48.987489],[37.062605639344255,48.987483],[37.062606,48.987483],[37.063024,48.987428],[37.062905,48.987076],[37.062892,48.987041],[37.062812,48.986844],[37.062791,48.986795],[37.062668,48.986818],[37.062614,48.986827],[37.062464,48.986852178571425],[37.062464,48.986852]]]}},{"type":"Feature","properties":{"cadnum":"6320483701:00:000:0038"},"geometry":{"type":"Polygon","coordinates":[[[37.062474,48.984108],[37.062464,48.98408695833333],[37.062464,48.984086],[37.062378,48.983906],[37.061654,48.984019],[37.061762,48.984226],[37.062464,48.984111],[37.062464,48.9841097032967],[37.062474,48.984108]]]}},{"type":"Feature","properties":{"cadnum":"6320483701:00:000:0028"},"geometry":{"type":"Polygon","coordinates":[[[37.064494,48.98373],[37.064111,48.983792],[37.064141,48.983878],[37.06414222292993,48.983878],[37.064282,48.984263],[37.064373,48.984515],[37.064737,48.984455],[37.064658,48.9842],[37.064531193370335,48.98383793370215],[37.064494,48.98373]]]}},{"type":"Feature","properties":{"cadnum":"6320483701:00:000:0046"},"geometry":{"type":"Polygon","coordinates":[[[37.065103,48.983477],[37.064772,48.983518],[37.064850533333335,48.983766],[37.06485,48.983766],[37.064966,48.984127],[37.065061,48.984405],[37.065188,48.984386],[37.065232,48.984378],[37.065393,48.984354],[37.065375,48.984301],[37.065198,48.983766],[37.065197411471324,48.983766],[37.065103,48.983477]]]}},{"type":"Feature","properties":{"cadnum":"6320483701:00:000:0011"},"geometry":{"type":"Polygon","coordinates":[[[37.066475,48.987056],[37.066805,48.987016],[37.06675,48.986815],[37.066623,48.986436],[37.066488,48.986131],[37.066167,48.986189],[37.066291,48.986493],[37.066475,48.987056]]]}},{"type":"Feature","properties":{"cadnum":"6320483701:00:000:0014"},"geometry":{"type":"Polygon","coordinates":[[[37.067435,48.985063],[37.067812,48.985001],[37.067504,48.984236],[37.067159,48.984292],[37.067435,48.985063]]]}},{"type":"Feature","properties":{"cadnum":"6320483701:00:000:0037"},"geometry":{"type":"Polygon","coordinates":[[[37.062606,48.98429],[37.06342,48.984179],[37.063817,48.984128],[37.063901,48.984112],[37.063829,48.983889],[37.063356,48.983968],[37.062536,48.984067],[37.062606,48.98429]]]}},{"type":"Feature","properties":{"cadnum":"6320483701:00:000:0017"},"geometry":{"type":"Polygon","coordinates":[[[37.074719,48.983462],[37.074827,48.983444],[37.074896,48.983435],[37.074967,48.983422],[37.074978,48.983419],[37.074881,48.983165],[37.07485,48.983078],[37.07485,48.983077],[37.074783,48.983086],[37.074579,48.983118],[37.074581,48.983121],[37.074607,48.98319],[37.074629,48.983254],[37.074705,48.983429],[37.074719,48.983462]]]}},{"type":"Feature","properties":{"cadnum":"6320483701:00:000:0040"},"geometry":{"type":"Polygon","coordinates":[[[37.075578,48.982806],[37.075829,48.982766],[37.075824,48.982754],[37.075702,48.982423],[37.07562,48.982127],[37.075346,48.982154],[37.075443,48.982443],[37.075527,48.982671],[37.075549,48.982732],[37.075572,48.98279],[37.075578,48.982806]]]}},{"type":"Feature","properties":{"cadnum":"6320483701:00:000:0048"},"geometry":{"type":"Polygon","coordinates":[[[37.074763,48.982914],[37.075029,48.982867],[37.074968,48.982735],[37.074967,48.982732],[37.074957,48.982705],[37.074876,48.982537],[37.074829,48.982442],[37.074675,48.98247],[37.074626,48.982226],[37.074485,48.98225],[37.07462,48.982581],[37.074649,48.98265],[37.074763,48.982914]]]}},{"type":"Feature","properties":{"cadnum":"6320483701:00:000:0019"},"geometry":{"type":"Polygon","coordinates":[[[37.077097,48.983686],[37.07691,48.9837],[37.076922,48.983783],[37.076936,48.983818],[37.076992,48.983959],[37.077016,48.984029],[37.077038,48.984088],[37.077262,48.984048],[37.07715946153872,48.98382384615441],[37.077097,48.983686]]]}},{"type":"Feature","properties":{"cadnum":"6320483701:00:000:0016"},"geometry":{"type":"Polygon","coordinates":[[[37.077654,48.982392],[37.077712,48.982382],[37.078019,48.982332],[37.077987,48.982246],[37.077869,48.981934],[37.077563,48.981983],[37.077512,48.981991],[37.077534,48.982049],[37.077626,48.982311],[37.077648,48.982371],[37.077654,48.982392]]]}},{"type":"Feature","properties":{"cadnum":"6320483701:00:000:0047"},"geometry":{"type":"Polygon","coordinates":[[[37.075895,48.983855],[37.075907,48.983878],[37.07590724193548,48.983878],[37.075928,48.983917],[37.075945,48.983961],[37.075982,48.984097],[37.075997,48.984131],[37.07603,48.9842],[37.076052,48.984258],[37.076186,48.984234],[37.076242,48.984227],[37.076284,48.984221],[37.076274,48.984097],[37.076228,48.983989],[37.076217,48.983937],[37.076182,48.98382],[37.075895,48.983855]]]}},{"type":"Feature","properties":{"cadnum":"6320483701:00:000:0035"},"geometry":{"type":"Polygon","coordinates":[[[37.07378,48.98204],[37.074217,48.981985],[37.074082,48.981506],[37.073572,48.98157],[37.07378,48.98204]]]}},{"type":"Feature","properties":{"cadnum":"6320483701:00:000:0018"},"geometry":{"type":"Polygon","coordinates":[[[37.067785,48.983176979865775],[37.067785,48.983177],[37.067909,48.983162],[37.067679,48.982454],[37.067328,48.982491],[37.067608,48.983195],[37.067611,48.983198],[37.067785,48.983176979865775]]]}},{"type":"Feature","properties":{"cadnum":"6320483701:00:000:0024"},"geometry":{"type":"Polygon","coordinates":[[[37.065798,48.983536],[37.06615,48.983482],[37.065889,48.982745],[37.065554,48.982806],[37.065661,48.9831],[37.065798,48.983536]]]}},{"type":"Feature","properties":{"cadnum":"6320483701:00:000:0034"},"geometry":{"type":"Polygon","coordinates":[[[37.06693,48.982475],[37.067105,48.98247],[37.067194,48.982468],[37.067646,48.98239],[37.067643,48.982377],[37.067538,48.98184],[37.06719,48.981991],[37.067015,48.982256],[37.06693,48.982475]]]}},{"type":"Feature","properties":{"cadnum":"6320483701:00:000:0013"},"geometry":{"type":"Polygon","coordinates":[[[37.067163,48.98324],[37.067608,48.983195],[37.067328,48.982491],[37.066987,48.982527],[37.067057,48.982825],[37.067163,48.98324]]]}},{"type":"Feature","properties":{"cadnum":"6320483701:00:000:0020"},"geometry":{"type":"Polygon","coordinates":[[[37.067957,48.982357],[37.067957,48.98235570243902],[37.06799,48.982352],[37.067984,48.98233],[37.067942,48.982193],[37.067902,48.982027],[37.06776,48.981512],[37.067518,48.981741],[37.067642,48.982374],[37.067646,48.98239],[37.067957,48.982357]]]}},{"type":"Feature","properties":{"cadnum":"6320483701:00:000:0031"},"geometry":{"type":"Polygon","coordinates":[[[37.072193,48.983336],[37.072565,48.983272],[37.072372,48.982836],[37.072034,48.982897],[37.072193,48.983336]]]}},{"type":"Feature","properties":{"cadnum":"6320483701:00:000:0002"},"geometry":{"type":"Polygon","coordinates":[[[37.071291,48.983384],[37.071457,48.983357],[37.071397,48.983167],[37.071131,48.983205],[37.07117,48.983323],[37.071205,48.983349],[37.071291,48.983384]]]}},{"type":"Feature","properties":{"cadnum":"6320483701:01:000:0002"},"geometry":{"type":"Polygon","coordinates":[[[37.071288,48.983384],[37.07146,48.983357],[37.071397,48.983169],[37.071131,48.983204],[37.071172,48.983322],[37.071204,48.983349],[37.071288,48.983384]]]}},{"type":"Feature","properties":{"cadnum":"6320483701:00:000:0004"},"geometry":{"type":"Polygon","coordinates":[[[37.071751,48.98342],[37.071802,48.983418],[37.072202,48.983358],[37.072034,48.982897],[37.071362,48.983017],[37.071398,48.983104],[37.071625,48.983063],[37.071751,48.98342]]]}},{"type":"Feature","properties":{"cadnum":"6320483701:00:000:0029"},"geometry":{"type":"Polygon","coordinates":[[[37.070445,48.98356],[37.07058,48.983536],[37.070823,48.983493],[37.070777,48.983384],[37.070906,48.983356],[37.070698,48.982901],[37.070187,48.983001],[37.070202,48.983034],[37.070445,48.98356]]]}}]}