{"type":"FeatureCollection","features":[{"type":"Feature","properties":{"cadnum":"6320483505:00:000:0001"},"geometry":{"type":"Polygon","coordinates":[[[36.89333,49.030502],[36.893125,49.03052],[36.892873,49.030542],[36.89289235555555,49.030609],[36.892892,49.030609],[36.892904799999904,49.03065207692274],[36.892925,49.030722],[36.89292557714286,49.030722],[36.892944,49.030784],[36.893191,49.030758],[36.893206,49.030814],[36.893409,49.030794],[36.893359,49.030609],[36.893358695454545,49.030609],[36.89333,49.030502]]]}},{"type":"Feature","properties":{"cadnum":"6320483505:00:000:0003"},"geometry":{"type":"Polygon","coordinates":[[[36.895691,49.030485],[36.895594,49.030224],[36.89515,49.030276],[36.895154,49.030289],[36.895176,49.03035],[36.895244,49.030542],[36.89526745,49.030609],[36.895267,49.030609],[36.89528824000021,49.03066840000059],[36.895307,49.030722],[36.8953074060606,49.030722],[36.895385,49.030939],[36.895833,49.030874],[36.89577678867925,49.030722],[36.895777,49.030722],[36.895691,49.030485]]]}},{"type":"Feature","properties":{"cadnum":"6320483505:00:000:0004"},"geometry":{"type":"Polygon","coordinates":[[[36.895602,49.031653],[36.896439,49.031562],[36.896242,49.030815],[36.895833,49.030874],[36.895385,49.030939],[36.895602,49.031653]]]}},{"type":"Feature","properties":{"cadnum":"6320483505:00:000:0002"},"geometry":{"type":"Polygon","coordinates":[[[36.893344,49.032163],[36.893774,49.032114],[36.893409,49.030794],[36.893206,49.030814],[36.893191,49.030758],[36.892944,49.030784],[36.893344,49.032163]]]}}]}