{"type":"FeatureCollection","features":[{"type":"Feature","properties":{"cadnum":"6320481502:00:000:0039"},"geometry":{"type":"Polygon","coordinates":[[[36.81632,48.885535],[36.81511742857047,48.88599335714323],[36.81421836842105,48.886335],[36.814217,48.886335],[36.814008037037304,48.88641492592583],[36.813921,48.886448],[36.813921566265066,48.886448],[36.813783,48.886501],[36.814365,48.88714],[36.815081,48.886897],[36.8151,48.8868912],[36.8151,48.886892],[36.81525336782922,48.88684438245213],[36.815271,48.886839],[36.815271,48.88683890802676],[36.816530046678636,48.886448],[36.816531,48.886448],[36.817174,48.886249],[36.81632,48.885535]]]}},{"type":"Feature","properties":{"cadnum":"6320481502:00:000:0043"},"geometry":{"type":"Polygon","coordinates":[[[36.804285,48.882531],[36.804285,48.88253056502242],[36.804336,48.882491],[36.804285,48.88246309865471],[36.804285,48.882463],[36.803062,48.881785],[36.802756,48.881943],[36.804089,48.882683],[36.804285,48.882531]]]}},{"type":"Feature","properties":{"cadnum":"6320481502:00:000:0044"},"geometry":{"type":"Polygon","coordinates":[[[36.804089,48.882683],[36.80403749673202,48.882723],[36.804037,48.882723],[36.80397689958218,48.88277006276104],[36.803892,48.882836],[36.803892695945954,48.882836],[36.803848,48.882871],[36.804113,48.88302138901602],[36.804113,48.883022],[36.804225848065876,48.88308543093898],[36.804285,48.883119],[36.804285,48.88311867973856],[36.804419,48.883194],[36.804753,48.883396],[36.805021,48.883199],[36.804163,48.882723],[36.804162,48.882723],[36.80416159259259,48.882723],[36.804089,48.882683]]]}},{"type":"Feature","properties":{"cadnum":"6320481502:00:000:0042"},"geometry":{"type":"Polygon","coordinates":[[[36.804089,48.882683],[36.804113,48.8826962244898],[36.804113,48.882697],[36.804366,48.882836],[36.80436668487395,48.882836],[36.805021,48.883199],[36.805272,48.883011],[36.80495663541666,48.882836],[36.804957,48.882836],[36.804336,48.882491],[36.804113,48.882664],[36.804113,48.8826643877551],[36.804089,48.882683]]]}},{"type":"Feature","properties":{"cadnum":"6320481502:00:000:0045"},"geometry":{"type":"Polygon","coordinates":[[[36.804089,48.882683],[36.802756,48.881943],[36.802468,48.882091],[36.803585240268454,48.882723],[36.803585,48.882723],[36.803631199215026,48.88274899803736],[36.803785,48.882836],[36.80378580405405,48.882836],[36.803848,48.882871],[36.80397689958218,48.88277006276104],[36.804089,48.882683]]]}},{"type":"Feature","properties":{"cadnum":"6320481502:00:000:0059"},"geometry":{"type":"Polygon","coordinates":[[[36.815117428570474,48.88599335714323],[36.815271,48.885935],[36.815271,48.88593482377049],[36.81632,48.885535],[36.81551,48.884877],[36.815271,48.88496851951219],[36.815271,48.884968],[36.813684,48.885572],[36.812979,48.88584],[36.81358065296053,48.886335],[36.81358,48.886335],[36.81368745466691,48.886422869333536],[36.813718,48.886448],[36.81371818674699,48.886448],[36.813783,48.886501],[36.81400803703734,48.88641492592581],[36.8151,48.88599998],[36.8151,48.886],[36.815117428570474,48.88599335714323]]]}},{"type":"Feature","properties":{"cadnum":"6320481502:00:000:0041"},"geometry":{"type":"Polygon","coordinates":[[[36.8151,48.88503308128544],[36.8151,48.885034],[36.81551,48.884877],[36.8151,48.884562],[36.8151,48.88456241883117],[36.814347,48.883983],[36.812591,48.884481],[36.813684,48.885572],[36.8151,48.88503308128544]]]}},{"type":"Feature","properties":{"cadnum":"6320481502:02:000:0019"},"geometry":{"type":"Polygon","coordinates":[[[36.809029,48.878506],[36.808826,48.878642],[36.809607,48.87907844117647],[36.809607,48.879079],[36.809865,48.879224],[36.80986653813559,48.879224],[36.810087,48.879347],[36.81024338571429,48.879224],[36.810244,48.879224],[36.810265,48.879207],[36.809607,48.878834],[36.809607,48.87883474232309],[36.809029,48.878506]]]}},{"type":"Feature","properties":{"cadnum":"6320481502:02:000:0032"},"geometry":{"type":"Polygon","coordinates":[[[36.808826,48.878642],[36.809029,48.878506],[36.808894,48.87843],[36.808691,48.878567],[36.808826,48.878642]]]}},{"type":"Feature","properties":{"cadnum":"6320481502:00:000:0049"},"geometry":{"type":"Polygon","coordinates":[[[36.807754,48.885239],[36.808202,48.885201],[36.808717,48.885163],[36.808693,48.884847],[36.808253,48.884863],[36.807702,48.884975],[36.807754,48.885239]]]}},{"type":"Feature","properties":{"cadnum":"6320481502:00:000:0053"},"geometry":{"type":"Polygon","coordinates":[[[36.810485,48.885157],[36.810482,48.885074],[36.810478,48.884897],[36.8098,48.884932],[36.809797,48.885051],[36.809607,48.885061],[36.809607,48.88506132876712],[36.809121,48.885085],[36.809126,48.885138],[36.809059,48.885141],[36.809042,48.885142],[36.809053,48.885244],[36.809607,48.88521037793103],[36.809607,48.885211],[36.810485,48.885157]]]}},{"type":"Feature","properties":{"cadnum":"6320481502:00:000:0037"},"geometry":{"type":"Polygon","coordinates":[[[36.809778,48.886237629310344],[36.809778,48.886237],[36.809149,48.886263],[36.80915328108108,48.886335],[36.809153,48.886335],[36.809155921348285,48.88637940449389],[36.80916,48.886448],[36.809160434210526,48.886448],[36.809168,48.886563],[36.809607,48.8865399704918],[36.809607,48.88654],[36.8096493281218,48.886537750000166],[36.809778,48.886531],[36.809778,48.886530910299],[36.810209,48.886508],[36.81019552830189,48.8863415283019],[36.810187,48.88622],[36.809778,48.886237629310344]]]}},{"type":"Feature","properties":{"cadnum":"6320481502:00:000:0046"},"geometry":{"type":"Polygon","coordinates":[[[36.808924,48.884067],[36.80955,48.88399],[36.809539,48.883859],[36.809518,48.883848],[36.809519,48.883811],[36.809177,48.883823],[36.809082,48.883827],[36.808897,48.88383],[36.808924,48.884067]]]}},{"type":"Feature","properties":{"cadnum":"6320481502:00:000:0052"},"geometry":{"type":"Polygon","coordinates":[[[36.809042,48.885142],[36.809059,48.885141],[36.809126,48.885138],[36.809121,48.885085],[36.809053,48.885088],[36.809037,48.885088],[36.809042,48.885142]]]}},{"type":"Feature","properties":{"cadnum":"6320481502:00:000:0050"},"geometry":{"type":"Polygon","coordinates":[[[36.807493,48.884098],[36.808434,48.884021],[36.808534,48.884018],[36.808619,48.884013],[36.808602,48.883836],[36.808122,48.883855],[36.808083,48.883841],[36.807903,48.883854],[36.807429,48.883913],[36.807493,48.884098]]]}},{"type":"Feature","properties":{"cadnum":"6320481502:00:000:0063"},"geometry":{"type":"Polygon","coordinates":[[[36.808865,48.883572],[36.809198,48.883557],[36.809179,48.883381],[36.809152,48.883383],[36.809034,48.883388],[36.808846,48.883396],[36.808865,48.883572]]]}},{"type":"Feature","properties":{"cadnum":"6320481502:00:000:0065"},"geometry":{"type":"Polygon","coordinates":[[[36.807455,48.886326],[36.808166,48.886259],[36.808253,48.886253],[36.80829,48.886252],[36.808337,48.886249],[36.808362,48.886247],[36.808544,48.886229],[36.808621,48.886219],[36.808766,48.886204],[36.80875,48.885976],[36.808223,48.886028],[36.807413,48.886092],[36.807455,48.886326]]]}},{"type":"Feature","properties":{"cadnum":"6320481502:02:000:0028"},"geometry":{"type":"Polygon","coordinates":[[[36.810434,48.887303],[36.810418,48.887053],[36.809607,48.887163],[36.809607,48.88716328917911],[36.809242,48.887213],[36.809254,48.887479],[36.809607,48.88742645419847],[36.809607,48.887427],[36.810434,48.887303]]]}},{"type":"Feature","properties":{"cadnum":"6320481502:00:000:0038"},"geometry":{"type":"Polygon","coordinates":[[[36.810535,48.886274],[36.810531,48.886206],[36.810187,48.88622],[36.81019507017544,48.886335],[36.810195,48.886335],[36.81019552830189,48.8863415283019],[36.810203,48.886448],[36.810204144508674,48.886448],[36.810209,48.886508],[36.810555,48.88649],[36.810550935483874,48.886448],[36.810551,48.886448],[36.810535,48.886274]]]}},{"type":"Feature","properties":{"cadnum":"6320481502:00:000:0060"},"geometry":{"type":"Polygon","coordinates":[[[36.812474,48.886307],[36.812231,48.88633],[36.81216266666663,48.886335],[36.812157,48.886335],[36.811903,48.886354],[36.811878,48.886362],[36.81168,48.886364],[36.811642,48.886362],[36.811582,48.886368],[36.811528,48.886373],[36.811485,48.886374],[36.81144,48.886374],[36.811444,48.886446],[36.811444,48.886448],[36.81144419354839,48.886448],[36.811447,48.886477],[36.811448,48.886557],[36.811519,48.886551],[36.811662,48.886553],[36.811744,48.886551],[36.811921,48.886542],[36.812481,48.88651],[36.812476731707314,48.88640329268287],[36.812474,48.886307]]]}},{"type":"Feature","properties":{"cadnum":"6320481502:00:000:1000"},"geometry":{"type":"Polygon","coordinates":[[[36.812918,48.885832],[36.813625,48.885563],[36.812556,48.884496],[36.812537,48.884497],[36.8126,48.885014],[36.812655,48.885095],[36.812782,48.885263],[36.812784,48.885331],[36.812789,48.885501],[36.812792,48.885632],[36.812759,48.885759],[36.812635,48.885862],[36.812641,48.885946],[36.812613,48.886209],[36.812613,48.886335],[36.812613,48.886448],[36.81261361329715,48.886448],[36.812617,48.887072],[36.812699,48.887558],[36.814326,48.887149],[36.813748,48.886515],[36.813529,48.886335],[36.81352878571428,48.886335],[36.812918,48.885832]]]}},{"type":"Feature","properties":{"cadnum":"6320481502:02:000:0035"},"geometry":{"type":"Polygon","coordinates":[[[36.810757,48.889126],[36.811428,48.889117],[36.811426,48.889043],[36.811424,48.88899],[36.811424,48.888954],[36.81142,48.888842],[36.810988,48.888908],[36.810934,48.888851],[36.810657,48.888813],[36.810748,48.888992],[36.810757,48.889126]]]}},{"type":"Feature","properties":{"cadnum":"6320481502:02:000:0033"},"geometry":{"type":"Polygon","coordinates":[[[36.810434,48.887303],[36.810571,48.887282],[36.810555,48.887035],[36.810418,48.887053],[36.810434,48.887303]]]}},{"type":"Feature","properties":{"cadnum":"6320481502:02:000:0027"},"geometry":{"type":"Polygon","coordinates":[[[36.811495,48.887458],[36.812502,48.887427],[36.812494,48.887156],[36.811958,48.887192],[36.81196,48.887259],[36.811489,48.887273],[36.811495,48.887458]]]}},{"type":"Feature","properties":{"cadnum":"6320481502:02:000:0034"},"geometry":{"type":"Polygon","coordinates":[[[36.811676,48.89036],[36.813179,48.890333],[36.813179,48.890163],[36.811676,48.89019],[36.811676,48.89036]]]}},{"type":"Feature","properties":{"cadnum":"6320481502:02:000:0016"},"geometry":{"type":"Polygon","coordinates":[[[36.809778,48.89104640310077],[36.810898,48.891082],[36.810898,48.890896],[36.809778,48.89085919248826],[36.809778,48.890859],[36.80962,48.890854],[36.809608,48.891041],[36.809778,48.891047],[36.809778,48.89104640310077]]]}},{"type":"Feature","properties":{"cadnum":"6320481502:02:000:0023"},"geometry":{"type":"Polygon","coordinates":[[[36.809778,48.89180087111448],[36.810926,48.891847],[36.810926,48.891646],[36.809778,48.891595519332824],[36.809778,48.891595],[36.80956,48.891586],[36.809549,48.891791],[36.809607,48.89179353275109],[36.809607,48.891794],[36.80974102943884,48.891799385565015],[36.809778,48.891801],[36.809778,48.89180087111448]]]}},{"type":"Feature","properties":{"cadnum":"6320481502:02:000:0017"},"geometry":{"type":"Polygon","coordinates":[[[36.811516,48.890555],[36.811516,48.890362],[36.811473,48.890362],[36.810893,48.890368],[36.810891,48.89055],[36.811516,48.890555]]]}},{"type":"Feature","properties":{"cadnum":"6320481502:00:000:0056"},"geometry":{"type":"Polygon","coordinates":[[[36.809778,48.89123549367089],[36.810002,48.891244],[36.810934,48.891274],[36.810954,48.891085],[36.810898,48.891082],[36.809993,48.891053],[36.809608,48.891041],[36.809594,48.89104],[36.809576,48.891228],[36.809778,48.891236],[36.809778,48.89123549367089]]]}},{"type":"Feature","properties":{"cadnum":"6320481502:00:000:0064"},"geometry":{"type":"Polygon","coordinates":[[[36.811771,48.891634],[36.811856,48.891628],[36.811994,48.891629],[36.812108,48.891619],[36.812163,48.891616],[36.812211,48.891609],[36.813233,48.891605],[36.81323,48.891429],[36.812183,48.891444],[36.811995,48.89145],[36.811803,48.891452],[36.811756,48.891454],[36.811763,48.89151],[36.811771,48.891634]]]}},{"type":"Feature","properties":{"cadnum":"6320481502:00:000:0047"},"geometry":{"type":"Polygon","coordinates":[[[36.8105,48.885264],[36.811227,48.885231],[36.811208,48.885053],[36.810493,48.885074],[36.8105,48.885264]]]}},{"type":"Feature","properties":{"cadnum":"6320481502:00:000:0058"},"geometry":{"type":"Polygon","coordinates":[[[36.81058,48.882836],[36.8105812,48.882836],[36.810545,48.882844],[36.810586,48.882924],[36.810223,48.882977],[36.809788,48.883036],[36.809762,48.883052],[36.809793,48.883323],[36.809813,48.883505],[36.810674,48.883436],[36.810979,48.883409],[36.811092,48.883281],[36.810957,48.88305],[36.810973,48.883046],[36.81096,48.883026],[36.810944,48.88303],[36.810852,48.882869],[36.81095,48.882847],[36.810907,48.882764],[36.81058,48.882836]]]}},{"type":"Feature","properties":{"cadnum":"6320481502:00:000:0048"},"geometry":{"type":"Polygon","coordinates":[[[36.811465,48.885988],[36.812624,48.885947],[36.812609,48.885769],[36.811451,48.885808],[36.811465,48.885988]]]}},{"type":"Feature","properties":{"cadnum":"6320481502:02:000:0018"},"geometry":{"type":"Polygon","coordinates":[[[36.811071,48.882181],[36.812049,48.881895],[36.811833,48.881703],[36.810929,48.881985],[36.811015,48.882103],[36.811071,48.882181]]]}},{"type":"Feature","properties":{"cadnum":"6320481502:02:000:0020"},"geometry":{"type":"Polygon","coordinates":[[[36.810976,48.88055],[36.811184,48.880437],[36.81078,48.880112],[36.810854,48.880071],[36.810781,48.880026],[36.810709,48.879982],[36.810657,48.879949],[36.810565,48.879896],[36.810459,48.879832],[36.810399,48.879792],[36.810214,48.879927],[36.810274,48.879963],[36.810399,48.880039],[36.810476,48.880086],[36.81054,48.880127],[36.810588,48.880155],[36.810637,48.880186],[36.810679,48.880213],[36.810606,48.880251],[36.810976,48.88055]]]}},{"type":"Feature","properties":{"cadnum":"6320481502:00:000:0057"},"geometry":{"type":"Polygon","coordinates":[[[36.811256,48.882437],[36.811577,48.882339],[36.811744,48.882291],[36.812287,48.88213],[36.812062,48.881897],[36.811601,48.882037],[36.811573,48.882045],[36.811408,48.882099],[36.811294,48.882133],[36.811091,48.882192],[36.811165,48.882298],[36.811182,48.882326],[36.811256,48.882437]]]}},{"type":"Feature","properties":{"cadnum":"6320481502:02:000:0029"},"geometry":{"type":"Polygon","coordinates":[[[36.810781,48.882671],[36.811152,48.882546],[36.810907,48.882209],[36.8104,48.882358],[36.809969,48.882433],[36.810012,48.882593],[36.810295,48.882561],[36.810364,48.88265],[36.810561,48.882588],[36.810781,48.882671]]]}},{"type":"Feature","properties":{"cadnum":"6320481502:02:000:0025"},"geometry":{"type":"Polygon","coordinates":[[[36.810929,48.881985],[36.811833,48.881703],[36.811617,48.88151],[36.810788,48.881791],[36.810929,48.881985]]]}},{"type":"Feature","properties":{"cadnum":"6320481502:02:000:0030"},"geometry":{"type":"Polygon","coordinates":[[[36.813238,48.879603],[36.813498,48.879438],[36.813199,48.879257],[36.812954,48.879414],[36.813238,48.879603]]]}},{"type":"Feature","properties":{"cadnum":"6320481502:00:000:0054"},"geometry":{"type":"Polygon","coordinates":[[[36.812076,48.881741],[36.812967,48.881343],[36.81278,48.881189],[36.811894,48.881595],[36.812076,48.881741]]]}},{"type":"Feature","properties":{"cadnum":"6320481502:00:000:0040"},"geometry":{"type":"Polygon","coordinates":[[[36.810295,48.881011],[36.810835,48.880853],[36.810658,48.880657],[36.810152,48.880803],[36.810295,48.881011]]]}},{"type":"Feature","properties":{"cadnum":"6320481502:00:000:0055"},"geometry":{"type":"Polygon","coordinates":[[[36.813851,48.881984],[36.815084,48.881547],[36.814514,48.881099],[36.814433,48.881138],[36.814152,48.880831],[36.81383,48.880624],[36.813024,48.88104],[36.813272,48.881301],[36.813206,48.881391],[36.813851,48.881984]]]}},{"type":"Feature","properties":{"cadnum":"6320481502:02:000:0026"},"geometry":{"type":"Polygon","coordinates":[[[36.812085,48.878581],[36.811903,48.878718],[36.81249560671937,48.879111],[36.812495,48.879111],[36.81262731267641,48.8791983436622],[36.812666,48.879224],[36.81266617821782,48.879224],[36.812954,48.879414],[36.813199,48.879257],[36.81296635676671,48.87911664499149],[36.812085,48.878581]]]}},{"type":"Feature","properties":{"cadnum":"6320481502:02:000:0022"},"geometry":{"type":"Polygon","coordinates":[[[36.807742,48.887478],[36.80887,48.887383],[36.80886,48.887117],[36.807693,48.887215],[36.807742,48.887478]]]}},{"type":"Feature","properties":{"cadnum":"6320481502:02:000:0031"},"geometry":{"type":"Polygon","coordinates":[[[36.807419,48.887506],[36.807742,48.887478],[36.807693,48.887215],[36.807368,48.887244],[36.807419,48.887506]]]}},{"type":"Feature","properties":{"cadnum":"6320481502:00:000:0062"},"geometry":{"type":"Polygon","coordinates":[[[36.805996,48.881143],[36.806226,48.880962],[36.805577,48.880615],[36.80534,48.880785],[36.805996,48.881143]]]}},{"type":"Feature","properties":{"cadnum":"6320481502:00:000:0061"},"geometry":{"type":"Polygon","coordinates":[[[36.806977,48.881683],[36.807044,48.881634],[36.807087,48.881605],[36.807217,48.881506],[36.807147,48.881465],[36.80699,48.881367],[36.806944,48.881347],[36.806924,48.881337],[36.806793,48.881266],[36.806226,48.880962],[36.805996,48.881143],[36.806565,48.881452],[36.806745,48.88155],[36.806808,48.881586],[36.806904,48.88164],[36.806977,48.881683]]]}}]}