{"type":"FeatureCollection","features":[{"type":"Feature","properties":{"cadnum":"6320684500:02:000:0262"},"geometry":{"type":"Polygon","coordinates":[[[36.5685926920904,48.93327],[36.568591,48.93327],[36.567907,48.933719],[36.567907,48.933719514220705],[36.563684,48.936482],[36.564182,48.936812],[36.564282687150836,48.936879],[36.564281,48.936879],[36.564622,48.937104],[36.564965,48.936879],[36.564964257328995,48.936879],[36.568079,48.934842],[36.568079,48.93484149196787],[36.569899,48.933651],[36.569325,48.93327],[36.56932454237289,48.93327],[36.568961,48.933029],[36.5685926920904,48.93327]]]}},{"type":"Feature","properties":{"cadnum":"6320684500:02:000:0264"},"geometry":{"type":"Polygon","coordinates":[[[36.567068,48.931772],[36.564779621353196,48.93327],[36.564779,48.93327],[36.562414,48.934818],[36.562414,48.934818503144655],[36.561791,48.935226],[36.562255,48.935534],[36.562414,48.9356396797583],[36.562414,48.93564],[36.56252161094294,48.93571120364788],[36.562586,48.935754],[36.562586,48.93575380838324],[36.562748,48.935861],[36.566708,48.93327],[36.56670768717949,48.93327],[36.567907,48.9324852147651],[36.567907,48.932486],[36.568025,48.932408],[36.567068,48.931772]]]}},{"type":"Feature","properties":{"cadnum":"6320684500:02:000:0263"},"geometry":{"type":"Polygon","coordinates":[[[36.56653529448089,48.933383],[36.562748,48.935861],[36.563217,48.936173],[36.563684,48.936482],[36.568079,48.933607],[36.568079,48.933606093567256],[36.568418857461026,48.933383],[36.56842,48.933383],[36.568961,48.933029],[36.568025,48.932408],[36.566535,48.933383],[36.56653529448089,48.933383]]]}},{"type":"Feature","properties":{"cadnum":"6320684500:02:000:0276"},"geometry":{"type":"Polygon","coordinates":[[[36.575591,48.931214],[36.57433,48.930376],[36.573572,48.930872367741934],[36.573572,48.930872],[36.56990767264038,48.93327],[36.569907,48.93327],[36.569663,48.93343],[36.569947,48.933619],[36.570868,48.934229],[36.570925,48.934267],[36.572448,48.93327],[36.572447831367924,48.93327],[36.573572,48.932535],[36.573572,48.932534505248746],[36.575591,48.931214]]]}},{"type":"Feature","properties":{"cadnum":"6320684500:02:000:0275"},"geometry":{"type":"Polygon","coordinates":[[[36.575591,48.931214],[36.5734,48.932647],[36.5734,48.932647456437934],[36.572275,48.933383],[36.57227538314945,48.933383],[36.570925,48.934267],[36.571786,48.934838],[36.572096,48.935043],[36.573572,48.934078],[36.573572,48.93407737366548],[36.57463242934782,48.933383],[36.574633,48.933383],[36.57676,48.931991],[36.575591,48.931214]]]}},{"type":"Feature","properties":{"cadnum":"6320684500:02:000:0280"},"geometry":{"type":"Polygon","coordinates":[[[36.572926,48.929443],[36.571984,48.928816],[36.569726,48.927306],[36.568378,48.928189],[36.56833,48.928221],[36.568174,48.928322],[36.570441,48.929774],[36.57044154293629,48.929774],[36.571393,48.930383],[36.571441,48.930415],[36.57256715189041,48.92967727756267],[36.572926,48.929443]]]}},{"type":"Feature","properties":{"cadnum":"6320684500:02:000:0277"},"geometry":{"type":"Polygon","coordinates":[[[36.57259208459214,48.929661],[36.572592,48.929661],[36.57256715189041,48.92967727756267],[36.572419,48.929774],[36.57241950265252,48.929774],[36.571441,48.930415],[36.568257,48.932498],[36.56901,48.932997],[36.569420207253884,48.93327],[36.56942,48.93327],[36.569439478957804,48.933282825651226],[36.56959,48.933383],[36.569591618749996,48.933383],[36.569663,48.93343],[36.569734675,48.933383],[36.569735,48.933383],[36.5734,48.93098455981235],[36.5734,48.930985],[36.57433,48.930376],[36.573572,48.92987311182795],[36.573572,48.929873],[36.573254,48.929661],[36.57325332930514,48.929661],[36.572926,48.929443],[36.57259208459214,48.929661]]]}},{"type":"Feature","properties":{"cadnum":"6320684500:02:000:0279"},"geometry":{"type":"Polygon","coordinates":[[[36.568473,48.929774],[36.5684733922652,48.929774],[36.568668,48.929842],[36.569723,48.930017],[36.569425,48.930401],[36.568099,48.930131],[36.567907,48.931244],[36.567907,48.93124507878788],[36.567749,48.932161],[36.567907,48.932266009230766],[36.567907,48.932267],[36.568074,48.932377],[36.568079,48.932381],[36.568079,48.932380333333334],[36.568209,48.932467],[36.571393,48.930383],[36.570265,48.929661],[36.57026457369146,48.929661],[36.568174,48.928322],[36.567907,48.928497],[36.567907,48.9284974137931],[36.566832,48.9292],[36.567907,48.92957672413793],[36.567907,48.929577],[36.568022688652036,48.92961726619161],[36.568079,48.929637],[36.568079,48.92963686572438],[36.568473,48.929774]]]}},{"type":"Feature","properties":{"cadnum":"6320684500:02:000:0278"},"geometry":{"type":"Polygon","coordinates":[[[36.562952,48.928978],[36.564115,48.92975],[36.56415,48.929774],[36.56415117991005,48.929774],[36.566126,48.931084],[36.567116,48.931741],[36.567749,48.932161],[36.568079,48.930248],[36.568079,48.9302469375],[36.568099,48.930131],[36.567907,48.930067],[36.567907,48.93006770782484],[36.566686,48.929661],[36.56668541450777,48.929661],[36.565865,48.929388],[36.565416,48.929239],[36.564282,48.928772],[36.562766,48.927797],[36.562483783132876,48.927946927710664],[36.561879,48.928266],[36.562414,48.928621657708625],[36.562414,48.928622],[36.56252546917817,48.92869576027403],[36.562586,48.928736],[36.562586,48.9287358141264],[36.562952,48.928978]]]}},{"type":"Feature","properties":{"cadnum":"6320684500:01:000:0006"},"geometry":{"type":"Polygon","coordinates":[[[36.562357,48.885549],[36.56086893325917,48.886335],[36.560868,48.886335],[36.558387,48.887647],[36.558387,48.887662],[36.55839,48.889332],[36.562084,48.887379],[36.562221331417625,48.886448],[36.562222,48.886448],[36.562357,48.885549]]]}},{"type":"Feature","properties":{"cadnum":"6320684500:01:000:0011"},"geometry":{"type":"Polygon","coordinates":[[[36.562638,48.882491],[36.56253029211899,48.882492442516266],[36.556921,48.882537],[36.556921,48.88253727262379],[36.555336,48.882549],[36.555336,48.882723],[36.555336,48.882836],[36.55533615782122,48.882836],[36.555337,48.883439],[36.557093,48.883426],[36.557093,48.883425584362136],[36.558379,48.883415],[36.558381,48.883415],[36.562414,48.88338303050684],[36.562414,48.883384],[36.562544,48.883382],[36.562586,48.882987],[36.562586,48.88298086956519],[36.562607561576286,48.882774940887344],[36.562637,48.882501],[36.562638,48.882491]]]}},{"type":"Feature","properties":{"cadnum":"6320684500:01:000:0009"},"geometry":{"type":"Polygon","coordinates":[[[36.558383,48.885539],[36.558381,48.885069],[36.558379,48.883415],[36.556921,48.883427],[36.556921,48.88342727334852],[36.555337,48.883439],[36.555343,48.885563],[36.557093,48.88555],[36.557093,48.88554870588236],[36.558383,48.885539]]]}},{"type":"Feature","properties":{"cadnum":"6320684500:01:000:0007"},"geometry":{"type":"Polygon","coordinates":[[[36.556921,48.88555],[36.556921,48.885551277714285],[36.555343,48.885563],[36.555344,48.886448],[36.555344250739644,48.886448],[36.555347,48.887687],[36.556921,48.88767437915235],[36.556921,48.887675],[36.558387,48.887662],[36.558387,48.887647],[36.558384,48.886335],[36.55838387568757,48.886335],[36.558383,48.885539],[36.556921,48.88555]]]}},{"type":"Feature","properties":{"cadnum":"6320684500:01:000:0010"},"geometry":{"type":"Polygon","coordinates":[[[36.562386,48.884892],[36.562544,48.883382],[36.558381,48.883415],[36.558379,48.883415],[36.558381,48.885069],[36.562386,48.884892]]]}},{"type":"Feature","properties":{"cadnum":"6320684500:01:000:0008"},"geometry":{"type":"Polygon","coordinates":[[[36.562357,48.885549],[36.562449,48.884937],[36.562386,48.884892],[36.558381,48.885069],[36.558383,48.885539],[36.558384,48.886448],[36.558384258384145,48.886448],[36.558387,48.887647],[36.56065431631098,48.886448],[36.560655,48.886448],[36.562357,48.885549]]]}},{"type":"Feature","properties":{"cadnum":"6320684500:02:000:0224"},"geometry":{"type":"Polygon","coordinates":[[[36.583283,48.910937],[36.58276,48.910718],[36.582403,48.910683],[36.581744,48.910562],[36.579313,48.910221],[36.579123,48.910997],[36.579189,48.910976],[36.579889,48.911234],[36.580136,48.911445],[36.5811600999991,48.91164169999983],[36.58165,48.911736],[36.58339,48.911829],[36.584208,48.911897],[36.584387,48.91192564],[36.584387,48.911926],[36.586427,48.912249],[36.587461,48.912712],[36.587537,48.912367],[36.587669,48.912266],[36.58775,48.912119],[36.587101,48.911979],[36.58576,48.911613],[36.58575858932239,48.911613],[36.584558,48.91128562765957],[36.584558,48.911285],[36.583283,48.910937]]]}},{"type":"Feature","properties":{"cadnum":"6320684500:02:000:0207"},"geometry":{"type":"Polygon","coordinates":[[[36.551794,48.935045],[36.551428,48.934802],[36.551428,48.934802459896986],[36.550241,48.934012],[36.54721,48.935994],[36.54854326980943,48.936879],[36.548542,48.936879],[36.548766,48.937027],[36.548991,48.936879],[36.54899032673268,48.936879],[36.5516,48.935173],[36.5516,48.935172213114754],[36.551794,48.935045]]]}},{"type":"Feature","properties":{"cadnum":"6320684500:02:000:0250"},"geometry":{"type":"Polygon","coordinates":[[[36.56031,48.934244],[36.559795,48.933902],[36.559256,48.933545],[36.556921,48.935073],[36.556921,48.93507344282828],[36.554618,48.936579],[36.555064359223294,48.936879],[36.555064,48.936879],[36.555426,48.937122],[36.555666,48.937282],[36.55613459363222,48.93697493783124],[36.557093,48.936349],[36.557093,48.93634848185305],[36.56031,48.934244]]]}},{"type":"Feature","properties":{"cadnum":"6320684500:02:000:0002"},"geometry":{"type":"Polygon","coordinates":[[[36.562414,48.92756715048769],[36.560433,48.926325],[36.558341,48.926185],[36.556921,48.926343],[36.556921,48.92634311111111],[36.554834,48.926575],[36.552766,48.926634],[36.551933,48.926481],[36.551428,48.926669],[36.551428,48.926669547396294],[36.545935,48.928699],[36.545935,48.929661],[36.545935,48.929774],[36.545935,48.930847],[36.549828,48.933383],[36.549828556410255,48.933383],[36.550853,48.93405],[36.5516,48.933651],[36.5516,48.93364995464853],[36.55209884322034,48.933383],[36.5521,48.933383],[36.556921,48.930805942319246],[36.556921,48.930806],[36.55703674083666,48.930744073243936],[36.557093,48.930714],[36.557093,48.93071397196262],[36.55884980349345,48.929774],[36.55885,48.929774],[36.562414,48.92786893897217],[36.562414,48.927869],[36.562674,48.92773],[36.562414,48.927567],[36.562414,48.92756715048769]]]}},{"type":"Feature","properties":{"cadnum":"6320684500:02:000:0385"},"geometry":{"type":"Polygon","coordinates":[[[36.556909,48.931987],[36.554947737822346,48.93327],[36.554947,48.93327],[36.552285,48.935012],[36.553474,48.93581],[36.557093,48.933444],[36.557093,48.93344317431193],[36.557184734265746,48.933383],[36.557185,48.933383],[36.558105,48.932781],[36.557625,48.932463],[36.557093,48.932110096590904],[36.557093,48.93211],[36.556909,48.931987]]]}},{"type":"Feature","properties":{"cadnum":"6320684500:02:000:0251"},"geometry":{"type":"Polygon","coordinates":[[[36.558789,48.933235],[36.558105,48.932781],[36.55735769102989,48.93327],[36.557357,48.93327],[36.556921,48.933556],[36.556921,48.93355644874275],[36.553474,48.93581],[36.55372,48.935975],[36.554618,48.936579],[36.557093,48.934961],[36.557093,48.934960444967885],[36.559256,48.933545],[36.55901152727272,48.933383],[36.559012,48.933383],[36.558789,48.933235]]]}},{"type":"Feature","properties":{"cadnum":"6320684500:02:000:0205"},"geometry":{"type":"Polygon","coordinates":[[[36.553305,48.936053],[36.55187,48.936991],[36.55187093532338,48.936991],[36.551428,48.937281],[36.551428,48.93728145151515],[36.55028,48.938032],[36.551428,48.93879298484848],[36.551428,48.938794],[36.551763,48.939016],[36.554786,48.937039],[36.5547137,48.936991],[36.554714,48.936991],[36.553305,48.936053]]]}},{"type":"Feature","properties":{"cadnum":"6320684500:02:000:0253"},"geometry":{"type":"Polygon","coordinates":[[[36.556909,48.931987],[36.555997,48.931382],[36.552432350324835,48.93327],[36.552432,48.93327],[36.55228129250669,48.93335000706568],[36.552219,48.933383],[36.5522191444653,48.933383],[36.5516,48.933711689243026],[36.5516,48.933711],[36.550901,48.934081],[36.5516,48.934552],[36.5516,48.93455160326721],[36.552285,48.935012],[36.55477432146957,48.933383],[36.554775,48.933383],[36.556909,48.931987]]]}},{"type":"Feature","properties":{"cadnum":"6320684500:02:000:0249"},"geometry":{"type":"Polygon","coordinates":[[[36.560799,48.934569],[36.56031,48.934244],[36.556921,48.936461],[36.556921,48.93646133367243],[36.55628148909658,48.936879],[36.556281,48.936879],[36.55613459363218,48.936974937831266],[36.55611,48.936991],[36.556110081885855,48.936991],[36.555666,48.937282],[36.556643,48.937934],[36.557093,48.937641],[36.557093,48.93763960778443],[36.558257,48.936879],[36.5582553129771,48.936879],[36.56129,48.934895],[36.560799,48.934569]]]}},{"type":"Feature","properties":{"cadnum":"6320684500:02:000:0206"},"geometry":{"type":"Polygon","coordinates":[[[36.551794,48.935045],[36.551428,48.935285],[36.551428,48.93528544012945],[36.548819,48.936991],[36.548820729729734,48.936991],[36.548766,48.937027],[36.55028,48.938032],[36.5516,48.937169],[36.5516,48.93716838762215],[36.552042,48.936879],[36.552041343283584,48.936879],[36.553305,48.936053],[36.551794,48.935045]]]}},{"type":"Feature","properties":{"cadnum":"6320684500:02:000:0254"},"geometry":{"type":"Polygon","coordinates":[[[36.57628,48.937883],[36.5734,48.939767],[36.5734,48.93976756232687],[36.57230066878308,48.940487],[36.572299,48.940487],[36.571003,48.941336],[36.571833,48.941887],[36.5734,48.94087597412306],[36.5734,48.940876],[36.57382783547557,48.9406],[36.573828,48.9406],[36.577149,48.938459],[36.57628,48.937883]]]}},{"type":"Feature","properties":{"cadnum":"6320684500:02:000:0268"},"geometry":{"type":"Polygon","coordinates":[[[36.562586,48.929218322448975],[36.562586,48.929218],[36.56190875179856,48.929661],[36.561907,48.929661],[36.557625,48.932463],[36.558105,48.932781],[36.558789,48.933235],[36.562586,48.930751],[36.562586,48.93075045036319],[36.564066,48.929782],[36.56405396694215,48.929774],[36.564054,48.929774],[36.56400890195745,48.929744039213475],[36.563884,48.929661],[36.563883908376965,48.929661],[36.562904,48.92901],[36.562586,48.929218322448975]]]}},{"type":"Feature","properties":{"cadnum":"6320684500:02:000:0269"},"geometry":{"type":"Polygon","coordinates":[[[36.562472623024924,48.92872476297975],[36.561825,48.928295],[36.55924539350913,48.929661],[36.559245,48.929661],[36.556921,48.930893],[36.556921,48.93089302189781],[36.555997,48.931382],[36.556909,48.931987],[36.556921,48.931995021739134],[36.556921,48.931996],[36.557625,48.932463],[36.56173431406138,48.929774],[36.561736,48.929774],[36.562414,48.929330508235296],[36.562414,48.929331],[36.562904,48.92901],[36.562472623024924,48.92872476297975]]]}},{"type":"Feature","properties":{"cadnum":"6320684500:02:000:0281"},"geometry":{"type":"Polygon","coordinates":[[[36.568079,48.928385],[36.568079,48.92838426591761],[36.568174,48.928322],[36.56833,48.928221],[36.568079,48.928060193853426],[36.568079,48.92806],[36.565354,48.926315],[36.563533,48.927507],[36.565273,48.928557],[36.565917,48.928881],[36.566832,48.9292],[36.568079,48.928385]]]}},{"type":"Feature","properties":{"cadnum":"6320684500:02:000:0283"},"geometry":{"type":"Polygon","coordinates":[[[36.562586,48.92462807407407],[36.562586,48.924628],[36.562385,48.924747],[36.56084808180536,48.926052],[36.560848,48.926052],[36.560753937825,48.926131937822845],[36.560715,48.926165],[36.56071503383459,48.926165],[36.560535,48.926318],[36.561631,48.926641],[36.562586,48.92705],[36.562586,48.927049502463056],[36.563226,48.927323],[36.563533,48.927507],[36.565354,48.926315],[36.564943,48.926052],[36.564942808739715,48.926052],[36.562657,48.924586],[36.562586,48.92462807407407]]]}},{"type":"Feature","properties":{"cadnum":"6320684500:02:000:0282"},"geometry":{"type":"Polygon","coordinates":[[[36.566501,48.925148],[36.56512018622174,48.926052],[36.565119,48.926052],[36.565082,48.926077],[36.565218,48.926165],[36.565218699029124,48.926165],[36.565402,48.926283],[36.567907,48.92788780948823],[36.567907,48.927888],[36.56802782997958,48.927965218309666],[36.568079,48.927998],[36.568079,48.927997919320596],[36.568378,48.928189],[36.569726,48.927306],[36.56807189518346,48.92620023229417],[36.56801939215685,48.926165],[36.56802,48.926165],[36.566501,48.925148]]]}},{"type":"Feature","properties":{"cadnum":"6320684500:02:000:0386"},"geometry":{"type":"Polygon","coordinates":[[[36.546344,48.92153],[36.546012,48.921622],[36.545935,48.921645],[36.545935,48.922443],[36.545935,48.922556],[36.545935,48.922787],[36.546334,48.92307],[36.546843,48.923869],[36.546915,48.924494],[36.547135,48.925002],[36.547329,48.925198],[36.547742,48.925229],[36.548334,48.925808],[36.548569,48.92523],[36.548235,48.92469],[36.546973,48.922647],[36.546857,48.922443],[36.54685656140351,48.922443],[36.546344,48.92153]]]}},{"type":"Feature","properties":{"cadnum":"6320684500:02:000:0297"},"geometry":{"type":"Polygon","coordinates":[[[36.550803,48.918637],[36.55051312297734,48.918833],[36.550512,48.918833],[36.549235,48.919699],[36.551428,48.921701909090906],[36.551428,48.921703],[36.551963,48.922191],[36.553587,48.92109],[36.5516,48.91933952570634],[36.5516,48.919339],[36.551026,48.918833],[36.55102500647249,48.918833],[36.550803,48.918637]]]}},{"type":"Feature","properties":{"cadnum":"6320684500:02:000:0299"},"geometry":{"type":"Polygon","coordinates":[[[36.549725,48.917687],[36.548551,48.916652],[36.546421,48.918197],[36.545935,48.918356],[36.545935,48.918833],[36.545935,48.918946],[36.545935,48.920255],[36.54786444022504,48.918946],[36.547865,48.918946],[36.549725,48.917687]],[[36.54919,48.917818],[36.549294,48.917798],[36.549325,48.917867],[36.54922,48.917887],[36.54919,48.917818]],[[36.546446,48.918344],[36.54655,48.918324],[36.546581,48.918394],[36.546476,48.918413],[36.546446,48.918344]]]}},{"type":"Feature","properties":{"cadnum":"6320684500:02:000:0296"},"geometry":{"type":"Polygon","coordinates":[[[36.551437,48.922547],[36.5516,48.922438],[36.5516,48.922436680608364],[36.551963,48.922191],[36.5516,48.92185988971963],[36.5516,48.921859],[36.549235,48.919699],[36.547624,48.92079],[36.547666,48.920827],[36.549557,48.922556],[36.549557640047674,48.922556],[36.550352,48.923282],[36.55142371428572,48.922556],[36.551424,48.922556],[36.551437,48.922547]]]}},{"type":"Feature","properties":{"cadnum":"6320684500:02:000:0295"},"geometry":{"type":"Polygon","coordinates":[[[36.547666,48.920827],[36.546474,48.921634],[36.546930268980475,48.922443],[36.54693,48.922443],[36.54695968232619,48.92249515212452],[36.546994,48.922556],[36.54699431382979,48.922556],[36.547037,48.922631],[36.548298,48.924673],[36.549116,48.924119],[36.550352,48.923282],[36.549434,48.922443],[36.5494334123771,48.922443],[36.547666,48.920827]]]}},{"type":"Feature","properties":{"cadnum":"6320684500:02:000:0294"},"geometry":{"type":"Polygon","coordinates":[[[36.551963,48.922191],[36.55159066292135,48.922443],[36.55159,48.922443],[36.551437,48.922547],[36.5516,48.922696],[36.5516,48.9226958934037],[36.553332,48.924278],[36.553893,48.923899],[36.555522,48.922794],[36.555123,48.922443],[36.55512181514325,48.922443],[36.553587,48.92109],[36.551963,48.922191]]]}},{"type":"Feature","properties":{"cadnum":"6320684500:02:000:0298"},"geometry":{"type":"Polygon","coordinates":[[[36.550803,48.918637],[36.549725,48.917687],[36.548031942017474,48.918833],[36.548031,48.918833],[36.545935,48.920255],[36.545935,48.920678],[36.546448,48.921587],[36.547624,48.92079],[36.549235,48.919699],[36.550345370669746,48.918946],[36.550346,48.918946],[36.550803,48.918637]]]}},{"type":"Feature","properties":{"cadnum":"6320684500:02:000:0303"},"geometry":{"type":"Polygon","coordinates":[[[36.554181,48.916304],[36.5516,48.91805341736288],[36.5516,48.918053],[36.550823,48.918579],[36.550851,48.918604],[36.55111080116959,48.918833],[36.55111,48.918833],[36.551428,48.91911271020408],[36.551428,48.919113],[36.552157,48.919755],[36.55335031887202,48.918946],[36.553351,48.918946],[36.555528,48.917472],[36.554181,48.916304]],[[36.554598,48.916781],[36.554628,48.916849],[36.554523,48.91687],[36.554492,48.916801],[36.554598,48.916781]]]}},{"type":"Feature","properties":{"cadnum":"6320684500:02:000:0107"},"geometry":{"type":"Polygon","coordinates":[[[36.5476,48.940489],[36.545935,48.939381],[36.545935,48.940182],[36.54641001196171,48.940487],[36.546409,48.940487],[36.547013,48.940873],[36.5474303203125,48.9406],[36.547431,48.9406],[36.5476,48.940489]]]}},{"type":"Feature","properties":{"cadnum":"6320684500:02:000:0106"},"geometry":{"type":"Polygon","coordinates":[[[36.545935,48.940182],[36.545935,48.940487],[36.545935,48.9406],[36.545935,48.941579],[36.546426,48.941258],[36.547013,48.940873],[36.54658581865285,48.9406],[36.546586,48.9406],[36.545935,48.940182]]]}},{"type":"Feature","properties":{"cadnum":"6320684500:02:000:0187"},"geometry":{"type":"Polygon","coordinates":[[[36.553199,48.940032],[36.552486,48.939558],[36.551428,48.940251],[36.551428,48.94025131161473],[36.55106705422994,48.940487],[36.551066,48.940487],[36.54956,48.941473],[36.55109,48.94249],[36.551428,48.942269305882355],[36.551428,48.94227],[36.554018,48.940575],[36.553199,48.940032]]]}},{"type":"Feature","properties":{"cadnum":"6320684500:02:000:0097"},"geometry":{"type":"Polygon","coordinates":[[[36.551428,48.943181],[36.551539,48.943108],[36.551428,48.943034],[36.551428,48.94303419725819],[36.5476,48.940489],[36.547013,48.940873],[36.546426,48.941258],[36.550437,48.943829],[36.551428,48.943180623411976],[36.551428,48.943181]]]}},{"type":"Feature","properties":{"cadnum":"6320684500:02:000:0087"},"geometry":{"type":"Polygon","coordinates":[[[36.550323,48.943967],[36.55052163900414,48.944095],[36.550521,48.944095],[36.550604964627105,48.94414869378378],[36.550697,48.944208],[36.55069770579711,48.944208],[36.55143564901145,48.94467990066534],[36.554431,48.946599],[36.555608,48.945815],[36.55316194912082,48.9441893402194],[36.551586,48.943141],[36.550486,48.943861],[36.550323,48.943967]]]}},{"type":"Feature","properties":{"cadnum":"6320684500:02:000:0186"},"geometry":{"type":"Polygon","coordinates":[[[36.555549,48.941591],[36.554685,48.941018],[36.554018,48.940575],[36.5516,48.942157436293435],[36.5516,48.942157],[36.55109,48.94249],[36.551428,48.94271467058824],[36.551428,48.942715],[36.552619,48.943507],[36.555549,48.941591]]]}},{"type":"Feature","properties":{"cadnum":"6320684500:02:000:0189"},"geometry":{"type":"Polygon","coordinates":[[[36.551751,48.939071],[36.551715,48.939047],[36.551428,48.938857],[36.551428,48.938857710526314],[36.550232,48.938063],[36.550217,48.938054],[36.547295,48.939965],[36.54807841102362,48.940487],[36.548078,48.940487],[36.54822380134278,48.94058387602588],[36.548248,48.9406],[36.548248068410466,48.9406],[36.548826,48.940984],[36.549412430583494,48.9406],[36.549414,48.9406],[36.5516,48.939171],[36.5516,48.939170108359136],[36.551751,48.939071]]]}},{"type":"Feature","properties":{"cadnum":"6320684500:02:000:0096"},"geometry":{"type":"Polygon","coordinates":[[[36.550437,48.943829],[36.546426,48.941258],[36.545935,48.941579],[36.545935,48.942423],[36.54872,48.944208],[36.54872043035344,48.944208],[36.549295,48.944576],[36.549856563409556,48.944208],[36.549857,48.944208],[36.550437,48.943829]]]}},{"type":"Feature","properties":{"cadnum":"6320684500:02:000:0188"},"geometry":{"type":"Polygon","coordinates":[[[36.552486,48.939558],[36.551751,48.939071],[36.551428,48.939283],[36.551428,48.939283437328456],[36.54958686074178,48.940487],[36.549585,48.940487],[36.548826,48.940984],[36.54956,48.941473],[36.5508934056795,48.9406],[36.550894,48.9406],[36.5516,48.940139],[36.5516,48.9401383383743],[36.552486,48.939558]]]}},{"type":"Feature","properties":{"cadnum":"6320684500:02:000:0095"},"geometry":{"type":"Polygon","coordinates":[[[36.545935,48.942423],[36.545935,48.943895],[36.546423,48.944208],[36.546423424019615,48.944208],[36.548158,48.945319],[36.549295,48.944576],[36.548544,48.944095],[36.54854369467787,48.944095],[36.545935,48.942423]]]}},{"type":"Feature","properties":{"cadnum":"6320684500:02:000:0086"},"geometry":{"type":"Polygon","coordinates":[[[36.550323,48.943967],[36.550127016597514,48.944095],[36.550127,48.944095],[36.55012028755231,48.94409939485066],[36.549954,48.944208],[36.549954410156246,48.944208],[36.549345,48.944607],[36.549022,48.944818],[36.551428,48.94635978122575],[36.551428,48.94636],[36.55314,48.947457],[36.554431,48.946599],[36.5516,48.944785199134195],[36.5516,48.944785],[36.55143564901145,48.94467990066534],[36.551428,48.944675],[36.551428,48.94467500926784],[36.55060496462704,48.94414869378374],[36.550323,48.943967]]]}},{"type":"Feature","properties":{"cadnum":"6320684500:02:000:0094"},"geometry":{"type":"Polygon","coordinates":[[[36.545935,48.943895],[36.545935,48.944095],[36.545935,48.944208],[36.545935,48.945367],[36.547021,48.946063],[36.548158,48.945319],[36.546247,48.944095],[36.54624682108626,48.944095],[36.545935,48.943895]]]}},{"type":"Feature","properties":{"cadnum":"6320684500:02:000:0301"},"geometry":{"type":"Polygon","coordinates":[[[36.556989,48.918737],[36.556921,48.918678],[36.556921,48.91867824561404],[36.556761,48.91854],[36.55632799507389,48.918833],[36.556327,48.918833],[36.553379,48.920831],[36.553635,48.921058],[36.554491,48.921811],[36.557093,48.920048],[36.557093,48.92004741280788],[36.557936,48.919476],[36.5572559844479,48.918946],[36.557256,48.918946],[36.557093,48.9188184082397],[36.557093,48.918818],[36.556989,48.918737]]]}},{"type":"Feature","properties":{"cadnum":"6320684500:02:000:0183"},"geometry":{"type":"Polygon","coordinates":[[[36.559158,48.943985],[36.558638,48.943639],[36.55794157820739,48.944095],[36.55794,48.944095],[36.556921,48.944763],[36.556921,48.944763356834535],[36.555703,48.945559],[36.556022,48.945771],[36.556921,48.946370333333334],[36.556921,48.946371],[36.55747,48.946736],[36.560408,48.944814],[36.55937774770547,48.944131279815885],[36.559158,48.943985]]]}},{"type":"Feature","properties":{"cadnum":"6320684500:02:000:0199"},"geometry":{"type":"Polygon","coordinates":[[[36.563708,48.942991],[36.562586,48.94224271097372],[36.562586,48.942242],[36.562208,48.94199],[36.559206,48.943953],[36.559588,48.944208],[36.559589357059515,48.944208],[36.560711,48.944952],[36.56184740140022,48.944208],[36.561848,48.944208],[36.562414,48.94383833604336],[36.562414,48.943839],[36.563708,48.942991]]]}},{"type":"Feature","properties":{"cadnum":"6320684500:02:000:0182"},"geometry":{"type":"Polygon","coordinates":[[[36.562213,48.946012],[36.560663,48.944984],[36.560408,48.944814],[36.55747,48.946736],[36.55892005189991,48.947703],[36.558918,48.947703],[36.559271,48.947937],[36.559629,48.947703],[36.559627261231284,48.947703],[36.562213,48.946012]]]}},{"type":"Feature","properties":{"cadnum":"6320684500:02:000:0181"},"geometry":{"type":"Polygon","coordinates":[[[36.562281,48.946057],[36.562213,48.946012],[36.559456,48.947815],[36.55945764957266,48.947815],[36.559271,48.947937],[36.561093,48.949152],[36.562586,48.948143],[36.562586,48.94814251766138],[36.563235,48.947703],[36.56323475280899,48.947703],[36.563991,48.947192],[36.562586,48.94626008497147],[36.562586,48.94626],[36.562281,48.946057]]]}},{"type":"Feature","properties":{"cadnum":"6320684500:02:000:0184"},"geometry":{"type":"Polygon","coordinates":[[[36.5546292074592,48.944208],[36.554146,48.944524],[36.555703,48.945559],[36.557093,48.944651],[36.557093,48.944650246319924],[36.55776762425149,48.944208],[36.557769,48.944208],[36.558638,48.943639],[36.557665,48.942995],[36.557079,48.942606],[36.554629,48.944208],[36.5546292074592,48.944208]]]}},{"type":"Feature","properties":{"cadnum":"6320684500:02:000:0198"},"geometry":{"type":"Polygon","coordinates":[[[36.563708,48.942991],[36.562586,48.94372628284389],[36.562586,48.943726],[36.56202101659752,48.944095],[36.56202,48.944095],[36.560711,48.944952],[36.56233,48.946026],[36.562414,48.94597087500001],[36.562414,48.945971],[36.56510736780383,48.944208],[36.565108,48.944208],[36.565323,48.944068],[36.563708,48.942991]]]}},{"type":"Feature","properties":{"cadnum":"6320684500:02:000:0197"},"geometry":{"type":"Polygon","coordinates":[[[36.565323,48.944068],[36.56528153571429,48.944095],[36.56528,48.944095],[36.562586,48.94585841381716],[36.562586,48.945858],[36.56233,48.946026],[36.562414,48.94608178125],[36.562414,48.946082],[36.56254261016963,48.94616718644077],[36.562586,48.946196],[36.562586,48.946195926199266],[36.56404,48.947159],[36.566978,48.945172],[36.565431962262565,48.9441409890754],[36.565323,48.944068]]]}},{"type":"Feature","properties":{"cadnum":"6320684500:01:000:0013"},"geometry":{"type":"Polygon","coordinates":[[[36.562768,48.881613],[36.562916,48.880751],[36.562414,48.880756],[36.562414,48.8807563662842],[36.557093,48.8807986337158],[36.557093,48.880798],[36.555333,48.880812],[36.555334,48.881672],[36.557093,48.881659],[36.557093,48.881658633715794],[36.562586,48.881615],[36.562586,48.88161454237288],[36.562768,48.881613]]]}},{"type":"Feature","properties":{"cadnum":"6320684500:01:000:0014"},"geometry":{"type":"Polygon","coordinates":[[[36.562916,48.880751],[36.563063,48.879898],[36.562414,48.879904],[36.562414,48.87990439096486],[36.559,48.879932],[36.558479,48.879944],[36.557093,48.87996446084724],[36.557093,48.879964],[36.555428,48.879988],[36.555332,48.879989],[36.555333,48.880812],[36.556921,48.88079936818182],[36.556921,48.8808],[36.562586,48.880755],[36.562586,48.880754286852586],[36.562916,48.880751]]]}},{"type":"Feature","properties":{"cadnum":"6320684500:01:000:0012"},"geometry":{"type":"Polygon","coordinates":[[[36.562530292119,48.882492442516266],[36.562586,48.882492],[36.562586,48.88249169642857],[36.562638,48.882491],[36.562673,48.882169],[36.562768,48.881613],[36.562414,48.881616],[36.562414,48.8816163662842],[36.556921,48.88166],[36.556921,48.881660271176806],[36.555334,48.881672],[36.555336,48.882549],[36.557093,48.882536],[36.557093,48.8825356337158],[36.562414,48.8824933662842],[36.562414,48.882494],[36.562530292119,48.882492442516266]]]}},{"type":"Feature","properties":{"cadnum":"6320684500:01:000:0033"},"geometry":{"type":"Polygon","coordinates":[[[36.554098,48.884903],[36.552922,48.884908],[36.552925,48.886448],[36.552925182013425,48.886448],[36.552931,48.89006],[36.552931494529545,48.89006],[36.552933,48.890404],[36.553728,48.890401],[36.554107,48.8904],[36.554106,48.889947],[36.554105787651004,48.889947],[36.554099,48.886335],[36.554098926860846,48.886335],[36.554098,48.884903]]]}},{"type":"Feature","properties":{"cadnum":"6320684500:01:000:0032"},"geometry":{"type":"Polygon","coordinates":[[[36.555273,48.884899],[36.554632,48.884901],[36.554098,48.884903],[36.554099,48.886448],[36.554099212348994,48.886448],[36.554106,48.89006],[36.554106249448125,48.89006],[36.554107,48.8904],[36.555282,48.890394],[36.555281,48.889947],[36.555280791127544,48.889947],[36.555278,48.888437],[36.555278,48.888222],[36.555274,48.886335],[36.555273927049704,48.886335],[36.555273,48.884899]]]}},{"type":"Feature","properties":{"cadnum":"6320684500:01:000:0035"},"geometry":{"type":"Polygon","coordinates":[[[36.551562341464525,48.884913121951215],[36.550056,48.884918],[36.550488,48.886151],[36.55051278114478,48.886335],[36.550512,48.886335],[36.550655,48.887386],[36.550677,48.887671],[36.55052,48.889003],[36.550622,48.8893],[36.550395,48.889758],[36.55031426821192,48.889947],[36.550313,48.889947],[36.550127,48.890388],[36.550116,48.890415],[36.550705,48.890413],[36.551428,48.89041057653632],[36.551428,48.890411],[36.55157023752854,48.89041009976248],[36.5516,48.89041],[36.5516,48.8904099113924],[36.551744,48.890409],[36.551743,48.889947],[36.55174278765101,48.889947],[36.551736,48.886335],[36.55173585286458,48.886335],[36.551734,48.884912],[36.551562341464525,48.884913121951215]]]}},{"type":"Feature","properties":{"cadnum":"6320684500:01:000:0034"},"geometry":{"type":"Polygon","coordinates":[[[36.552922,48.884908],[36.551734,48.884912],[36.551736,48.886448],[36.55173621234899,48.886448],[36.551743,48.89006],[36.55174324458875,48.89006],[36.551744,48.890409],[36.552159,48.890408],[36.552933,48.890404],[36.552931,48.889947],[36.55293081798658,48.889947],[36.552925,48.886335],[36.55292477987013,48.886335],[36.552922,48.884908]]]}},{"type":"Feature","properties":{"cadnum":"6320684500:01:000:0003"},"geometry":{"type":"Polygon","coordinates":[[[36.557093,48.88979859591837],[36.557093,48.889798],[36.555351,48.889811],[36.555351,48.889947],[36.555351,48.89006],[36.555351394759825,48.89006],[36.555355,48.891092],[36.555646,48.892688],[36.556921,48.89201393296475],[36.556921,48.892014],[36.558394,48.891236],[36.558391,48.889947],[36.558391,48.889788],[36.557093,48.88979859591837]]]}},{"type":"Feature","properties":{"cadnum":"6320684500:01:000:0005"},"geometry":{"type":"Polygon","coordinates":[[[36.558391,48.889788],[36.55839,48.889332],[36.558387,48.887662],[36.557093,48.88767347476126],[36.557093,48.887673],[36.555347,48.887687],[36.555351,48.889811],[36.556921,48.889799283582086],[36.556921,48.8898],[36.558391,48.889788]]]}},{"type":"Feature","properties":{"cadnum":"6320684500:02:000:0238"},"geometry":{"type":"Polygon","coordinates":[[[36.571833,48.941887],[36.571003,48.941336],[36.570905,48.941272],[36.567907,48.943233],[36.567907,48.943233425736615],[36.566416,48.944208],[36.56641642677823,48.944208],[36.566224,48.944334],[36.567227,48.945003],[36.568079,48.944422],[36.568079,48.944421329738056],[36.56839082657657,48.944208],[36.568391,48.944208],[36.571092,48.942364],[36.571833,48.941887]]]}},{"type":"Feature","properties":{"cadnum":"6320684500:02:000:0271"},"geometry":{"type":"Polygon","coordinates":[[[36.580913,48.934751],[36.579952,48.934112],[36.579065,48.93469383175803],[36.579065,48.934693],[36.575553,48.936991],[36.575554450704225,48.936991],[36.575291,48.937163],[36.575479,48.937287],[36.576253,48.937801],[36.57748996312364,48.936991],[36.57749,48.936991],[36.578894,48.936072828571426],[36.578894,48.936073],[36.580913,48.934751]]]}},{"type":"Feature","properties":{"cadnum":"6320684500:02:000:0270"},"geometry":{"type":"Polygon","coordinates":[[[36.580913,48.934751],[36.579065,48.93596103268945],[36.579065,48.935961],[36.57766126213592,48.936879],[36.577661,48.936879],[36.576253,48.937801],[36.576328,48.937851],[36.577199,48.938427],[36.578894,48.937334242765274],[36.578894,48.937335],[36.579599,48.936879],[36.57959870566038,48.936879],[36.581891,48.935401],[36.580913,48.934751]]]}},{"type":"Feature","properties":{"cadnum":"6320684500:02:000:0272"},"geometry":{"type":"Polygon","coordinates":[[[36.579952,48.934112],[36.57899,48.933474],[36.574329,48.936525],[36.574618,48.936717],[36.57486218248175,48.936879],[36.574861,48.936879],[36.575291,48.937163],[36.575726,48.936879],[36.575724167972155,48.936879],[36.578894,48.93480489009112],[36.578894,48.934806],[36.579952,48.934112]]]}},{"type":"Feature","properties":{"cadnum":"6320684500:02:000:0273"},"geometry":{"type":"Polygon","coordinates":[[[36.57709879212598,48.93327],[36.577098,48.93327],[36.573572,48.935578395348834],[36.573572,48.935578],[36.573234,48.935799],[36.5734328235267,48.93593076470409],[36.573679,48.936094],[36.574329,48.936524],[36.578894,48.93353681913752],[36.578894,48.933537],[36.57899,48.933474],[36.578894,48.93341],[36.578894,48.933410208469056],[36.578683,48.93327],[36.578682877165356,48.93327],[36.577897,48.932748],[36.57709879212598,48.93327]]]}},{"type":"Feature","properties":{"cadnum":"6320684500:01:000:0029"},"geometry":{"type":"Polygon","coordinates":[[[36.552159,48.890408],[36.551744,48.890409],[36.55157023752854,48.89041009976248],[36.550705,48.890413],[36.550709,48.893672],[36.55070922480106,48.893672],[36.550712,48.895067],[36.5516,48.894851],[36.5516,48.894849991858884],[36.552165,48.894712],[36.552163,48.893559],[36.552163,48.892823],[36.552159,48.890408]]]}},{"type":"Feature","properties":{"cadnum":"6320684500:01:000:0031"},"geometry":{"type":"Polygon","coordinates":[[[36.552163,48.892823],[36.555455,48.89202],[36.555284,48.891084],[36.555282,48.890394],[36.554107,48.8904],[36.553728,48.890401],[36.552933,48.890404],[36.552159,48.890408],[36.552163,48.892823]]]}},{"type":"Feature","properties":{"cadnum":"6320684500:01:000:0028"},"geometry":{"type":"Polygon","coordinates":[[[36.555455,48.89202],[36.552163,48.892823],[36.552163,48.893559],[36.552163,48.893672],[36.552163196010405,48.893672],[36.552165,48.894712],[36.555786,48.89383],[36.555756,48.893663],[36.555455,48.89202]]]}},{"type":"Feature","properties":{"cadnum":"6320684500:01:000:0016"},"geometry":{"type":"Polygon","coordinates":[[[36.561673,48.890662],[36.556921,48.893174],[36.556921,48.89317470493274],[36.55619227721088,48.893559],[36.556191,48.893559],[36.55584,48.893745],[36.556135,48.895398],[36.557078,48.8947],[36.557093,48.894689],[36.557093,48.89468886467144],[36.55846278177038,48.893672],[36.558463,48.893672],[36.561567,48.89137],[36.561673,48.890662]]]}},{"type":"Feature","properties":{"cadnum":"6320684500:01:000:0015"},"geometry":{"type":"Polygon","coordinates":[[[36.561774,48.889449],[36.5608309787234,48.889947],[36.56083,48.889947],[36.558394,48.891236],[36.557093,48.89192315410727],[36.557093,48.891923],[36.555646,48.892688],[36.555825,48.893672],[36.55582626344086,48.893672],[36.55584,48.893745],[36.55597775806452,48.893672],[36.555978,48.893672],[36.556921,48.89317385919282],[36.556921,48.893174],[36.561673,48.890661],[36.561683,48.890597],[36.56178,48.889947],[36.56177917325228,48.889947],[36.561862,48.889402],[36.561774,48.889449]]]}},{"type":"Feature","properties":{"cadnum":"6320684500:02:000:0255"},"geometry":{"type":"Polygon","coordinates":[[[36.57628,48.937883],[36.57543,48.937319],[36.5734,48.938647],[36.5734,48.93864852234548],[36.57044665922705,48.940580596943065],[36.570152,48.940773],[36.570905,48.941272],[36.571003,48.941336],[36.572126505300346,48.9406],[36.572128,48.9406],[36.573572,48.939655],[36.573572,48.939654483333335],[36.57628,48.937883]]]}},{"type":"Feature","properties":{"cadnum":"6320684500:02:000:0257"},"geometry":{"type":"Polygon","coordinates":[[[36.57363,48.936125],[36.573572,48.93616307826087],[36.573572,48.936163],[36.572306,48.936991],[36.57230688888888,48.936991],[36.568353,48.939579],[36.568987,48.94],[36.569293,48.940202],[36.573572,48.937403],[36.573572,48.93740234088568],[36.574371,48.936879],[36.57437016528926,48.936879],[36.57457,48.936749],[36.57363,48.936125]]]}},{"type":"Feature","properties":{"cadnum":"6320684500:02:000:0256"},"geometry":{"type":"Polygon","coordinates":[[[36.574198,48.936991],[36.5742000062893,48.936991],[36.5734,48.937515],[36.5734,48.93751550946483],[36.569293,48.940202],[36.569721216080396,48.940487],[36.569721,48.940487],[36.56976419196232,48.940515602677266],[36.569891,48.9406],[36.5698916375839,48.9406],[36.569946,48.940636],[36.570152,48.940773],[36.570416944055935,48.9406],[36.570417,48.9406],[36.57044665922705,48.940580596943065],[36.57059,48.940487],[36.570589730135666,48.940487],[36.573572,48.938536],[36.573572,48.93853447980296],[36.57543,48.937319],[36.57493352727273,48.936991],[36.574935,48.936991],[36.57457,48.936749],[36.574198,48.936991]]]}},{"type":"Feature","properties":{"cadnum":"6320684500:02:000:0082"},"geometry":{"type":"Polygon","coordinates":[[[36.545935,48.947493],[36.545935,48.947703],[36.545935,48.947815],[36.545935,48.949049],[36.548215,48.95051],[36.549464,48.949754],[36.54643685324232,48.947815],[36.546438,48.947815],[36.545935,48.947493]]]}},{"type":"Feature","properties":{"cadnum":"6320684500:02:000:0083"},"geometry":{"type":"Polygon","coordinates":[[[36.546612,48.946394],[36.545935,48.946837],[36.545935,48.947493],[36.546263043478255,48.947703],[36.546262,48.947703],[36.549464,48.949754],[36.550694,48.94901],[36.54882881254782,48.947815],[36.54883,48.947815],[36.546612,48.946394]]]}},{"type":"Feature","properties":{"cadnum":"6320684500:02:000:0081"},"geometry":{"type":"Polygon","coordinates":[[[36.545935,48.950788],[36.547922,48.950686],[36.548215,48.95051],[36.545935,48.949049],[36.545935,48.950788]]]}},{"type":"Feature","properties":{"cadnum":"6320684500:02:000:0084"},"geometry":{"type":"Polygon","coordinates":[[[36.547796,48.94562],[36.547069,48.946094],[36.546612,48.946394],[36.54865518226601,48.947703],[36.548654,48.947703],[36.550694,48.94901],[36.551428,48.94856684547461],[36.551428,48.948567],[36.55148987845319,48.94852948618775],[36.5516,48.948463],[36.5516,48.948462725],[36.551908,48.948276],[36.551925,48.948265],[36.5516,48.948057052313885],[36.5516,48.948056],[36.55122245609065,48.947815],[36.551224,48.947815],[36.547796,48.94562]]]}},{"type":"Feature","properties":{"cadnum":"6320684500:02:000:0085"},"geometry":{"type":"Polygon","coordinates":[[[36.549022,48.944818],[36.548208,48.945351],[36.547796,48.94562],[36.551049086104776,48.947703],[36.551047,48.947703],[36.551428,48.94794620614828],[36.551428,48.947947],[36.551925,48.948265],[36.55277,48.947703],[36.55276893854749,48.947703],[36.55314,48.947457],[36.5516,48.94647021261682],[36.5516,48.94647],[36.549022,48.944818]]]}},{"type":"Feature","properties":{"cadnum":"6320684500:02:000:0093"},"geometry":{"type":"Polygon","coordinates":[[[36.545935,48.946774],[36.547021,48.946063],[36.545935,48.945367],[36.545935,48.946774]]]}},{"type":"Feature","properties":{"cadnum":"6320684500:02:000:0538"},"geometry":{"type":"Polygon","coordinates":[[[36.561933,48.908683],[36.561227,48.908631],[36.561576,48.909535],[36.561474,48.909674],[36.561737,48.910297],[36.561797,48.910507],[36.561892,48.91116],[36.561943,48.911292],[36.561840191244244,48.911613],[36.56184,48.911613],[36.5618315517855,48.911639975000675],[36.561804,48.911726],[36.56180460989011,48.911726],[36.561783,48.911795],[36.561479,48.911879],[36.561202,48.912239],[36.560968,48.913326],[36.560913,48.913665],[36.562586,48.913757],[36.562586,48.91375640919037],[36.562871,48.913772],[36.56379,48.911618],[36.564486,48.91176],[36.565339,48.911788],[36.565413,48.911613],[36.56541294838145,48.911613],[36.56585,48.910583],[36.565668,48.910294],[36.564956,48.910244],[36.564911,48.909512],[36.564482,48.909283],[36.563309,48.909007],[36.562414,48.908796],[36.562414,48.908796496774194],[36.562276,48.908764],[36.561933,48.908683]],[[36.565605,48.910559],[36.565625,48.910569],[36.565524,48.910662],[36.565505,48.910653],[36.565605,48.910559]],[[36.564474,48.909355],[36.564465,48.909339],[36.56454,48.909321],[36.564567,48.909369],[36.564544,48.909375],[36.564525,48.909342],[36.564474,48.909355]],[[36.564289,48.909378],[36.5643,48.909392],[36.564201,48.909424],[36.564191,48.909411],[36.564289,48.909378]]]}},{"type":"Feature","properties":{"cadnum":"6320684500:02:000:0258"},"geometry":{"type":"Polygon","coordinates":[[[36.57355979498805,48.93607890888345],[36.572679,48.935495],[36.570391,48.936991],[36.570391940770556,48.936991],[36.568079,48.93850538403614],[36.568079,48.938505],[36.567402,48.938948],[36.567907,48.93928332],[36.567907,48.939284],[36.568027,48.939363],[36.568079,48.939398],[36.568079,48.93939745398773],[36.568353,48.939579],[36.572478,48.936879],[36.57247724637681,48.936879],[36.5734,48.93627549289099],[36.5734,48.936276],[36.57363,48.936125],[36.57355979498805,48.93607890888345]]]}},{"type":"Feature","properties":{"cadnum":"6320684500:02:000:0274"},"geometry":{"type":"Polygon","coordinates":[[[36.577897,48.932748],[36.57676,48.931991],[36.574805665948276,48.93327],[36.574805,48.93327],[36.5734,48.93419],[36.5734,48.934190452574526],[36.572096,48.935043],[36.572727,48.935463],[36.573234,48.935799],[36.5734,48.935690461538464],[36.5734,48.935691],[36.57692539611731,48.933383],[36.576926,48.933383],[36.577897,48.932748]]]}},{"type":"Feature","properties":{"cadnum":"6320684500:02:000:0260"},"geometry":{"type":"Polygon","coordinates":[[[36.570819,48.934261],[36.567907,48.936167],[36.567907,48.93616742458101],[36.566818350427354,48.936879],[36.566818,48.936879],[36.56666937499688,48.93697637500204],[36.566647,48.936991],[36.56664705263157,48.936991],[36.565542,48.937715],[36.566105,48.938089],[36.56646,48.938324],[36.568079,48.937265],[36.568079,48.93726444283837],[36.568668,48.936879],[36.568667194719474,48.936879],[36.571738,48.93487],[36.570819,48.934261]]]}},{"type":"Feature","properties":{"cadnum":"6320684500:02:000:0261"},"geometry":{"type":"Polygon","coordinates":[[[36.570819,48.934261],[36.569899,48.933651],[36.567907,48.934954],[36.567907,48.9349544856969],[36.564793,48.936991],[36.56479426222222,48.936991],[36.564622,48.937104],[36.565143,48.93745],[36.565542,48.937715],[36.56666937499688,48.93697637500205],[36.568079,48.936055],[36.568079,48.93605442032967],[36.570819,48.934261]]]}},{"type":"Feature","properties":{"cadnum":"6320684500:02:000:0259"},"geometry":{"type":"Polygon","coordinates":[[[36.572679,48.935495],[36.571738,48.93487],[36.568496,48.936991],[36.56849685140562,48.936991],[36.567907,48.937377],[36.567907,48.93737750648548],[36.56646,48.938324],[36.567066,48.938726],[36.567402,48.938948],[36.567907,48.93861754948301],[36.567907,48.938618],[36.570563,48.936879],[36.57056229411765,48.936879],[36.572679,48.935495]]]}},{"type":"Feature","properties":{"cadnum":"6320684500:01:000:0020"},"geometry":{"type":"Polygon","coordinates":[[[36.560754,48.896831],[36.560786,48.89661],[36.559878,48.897283],[36.55987873396881,48.897283],[36.557093,48.89935035498392],[36.557093,48.89935],[36.556871,48.899514],[36.55700261428596,48.900247957144245],[36.557118,48.900894],[36.55711808888889,48.900894],[36.557178,48.901231],[36.557785,48.900781],[36.55778441257457,48.900781],[36.560571,48.898715],[36.560569,48.898609],[36.560718,48.89717],[36.56071793661972,48.89717],[36.560736,48.896999],[36.560754,48.896831]]]}},{"type":"Feature","properties":{"cadnum":"6320684500:01:000:0019"},"geometry":{"type":"Polygon","coordinates":[[[36.560786,48.89661],[36.561076,48.894641],[36.557512,48.897283],[36.557512971066906,48.897283],[36.556921,48.897723],[36.556921,48.897723535070135],[36.556594,48.897966],[36.556871,48.899514],[36.556921,48.89947706306307],[36.556921,48.899478],[36.560031,48.89717],[36.5600304576523,48.89717],[36.560786,48.89661]]]}},{"type":"Feature","properties":{"cadnum":"6320684500:01:000:0017"},"geometry":{"type":"Polygon","coordinates":[[[36.561337,48.89291],[36.561533,48.891594],[36.561567,48.89137],[36.55861536837533,48.893559],[36.558615,48.893559],[36.557078,48.8947],[36.556921,48.894816],[36.556921,48.894816209968184],[36.556135,48.895398],[36.55635,48.896607],[36.557093,48.896057],[36.557093,48.89605649364586],[36.560462,48.893559],[36.560461446194225,48.893559],[36.561337,48.89291]]]}},{"type":"Feature","properties":{"cadnum":"6320684500:01:000:0018"},"geometry":{"type":"Polygon","coordinates":[[[36.560461297900254,48.893559],[36.56046,48.893559],[36.556921,48.896185],[36.556921,48.89618526145552],[36.556351,48.896607],[36.556472,48.897283],[36.556472158291456,48.897283],[36.556594,48.897966],[36.557093,48.897596],[36.557093,48.897595155913976],[36.557512971066906,48.897283],[36.557514,48.897283],[36.561076,48.894642],[36.56123196730249,48.893599329700024],[36.561336,48.89291],[36.560461297900254,48.893559]]]}},{"type":"Feature","properties":{"cadnum":"6320684500:01:000:0221"},"geometry":{"type":"Polygon","coordinates":[[[36.549369,48.889559],[36.549466,48.88861],[36.547708,48.888693],[36.545935,48.888758],[36.545935,48.889947],[36.545935,48.89006],[36.545935,48.890138],[36.548999,48.890465],[36.549163971042475,48.89006],[36.549164,48.89006],[36.549369,48.889559]]]}},{"type":"Feature","properties":{"cadnum":"6320684500:01:000:0204"},"geometry":{"type":"Polygon","coordinates":[[[36.551338,48.903505],[36.547791774,48.904392],[36.547791,48.904392],[36.5476005438196,48.90443983146083],[36.54734,48.904505],[36.54734105454545,48.904505],[36.547134,48.904557],[36.547396,48.906266],[36.550646,48.905272],[36.551428,48.9051637368421],[36.551428,48.905165],[36.55152,48.905151],[36.551437,48.904392],[36.551436,48.904392],[36.55143557,48.904392],[36.551338,48.903505]]]}},{"type":"Feature","properties":{"cadnum":"6320684500:01:000:0027"},"geometry":{"type":"Polygon","coordinates":[[[36.551085,48.896317],[36.550423,48.895185],[36.548806,48.895579],[36.548809,48.895603],[36.548813,48.895654],[36.54969430877839,48.89717],[36.549694,48.89717],[36.549814,48.897376],[36.549953,48.897754],[36.550504,48.898469],[36.551036,48.899243],[36.551428,48.899176971631206],[36.551428,48.899177],[36.55144060065771,48.89917484917999],[36.5516,48.899148],[36.5516,48.899147641132394],[36.552629,48.898972],[36.551842,48.89762],[36.551581,48.89717],[36.55158081828443,48.89717],[36.551085,48.896317]]]}},{"type":"Feature","properties":{"cadnum":"6320684500:01:000:0211"},"geometry":{"type":"Polygon","coordinates":[[[36.545935,48.89862],[36.546609,48.898577],[36.546372,48.897432],[36.545935,48.897462],[36.545935,48.89862]]]}},{"type":"Feature","properties":{"cadnum":"6320684500:01:000:0023"},"geometry":{"type":"Polygon","coordinates":[[[36.556827,48.89965],[36.556584,48.898295],[36.552629,48.898972],[36.55144060065771,48.89917484917999],[36.551036,48.899243],[36.551152,48.89941],[36.551428,48.899663821428575],[36.551428,48.899664],[36.551618,48.899839],[36.552574,48.900378],[36.556827,48.89965]]]}},{"type":"Feature","properties":{"cadnum":"6320684500:01:000:0212"},"geometry":{"type":"Polygon","coordinates":[[[36.546135,48.896282],[36.545935,48.896297],[36.545935,48.89717],[36.545935,48.897283],[36.545935,48.897462],[36.546372,48.897432],[36.546340721374044,48.897283],[36.546341,48.897283],[36.546135,48.896282]]]}},{"type":"Feature","properties":{"cadnum":"6320684500:01:000:0213"},"geometry":{"type":"Polygon","coordinates":[[[36.546872,48.896763],[36.546586,48.896208],[36.546125,48.896238],[36.546135,48.896282],[36.54631774525475,48.89717],[36.546317,48.89717],[36.546372,48.897432],[36.546609,48.898577],[36.548169,48.898477],[36.54726459296098,48.897283],[36.547265,48.897283],[36.546872,48.896763]]]}},{"type":"Feature","properties":{"cadnum":"6320684500:01:000:0209"},"geometry":{"type":"Polygon","coordinates":[[[36.547166,48.898651],[36.545935,48.898732],[36.545935,48.900781],[36.545935,48.900894],[36.545935,48.9023],[36.546007,48.90277],[36.547748,48.90243],[36.547493,48.900781],[36.54749266963888,48.900781],[36.547166,48.898651]]]}},{"type":"Feature","properties":{"cadnum":"6320684500:01:000:0210"},"geometry":{"type":"Polygon","coordinates":[[[36.548279,48.89858],[36.547166,48.898651],[36.54751,48.900894],[36.54751047697757,48.900894],[36.547755,48.902475],[36.549426,48.902149],[36.548986,48.900781],[36.548985716940365,48.900781],[36.548279,48.89858]]]}},{"type":"Feature","properties":{"cadnum":"6320684500:02:000:0209"},"geometry":{"type":"Polygon","coordinates":[[[36.548661,48.932959],[36.547041,48.931879],[36.545935,48.932603],[36.545935,48.93327],[36.545935,48.933383],[36.545935,48.934742],[36.548185,48.93327],[36.54818496462264,48.93327],[36.548661,48.932959]]]}},{"type":"Feature","properties":{"cadnum":"6320684500:02:000:0208"},"geometry":{"type":"Polygon","coordinates":[[[36.548661,48.932959],[36.548012,48.933383],[36.54801227581522,48.933383],[36.545935,48.934742],[36.545935,48.935148],[36.54721,48.935994],[36.550241,48.934012],[36.549296652291105,48.933383],[36.549297,48.933383],[36.548661,48.932959]]]}},{"type":"Feature","properties":{"cadnum":"6320684500:02:000:0191"},"geometry":{"type":"Polygon","coordinates":[[[36.547162,48.936026],[36.547147,48.936016],[36.545935,48.93681],[36.545935,48.936879],[36.545935,48.936991],[36.545935,48.938832],[36.548683,48.937035],[36.548615871794865,48.936991],[36.548616,48.936991],[36.547162,48.936026]]]}},{"type":"Feature","properties":{"cadnum":"6320684500:02:000:0192"},"geometry":{"type":"Polygon","coordinates":[[[36.545935,48.93681],[36.547147,48.936016],[36.545935,48.935212],[36.545935,48.93681]]]}},{"type":"Feature","properties":{"cadnum":"6320684500:02:000:0501"},"geometry":{"type":"Polygon","coordinates":[[[36.579065,48.911017],[36.579065,48.911015995633186],[36.579123,48.910997],[36.579313,48.910221],[36.579065,48.91018607875895],[36.579065,48.910186],[36.576383,48.909808],[36.576108,48.909788],[36.5761,48.909832],[36.574337,48.909701],[36.574793,48.909795],[36.576004,48.910301],[36.576654,48.910322],[36.577465,48.910672],[36.577279,48.910861],[36.578655,48.911149],[36.579065,48.911017]]]}},{"type":"Feature","properties":{"cadnum":"6320684500:02:000:0302"},"geometry":{"type":"Polygon","coordinates":[[[36.556761,48.91854],[36.555528,48.917472],[36.553517893487104,48.918833],[36.553517,48.918833],[36.552157,48.919755],[36.553379,48.920831],[36.556160271271274,48.918946],[36.556161,48.918946],[36.556761,48.91854]]]}},{"type":"Feature","properties":{"cadnum":"6320684500:02:000:0300"},"geometry":{"type":"Polygon","coordinates":[[[36.557074,48.921743],[36.557093,48.921731],[36.557093,48.92173012697652],[36.559161,48.920329],[36.558576,48.919945],[36.557999,48.919525],[36.557936,48.919476],[36.556921,48.920164],[36.556921,48.92016453958494],[36.554491,48.921811],[36.55520783221476,48.922443],[36.555207,48.922443],[36.555571,48.922762],[36.556041,48.922443],[36.5560407896679,48.922443],[36.556921,48.9218466575],[36.556921,48.921847],[36.557074,48.921743]]]}},{"type":"Feature","properties":{"cadnum":"6320684500:02:000:0290"},"geometry":{"type":"Polygon","coordinates":[[[36.557075,48.921807],[36.55597222448456,48.92255381633007],[36.555601,48.922805],[36.556921,48.923650790884714],[36.556921,48.923652],[36.558686,48.924782],[36.560158,48.923784],[36.558066,48.922443],[36.558065937249665,48.922443],[36.557075,48.921807]]]}},{"type":"Feature","properties":{"cadnum":"6320684500:02:000:0537"},"geometry":{"type":"Polygon","coordinates":[[[36.57304,48.91159],[36.568904,48.911155],[36.568595,48.91144],[36.568582297202795,48.911613],[36.568582,48.911613],[36.568555,48.911994],[36.571845,48.912249],[36.572533,48.912082],[36.572522,48.912054],[36.572611,48.912045],[36.572613,48.912061],[36.572875,48.911999],[36.57298391709845,48.911726],[36.572985,48.911726],[36.57304,48.91159]],[[36.568868,48.911381],[36.568877,48.911364],[36.568902,48.91137],[36.568893,48.911387],[36.568868,48.911381]],[[36.572338,48.911908],[36.57234,48.911889],[36.572367,48.911891],[36.572365,48.911909],[36.572338,48.911908]],[[36.570575,48.911858],[36.570596,48.911773],[36.57062,48.911776],[36.570598,48.911861],[36.570575,48.911858]]]}},{"type":"Feature","properties":{"cadnum":"6320684500:02:000:0536"},"geometry":{"type":"Polygon","coordinates":[[[36.569973,48.913218],[36.571919,48.912358],[36.571853,48.912295],[36.571145,48.91224],[36.568484,48.912034],[36.568255,48.912291],[36.568762,48.912764],[36.568079,48.913338359064326],[36.568079,48.913338],[36.567587,48.913752],[36.567907,48.91395876923077],[36.567907,48.913959],[36.567977,48.914004],[36.568079,48.913964],[36.568079,48.91396383366733],[36.569973,48.913218]],[[36.571169,48.912583],[36.571192,48.912573],[36.571208,48.912588],[36.571185,48.912598],[36.571169,48.912583]],[[36.57052,48.912836],[36.570543,48.912825],[36.570559,48.91284],[36.570536,48.91285],[36.57052,48.912836]],[[36.569841,48.91309],[36.569864,48.91308],[36.569879,48.913095],[36.569856,48.913105],[36.569841,48.91309]],[[36.569173,48.913309],[36.569197,48.913306],[36.569212,48.91336],[36.569188,48.913363],[36.569173,48.913309]],[[36.568349,48.913189],[36.568355,48.913172],[36.568382,48.913176],[36.568375,48.913193],[36.568349,48.913189]]]}},{"type":"Feature","properties":{"cadnum":"6320684500:02:000:0243"},"geometry":{"type":"Polygon","coordinates":[[[36.56646,48.938324],[36.566105,48.938089],[36.56243998219461,48.940487],[36.562438,48.940487],[36.561442,48.94114],[36.562399,48.941779],[36.562414,48.94176929411765],[36.562414,48.94177],[36.56250770517908,48.94170866135471],[36.562586,48.941658],[36.562586,48.94165741020407],[36.564201373343714,48.9406],[36.564202,48.9406],[36.567066,48.938726],[36.56646,48.938324]]]}},{"type":"Feature","properties":{"cadnum":"6320684500:02:000:0245"},"geometry":{"type":"Polygon","coordinates":[[[36.564182,48.936812],[36.563908,48.936991],[36.563908814678896,48.936991],[36.562586,48.937856466986794],[36.562586,48.937856],[36.559524,48.939859],[36.560483,48.940499],[36.562586,48.939124],[36.562586,48.93912343422499],[36.565143,48.93745],[36.564622,48.937104],[36.56445074222223,48.936991],[36.564451,48.936991],[36.564182,48.936812]]]}},{"type":"Feature","properties":{"cadnum":"6320684500:02:000:0244"},"geometry":{"type":"Polygon","coordinates":[[[36.566105,48.938089],[36.565542,48.937715],[36.565143,48.93745],[36.562414,48.939236],[36.562414,48.93923645839278],[36.560483,48.940499],[36.560633,48.9406],[36.560634106084244,48.9406],[36.561442,48.94114],[36.56226564471668,48.9406],[36.562267,48.9406],[36.562586,48.940392],[36.562586,48.94039146139257],[36.566105,48.938089]]]}},{"type":"Feature","properties":{"cadnum":"6320684500:02:000:0202"},"geometry":{"type":"Polygon","coordinates":[[[36.557748,48.939015],[36.557093,48.93944427448609],[36.557093,48.939444],[36.555324,48.9406],[36.55532421643286,48.9406],[36.554734,48.940986],[36.556222,48.941974],[36.557093,48.941405],[36.557093,48.941404445997456],[36.558488004442,48.940491577779376],[36.559233,48.940005],[36.557748,48.939015]]]}},{"type":"Feature","properties":{"cadnum":"6320684500:02:000:0203"},"geometry":{"type":"Polygon","coordinates":[[[36.557748,48.939015],[36.556921,48.938462],[36.556921,48.93846305569007],[36.556267,48.938026],[36.553248,48.940001],[36.55415,48.9406],[36.55415074549099,48.9406],[36.554734,48.940986],[36.555497,48.940487],[36.55549692128029,48.940487],[36.556921,48.93955639796496],[36.556921,48.939557],[36.557748,48.939015]]]}},{"type":"Feature","properties":{"cadnum":"6320684500:02:000:0201"},"geometry":{"type":"Polygon","coordinates":[[[36.559233,48.940005],[36.55849501344538,48.940487],[36.558495,48.940487],[36.558488004442005,48.940491577779376],[36.558322,48.9406],[36.55832231844659,48.9406],[36.556921,48.941517],[36.556921,48.94151736280138],[36.556222,48.941974],[36.556921,48.94243785993111],[36.556921,48.942438],[36.55701066265224,48.94249736052008],[36.557093,48.942552],[36.557093,48.942551871374526],[36.557714,48.942963],[36.560719,48.940997],[36.559955,48.940487],[36.559954784873945,48.940487],[36.559233,48.940005]]]}},{"type":"Feature","properties":{"cadnum":"6320684500:02:000:0247"},"geometry":{"type":"Polygon","coordinates":[[[36.563217,48.936173],[36.562748,48.935861],[36.56252161094294,48.93571120364788],[36.562255,48.935534],[36.560026,48.936991],[36.560027733058334,48.936991],[36.557604,48.938576],[36.558564,48.939217],[36.562138,48.936879],[36.56213788118812,48.936879],[36.562586,48.936587],[36.562586,48.936586332503104],[36.563217,48.936173]]]}},{"type":"Feature","properties":{"cadnum":"6320684500:02:000:0246"},"geometry":{"type":"Polygon","coordinates":[[[36.563684,48.936482],[36.563217,48.936173],[36.562414,48.936699],[36.562414,48.93669907741936],[36.561966,48.936991],[36.561966790419156,48.936991],[36.558564,48.939217],[36.559524,48.939859],[36.562414,48.93796851338994],[36.562414,48.937969],[36.56408,48.936879],[36.56407944134079,48.936879],[36.564182,48.936812],[36.563684,48.936482]]]}},{"type":"Feature","properties":{"cadnum":"6320684500:02:000:0248"},"geometry":{"type":"Polygon","coordinates":[[[36.562255,48.935534],[36.561791,48.935226],[36.56129,48.934895],[36.558084,48.936991],[36.55808560022909,48.936991],[36.556921,48.937752],[36.556921,48.93775299111111],[36.556643,48.937934],[36.556921,48.93811995111111],[36.556921,48.93812],[36.556960232374855,48.938146193210734],[36.557093,48.938235],[36.557093,48.93823483455344],[36.557604,48.938576],[36.560199,48.936879],[36.56019734385724,48.936879],[36.562255,48.935534]]]}},{"type":"Feature","properties":{"cadnum":"6320684500:01:000:0024"},"geometry":{"type":"Polygon","coordinates":[[[36.556271,48.896541],[36.5536880309973,48.89717],[36.553686,48.89717],[36.551842,48.89762],[36.552629,48.898972],[36.556584,48.898295],[36.55640228977778,48.897283],[36.556403,48.897283],[36.556271,48.896541]]]}},{"type":"Feature","properties":{"cadnum":"6320684500:01:000:0025"},"geometry":{"type":"Polygon","coordinates":[[[36.556271,48.896541],[36.556014,48.895115],[36.5516,48.89619203139991],[36.5516,48.896192],[36.551085,48.896317],[36.551428,48.896907093203886],[36.551428,48.896908],[36.551645,48.897283],[36.55164654,48.897283],[36.551842,48.89762],[36.55322295111112,48.897283],[36.553224,48.897283],[36.556271,48.896541]]]}},{"type":"Feature","properties":{"cadnum":"6320684500:01:000:0026"},"geometry":{"type":"Polygon","coordinates":[[[36.556014,48.895115],[36.555793,48.893875],[36.5516,48.89489899495991],[36.5516,48.894898],[36.550423,48.895185],[36.551085,48.896317],[36.551428,48.896233747572815],[36.551428,48.896234],[36.556014,48.895115]]]}},{"type":"Feature","properties":{"cadnum":"6320684500:02:000:0231"},"geometry":{"type":"Polygon","coordinates":[[[36.546100333331715,48.926106666665525],[36.546023,48.926052],[36.54602286285714,48.926052],[36.545935,48.92599],[36.545935,48.926052],[36.545935,48.926165],[36.545935,48.926728],[36.546487,48.92638],[36.54618285365853,48.926165],[36.546183,48.926165],[36.546100333331715,48.926106666665525]]]}},{"type":"Feature","properties":{"cadnum":"6320684500:02:000:0540"},"geometry":{"type":"Polygon","coordinates":[[[36.545935,48.928698],[36.548173,48.927871],[36.547441,48.927119],[36.547392,48.927134],[36.546861,48.927481],[36.545979,48.928106],[36.545935,48.928135],[36.545935,48.928698]]]}},{"type":"Feature","properties":{"cadnum":"6320684500:02:000:0544"},"geometry":{"type":"Polygon","coordinates":[[[36.551102,48.92579],[36.550934,48.925781],[36.550653,48.925764],[36.548738,48.925987],[36.54839,48.925832],[36.548334,48.925808],[36.547742,48.925229],[36.547329,48.925198],[36.547135,48.925002],[36.546915,48.924494],[36.546843,48.923869],[36.546334,48.92307],[36.545935,48.922787],[36.545935,48.92599],[36.546100333331715,48.926106666665525],[36.546487,48.92638],[36.545935,48.926728],[36.545935,48.928135],[36.545979,48.928106],[36.546861,48.927481],[36.547392,48.927134],[36.547441,48.927119],[36.547989,48.926969],[36.549986,48.926954],[36.550977,48.926835],[36.5516,48.926606],[36.5516,48.92660496831683],[36.551933,48.926481],[36.552766,48.926634],[36.554834,48.926575],[36.554822,48.926531],[36.554265741127345,48.926165],[36.554266,48.926165],[36.553659,48.925766],[36.55354,48.925686],[36.55249,48.925869],[36.55145108695783,48.9258103043479],[36.551189,48.925795],[36.551102,48.92579]]]}},{"type":"Feature","properties":{"cadnum":"6320684500:02:000:0266"},"geometry":{"type":"Polygon","coordinates":[[[36.565072,48.930449],[36.562414,48.932188],[36.562414,48.93218851451452],[36.56076074215761,48.93327],[36.560759,48.93327],[36.559795,48.933902],[36.56031,48.934244],[36.560799,48.934569],[36.562586,48.933401],[36.562586,48.933400645161285],[36.562786,48.93327],[36.562785715041905,48.93327],[36.566078,48.931116],[36.565072,48.930449]]]}},{"type":"Feature","properties":{"cadnum":"6320684500:02:000:0267"},"geometry":{"type":"Polygon","coordinates":[[[36.565072,48.930449],[36.564066,48.929782],[36.562414,48.930863],[36.562414,48.93086352251778],[36.558789,48.933235],[36.558841736486485,48.93327],[36.558841,48.93327],[36.559256,48.933545],[36.559795,48.933902],[36.560586639240505,48.933383],[36.560588,48.933383],[36.562586,48.932076],[36.562586,48.932075468773505],[36.565072,48.930449]]]}},{"type":"Feature","properties":{"cadnum":"6320684500:02:000:0305"},"geometry":{"type":"Polygon","coordinates":[[[36.55234,48.914734],[36.551551,48.914803],[36.55085914258913,48.915223],[36.550859,48.915223],[36.55079359450156,48.91526279172058],[36.550673,48.915336],[36.55067326233359,48.915336],[36.54876,48.9165],[36.548598,48.916618],[36.549483,48.917399],[36.5516,48.915966],[36.5516,48.9159653875296],[36.55257590486847,48.91530374405524],[36.552828,48.915134],[36.55234,48.914734]]]}},{"type":"Feature","properties":{"cadnum":"6320684500:02:000:0341"},"geometry":{"type":"Polygon","coordinates":[[[36.54901,48.915206],[36.54897116153847,48.915223],[36.54897,48.915223],[36.54885280125426,48.9152748075318],[36.548713,48.915336],[36.548714371951206,48.915336],[36.548228,48.915551],[36.547804,48.916062],[36.547519,48.91585],[36.547202,48.915812],[36.547136,48.915862],[36.547213,48.915906],[36.546892,48.916126],[36.547827,48.916857],[36.549065,48.916145],[36.549316,48.916064],[36.549855,48.915751],[36.549037,48.915223],[36.54903628461538,48.915223],[36.54901,48.915206]]]}},{"type":"Feature","properties":{"cadnum":"6320684500:02:000:0541"},"geometry":{"type":"Polygon","coordinates":[[[36.550807,48.915189],[36.551428,48.91481389407314],[36.551428,48.914814],[36.55146931835252,48.91478893632931],[36.5516,48.91471],[36.5516,48.914709664974616],[36.552216,48.914336],[36.5516,48.91383022335025],[36.5516,48.91383],[36.550272,48.912739],[36.549703,48.913152],[36.548782,48.913908],[36.55038040517241,48.915223],[36.55038,48.915223],[36.550474,48.9153],[36.550807,48.915189]]]}},{"type":"Feature","properties":{"cadnum":"6320684500:02:000:0265"},"geometry":{"type":"Polygon","coordinates":[[[36.567068,48.931772],[36.566078,48.931116],[36.562613,48.933383],[36.56261301234568,48.933383],[36.562414,48.933513],[36.562414,48.93351342081702],[36.560799,48.934569],[36.56129,48.934895],[36.561791,48.935226],[36.562586,48.934706],[36.562586,48.934705418181814],[36.56460636111111,48.933383],[36.564607,48.933383],[36.567068,48.931772]]]}},{"type":"Feature","properties":{"cadnum":"6320684500:01:000:0022"},"geometry":{"type":"Polygon","coordinates":[[[36.552574,48.900378],[36.55349,48.900894],[36.55349156695157,48.900894],[36.553914,48.901132],[36.55481,48.901452],[36.555667,48.901883],[36.556525,48.902519],[36.556921,48.902594992957745],[36.556921,48.902596],[36.557225,48.902654],[36.557365,48.90266],[36.557093,48.90114341839763],[36.557093,48.901137],[36.557028401234554,48.900783197530785],[36.556921,48.900176],[36.556921,48.90017912217196],[36.556827,48.89965],[36.552574,48.900378]]]}},{"type":"Feature","properties":{"cadnum":"6320684500:01:000:0039"},"geometry":{"type":"Polygon","coordinates":[[[36.555265,48.881233],[36.555263,48.879989],[36.553735,48.879995],[36.5516,48.880004254442994],[36.5516,48.880004],[36.550104,48.880009],[36.550072,48.880769],[36.550004,48.881253],[36.5516,48.881248],[36.5516,48.88124732759969],[36.555265,48.881233]]]}},{"type":"Feature","properties":{"cadnum":"6320684500:01:000:0037"},"geometry":{"type":"Polygon","coordinates":[[[36.555267,48.882441],[36.5516,48.882455327949984],[36.5516,48.882455],[36.549856,48.882461],[36.549856,48.882723],[36.549856,48.882836],[36.54985612124464,48.882836],[36.549857,48.883655],[36.551428,48.88364959208261],[36.551428,48.88365],[36.55527,48.883634],[36.555269,48.882723],[36.555269,48.88262],[36.555267,48.882441]]]}},{"type":"Feature","properties":{"cadnum":"6320684500:01:000:0038"},"geometry":{"type":"Polygon","coordinates":[[[36.555267,48.882441],[36.555265,48.881233],[36.551428,48.881248],[36.551428,48.88124853884712],[36.550004,48.881253],[36.549856,48.882292],[36.549856,48.882461],[36.551428,48.88245559174312],[36.551428,48.882456],[36.555267,48.882441]]]}},{"type":"Feature","properties":{"cadnum":"6320684500:01:000:0030"},"geometry":{"type":"Polygon","coordinates":[[[36.550705,48.890413],[36.550116,48.890415],[36.550013,48.890654],[36.549384,48.892489],[36.54912,48.89293],[36.54898665550907,48.893559],[36.548986,48.893559],[36.548968,48.893647],[36.548968,48.893672],[36.548968075528705,48.893672],[36.54897,48.894309],[36.54875,48.8948],[36.548803,48.895532],[36.550712,48.895067],[36.550709,48.893559],[36.55070886130715,48.893559],[36.550705,48.890413]]]}},{"type":"Feature","properties":{"cadnum":"6320684500:01:000:0220"},"geometry":{"type":"MultiPolygon","coordinates":[[[[36.545935,48.891254],[36.545935,48.892103],[36.547764,48.892645],[36.54778,48.892455],[36.546619,48.891802],[36.545935,48.891254]]],[[[36.545935,48.891127],[36.546247,48.891131],[36.548339,48.891883],[36.548916,48.890665],[36.548999,48.890465],[36.545935,48.890138],[36.545935,48.891127]]]]}},{"type":"Feature","properties":{"cadnum":"6320684500:01:000:0219"},"geometry":{"type":"Polygon","coordinates":[[[36.547764,48.892645],[36.545935,48.892103],[36.545935,48.893559],[36.545935,48.893672],[36.545935,48.89403],[36.545967,48.894039],[36.547626,48.894344],[36.547689,48.893559],[36.547688352482965,48.893559],[36.547764,48.892645]]]}},{"type":"Feature","properties":{"cadnum":"6320684500:02:000:0185"},"geometry":{"type":"Polygon","coordinates":[[[36.557079,48.942606],[36.556921,48.942501],[36.556921,48.942501074033146],[36.556174,48.942005],[36.555549,48.941591],[36.552619,48.943507],[36.55367,48.944208],[36.5536708951049,48.944208],[36.554146,48.944524],[36.554802,48.944095],[36.55480181523097,48.944095],[36.556921,48.94270931265306],[36.556921,48.94271],[36.557079,48.942606]]]}},{"type":"Feature","properties":{"cadnum":"6320684500:01:000:0004"},"geometry":{"type":"Polygon","coordinates":[[[36.561774,48.889449],[36.561909,48.888554],[36.562084,48.887379],[36.559956,48.888504],[36.55839,48.889332],[36.558391,48.889788],[36.558391,48.889947],[36.558391,48.89006],[36.55839126299457,48.89006],[36.558394,48.891236],[36.559646,48.890573],[36.56061627476039,48.89006],[36.560617,48.89006],[36.561774,48.889449]]]}},{"type":"Feature","properties":{"cadnum":"6320684500:01:000:0201"},"geometry":{"type":"Polygon","coordinates":[[[36.545935,48.906713],[36.547331,48.906286],[36.547151,48.905117],[36.545935,48.905422],[36.545935,48.906713]]]}},{"type":"Feature","properties":{"cadnum":"6320684500:01:000:0202"},"geometry":{"type":"Polygon","coordinates":[[[36.54695,48.90381],[36.545935,48.904064],[36.545935,48.904392],[36.545935,48.904505],[36.545935,48.905422],[36.547151,48.905117],[36.547068,48.904574],[36.54704,48.904392],[36.5470396028777,48.904392],[36.54695,48.90381]]]}},{"type":"Feature","properties":{"cadnum":"6320684500:01:000:0205"},"geometry":{"type":"Polygon","coordinates":[[[36.551338,48.903505],[36.551303,48.903192],[36.550675,48.902501],[36.549426,48.902149],[36.547755,48.902475],[36.546841,48.902654],[36.54710860129659,48.904392],[36.547108,48.904392],[36.547134,48.904557],[36.5476005438196,48.90443983146083],[36.551338,48.903505]]]}},{"type":"Feature","properties":{"cadnum":"6320684500:01:000:0036"},"geometry":{"type":"Polygon","coordinates":[[[36.554624,48.884856],[36.555273,48.884853],[36.55527,48.883634],[36.5516,48.883649283706404],[36.5516,48.883649],[36.549857,48.883655],[36.549857,48.884128],[36.549868,48.884173],[36.550044,48.884873],[36.5516,48.884868],[36.5516,48.884867354192735],[36.554624,48.884856]]]}},{"type":"Feature","properties":{"cadnum":"6320684500:01:000:0021"},"geometry":{"type":"Polygon","coordinates":[[[36.560223,48.900627],[36.560354,48.900179],[36.560593,48.899582],[36.560571,48.898715],[36.557632,48.900894],[36.55763257555556,48.900894],[36.557178,48.901231],[36.557435,48.902664],[36.557951,48.902687],[36.558856,48.902641],[36.559633,48.901973],[36.56010460989933,48.900894],[36.560105,48.900894],[36.560223,48.900627]]]}},{"type":"Feature","properties":{"cadnum":"6320684500:02:000:0190"},"geometry":{"type":"Polygon","coordinates":[[[36.547295,48.939965],[36.550217,48.938054],[36.548717,48.937058],[36.548683,48.937035],[36.545935,48.938832],[36.545935,48.939061],[36.547295,48.939965]]]}},{"type":"Feature","properties":{"cadnum":"6320684500:02:000:0210"},"geometry":{"type":"Polygon","coordinates":[[[36.545935,48.932603],[36.547041,48.931879],[36.545935,48.931142],[36.545935,48.932603]]]}},{"type":"Feature","properties":{"cadnum":"6320684500:02:000:0285"},"geometry":{"type":"Polygon","coordinates":[[[36.560158,48.923784],[36.558686,48.924782],[36.557026,48.925907],[36.556921,48.925978],[36.556921,48.9259781023622],[36.55681187209302,48.926052],[36.556811,48.926052],[36.556355,48.926361],[36.556921,48.926298878048776],[36.556921,48.9263],[36.558348,48.926141],[36.558682,48.926165],[36.55868494736837,48.926165],[36.560482,48.926293],[36.56063124481328,48.926165],[36.560632,48.926165],[36.562025,48.92498],[36.560158,48.923784]]]}},{"type":"Feature","properties":{"cadnum":"6320684500:02:000:0288"},"geometry":{"type":"Polygon","coordinates":[[[36.553942,48.92393],[36.5516,48.9255174176611],[36.5516,48.925517],[36.551189,48.925795],[36.551428,48.92580895620438],[36.551428,48.925809],[36.55145108695783,48.9258103043479],[36.5516,48.925819],[36.5516,48.925818717514126],[36.55249,48.925869],[36.55354,48.925686],[36.554266,48.926165],[36.5542665052192,48.926165],[36.554822,48.926531],[36.556355,48.926361],[36.556644242718455,48.926165],[36.556645,48.926165],[36.557026,48.925907],[36.553942,48.92393]]]}},{"type":"Feature","properties":{"cadnum":"6320684500:02:000:0239"},"geometry":{"type":"Polygon","coordinates":[[[36.570905,48.941272],[36.570152,48.940773],[36.569946,48.940636],[36.568079,48.94185747032859],[36.568079,48.941857],[36.565269,48.943696],[36.566035,48.944208],[36.56603526359834,48.944208],[36.566224,48.944334],[36.566589,48.944095],[36.566588878564865,48.944095],[36.568079,48.943121],[36.568079,48.943120494329555],[36.570905,48.941272]]]}},{"type":"Feature","properties":{"cadnum":"6320684500:02:000:0241"},"geometry":{"type":"Polygon","coordinates":[[[36.56613634161489,48.9406],[36.563357,48.942419],[36.564313,48.943057],[36.56806982582216,48.9406],[36.56807,48.9406],[36.568987,48.94],[36.568353,48.939579],[36.568027,48.939363],[36.567907,48.939441],[36.567907,48.93944149814913],[36.566136,48.9406],[36.56613634161489,48.9406]]]}},{"type":"Feature","properties":{"cadnum":"6320684500:02:000:0240"},"geometry":{"type":"Polygon","coordinates":[[[36.569293,48.940202],[36.568987,48.94],[36.56824270166668,48.940487],[36.568241,48.940487],[36.567907,48.940706],[36.567907,48.940706489644185],[36.564313,48.943057],[36.565269,48.943696],[36.567907,48.94196956512455],[36.567907,48.94197],[36.569946,48.940636],[36.56976419196232,48.940515602677266],[36.569293,48.940202]]]}},{"type":"Feature","properties":{"cadnum":"6320684500:02:000:0200"},"geometry":{"type":"Polygon","coordinates":[[[36.559206,48.943953],[36.562208,48.94199],[36.560719,48.940997],[36.557714,48.942963],[36.559206,48.943953]]]}},{"type":"Feature","properties":{"cadnum":"6320684500:02:000:0242"},"geometry":{"type":"Polygon","coordinates":[[[36.567402,48.938948],[36.567066,48.938726],[36.56437469583779,48.940487],[36.564374,48.940487],[36.56250770517908,48.94170866135471],[36.562399,48.941779],[36.562414,48.941789026737965],[36.562414,48.94179],[36.563357,48.942419],[36.566309,48.940487],[36.566308742926445,48.940487],[36.568027,48.939363],[36.567402,48.938948]]]}},{"type":"Feature","properties":{"cadnum":"6320684500:02:000:0304"},"geometry":{"type":"Polygon","coordinates":[[[36.552888,48.915183],[36.552828,48.915134],[36.55269582178219,48.915223],[36.552695,48.915223],[36.5525759048684,48.91530374405528],[36.552528,48.915336],[36.5525283282887,48.915336],[36.551428,48.916082],[36.551428,48.91608242701936],[36.549483,48.917399],[36.549773,48.917653],[36.550823,48.918579],[36.551428,48.91816943758044],[36.551428,48.91817],[36.554181,48.916304],[36.55293866168157,48.91522704112091],[36.552888,48.915183]],[[36.551836,48.91731],[36.551866,48.917379],[36.551762,48.917399],[36.551731,48.917331],[36.551836,48.91731]]]}},{"type":"Feature","properties":{"cadnum":"6320684500:02:000:0567"},"geometry":{"type":"Polygon","coordinates":[[[36.545935,48.917852],[36.54607,48.917783],[36.546326,48.917621],[36.546244,48.917549],[36.546321,48.917512],[36.546271,48.917471],[36.546552,48.917329],[36.546505,48.917286],[36.547002,48.916985],[36.546915,48.91692],[36.546577,48.917116],[36.546287,48.916857],[36.546879,48.916576],[36.546526,48.916254],[36.546399,48.916315],[36.546195,48.916139],[36.545935,48.916311],[36.545935,48.916387],[36.545996,48.91644],[36.545935,48.916471],[36.545935,48.917852]]]}},{"type":"Feature","properties":{"cadnum":"6320684500:01:000:0215"},"geometry":{"type":"Polygon","coordinates":[[[36.545935,48.896252],[36.546125,48.896238],[36.546586,48.896208],[36.546042,48.895151],[36.545935,48.895104],[36.545935,48.896252]]]}},{"type":"Feature","properties":{"cadnum":"6320684500:02:000:0286"},"geometry":{"type":"Polygon","coordinates":[[[36.564179,48.92362],[36.564144,48.923597],[36.563472,48.923157],[36.562414,48.923874],[36.562414,48.92387445833334],[36.561434,48.924538],[36.562067,48.924944],[36.562331,48.92472],[36.562586,48.924568],[36.562586,48.92456767705382],[36.564179,48.92362]]]}},{"type":"Feature","properties":{"cadnum":"6320684500:02:000:0287"},"geometry":{"type":"Polygon","coordinates":[[[36.561294,48.921728],[36.560073,48.922556],[36.56007347368421,48.922556],[36.559232,48.923127],[36.560207,48.923751],[36.561434,48.924538],[36.562586,48.923758],[36.562586,48.923757436672965],[36.563472,48.923157],[36.562414,48.922463],[36.562414,48.92246331034483],[36.562383,48.922443],[36.56238290700483,48.922443],[36.561294,48.921728]]]}},{"type":"Feature","properties":{"cadnum":"6320684500:02:000:0284"},"geometry":{"type":"Polygon","coordinates":[[[36.565082,48.926077],[36.566501,48.925148],[36.564246,48.92364],[36.562707,48.924555],[36.565082,48.926077]]]}},{"type":"Feature","properties":{"cadnum":"6320684500:02:000:0293"},"geometry":{"type":"Polygon","coordinates":[[[36.553332,48.924278],[36.551437,48.922547],[36.550352,48.923282],[36.549116,48.924119],[36.550934,48.925781],[36.551102,48.92579],[36.5516,48.925453],[36.5516,48.92545237605042],[36.553332,48.924278]]]}},{"type":"Feature","properties":{"cadnum":"6320684500:02:000:0292"},"geometry":{"type":"Polygon","coordinates":[[[36.548738,48.925987],[36.550653,48.925764],[36.550934,48.925781],[36.549116,48.924119],[36.548298,48.924673],[36.54864,48.925227],[36.54839,48.925832],[36.548738,48.925987]]]}},{"type":"Feature","properties":{"cadnum":"6320684500:02:000:0289"},"geometry":{"type":"Polygon","coordinates":[[[36.557093,48.925862],[36.557093,48.9258615933735],[36.558686,48.924782],[36.557093,48.923762118980164],[36.557093,48.923761],[36.555601,48.922805],[36.553942,48.92393],[36.556921,48.92583968968872],[36.556921,48.92584],[36.557026,48.925907],[36.557093,48.925862]]]}},{"type":"Feature","properties":{"cadnum":"6320684500:02:000:0291"},"geometry":{"type":"Polygon","coordinates":[[[36.561294,48.921728],[36.559161,48.920329],[36.557074,48.921743],[36.55816403690037,48.922443],[36.558164,48.922443],[36.55817769230952,48.92245176923195],[36.55834,48.922556],[36.55834043859649,48.922556],[36.559232,48.923127],[36.56024,48.922443],[36.56023963405797,48.922443],[36.561294,48.921728]]]}},{"type":"Feature","properties":{"cadnum":"6320684500:01:000:0203"},"geometry":{"type":"Polygon","coordinates":[[[36.545935,48.904064],[36.54695,48.90381],[36.546774,48.902667],[36.546015,48.902815],[36.545935,48.902831],[36.545935,48.904064]]]}},{"type":"Feature","properties":{"cadnum":"6320684500:02:000:0204"},"geometry":{"type":"Polygon","coordinates":[[[36.553248,48.940001],[36.556267,48.938026],[36.555233,48.937336],[36.554786,48.937039],[36.551763,48.939016],[36.553248,48.940001]]]}}]}