{"type":"FeatureCollection","features":[{"type":"Feature","properties":{"cadnum":"6320481501:00:000:0033"},"geometry":{"type":"Polygon","coordinates":[[[36.80029,48.836863],[36.800522,48.836509],[36.800746,48.836247],[36.800667,48.836219],[36.800628,48.836206],[36.800364,48.836124],[36.800133,48.836373],[36.799861,48.836712],[36.80029,48.836863]]]}},{"type":"Feature","properties":{"cadnum":"6320481501:00:000:0025"},"geometry":{"type":"Polygon","coordinates":[[[36.809778,48.84655208536586],[36.809853,48.846578],[36.80988486885245,48.846587],[36.809884,48.846587],[36.810639,48.8468],[36.810714600000246,48.846672199999595],[36.810781,48.846561],[36.810012,48.846359],[36.809802,48.846304],[36.809621,48.846251],[36.809483,48.846451],[36.809778,48.846553],[36.809778,48.84655208536586]]]}},{"type":"Feature","properties":{"cadnum":"6320481501:00:000:0029"},"geometry":{"type":"Polygon","coordinates":[[[36.809254,48.847684],[36.809007,48.847597],[36.808974,48.847572],[36.808811,48.847507],[36.80867,48.847737],[36.809244,48.847931],[36.809707,48.848083],[36.809859,48.847904],[36.8097043124999,48.84784814062497],[36.809254,48.847684]]]}},{"type":"Feature","properties":{"cadnum":"6320481501:00:000:0041"},"geometry":{"type":"Polygon","coordinates":[[[36.800171,48.849867],[36.799976,48.850016],[36.800535,48.850315],[36.80053694818653,48.850315],[36.800687,48.850395],[36.800789,48.850456],[36.800804,48.850468],[36.800841,48.850486],[36.80118,48.850684],[36.801194,48.850691],[36.801217,48.850673],[36.801255,48.850642],[36.801387,48.850537],[36.801375,48.85053],[36.801235,48.850455],[36.801155,48.850414],[36.801074,48.850368],[36.801032,48.850341],[36.800911,48.850272],[36.800171,48.849867]]]}},{"type":"Feature","properties":{"cadnum":"6320481501:00:000:0024"},"geometry":{"type":"Polygon","coordinates":[[[36.805449,48.85008],[36.805674,48.849771],[36.805198,48.849608],[36.804973,48.849917],[36.805449,48.85008]]]}},{"type":"Feature","properties":{"cadnum":"6320481501:00:000:0037"},"geometry":{"type":"Polygon","coordinates":[[[36.809084,48.846564],[36.808287,48.84625],[36.808103,48.846536],[36.808206581395346,48.846587],[36.808205,48.846587],[36.808365,48.846665],[36.808445,48.8467],[36.808446499999995,48.8467],[36.808854,48.846875],[36.808872,48.846882],[36.809005354838604,48.84668025806468],[36.809084,48.846564]]]}},{"type":"Feature","properties":{"cadnum":"6320481501:00:000:0032"},"geometry":{"type":"Polygon","coordinates":[[[36.814052,48.839327],[36.81400479720279,48.839357],[36.814004,48.839357],[36.813849308781414,48.83945582153004],[36.813827,48.83947],[36.81382711437909,48.83947],[36.813525,48.839663],[36.813045,48.839929],[36.813285,48.840055],[36.813327,48.840079],[36.81335,48.840091],[36.81338,48.840106],[36.813391,48.840111],[36.813682,48.839873],[36.813712,48.839848],[36.814253,48.839501],[36.814122550943225,48.83938851698098],[36.814052,48.839327]]]}},{"type":"Feature","properties":{"cadnum":"6320481501:00:000:0028"},"geometry":{"type":"Polygon","coordinates":[[[36.800492,48.835104],[36.800873,48.834553],[36.800559,48.834518],[36.800326,48.834856],[36.800291,48.834864],[36.800188,48.835015],[36.800492,48.835104]]]}},{"type":"Feature","properties":{"cadnum":"6320481501:00:000:0015"},"geometry":{"type":"Polygon","coordinates":[[[36.800795,48.83518],[36.800801,48.835172],[36.80082,48.835177],[36.80083,48.835155],[36.800864,48.83509],[36.800861,48.835076],[36.800635,48.835025],[36.800572,48.83512],[36.800781,48.835168],[36.800775,48.835176],[36.800795,48.83518]]]}},{"type":"Feature","properties":{"cadnum":"6320481501:00:000:0038"},"geometry":{"type":"Polygon","coordinates":[[[36.811397,48.845488],[36.811633,48.845195],[36.811282,48.845043],[36.811017,48.845372],[36.811397,48.845488]]]}},{"type":"Feature","properties":{"cadnum":"6320481501:00:000:0040"},"geometry":{"type":"Polygon","coordinates":[[[36.811017,48.845372],[36.811282,48.845043],[36.810973,48.844911],[36.810632,48.844762],[36.81049,48.844978],[36.810359,48.845173],[36.810701,48.84528],[36.810851,48.845321],[36.811017,48.845372]]]}},{"type":"Feature","properties":{"cadnum":"6320481501:01:000:0030"},"geometry":{"type":"Polygon","coordinates":[[[36.806126,48.853333],[36.805976,48.853266],[36.805943,48.853251],[36.80559,48.853548],[36.80620407874016,48.853816],[36.806204,48.853816],[36.806951,48.854142],[36.808059,48.85464],[36.808363,48.854795],[36.809008,48.855172],[36.809324,48.854814],[36.80717,48.853816],[36.807168988255036,48.853816],[36.806126,48.853333]],[[36.807069,48.8538],[36.807091,48.853782],[36.807119,48.853796],[36.807097,48.853814],[36.807069,48.8538]],[[36.806747,48.85379],[36.806763,48.853775],[36.806785,48.853786],[36.806769,48.8538],[36.806747,48.85379]],[[36.8066,48.853583],[36.806623,48.853566],[36.806649,48.853581],[36.806627,48.853598],[36.8066,48.853583]],[[36.806393,48.853635],[36.806409,48.853621],[36.806454,48.853642],[36.806439,48.853657],[36.806393,48.853635]],[[36.806112,48.853356],[36.806134,48.853339],[36.806161,48.853354],[36.806138,48.853371],[36.806112,48.853356]],[[36.806092,48.853503],[36.806108,48.853488],[36.80613,48.853499],[36.806114,48.853514],[36.806092,48.853503]],[[36.808448,48.854446],[36.808469,48.854428],[36.808497,48.854442],[36.808476,48.85446],[36.808448,48.854446]],[[36.808162,48.854415],[36.80818,48.854401],[36.808223,48.854422],[36.808205,48.854437],[36.808162,48.854415]],[[36.807986,48.854225],[36.808008,48.854206],[36.808036,48.85422],[36.808015,48.854239],[36.807986,48.854225]],[[36.807811,48.854257],[36.807827,48.854243],[36.807848,48.854254],[36.807832,48.854268],[36.807811,48.854257]],[[36.807532,48.854017],[36.807552,48.853998],[36.80758,48.854012],[36.80756,48.854031],[36.807532,48.854017]],[[36.807458,48.8541],[36.807474,48.854085],[36.807497,48.854096],[36.807481,48.85411],[36.807458,48.8541]],[[36.807104,48.853945],[36.80712,48.85393],[36.807143,48.853941],[36.807127,48.853956],[36.807104,48.853945]]]}},{"type":"Feature","properties":{"cadnum":"6320481501:00:000:0034"},"geometry":{"type":"Polygon","coordinates":[[[36.809084,48.846564],[36.809242,48.84637],[36.808912,48.846276],[36.808841,48.84623],[36.808695,48.846155],[36.80874,48.846097],[36.808503,48.84601],[36.808366,48.846162],[36.808287,48.84625],[36.809084,48.846564]]]}},{"type":"Feature","properties":{"cadnum":"6320481501:00:000:0039"},"geometry":{"type":"Polygon","coordinates":[[[36.795006,48.835473],[36.795375,48.835414],[36.795259,48.834982],[36.795237,48.834881],[36.795218,48.834766],[36.795202,48.834718],[36.79516,48.834725],[36.795009,48.834759],[36.794692,48.834862],[36.794813,48.835052],[36.795006,48.835473]]]}},{"type":"Feature","properties":{"cadnum":"6320481501:00:000:0022"},"geometry":{"type":"Polygon","coordinates":[[[36.801565,48.85129],[36.801703,48.851207],[36.801879,48.851099],[36.801583,48.850946],[36.801483,48.850895],[36.80117,48.851099],[36.801179,48.851107],[36.8013,48.851158],[36.801348,48.851181],[36.801565,48.85129]]]}},{"type":"Feature","properties":{"cadnum":"6320481501:01:000:0031"},"geometry":{"type":"Polygon","coordinates":[[[36.804285,48.85307175172414],[36.804403,48.85311],[36.8045,48.853142],[36.805417,48.853491],[36.805453,48.853504],[36.805747,48.853199],[36.805778,48.853164],[36.805701,48.853134],[36.804285,48.852568670025185],[36.804285,48.852568],[36.8034,48.852214],[36.803378,48.852237],[36.803344,48.852223],[36.803365,48.8522],[36.802281,48.85176],[36.802174,48.851958],[36.802098,48.851934],[36.801891,48.852291],[36.801882,48.852328],[36.801974,48.852358],[36.801945,48.852385],[36.8028,48.852653],[36.804054,48.852996],[36.804113,48.853015411255406],[36.804113,48.853016],[36.80423398159527,48.85305521472398],[36.804285,48.853072],[36.804285,48.85307175172414]],[[36.803989,48.852738],[36.804005,48.852724],[36.804028,48.852734],[36.804011,48.852748],[36.803989,48.852738]],[[36.803647,48.852362],[36.803657,48.852345],[36.803683,48.852352],[36.803672,48.852369],[36.803647,48.852362]],[[36.803627,48.852396],[36.803637,48.852379],[36.803663,48.852386],[36.803652,48.852403],[36.803627,48.852396]],[[36.803204,48.852251],[36.803218,48.852229],[36.803251,48.852238],[36.803236,48.85226],[36.803204,48.852251]],[[36.802645,48.852103],[36.80266,48.852081],[36.802692,48.85209],[36.802678,48.852112],[36.802645,48.852103]],[[36.802116,48.851987],[36.80213,48.851966],[36.802162,48.851975],[36.802149,48.851997],[36.802116,48.851987]],[[36.805428,48.853235],[36.805441,48.85322],[36.805488,48.853238],[36.805473,48.853254],[36.805428,48.853235]],[[36.805221,48.852989],[36.805236,48.852967],[36.805268,48.852977],[36.805253,48.852998],[36.805221,48.852989]],[[36.804913,48.853045],[36.804929,48.853031],[36.804952,48.853041],[36.804935,48.853056],[36.804913,48.853045]],[[36.804713,48.852791],[36.804726,48.85277],[36.80476,48.852778],[36.804745,48.852801],[36.804713,48.852791]],[[36.804391,48.852852],[36.804407,48.852838],[36.804429,48.852848],[36.804412,48.852862],[36.804391,48.852852]]]}},{"type":"Feature","properties":{"cadnum":"6320481501:00:000:0035"},"geometry":{"type":"Polygon","coordinates":[[[36.799724,48.850564],[36.799798,48.850489],[36.79957,48.85039],[36.799496,48.850465],[36.799724,48.850564]]]}},{"type":"Feature","properties":{"cadnum":"6320481501:00:000:0027"},"geometry":{"type":"Polygon","coordinates":[[[36.804661,48.851647],[36.804614,48.851619],[36.804345,48.851458],[36.804113,48.851732],[36.804113,48.851732185430464],[36.803983,48.851885],[36.804113,48.851939771573605],[36.804113,48.85194],[36.80418,48.851968],[36.804285,48.852009],[36.804285,48.852008664739884],[36.804353,48.852035],[36.804661,48.851647]],[[36.804265,48.851934],[36.804278,48.851919],[36.804285,48.851922],[36.804285,48.851921625],[36.804302,48.851928],[36.804289,48.851943],[36.804265,48.851934]]]}},{"type":"Feature","properties":{"cadnum":"6320481501:00:000:0023"},"geometry":{"type":"Polygon","coordinates":[[[36.811255,48.841735],[36.811355,48.84163],[36.811247,48.841585],[36.811147,48.841691],[36.811255,48.841735]]]}},{"type":"Feature","properties":{"cadnum":"6320481501:00:001:0018"},"geometry":{"type":"Polygon","coordinates":[[[36.809527,48.853021],[36.809692,48.852878],[36.809475,48.852769],[36.80931,48.852912],[36.809527,48.853021]]]}},{"type":"Feature","properties":{"cadnum":"6320481501:00:000:0043"},"geometry":{"type":"Polygon","coordinates":[[[36.8064,48.851855],[36.806442,48.851768],[36.806476,48.851697],[36.806495,48.851658],[36.806557,48.851532],[36.806452,48.851503],[36.805921,48.85134],[36.805889,48.85138],[36.805967,48.851402],[36.805908,48.85148],[36.805771,48.851649],[36.806086,48.851766],[36.806346,48.851841],[36.8064,48.851855]]]}},{"type":"Feature","properties":{"cadnum":"6320481501:00:000:0026"},"geometry":{"type":"Polygon","coordinates":[[[36.806117,48.853145],[36.80629,48.852969],[36.805953,48.852825],[36.805818,48.853019],[36.806117,48.853145]]]}},{"type":"Feature","properties":{"cadnum":"6320481501:00:000:0036"},"geometry":{"type":"Polygon","coordinates":[[[36.806483,48.85331],[36.806535,48.853258],[36.806641,48.853153],[36.806396,48.853045],[36.80629,48.85315],[36.806242,48.853199],[36.806483,48.85331]]]}},{"type":"Feature","properties":{"cadnum":"6320481501:00:000:0047"},"geometry":{"type":"Polygon","coordinates":[[[36.805617,48.85286],[36.805705,48.852766],[36.805615,48.85273],[36.805603,48.852741],[36.805534,48.852813],[36.805524,48.852823],[36.805617,48.85286]]]}},{"type":"Feature","properties":{"cadnum":"6320481501:00:000:0049"},"geometry":{"type":"Polygon","coordinates":[[[36.805016,48.852602],[36.805019,48.852599],[36.805025,48.852592],[36.805071,48.852545],[36.805025,48.852525],[36.805047,48.852502],[36.805059,48.852491],[36.804968,48.852453],[36.804879,48.852545],[36.805016,48.852602]]]}},{"type":"Feature","properties":{"cadnum":"6320481501:00:000:0048"},"geometry":{"type":"Polygon","coordinates":[[[36.805524,48.852823],[36.805534,48.852813],[36.805603,48.852741],[36.805615,48.85273],[36.805479,48.852675],[36.805404,48.852754],[36.80539,48.852768],[36.805441,48.852789],[36.805471,48.852801],[36.805524,48.852823]]]}},{"type":"Feature","properties":{"cadnum":"6320481501:00:000:0044"},"geometry":{"type":"Polygon","coordinates":[[[36.804681,48.851535],[36.804835,48.851423],[36.804889,48.851384],[36.805049,48.851267],[36.80564,48.850851],[36.805528,48.850788],[36.805141,48.85106],[36.80495,48.850949],[36.804563,48.851239],[36.804387,48.851361],[36.804681,48.851535]]]}},{"type":"Feature","properties":{"cadnum":"6320481501:00:001:0014"},"geometry":{"type":"Polygon","coordinates":[[[36.805338,48.852735],[36.805487,48.852581],[36.805121,48.852427],[36.805047,48.852502],[36.805025,48.852525],[36.805071,48.852545],[36.805025,48.852592],[36.805019,48.852599],[36.805338,48.852735]]]}},{"type":"Feature","properties":{"cadnum":"6320481501:00:000:0046"},"geometry":{"type":"Polygon","coordinates":[[[36.805141,48.85106],[36.805528,48.850788],[36.80564,48.850851],[36.805735,48.85091],[36.805892,48.850804],[36.805833,48.850768],[36.805921,48.850699],[36.805967,48.850662],[36.806113,48.850549],[36.805949,48.850458],[36.80574,48.850385],[36.805733,48.850393],[36.805723,48.850399],[36.805563,48.850502],[36.805459,48.850579],[36.805417,48.850606],[36.805062,48.850857],[36.80495,48.850949],[36.805141,48.85106]]]}},{"type":"Feature","properties":{"cadnum":"6320481501:00:000:0045"},"geometry":{"type":"Polygon","coordinates":[[[36.80554,48.835535],[36.805334,48.835417],[36.80503743249428,48.835741],[36.805037,48.835741],[36.80495637762154,48.83582955244847],[36.804934,48.835854],[36.804934119402986,48.835854],[36.804793,48.836009],[36.804701,48.836132],[36.804604,48.83625],[36.804576,48.836287],[36.80478,48.836353],[36.804875,48.836246],[36.804933,48.836176],[36.804952,48.836154],[36.804984,48.836114],[36.805342,48.835741],[36.8053417492163,48.835741],[36.80554,48.835535]]]}},{"type":"Feature","properties":{"cadnum":"6320481501:00:000:0042"},"geometry":{"type":"Polygon","coordinates":[[[36.810894,48.855252],[36.810964,48.855157],[36.811024,48.855069],[36.811029,48.85507],[36.811119,48.854932],[36.811217,48.854795],[36.810811,48.85466],[36.810655,48.854879],[36.810624,48.854946],[36.810634,48.854948],[36.810516,48.85512],[36.810667,48.855176],[36.810741,48.855202],[36.810792,48.855219],[36.810894,48.855252]]]}}]}