{"type":"FeatureCollection","features":[{"type":"Feature","properties":{"cadnum":"6320485001:00:000:0063"},"geometry":{"type":"Polygon","coordinates":[[[36.769941,49.077121],[36.768495,49.07705],[36.768472,49.077319],[36.76846447263682,49.077408],[36.768464,49.077408],[36.768429,49.077825],[36.769875,49.077897],[36.76990583844581,49.07752],[36.769906,49.07752],[36.769941,49.077121]]]}},{"type":"Feature","properties":{"cadnum":"6320485001:00:000:0024"},"geometry":{"type":"Polygon","coordinates":[[[36.766978,49.076111],[36.766988,49.076067],[36.766921,49.07606],[36.766911,49.076104],[36.766978,49.076111]]]}},{"type":"Feature","properties":{"cadnum":"6320485001:00:000:0025"},"geometry":{"type":"Polygon","coordinates":[[[36.768907,49.076345],[36.768936,49.076102],[36.768346,49.076054],[36.768166,49.076045],[36.767855,49.076016],[36.767769,49.076016],[36.767761,49.076016],[36.767744,49.07623],[36.767741,49.076262],[36.767753,49.076279],[36.767751,49.076309],[36.767831,49.076311],[36.768207,49.076304],[36.768907,49.076345]]]}},{"type":"Feature","properties":{"cadnum":"6320485001:01:000:0007"},"geometry":{"type":"Polygon","coordinates":[[[36.770999,49.076712],[36.770956,49.077],[36.771154,49.07701123783784],[36.771154,49.077012],[36.771475,49.077029],[36.772054,49.077054],[36.772073,49.076819],[36.772076,49.076774],[36.771934,49.076771],[36.771899,49.07677],[36.771656,49.076756],[36.771559,49.07675],[36.771506,49.076747],[36.77119941935526,49.07672609677422],[36.770999,49.076712]]]}},{"type":"Feature","properties":{"cadnum":"6320485001:00:000:0039"},"geometry":{"type":"Polygon","coordinates":[[[36.767276,49.076801],[36.767348,49.0764],[36.766733,49.076347],[36.766713,49.076465],[36.766691,49.076588],[36.766752,49.076592],[36.76676,49.076593],[36.766757,49.076606],[36.766738,49.076709],[36.766734,49.076725],[36.76677,49.07673],[36.766894,49.076747],[36.767276,49.076801]]]}},{"type":"Feature","properties":{"cadnum":"6320485001:01:000:0014"},"geometry":{"type":"Polygon","coordinates":[[[36.771326,49.075291],[36.770669,49.075239],[36.770598,49.075532],[36.771180400002336,49.075592800000244],[36.771352,49.075611],[36.771428,49.075299],[36.771326,49.07529118248175],[36.771326,49.075291]]]}},{"type":"Feature","properties":{"cadnum":"6320485001:01:000:0008"},"geometry":{"type":"Polygon","coordinates":[[[36.770956,49.077],[36.770999,49.076712],[36.77012,49.076653],[36.770095,49.076956],[36.770956,49.077]]]}},{"type":"Feature","properties":{"cadnum":"6320485001:00:000:0026"},"geometry":{"type":"Polygon","coordinates":[[[36.769741,49.076387],[36.769773,49.076164],[36.769333,49.076133],[36.768936,49.076102],[36.768907,49.076345],[36.769302,49.076368],[36.769741,49.076387]]]}},{"type":"Feature","properties":{"cadnum":"6320485001:00:000:0037"},"geometry":{"type":"Polygon","coordinates":[[[36.767436,49.075936],[36.767456,49.075819],[36.767409,49.075816],[36.7673,49.075808],[36.76722,49.075802],[36.767222,49.075794],[36.767149,49.075787],[36.767116,49.075785],[36.7671,49.075895],[36.767099,49.075907],[36.767319,49.075925],[36.767436,49.075936]]]}},{"type":"Feature","properties":{"cadnum":"6320485001:00:000:0038"},"geometry":{"type":"Polygon","coordinates":[[[36.765833,49.0761124097561],[36.766292,49.076196],[36.766436,49.075853],[36.766448,49.075824],[36.766196,49.075778],[36.76616,49.075771],[36.765834,49.075712],[36.765828,49.075727],[36.765809,49.075771],[36.765677,49.076084],[36.765833,49.076113],[36.765833,49.0761124097561]]]}},{"type":"Feature","properties":{"cadnum":"6320485001:00:000:0014"},"geometry":{"type":"Polygon","coordinates":[[[36.778769,49.084604],[36.778769,49.084366],[36.778261,49.084365],[36.77826031908832,49.084604],[36.77826,49.084604],[36.77826,49.084716],[36.77826,49.08497],[36.778769,49.08497],[36.778769,49.084716],[36.778769,49.084604]]]}},{"type":"Feature","properties":{"cadnum":"6320485001:00:000:0029"},"geometry":{"type":"Polygon","coordinates":[[[36.779709,49.086254],[36.78023,49.086051],[36.780239,49.085656],[36.779716,49.085655],[36.779709,49.086254]]]}},{"type":"Feature","properties":{"cadnum":"6320485001:00:000:0044"},"geometry":{"type":"Polygon","coordinates":[[[36.776819,49.08451703448276],[36.776819,49.084517],[36.776322,49.084521],[36.77631518974359,49.084604],[36.776315,49.084604],[36.77630950967737,49.084673225807094],[36.776306,49.084716],[36.776306117241376,49.084716],[36.776292,49.084894],[36.776285,49.08504],[36.776648,49.08503728089888],[36.776648,49.085038],[36.776799254018314,49.085036147909975],[36.776819,49.085036],[36.776819,49.08503590612245],[36.776893,49.085035],[36.77689,49.084722],[36.776901,49.084604],[36.77690064,49.084604],[36.776909,49.084516],[36.776819,49.08451703448276]]]}},{"type":"Feature","properties":{"cadnum":"6320485001:00:000:0091"},"geometry":{"type":"Polygon","coordinates":[[[36.777263,49.084253],[36.776935,49.084256],[36.776909,49.084516],[36.77689,49.084716],[36.776890559322034,49.084716],[36.77689,49.084722],[36.776893,49.085035],[36.777333,49.085032],[36.777294,49.084604],[36.777293323974085,49.084604],[36.777263,49.084253]]]}},{"type":"Feature","properties":{"cadnum":"6320485001:00:000:0028"},"geometry":{"type":"Polygon","coordinates":[[[36.780239,49.085656],[36.780246,49.085334],[36.780235,49.085183],[36.78014,49.085056],[36.779716,49.085056],[36.779708,49.085155],[36.779721,49.085198],[36.779716,49.085655],[36.780239,49.085656]]]}},{"type":"Feature","properties":{"cadnum":"6320485001:00:000:0090"},"geometry":{"type":"Polygon","coordinates":[[[36.779457,49.084327],[36.779015,49.084326],[36.779004,49.084466],[36.778952,49.084532],[36.77894886956522,49.084604],[36.778948,49.084604],[36.778935,49.08496],[36.779444,49.084951],[36.77944825095055,49.0847051533595],[36.779457,49.084327]]]}},{"type":"Feature","properties":{"cadnum":"6320485001:00:000:0015"},"geometry":{"type":"Polygon","coordinates":[[[36.778769,49.084366],[36.778771,49.083912],[36.778262,49.083948],[36.778261,49.084365],[36.778769,49.084366]]]}},{"type":"Feature","properties":{"cadnum":"6320485001:00:000:0050"},"geometry":{"type":"Polygon","coordinates":[[[36.77669,49.081994],[36.776585,49.08199],[36.776528,49.081986],[36.776501,49.082181],[36.776648,49.08218146226415],[36.776648,49.082182],[36.777141,49.082183],[36.778341,49.082193],[36.778353,49.082053],[36.777122,49.082004],[36.776803,49.081999],[36.77669,49.081994]]]}},{"type":"Feature","properties":{"cadnum":"6320485001:00:000:0045"},"geometry":{"type":"Polygon","coordinates":[[[36.776909,49.084516],[36.776998,49.083576],[36.776689,49.083588],[36.776695,49.083601],[36.776668,49.083606],[36.776661,49.083589],[36.776648,49.083589],[36.776648,49.08358933955224],[36.776393,49.083596],[36.776336,49.084328],[36.776322,49.084521],[36.776648,49.08451837625754],[36.776648,49.084519],[36.776909,49.084516]],[[36.776516,49.083907],[36.776538,49.083896],[36.776555,49.08391],[36.776534,49.083921],[36.776516,49.083907]]]}},{"type":"Feature","properties":{"cadnum":"6320485001:00:000:0078"},"geometry":{"type":"Polygon","coordinates":[[[36.778632,49.081047],[36.77714,49.081018],[36.777136,49.081119],[36.77713608802817,49.081119],[36.777118,49.081586],[36.778611,49.081648],[36.77862948419301,49.081119],[36.77863,49.081119],[36.778632,49.081047]]]}},{"type":"Feature","properties":{"cadnum":"6320485001:00:000:0093"},"geometry":{"type":"Polygon","coordinates":[[[36.776935,49.084256],[36.777263,49.084253],[36.777271,49.083913],[36.777279,49.083625],[36.777279,49.083564],[36.777152,49.083569],[36.777167,49.083581],[36.777145,49.083592],[36.777128,49.083578],[36.777144,49.083569],[36.776998,49.083576],[36.77698,49.083786],[36.776935,49.084256]]]}},{"type":"Feature","properties":{"cadnum":"6320485001:00:000:0013"},"geometry":{"type":"Polygon","coordinates":[[[36.776713,49.081009],[36.776589,49.081005],[36.77658897368421,49.081006],[36.776587,49.081006],[36.776579,49.081429],[36.776576,49.081457],[36.776576,49.081466],[36.776567,49.081561],[36.776634,49.081565],[36.776648,49.0815654516129],[36.776648,49.081566],[36.776758,49.081569],[36.776819,49.081574],[36.776819,49.081573815789476],[36.776834,49.081575],[36.776857,49.081577],[36.776914,49.08158],[36.776959,49.081581],[36.776975,49.081582],[36.777118,49.081586],[36.77714,49.081018],[36.77689,49.081016],[36.776819,49.081013192090396],[36.776819,49.081013],[36.776713,49.081009]]]}},{"type":"Feature","properties":{"cadnum":"6320485001:00:000:0088"},"geometry":{"type":"Polygon","coordinates":[[[36.776819,49.08264367811159],[36.777114,49.082669],[36.777134,49.08267],[36.777156,49.082183],[36.777141,49.082183],[36.776819,49.08218234685599],[36.776819,49.082182],[36.776501,49.082181],[36.776496,49.082239],[36.776495,49.08225],[36.776484,49.082362],[36.77648,49.082399],[36.776473,49.082443],[36.776453,49.082613],[36.776819,49.082644],[36.776819,49.08264367811159]]]}},{"type":"Feature","properties":{"cadnum":"6320485001:00:000:0073"},"geometry":{"type":"Polygon","coordinates":[[[36.761321,49.072574],[36.761592,49.071481],[36.761126,49.071425],[36.7609,49.072513],[36.761321,49.072574]]]}},{"type":"Feature","properties":{"cadnum":"6320485001:00:000:0068"},"geometry":{"type":"Polygon","coordinates":[[[36.761234,49.070186],[36.76122403623189,49.070211],[36.761224,49.070211],[36.76122156281393,49.07021720603051],[36.761179,49.070324],[36.76117962348178,49.070324],[36.760836,49.071199],[36.763013,49.071626],[36.763411,49.070522],[36.762644,49.070399],[36.76158287699052,49.07023902315495],[36.761234,49.070186]]]}},{"type":"Feature","properties":{"cadnum":"6320485001:00:000:0060"},"geometry":{"type":"Polygon","coordinates":[[[36.759303,49.069896],[36.758779,49.06981],[36.75863155058366,49.070211],[36.75863,49.070211],[36.758535,49.070474],[36.758686,49.070781],[36.76034,49.071104],[36.76034,49.07110321556886],[36.760836,49.071199],[36.76122156281393,49.07021720603051],[36.761234,49.070186],[36.76024134282381,49.070037939501866],[36.759888,49.069984],[36.759303,49.069896]],[[36.759791,49.070341],[36.759818,49.070345],[36.759813,49.070362],[36.759786,49.070359],[36.759791,49.070341]],[[36.759632,49.070879],[36.759658,49.070882],[36.759653,49.0709],[36.759626,49.070896],[36.759632,49.070879]]]}},{"type":"Feature","properties":{"cadnum":"6320485001:00:000:0062"},"geometry":{"type":"Polygon","coordinates":[[[36.764469,49.07311],[36.764946,49.071517],[36.76425,49.071442],[36.764462,49.070691],[36.763411,49.070522],[36.763013,49.071626],[36.764043,49.071781],[36.7638,49.07303],[36.764469,49.07311]]]}},{"type":"Feature","properties":{"cadnum":"6320485001:00:000:0085"},"geometry":{"type":"Polygon","coordinates":[[[36.761119,49.073363],[36.760675,49.073252],[36.760565898507465,49.07381],[36.760565,49.07381],[36.760464,49.074326],[36.760907,49.074451],[36.761032,49.07381],[36.76103103935599,49.07381],[36.761119,49.073363]]]}},{"type":"Feature","properties":{"cadnum":"6320485001:00:000:0080"},"geometry":{"type":"Polygon","coordinates":[[[36.762223,49.072651],[36.76242,49.071644],[36.761592,49.071481],[36.761321,49.072574],[36.761828,49.072617],[36.762223,49.072651]]]}},{"type":"Feature","properties":{"cadnum":"6320485001:00:000:0069"},"geometry":{"type":"Polygon","coordinates":[[[36.765833,49.072849],[36.765833,49.07284767179487],[36.765876,49.072619],[36.766045,49.071727],[36.765806,49.071702],[36.765836,49.071611],[36.765734037190505,49.071600512396735],[36.764946,49.071517],[36.764469,49.07311],[36.76439,49.073468],[36.765681,49.073656],[36.765833,49.072849]],[[36.765767,49.072674],[36.765769,49.072656],[36.765797,49.072658],[36.765794,49.072675],[36.765767,49.072674]],[[36.765676,49.073247],[36.765677,49.07323],[36.765705,49.073231],[36.765703,49.073249],[36.765676,49.073247]],[[36.765888,49.071842],[36.765891,49.071823],[36.765917,49.071825],[36.765915,49.071843],[36.765888,49.071842]],[[36.765846,49.072137],[36.765849,49.072118],[36.765876,49.07212],[36.765874,49.072138],[36.765846,49.072137]]]}},{"type":"Feature","properties":{"cadnum":"6320485001:00:000:0070"},"geometry":{"type":"Polygon","coordinates":[[[36.772899,49.077416],[36.772333,49.077392],[36.77232742857147,49.0774633142852],[36.772302,49.077771],[36.772957,49.077798],[36.772937,49.078038],[36.772933,49.078062],[36.772909,49.078278],[36.774281,49.078351],[36.774475,49.07749],[36.772899,49.077416]]]}},{"type":"Feature","properties":{"cadnum":"6320485001:01:000:0013"},"geometry":{"type":"Polygon","coordinates":[[[36.772171,49.075755],[36.772209,49.075372],[36.771907,49.075335],[36.771655,49.075316],[36.771428,49.075299],[36.771352,49.075611],[36.7716,49.075637],[36.771584,49.075729],[36.772171,49.075755]]]}},{"type":"Feature","properties":{"cadnum":"6320485001:00:000:0065"},"geometry":{"type":"Polygon","coordinates":[[[36.774506,49.077181],[36.774504,49.07681],[36.774386,49.076598],[36.774376,49.076534],[36.773247,49.076492],[36.77302,49.076472],[36.773016,49.076789],[36.773012,49.077101],[36.774506,49.077181]]]}},{"type":"Feature","properties":{"cadnum":"6320485001:00:000:0066"},"geometry":{"type":"Polygon","coordinates":[[[36.771326,49.07870901754386],[36.771525,49.078716],[36.771849,49.07873],[36.771896,49.078413],[36.771545,49.078408],[36.771326,49.07838615601023],[36.771326,49.078386],[36.770761,49.078329],[36.770728,49.078556],[36.771154,49.07859674782609],[36.771154,49.078597],[36.771303,49.078611],[36.771297,49.078708],[36.771326,49.07871],[36.771326,49.07870901754386]]]}},{"type":"Feature","properties":{"cadnum":"6320485001:00:000:0071"},"geometry":{"type":"Polygon","coordinates":[[[36.771251,49.078929],[36.771297,49.078708],[36.771303,49.078611],[36.770728,49.078556],[36.770761,49.078329],[36.769888,49.078264],[36.769883,49.07849],[36.769829,49.078885],[36.771154,49.07896158959537],[36.771154,49.078962],[36.771213,49.078965],[36.771251,49.078929]]]}},{"type":"Feature","properties":{"cadnum":"6320485001:01:000:0004"},"geometry":{"type":"Polygon","coordinates":[[[36.767334,49.078058],[36.767355,49.077941],[36.767232,49.077932],[36.767114,49.077922],[36.766977,49.077911],[36.766955,49.078028],[36.767334,49.078058]]]}},{"type":"Feature","properties":{"cadnum":"6320485001:01:000:0010"},"geometry":{"type":"Polygon","coordinates":[[[36.769636,49.078537],[36.769678,49.078253],[36.768828,49.078227],[36.768794,49.078493],[36.769636,49.078537]]]}},{"type":"Feature","properties":{"cadnum":"6320485001:00:000:0017"},"geometry":{"type":"Polygon","coordinates":[[[36.769427,49.078245],[36.769444,49.077955],[36.768581,49.077913],[36.768562,49.078219],[36.768828,49.078227],[36.769427,49.078245]]]}},{"type":"Feature","properties":{"cadnum":"6320485001:00:000:0057"},"geometry":{"type":"Polygon","coordinates":[[[36.771073,49.079768],[36.771129,49.079251],[36.769772,49.07916],[36.769635,49.079687],[36.771073,49.079768]]]}},{"type":"Feature","properties":{"cadnum":"6320485001:00:000:0027"},"geometry":{"type":"Polygon","coordinates":[[[36.768656,49.079205],[36.768681,49.078943],[36.767507,49.078856],[36.767499,49.078935],[36.767496,49.078969],[36.767481,49.079113],[36.768656,49.079205]]]}},{"type":"Feature","properties":{"cadnum":"6320485001:01:000:0009"},"geometry":{"type":"Polygon","coordinates":[[[36.768794,49.078493],[36.768828,49.078227],[36.768279,49.07821],[36.767587,49.078189],[36.767563,49.078409],[36.768216,49.078463],[36.768229,49.078464],[36.768794,49.078493]]]}},{"type":"Feature","properties":{"cadnum":"6320485001:00:000:0016"},"geometry":{"type":"Polygon","coordinates":[[[36.768562,49.078219],[36.768581,49.077913],[36.767607,49.077866],[36.767587,49.078189],[36.768279,49.07821],[36.768562,49.078219]]]}},{"type":"Feature","properties":{"cadnum":"6320485001:00:000:0076"},"geometry":{"type":"Polygon","coordinates":[[[36.779159,49.091459],[36.779092,49.09129],[36.778914,49.091079],[36.778577,49.090889],[36.778481,49.090684],[36.778394,49.09051],[36.778425,49.090139],[36.77794,49.09028],[36.778213,49.090651],[36.778013,49.090718],[36.77829,49.091191],[36.77734,49.091521],[36.777121,49.091597],[36.777105,49.091578],[36.777014,49.09161],[36.776772,49.091695],[36.77687070370371,49.091799],[36.77687,49.091799],[36.77692428571424,49.091855457142806],[36.776977,49.091911],[36.776977692307696,49.091911],[36.776995,49.091929],[36.777124,49.09188],[36.7786,49.091315],[36.778907,49.091656],[36.779147576470585,49.091799],[36.779147,49.091799],[36.780201,49.092425],[36.780059,49.093209],[36.780889,49.094168],[36.780985,49.094699],[36.780761,49.095114],[36.780381,49.095258],[36.780122,49.095356],[36.78015910526315,49.095396],[36.780159,49.095396],[36.780499,49.095764],[36.781643,49.095396],[36.781642015290515,49.095396],[36.782141,49.09523587438665],[36.782141,49.095236],[36.78221586792766,49.095211849055595],[36.782312,49.095181],[36.782312,49.09518083870968],[36.782389,49.095156],[36.782632,49.095081],[36.782751,49.095042],[36.782183376599086,49.094324561242445],[36.782046,49.09415],[36.781451,49.094146],[36.781191,49.094074],[36.780908,49.093856],[36.780612,49.093526],[36.780368,49.093179],[36.780412,49.092696],[36.780493,49.092299],[36.78027,49.092033],[36.77988587452437,49.09183280988575],[36.779665,49.091717],[36.779159,49.091459]]]}},{"type":"Feature","properties":{"cadnum":"6320485001:00:000:0033"},"geometry":{"type":"Polygon","coordinates":[[[36.748715,49.069376],[36.74886,49.06906],[36.74899,49.068729],[36.748555,49.068651],[36.74839,49.069038],[36.748271,49.069296],[36.748715,49.069376]]]}},{"type":"Feature","properties":{"cadnum":"6320485001:00:000:0034"},"geometry":{"type":"Polygon","coordinates":[[[36.749324,49.067884],[36.748919,49.067801],[36.748555,49.068651],[36.74899,49.068729],[36.749182,49.06824325149701],[36.749182,49.068244],[36.749324,49.067884]]]}},{"type":"Feature","properties":{"cadnum":"6320485001:00:000:0052"},"geometry":{"type":"Polygon","coordinates":[[[36.772799,49.089995],[36.773072,49.089882],[36.772707,49.089656],[36.772942,49.089233],[36.772784,49.08917],[36.771825,49.088723],[36.771589,49.088956],[36.771883,49.08925],[36.772799,49.089995]]]}},{"type":"Feature","properties":{"cadnum":"6320485001:00:000:0019"},"geometry":{"type":"Polygon","coordinates":[[[36.774739,49.089317],[36.774873,49.089211],[36.77503,49.089304],[36.775124,49.089236],[36.774731,49.089016],[36.774517,49.089211],[36.774739,49.089317]]]}},{"type":"Feature","properties":{"cadnum":"6320485001:01:000:0003"},"geometry":{"type":"Polygon","coordinates":[[[36.774318,49.091669],[36.775026,49.091351],[36.774715,49.091064],[36.773979,49.091399],[36.774318,49.091669]]]}},{"type":"Feature","properties":{"cadnum":"6320485001:00:000:0082"},"geometry":{"type":"Polygon","coordinates":[[[36.774429,49.091748],[36.774528102272726,49.091799],[36.774527,49.091799],[36.7746,49.091836],[36.774859,49.091721],[36.775113,49.091621],[36.775335,49.091516],[36.775577,49.091362],[36.775623,49.091287],[36.775494,49.091142],[36.775026,49.091351],[36.774318,49.091669],[36.77423521698113,49.091799],[36.774235,49.091799],[36.774183,49.091881],[36.774213,49.091911],[36.77421446341464,49.091911],[36.774226,49.091922],[36.77433869021737,49.09182507065219],[36.774429,49.091748]]]}},{"type":"Feature","properties":{"cadnum":"6320485001:00:000:0018"},"geometry":{"type":"Polygon","coordinates":[[[36.775357,49.088583],[36.775435,49.088521],[36.775367,49.088487],[36.775323,49.088457],[36.775234,49.088541],[36.775294,49.088551],[36.775357,49.088583]]]}},{"type":"Feature","properties":{"cadnum":"6320485001:00:000:0046"},"geometry":{"type":"Polygon","coordinates":[[[36.777014,49.09161],[36.777105,49.091578],[36.777121,49.091597],[36.77734,49.091521],[36.77694,49.091087],[36.77683,49.091124],[36.776684,49.091177],[36.776387,49.091283],[36.776467,49.091367],[36.776593,49.091501],[36.776648,49.09156091071429],[36.776648,49.091561],[36.776649,49.091562],[36.776748,49.091667],[36.776772,49.091695],[36.776819,49.091679],[36.776819,49.091678491735536],[36.777014,49.09161]]]}},{"type":"Feature","properties":{"cadnum":"6320485001:00:000:0058"},"geometry":{"type":"Polygon","coordinates":[[[36.776684,49.091177],[36.776819,49.091129],[36.776819,49.091127993150685],[36.77683,49.091124],[36.77694,49.091087],[36.777015,49.09106],[36.776744,49.090726],[36.776535,49.090804],[36.776096,49.090981],[36.776387,49.091283],[36.776648,49.09118984848485],[36.776648,49.09119],[36.776684,49.091177]]]}},{"type":"Feature","properties":{"cadnum":"6320485001:00:000:0084"},"geometry":{"type":"Polygon","coordinates":[[[36.777694,49.090106],[36.778317,49.089853],[36.778197,49.088456],[36.777908,49.088459],[36.777464,49.088459],[36.77699,49.088871],[36.777533,49.089307],[36.776819,49.089823042654025],[36.776819,49.089823],[36.776689,49.089917],[36.776819,49.090018],[36.776819,49.09001757613169],[36.776932,49.090105],[36.777188,49.090312],[36.777694,49.090106]]]}},{"type":"Feature","properties":{"cadnum":"6320485001:00:000:0079"},"geometry":{"type":"Polygon","coordinates":[[[36.777188,49.090312],[36.776932,49.090105],[36.776648,49.090252],[36.776648,49.09025209090909],[36.776225,49.09047],[36.776173,49.090494],[36.776137,49.09051],[36.776075,49.090528],[36.776029,49.090547],[36.776028,49.090549],[36.775969,49.090574],[36.775872,49.090611],[36.775785,49.090647],[36.775789,49.090651],[36.775821,49.090679],[36.775923,49.090794],[36.775935,49.090804],[36.776099,49.09074],[36.776157,49.090719],[36.776201,49.090712],[36.776252,49.09069],[36.776287,49.090679],[36.776299,49.090673],[36.776421,49.090614],[36.776819,49.090458],[36.776819,49.090457549999996],[36.777188,49.090312]]]}},{"type":"Feature","properties":{"cadnum":"6320485001:00:000:0089"},"geometry":{"type":"Polygon","coordinates":[[[36.774032,49.090581],[36.774656,49.090324],[36.774781,49.090281],[36.774812,49.090268],[36.774871,49.090248],[36.774959,49.090217],[36.77484,49.090087],[36.774824,49.09007],[36.774699,49.089919],[36.77455,49.089978],[36.774454,49.090082],[36.773821,49.090371],[36.774032,49.090581]]]}},{"type":"Feature","properties":{"cadnum":"6320485001:00:000:0086"},"geometry":{"type":"Polygon","coordinates":[[[36.775387979381435,49.091911],[36.775178,49.091987],[36.775048,49.091846],[36.77469,49.09196],[36.774553,49.091924],[36.774291,49.091982],[36.774448,49.092126],[36.773995,49.092299],[36.774327,49.092661],[36.774724,49.092529],[36.775673,49.092155],[36.775446,49.09189],[36.775387,49.091911],[36.775387979381435,49.091911]]]}},{"type":"Feature","properties":{"cadnum":"6320485001:01:000:0002"},"geometry":{"type":"Polygon","coordinates":[[[36.775026,49.091351],[36.775506,49.091136],[36.775733,49.091034],[36.775434,49.090735],[36.775196,49.090843],[36.774715,49.091064],[36.775026,49.091351]]]}},{"type":"Feature","properties":{"cadnum":"6320485001:00:000:0067"},"geometry":{"type":"Polygon","coordinates":[[[36.773072,49.089882],[36.773119,49.089847],[36.773198,49.0898],[36.77361,49.089529],[36.773355,49.089378],[36.773315,49.089393],[36.772942,49.089233],[36.772707,49.089656],[36.773072,49.089882]]]}},{"type":"Feature","properties":{"cadnum":"6320485001:00:000:0049"},"geometry":{"type":"Polygon","coordinates":[[[36.774318,49.091669],[36.773979,49.091399],[36.774566,49.091131],[36.773784,49.090368],[36.7744,49.090097],[36.774504,49.089938],[36.774653,49.089877],[36.774555,49.089771],[36.772335,49.090702],[36.773165,49.0915],[36.773591,49.091911],[36.77359148,49.091911],[36.773995,49.092299],[36.774448,49.092126],[36.774183,49.091881],[36.774318,49.091669]]]}},{"type":"Feature","properties":{"cadnum":"6320485001:00:000:0059"},"geometry":{"type":"Polygon","coordinates":[[[36.777015,49.09106],[36.778013,49.090718],[36.778213,49.090651],[36.77794,49.09028],[36.776744,49.090726],[36.777015,49.09106]]]}},{"type":"Feature","properties":{"cadnum":"6320485001:00:000:0047"},"geometry":{"type":"Polygon","coordinates":[[[36.77734,49.091521],[36.77829,49.091191],[36.778013,49.090718],[36.77694,49.091087],[36.77734,49.091521]]]}},{"type":"Feature","properties":{"cadnum":"6320485001:00:000:0048"},"geometry":{"type":"Polygon","coordinates":[[[36.778907,49.091656],[36.7786,49.091315],[36.777335603539825,49.091799],[36.777334,49.091799],[36.777124,49.09188],[36.777153,49.091911],[36.77715388410887,49.091911],[36.778222,49.093019],[36.77932,49.094159],[36.780381,49.095258],[36.780761,49.095114],[36.780985,49.094699],[36.780889,49.094168],[36.780059,49.093209],[36.780201,49.092425],[36.77933557507988,49.091911],[36.779336,49.091911],[36.778907,49.091656]]]}},{"type":"Feature","properties":{"cadnum":"6320485001:00:000:0061"},"geometry":{"type":"Polygon","coordinates":[[[36.754847,49.070143],[36.754847,49.0701406375],[36.755301,49.069139],[36.754675,49.068999],[36.754675,49.06899928413284],[36.754034,49.068855],[36.753418,49.068709],[36.75311,49.069597],[36.753629,49.069684],[36.753518,49.069975],[36.754821,49.070198],[36.754847,49.070143]]]}},{"type":"Feature","properties":{"cadnum":"6320485001:00:000:0077"},"geometry":{"type":"Polygon","coordinates":[[[36.758319,49.069734],[36.756975,49.069513],[36.756507,49.069409],[36.755738,49.069237],[36.755305,49.070252],[36.755606,49.070324],[36.75560975247524,49.070324],[36.75616,49.070454],[36.756551,49.070548],[36.756607,49.070428],[36.756908,49.070497],[36.75701838235428,49.07026988235018],[36.75707,49.070164],[36.75728714728683,49.070211],[36.757286,49.070211],[36.757666,49.070293],[36.757652,49.070324],[36.75765293137255,49.070324],[36.757537,49.070599],[36.75781,49.070664],[36.757959,49.070393],[36.75799615384616,49.070324],[36.757997,49.070324],[36.758319,49.069734]]]}},{"type":"Feature","properties":{"cadnum":"6320485001:00:000:0083"},"geometry":{"type":"Polygon","coordinates":[[[36.775239,49.086714],[36.775316,49.086493],[36.774326,49.08634],[36.774282,49.086582],[36.775239,49.086714]]]}},{"type":"Feature","properties":{"cadnum":"6320485001:00:000:0094"},"geometry":{"type":"Polygon","coordinates":[[[36.771326,49.08711033],[36.771613,49.087228],[36.771681,49.087259],[36.772198,49.087498],[36.772243,49.087519],[36.772611,49.087685],[36.773009,49.08719],[36.772713,49.087078],[36.772571,49.087026],[36.772482,49.087153],[36.771952,49.086992],[36.771652,49.086902],[36.771326,49.08679202409638],[36.771326,49.086792],[36.77107,49.086705],[36.770949,49.086804],[36.771154,49.08700589393939],[36.771154,49.087006],[36.771213,49.087064],[36.771326,49.087111],[36.771326,49.08711033]]]}},{"type":"Feature","properties":{"cadnum":"6320485001:00:000:0081"},"geometry":{"type":"Polygon","coordinates":[[[36.771326,49.0876549146165],[36.771845,49.087887],[36.772243,49.087519],[36.771613,49.087228],[36.771154,49.08704],[36.771154,49.08704053781513],[36.77085,49.086916],[36.770468,49.087271],[36.771326,49.087655],[36.771326,49.0876549146165]],[[36.771606,49.087543],[36.771659,49.087496],[36.771838,49.087583],[36.771786,49.08763],[36.771606,49.087543]],[[36.771523,49.087307],[36.771542,49.087296],[36.771558,49.087307],[36.771539,49.08732],[36.771523,49.087307]]]}},{"type":"Feature","properties":{"cadnum":"6320485001:00:000:0092"},"geometry":{"type":"Polygon","coordinates":[[[36.775292,49.086381],[36.775384,49.086342],[36.775404,49.086254],[36.775266,49.086116],[36.774673,49.086026],[36.774791,49.08564],[36.774409,49.085589],[36.77435,49.085581],[36.774311,49.08567],[36.774181,49.08597],[36.774078,49.086202],[36.774222,49.086188],[36.775292,49.086381]]]}},{"type":"Feature","properties":{"cadnum":"6320485001:00:000:0074"},"geometry":{"type":"Polygon","coordinates":[[[36.778242,49.079829],[36.779225,49.07981],[36.779139,49.079502],[36.778147,49.079515],[36.777222,49.079546],[36.777146,49.079546],[36.777148,49.079818],[36.778242,49.079829]]]}},{"type":"Feature","properties":{"cadnum":"6320485001:00:000:0075"},"geometry":{"type":"Polygon","coordinates":[[[36.778972,49.079276],[36.778898,49.078882],[36.777534,49.078864],[36.777523,49.079266],[36.778972,49.079276]]]}},{"type":"Feature","properties":{"cadnum":"6320485001:00:000:0072"},"geometry":{"type":"Polygon","coordinates":[[[36.777236,49.079269],[36.777523,49.079266],[36.777534,49.078864],[36.776776,49.078858],[36.77674,49.079242],[36.777236,49.079269]]]}},{"type":"Feature","properties":{"cadnum":"6320485001:00:000:0036"},"geometry":{"type":"Polygon","coordinates":[[[36.773421,49.083476],[36.773484,49.082968],[36.773528,49.082641],[36.773154,49.082632],[36.773118,49.082951],[36.773106,49.083051],[36.773048,49.083457],[36.773421,49.083476]]]}},{"type":"Feature","properties":{"cadnum":"6320485001:00:000:0043"},"geometry":{"type":"Polygon","coordinates":[[[36.77587,49.083171],[36.775894,49.08273],[36.775195,49.082703],[36.775175,49.083146],[36.77587,49.083171]]]}},{"type":"Feature","properties":{"cadnum":"6320485001:01:000:0005"},"geometry":{"type":"Polygon","coordinates":[[[36.773047,49.083474],[36.773106,49.083051],[36.773154,49.082632],[36.772783,49.082623],[36.772783,49.082633],[36.772776,49.082715],[36.772736,49.083049],[36.772691,49.083459],[36.773047,49.083474]]]}},{"type":"Feature","properties":{"cadnum":"6320485001:00:000:0055"},"geometry":{"type":"Polygon","coordinates":[[[36.772373,49.083303],[36.7724,49.08292],[36.772428,49.082603],[36.77201,49.082589],[36.771907,49.083279],[36.772373,49.083303]]]}},{"type":"Feature","properties":{"cadnum":"6320485001:01:000:0006"},"geometry":{"type":"Polygon","coordinates":[[[36.77299,49.083869],[36.773047,49.083474],[36.772691,49.083459],[36.77265,49.083838],[36.77299,49.083869]]]}},{"type":"Feature","properties":{"cadnum":"6320485001:00:000:0054"},"geometry":{"type":"Polygon","coordinates":[[[36.772337,49.083817],[36.772373,49.083303],[36.771907,49.083279],[36.771854,49.083627],[36.772337,49.083817]]]}},{"type":"Feature","properties":{"cadnum":"6320485001:00:000:0041"},"geometry":{"type":"Polygon","coordinates":[[[36.77269,49.080899],[36.772467,49.080871],[36.772403,49.080868],[36.772052,49.080875],[36.772021,49.080997],[36.772020000000005,49.081006],[36.772019,49.081006],[36.772013,49.081069],[36.772005,49.081119],[36.77200572030652,49.081119],[36.771975,49.08133],[36.772635,49.081358],[36.772677,49.081006],[36.77267686818182,49.081006],[36.77269,49.080899]]]}},{"type":"Feature","properties":{"cadnum":"6320485001:01:000:0012"},"geometry":{"type":"Polygon","coordinates":[[[36.774533,49.081618],[36.77451,49.081289],[36.77413,49.08128],[36.774149,49.081598],[36.774533,49.081618]]]}},{"type":"Feature","properties":{"cadnum":"6320485001:00:000:0040"},"geometry":{"type":"Polygon","coordinates":[[[36.773882,49.082497],[36.774201,49.082494],[36.774183,49.082159],[36.774149,49.081598],[36.774148,49.081564],[36.773807,49.08156],[36.773882,49.082497]]]}},{"type":"Feature","properties":{"cadnum":"6320485001:01:000:0011"},"geometry":{"type":"Polygon","coordinates":[[[36.774201,49.082494],[36.774522,49.082491],[36.774522,49.082157],[36.774521,49.08191],[36.774533,49.081618],[36.774149,49.081598],[36.774183,49.082159],[36.774201,49.082494]]]}},{"type":"Feature","properties":{"cadnum":"6320485001:00:000:0056"},"geometry":{"type":"Polygon","coordinates":[[[36.774793,49.083565],[36.774859,49.082694],[36.774517,49.082684],[36.774429,49.08355],[36.774793,49.083565]]]}},{"type":"Feature","properties":{"cadnum":"6320485001:00:000:0023"},"geometry":{"type":"Polygon","coordinates":[[[36.7502,49.071264],[36.750422,49.070722],[36.750033,49.070648],[36.74983,49.071187],[36.7502,49.071264]]]}},{"type":"Feature","properties":{"cadnum":"6320485001:00:000:0020"},"geometry":{"type":"Polygon","coordinates":[[[36.752171,49.073001],[36.752172,49.072997],[36.752438,49.072361],[36.751962,49.072279],[36.751852,49.072576],[36.751761,49.072916],[36.752171,49.073001]]]}},{"type":"Feature","properties":{"cadnum":"6320485001:00:000:0021"},"geometry":{"type":"Polygon","coordinates":[[[36.752438,49.072361],[36.752678,49.071783],[36.752182,49.07168],[36.751962,49.072279],[36.752438,49.072361]]]}},{"type":"Feature","properties":{"cadnum":"6320485001:00:000:0022"},"geometry":{"type":"Polygon","coordinates":[[[36.750717,49.070006],[36.750323,49.069929],[36.750206,49.070188],[36.750197375,49.070211],[36.750197,49.070211],[36.750033,49.070648],[36.750422,49.070722],[36.750633,49.070211],[36.750632550314464,49.070211],[36.750717,49.070006]]]}},{"type":"Feature","properties":{"cadnum":"6320485001:00:000:0248"},"geometry":{"type":"Polygon","coordinates":[[[36.753406,49.070264],[36.753629,49.069684],[36.75311,49.069597],[36.753063,49.069715],[36.75293,49.070169],[36.753406,49.070264]]]}},{"type":"Feature","properties":{"cadnum":"6320485001:00:000:0042"},"geometry":{"type":"Polygon","coordinates":[[[36.752066,49.070016],[36.752221,49.069668],[36.751432,49.069495],[36.751274,49.06986],[36.752066,49.070016]]]}},{"type":"Feature","properties":{"cadnum":"6320485001:00:000:0035"},"geometry":{"type":"Polygon","coordinates":[[[36.750744,49.069018],[36.751109,49.068246],[36.750708,49.068166],[36.750344,49.068928],[36.750744,49.069018]]]}},{"type":"Feature","properties":{"cadnum":"6320485001:00:000:0032"},"geometry":{"type":"Polygon","coordinates":[[[36.750418,49.069708],[36.750744,49.069018],[36.750344,49.068928],[36.750057,49.069531],[36.750049,49.069556],[36.75002,49.069629],[36.750418,49.069708]]]}},{"type":"Feature","properties":{"cadnum":"6320485001:00:000:1042"},"geometry":{"type":"Polygon","coordinates":[[[36.752852,49.069794],[36.753322,49.068687],[36.751463,49.068314],[36.750913,49.069606],[36.75089,49.069665],[36.751321,49.069751],[36.751432,49.069495],[36.752221,49.069668],[36.752852,49.069794]]]}},{"type":"Feature","properties":{"cadnum":"6320485001:00:000:0051"},"geometry":{"type":"Polygon","coordinates":[[[36.774112,49.079609],[36.774158,49.079125],[36.772787,49.079009],[36.772607,49.079392],[36.772714,49.07951],[36.773037,49.079559],[36.774112,49.079609]]]}},{"type":"Feature","properties":{"cadnum":"6320485001:00:000:0064"},"geometry":{"type":"Polygon","coordinates":[[[36.772909,49.078278],[36.772933,49.078062],[36.772937,49.078038],[36.772957,49.077798],[36.772302,49.077771],[36.772285,49.078012],[36.772261,49.078228],[36.772752,49.078269],[36.772909,49.078278]]]}},{"type":"Feature","properties":{"cadnum":"6320485001:00:000:0030"},"geometry":{"type":"Polygon","coordinates":[[[36.776471,49.078771],[36.776493,49.078538],[36.775989,49.078514],[36.775251,49.078458],[36.775219,49.078718],[36.775902,49.078752],[36.776114,49.078761],[36.776222,49.078765],[36.776471,49.078771]]]}},{"type":"Feature","properties":{"cadnum":"6320485001:00:000:0087"},"geometry":{"type":"Polygon","coordinates":[[[36.773413,49.07857],[36.773453,49.078307],[36.772909,49.078278],[36.772752,49.078269],[36.772261,49.078228],[36.772238,49.078477],[36.772843,49.078537],[36.773285,49.078562],[36.773413,49.07857]]]}},{"type":"Feature","properties":{"cadnum":"6320485001:00:000:0053"},"geometry":{"type":"Polygon","coordinates":[[[36.773229,49.078869],[36.773285,49.078562],[36.772843,49.078537],[36.772238,49.078477],[36.772203,49.078763],[36.772756,49.078824],[36.773229,49.078869]]]}},{"type":"Feature","properties":{"cadnum":"6320485001:00:000:0031"},"geometry":{"type":"Polygon","coordinates":[[[36.776436,49.078994],[36.776471,49.078771],[36.776222,49.078765],[36.776114,49.078761],[36.775902,49.078752],[36.775219,49.078718],[36.775034,49.078708],[36.775007,49.078915],[36.775958,49.078973],[36.776041,49.078973],[36.776436,49.078994]]]}}]}