{"type":"FeatureCollection","features":[{"type":"Feature","properties":{"cadnum":"6320481505:00:000:0017"},"geometry":{"type":"Polygon","coordinates":[[[36.79494,48.851261],[36.795385,48.850794],[36.794885,48.850615],[36.794459,48.851059],[36.79472,48.851169],[36.79494,48.851261]]]}},{"type":"Feature","properties":{"cadnum":"6320481505:00:000:0003"},"geometry":{"type":"Polygon","coordinates":[[[36.792377,48.850174],[36.792005,48.849998],[36.791815,48.850117],[36.791767,48.850149],[36.79168531764705,48.850202],[36.791685,48.850202],[36.791636,48.850234],[36.791798,48.850315],[36.791800475982534,48.850315],[36.792101,48.850463],[36.792234,48.850528],[36.792379,48.850596],[36.792721,48.850342],[36.792574722319806,48.85027113884004],[36.792377,48.850174]]]}},{"type":"Feature","properties":{"cadnum":"6320481505:00:000:0010"},"geometry":{"type":"Polygon","coordinates":[[[36.787806,48.851707],[36.787348,48.851448],[36.787165,48.851637],[36.787634,48.851903609958505],[36.787634,48.851904],[36.787647,48.851911],[36.787858,48.852027],[36.788078,48.852122],[36.788239,48.8522],[36.788456,48.852059],[36.788047,48.851844],[36.787806,48.85170745278451],[36.787806,48.851707]]]}},{"type":"Feature","properties":{"cadnum":"6320481505:00:000:0004"},"geometry":{"type":"Polygon","coordinates":[[[36.7928,48.850794],[36.793126,48.850539],[36.792721,48.850342],[36.792379,48.850596],[36.7928,48.850794]]]}},{"type":"Feature","properties":{"cadnum":"6320481505:00:000:0011"},"geometry":{"type":"Polygon","coordinates":[[[36.787165,48.851637],[36.787348,48.851448],[36.787156,48.851339],[36.786937,48.851507],[36.787165,48.851637]]]}}]}