{"type":"FeatureCollection","features":[{"type":"Feature","properties":{"cadnum":"6320682508:05:000:0008"},"geometry":{"type":"Polygon","coordinates":[[[36.590038,48.721095],[36.590052,48.721091],[36.590052,48.72109098780488],[36.59053,48.720954],[36.591055,48.720926],[36.591257,48.720965],[36.59185,48.721126],[36.591956,48.720954],[36.591564,48.72073],[36.591453,48.72048],[36.591381,48.720392],[36.590471,48.720592],[36.590548,48.720793],[36.58988,48.720904],[36.58988,48.72090449704142],[36.589714,48.720932],[36.589818,48.721142],[36.58988,48.72114292537314],[36.58988,48.721143],[36.589952,48.721144],[36.590038,48.721095]]]}},{"type":"Feature","properties":{"cadnum":"6320682508:05:000:0007"},"geometry":{"type":"Polygon","coordinates":[[[36.590728,48.719575],[36.59008,48.719783],[36.59013814468085,48.719905],[36.590137,48.719905],[36.590471,48.720592],[36.591381,48.720392],[36.591048,48.719995],[36.590728,48.719575]]]}},{"type":"Feature","properties":{"cadnum":"6320682508:05:000:0005"},"geometry":{"type":"Polygon","coordinates":[[[36.590884,48.712022],[36.58988,48.712522],[36.58988,48.71252222985075],[36.58961004216867,48.712656],[36.58961,48.712656],[36.58960241121523,48.712659781308275],[36.589382,48.712769],[36.58938321799308,48.712769],[36.58903,48.712945],[36.588511,48.71332],[36.588674,48.713512],[36.589809,48.712924],[36.58988,48.71288747736626],[36.58988,48.712888],[36.58999331137784,48.71282918962045],[36.590052,48.712799],[36.590052,48.71279872930649],[36.590327,48.712656],[36.59032629545454,48.712656],[36.590958,48.712329],[36.590884,48.712022]]]}},{"type":"Feature","properties":{"cadnum":"6320682508:05:000:0002"},"geometry":{"type":"Polygon","coordinates":[[[36.591059,48.711936],[36.590851,48.711654],[36.590643,48.711456],[36.590226,48.711129],[36.590052,48.711214224489794],[36.590052,48.711214],[36.589883,48.711297],[36.58988,48.711298],[36.58988,48.71129847190427],[36.587961,48.71224],[36.588201,48.712475],[36.588336,48.712406],[36.58988,48.711642187149096],[36.58988,48.711643],[36.589939,48.711613],[36.590041,48.711707],[36.588432,48.712501],[36.588244,48.712595],[36.588311100000006,48.712656],[36.58831,48.712656],[36.588409,48.712745],[36.588648,48.712656],[36.58864789473684,48.712656],[36.588715,48.712631],[36.588876,48.712656],[36.588936,48.712769],[36.58893621453287,48.712769],[36.58903,48.712945],[36.58960241121536,48.71265978130821],[36.590052,48.712437],[36.590052,48.71243634262948],[36.590884,48.712022],[36.591059,48.711936]]]}},{"type":"Feature","properties":{"cadnum":"6320682508:05:000:0003"},"geometry":{"type":"Polygon","coordinates":[[[36.587887,48.711995],[36.587989,48.711943],[36.589897,48.710981],[36.589494,48.710652],[36.588238,48.711277],[36.58796,48.711416],[36.588061,48.711534],[36.588088,48.711564],[36.588008,48.711606],[36.587674,48.711776],[36.587887,48.711995]]]}},{"type":"Feature","properties":{"cadnum":"6320682508:05:000:0004"},"geometry":{"type":"Polygon","coordinates":[[[36.586893,48.711689],[36.587399,48.711405],[36.587797,48.711215],[36.58796,48.711416],[36.588238,48.711277],[36.588575,48.711109],[36.588005,48.710613],[36.587612,48.710813],[36.587392,48.710971],[36.587074,48.711245],[36.586931,48.711394],[36.586876,48.711535],[36.586893,48.711689]]]}},{"type":"Feature","properties":{"cadnum":"6320682508:05:000:0006"},"geometry":{"type":"Polygon","coordinates":[[[36.588575,48.711109],[36.589494,48.710652],[36.589002,48.71018],[36.588873,48.710169],[36.588005,48.710613],[36.588575,48.711109]]]}}]}