{"type":"FeatureCollection","features":[{"type":"Feature","properties":{"cadnum":"6320684609:05:000:0001"},"geometry":{"type":"Polygon","coordinates":[[[36.595637,48.984591],[36.595653,48.984557],[36.595679,48.984502],[36.595373,48.984399],[36.595373,48.98439922083981],[36.594902,48.984241],[36.594861,48.984301],[36.594838,48.984333],[36.594613,48.984659],[36.594151,48.984533],[36.593691,48.98542],[36.594568,48.985601],[36.595168,48.985614],[36.595545,48.984794],[36.595545,48.98479207575758],[36.595637,48.984591]]]}},{"type":"Feature","properties":{"cadnum":"6320684609:05:000:0003"},"geometry":{"type":"Polygon","coordinates":[[[36.596717,48.981639],[36.597087,48.981297],[36.597699,48.981579],[36.598049,48.98132],[36.59669,48.980682],[36.595845,48.981277],[36.596717,48.981639]]]}},{"type":"Feature","properties":{"cadnum":"6320684609:05:000:0002"},"geometry":{"type":"Polygon","coordinates":[[[36.597294,48.981912],[36.597699,48.981579],[36.597087,48.981297],[36.596717,48.981639],[36.596811,48.981679],[36.597294,48.981912]]]}}]}