{"type":"FeatureCollection","features":[{"type":"Feature","properties":{"cadnum":"6320485003:00:000:0012"},"geometry":{"type":"Polygon","coordinates":[[[36.804285,49.113334147679325],[36.804285,49.113334],[36.80400835664337,49.113377],[36.804003,49.113377],[36.803365,49.113477],[36.803374,49.11349],[36.80337434893617,49.11349],[36.803534,49.113712],[36.804113,49.11360946071904],[36.804113,49.11361],[36.804674,49.11351],[36.804627306121645,49.11339057142651],[36.804587,49.113287],[36.804285,49.113334147679325]]]}},{"type":"Feature","properties":{"cadnum":"6320485003:00:000:0017"},"geometry":{"type":"Polygon","coordinates":[[[36.80727,49.103489],[36.808503,49.103264],[36.808459,49.103029],[36.807269,49.103222],[36.80727,49.103489]]]}},{"type":"Feature","properties":{"cadnum":"6320485003:00:000:0019"},"geometry":{"type":"Polygon","coordinates":[[[36.80535,49.113101],[36.805204,49.113132],[36.804744,49.113189],[36.804818325581394,49.113377],[36.804817,49.113377],[36.804929,49.113655],[36.805544,49.11357],[36.805510839378236,49.11349],[36.805511,49.11349],[36.80535,49.113101]]]}},{"type":"Feature","properties":{"cadnum":"6320485003:00:000:0013"},"geometry":{"type":"Polygon","coordinates":[[[36.809234,49.113315],[36.808519,49.113251],[36.808113,49.113207],[36.808088,49.113204],[36.808036254464284,49.113377],[36.808036,49.113377],[36.808021,49.113428],[36.808043,49.113433],[36.808328,49.11349],[36.80833071428572,49.11349],[36.808361,49.113496],[36.808947,49.113576],[36.809151,49.113604],[36.8091873289126,49.11347514588814],[36.809234,49.113315]]]}},{"type":"Feature","properties":{"cadnum":"6320485003:00:000:0014"},"geometry":{"type":"Polygon","coordinates":[[[36.804698,49.114593],[36.805091,49.11458],[36.805127,49.114579],[36.805067,49.11429],[36.805025,49.1141],[36.804886,49.113875],[36.804517,49.113987],[36.804416,49.114101],[36.804576,49.114169],[36.804581,49.114186],[36.804669,49.114489],[36.804698,49.114593]]]}},{"type":"Feature","properties":{"cadnum":"6320485003:00:000:0015"},"geometry":{"type":"Polygon","coordinates":[[[36.808021,49.113428],[36.807936,49.113714],[36.807952,49.113717],[36.808849,49.113937],[36.808947,49.113576],[36.808361,49.113496],[36.808043,49.113433],[36.808021,49.113428]]]}},{"type":"Feature","properties":{"cadnum":"6320485003:00:000:0007"},"geometry":{"type":"Polygon","coordinates":[[[36.810622,49.10006],[36.810714,49.099151],[36.809778,49.09922709756098],[36.809778,49.099227],[36.809576,49.099243],[36.808544,49.099379],[36.80848,49.099402],[36.808362,49.099495],[36.808194,49.099691],[36.808056,49.099805],[36.807926,49.099847],[36.807649,49.099871],[36.807599,49.099918],[36.807486,49.100248],[36.809607,49.10012122120418],[36.809607,49.100122],[36.810622,49.10006]]]}},{"type":"Feature","properties":{"cadnum":"6320485003:00:000:0005"},"geometry":{"type":"Polygon","coordinates":[[[36.810535,49.101482],[36.810557,49.100795],[36.809607,49.100852],[36.809607,49.10085216385542],[36.807288,49.10099],[36.807257,49.101126],[36.807201,49.101681],[36.807262,49.101718],[36.809607,49.101549301669316],[36.809607,49.10155],[36.810535,49.101482]]]}},{"type":"Feature","properties":{"cadnum":"6320485003:00:000:0006"},"geometry":{"type":"Polygon","coordinates":[[[36.810557,49.100795],[36.810569,49.100455],[36.810612,49.100159],[36.810622,49.10006],[36.809778,49.1001115546798],[36.809778,49.100111],[36.807486,49.100248],[36.807415,49.100455],[36.807288,49.10099],[36.809778,49.100842],[36.809778,49.10084174],[36.810557,49.100795]]]}},{"type":"Feature","properties":{"cadnum":"6320485003:00:000:0016"},"geometry":{"type":"Polygon","coordinates":[[[36.804402,49.108531],[36.804415,49.10853],[36.8044,49.108349],[36.804392,49.108255],[36.804113,49.108294],[36.804113,49.10829504473439],[36.803212,49.108421],[36.803282,49.108666],[36.804113,49.108565749750746],[36.804113,49.108567],[36.804402,49.108531]]]}},{"type":"Feature","properties":{"cadnum":"6320485003:00:000:0010"},"geometry":{"type":"Polygon","coordinates":[[[36.812403,49.109687],[36.813933,49.109136],[36.813423,49.108455],[36.811259,49.109182],[36.81124,49.109188],[36.811418,49.109401],[36.811437,49.109394],[36.81225,49.109105],[36.812269,49.109128],[36.812348,49.109228],[36.812171,49.109288],[36.812092,49.109189],[36.811457,49.109417],[36.811439,49.109423],[36.811736893617024,49.109782],[36.811735,49.109782],[36.811829,49.109893],[36.812139,49.109782],[36.81213829126213,49.109782],[36.812403,49.109687]]]}},{"type":"Feature","properties":{"cadnum":"6320485003:00:000:0011"},"geometry":{"type":"Polygon","coordinates":[[[36.813639,49.110364],[36.813468,49.109805],[36.812908,49.109944],[36.813143,49.110461],[36.813639,49.110364]]]}},{"type":"Feature","properties":{"cadnum":"6320485003:00:000:0001"},"geometry":{"type":"Polygon","coordinates":[[[36.809101,49.108717],[36.80929,49.108681],[36.80921,49.108505],[36.80902,49.108542],[36.809101,49.108717]]]}},{"type":"Feature","properties":{"cadnum":"6320485003:00:000:0018"},"geometry":{"type":"Polygon","coordinates":[[[36.807506,49.108454],[36.808898,49.108017],[36.808806,49.107868],[36.808782,49.107835],[36.808704,49.10786],[36.807379,49.108272],[36.807506,49.108454]]]}},{"type":"Feature","properties":{"cadnum":"6320485003:00:000:0020"},"geometry":{"type":"Polygon","coordinates":[[[36.807742,49.108158],[36.808704,49.10786],[36.808782,49.107835],[36.808657,49.10763],[36.808644,49.107609],[36.808569,49.107629],[36.808185,49.107733],[36.807581,49.107876],[36.807742,49.108158]]]}},{"type":"Feature","properties":{"cadnum":"6320485003:00:000:0008"},"geometry":{"type":"Polygon","coordinates":[[[36.809198,49.110953],[36.809239,49.110852],[36.80927,49.110773],[36.809258,49.110773],[36.808834,49.110763],[36.808825,49.110944],[36.809168,49.110952],[36.809176,49.110952],[36.809198,49.110953]]]}},{"type":"Feature","properties":{"cadnum":"6320485003:00:000:0009"},"geometry":{"type":"Polygon","coordinates":[[[36.811673,49.110577],[36.812156,49.110419],[36.812011,49.110229],[36.811528,49.110387],[36.811673,49.110577]]]}}]}