{"type":"FeatureCollection","features":[{"type":"Feature","properties":{"cadnum":"6320484003:00:000:0004"},"geometry":{"type":"Polygon","coordinates":[[[36.689429,49.123715],[36.689236,49.123462],[36.688757,49.123624],[36.688757,49.123624046656296],[36.688286,49.123783],[36.688479,49.124036],[36.688929,49.123884],[36.688929,49.123883898809524],[36.689429,49.123715]]]}},{"type":"Feature","properties":{"cadnum":"6320484003:00:000:0015"},"geometry":{"type":"Polygon","coordinates":[[[36.68917,49.123134],[36.691018,49.122428],[36.69077,49.122122],[36.688926,49.122827],[36.68917,49.123134]]]}},{"type":"Feature","properties":{"cadnum":"6320484003:00:000:0016"},"geometry":{"type":"Polygon","coordinates":[[[36.689414,49.123441],[36.691265,49.122733],[36.691018,49.122428],[36.68917,49.123134],[36.689414,49.123441]]]}},{"type":"Feature","properties":{"cadnum":"6320484003:00:000:0019"},"geometry":{"type":"Polygon","coordinates":[[[36.69077,49.122122],[36.690523,49.121816],[36.688929,49.1224261608154],[36.688929,49.122426],[36.688682,49.12252],[36.688757,49.1226143647541],[36.688757,49.122615],[36.688926,49.122827],[36.688929,49.122826],[36.688929,49.12282585303688],[36.69077,49.122122]]]}},{"type":"Feature","properties":{"cadnum":"6320484003:00:000:0017"},"geometry":{"type":"Polygon","coordinates":[[[36.690275,49.121509],[36.690026,49.121202],[36.688929,49.12162126319937],[36.688929,49.121621],[36.688191,49.121903],[36.688436,49.122212],[36.688757,49.12208959026369],[36.688757,49.12209],[36.690275,49.121509]]]}},{"type":"Feature","properties":{"cadnum":"6320484003:00:000:0012"},"geometry":{"type":"Polygon","coordinates":[[[36.689528,49.120586],[36.68928,49.12068],[36.68928232542373,49.12068],[36.688757,49.120881],[36.688757,49.12088158373984],[36.687699,49.121285],[36.687946,49.121594],[36.688757,49.12128379043744],[36.688757,49.121284],[36.689778,49.120894],[36.6896042987013,49.12068],[36.689605,49.12068],[36.689528,49.120586]]]}},{"type":"Feature","properties":{"cadnum":"6320484003:00:000:0023"},"geometry":{"type":"Polygon","coordinates":[[[36.689649,49.123735],[36.690845,49.123303],[36.691512,49.123038],[36.691265,49.122733],[36.689414,49.123441],[36.689649,49.123735]]]}},{"type":"Feature","properties":{"cadnum":"6320484003:00:000:0020"},"geometry":{"type":"Polygon","coordinates":[[[36.689279,49.120277],[36.688929,49.12041109961686],[36.688929,49.120411],[36.688221,49.12068],[36.68822248275862,49.12068],[36.687452,49.120974],[36.687699,49.121285],[36.688929,49.120816],[36.688929,49.120815189364464],[36.689528,49.120586],[36.689279,49.120277]]]}},{"type":"Feature","properties":{"cadnum":"6320484003:00:000:0014"},"geometry":{"type":"Polygon","coordinates":[[[36.690026,49.121202],[36.689778,49.120894],[36.688929,49.12121829970617],[36.688929,49.121218],[36.687946,49.121594],[36.688191,49.121903],[36.688757,49.121686723577234],[36.688757,49.121687],[36.690026,49.121202]]]}},{"type":"Feature","properties":{"cadnum":"6320484003:00:000:0021"},"geometry":{"type":"Polygon","coordinates":[[[36.690523,49.121816],[36.690275,49.121509],[36.688929,49.12202416864295],[36.688929,49.122024],[36.688436,49.122212],[36.688682,49.12252],[36.688757,49.12249145748988],[36.688757,49.122492],[36.690523,49.121816]]]}},{"type":"Feature","properties":{"cadnum":"6320484003:00:000:0006"},"geometry":{"type":"Polygon","coordinates":[[[36.685887,49.12625],[36.685978,49.126218],[36.686976,49.125874],[36.686751,49.125605],[36.685756,49.125937],[36.685662,49.125967],[36.685887,49.12625]]]}},{"type":"Feature","properties":{"cadnum":"6320484003:00:000:0005"},"geometry":{"type":"Polygon","coordinates":[[[36.686976,49.125874],[36.687358,49.125743],[36.687866,49.125567],[36.687676,49.125301],[36.687243,49.125441],[36.686751,49.125605],[36.686976,49.125874]]]}},{"type":"Feature","properties":{"cadnum":"6320484003:00:000:0010"},"geometry":{"type":"Polygon","coordinates":[[[36.68622,49.122648],[36.686385,49.122579],[36.686265,49.122463],[36.686102,49.122531],[36.68622,49.122648]]]}},{"type":"Feature","properties":{"cadnum":"6320484003:00:000:0026"},"geometry":{"type":"Polygon","coordinates":[[[36.6889241230575,49.120006864214105],[36.688929,49.120005],[36.688929,49.120004992619926],[36.689028,49.119967],[36.689024,49.119962],[36.688827,49.119737],[36.688762,49.119661],[36.686957,49.120351],[36.687205,49.120664],[36.688757,49.12007074709977],[36.688757,49.120071],[36.6889241230575,49.120006864214105]]]}},{"type":"Feature","properties":{"cadnum":"6320484003:00:000:0022"},"geometry":{"type":"Polygon","coordinates":[[[36.689279,49.120277],[36.689028,49.119967],[36.68892412305749,49.120006864214105],[36.687456144157814,49.120568],[36.687455,49.120568],[36.687205,49.120664],[36.687217,49.12068],[36.6872177483871,49.12068],[36.687452,49.120974],[36.688516,49.120568],[36.68851578066914,49.120568],[36.688757,49.12047635028248],[36.688757,49.120477],[36.689279,49.120277]]]}},{"type":"Feature","properties":{"cadnum":"6320484003:00:000:0013"},"geometry":{"type":"Polygon","coordinates":[[[36.686454,49.11972],[36.688237,49.119038],[36.687971,49.118724],[36.686201,49.119401],[36.686454,49.11972]]]}},{"type":"Feature","properties":{"cadnum":"6320484003:00:000:0025"},"geometry":{"type":"Polygon","coordinates":[[[36.686957,49.120351],[36.688762,49.119661],[36.688501,49.119351],[36.686706,49.120037],[36.686957,49.120351]]]}},{"type":"Feature","properties":{"cadnum":"6320484003:00:000:0024"},"geometry":{"type":"Polygon","coordinates":[[[36.686201,49.119401],[36.687971,49.118724],[36.687704,49.118407],[36.685945,49.119079],[36.686201,49.119401]]]}},{"type":"Feature","properties":{"cadnum":"6320484003:00:000:0018"},"geometry":{"type":"Polygon","coordinates":[[[36.685945,49.119079],[36.687704,49.118407],[36.687496,49.118162],[36.686065,49.118715],[36.685738,49.11882],[36.685945,49.119079]]]}},{"type":"Feature","properties":{"cadnum":"6320484003:00:000:1218"},"geometry":{"type":"Polygon","coordinates":[[[36.686706,49.120037],[36.688501,49.119351],[36.688237,49.119038],[36.686454,49.11972],[36.686706,49.120037]]]}}]}