{"type":"FeatureCollection","features":[{"type":"Feature","properties":{"cadnum":"6320483504:00:000:0008"},"geometry":{"type":"Polygon","coordinates":[[[36.974573,49.00658948659004],[36.975967,49.006715],[36.97613,49.006092],[36.976205,49.005913],[36.975043,49.00582],[36.975064,49.005699],[36.974558,49.00568],[36.974401,49.006288],[36.974401,49.00628811790392],[36.974329,49.006567],[36.974401,49.00657378688525],[36.974401,49.006574],[36.974451453531714,49.006578542750944],[36.974573,49.00659],[36.974573,49.00658948659004]]]}},{"type":"Feature","properties":{"cadnum":"6320483504:00:000:0009"},"geometry":{"type":"Polygon","coordinates":[[[36.974573,49.00880964527221],[36.976146,49.008907],[36.976186,49.008487],[36.974573,49.00832976638655],[36.974573,49.008329],[36.973995,49.008272],[36.973903,49.008768],[36.974573,49.00881],[36.974573,49.00880964527221]]]}},{"type":"Feature","properties":{"cadnum":"6320483504:00:000:0016"},"geometry":{"type":"Polygon","coordinates":[[[36.975045,49.014272],[36.974573,49.014227291925465],[36.974573,49.014227],[36.972387,49.014017],[36.971954,49.015121],[36.973722,49.015201],[36.974333,49.014865],[36.974401,49.014808333333335],[36.974401,49.014809],[36.975045,49.014272]]]}},{"type":"Feature","properties":{"cadnum":"6320483504:00:000:0014"},"geometry":{"type":"Polygon","coordinates":[[[36.974573,49.013348],[36.97416,49.013308],[36.972718,49.01317],[36.972387,49.014017],[36.974401,49.01421047666972],[36.974401,49.014211],[36.975045,49.014272],[36.975651,49.013451],[36.974573,49.013348374399996],[36.974573,49.013348]]]}},{"type":"Feature","properties":{"cadnum":"6320483504:00:000:0015"},"geometry":{"type":"Polygon","coordinates":[[[36.973005,49.01244],[36.972942385185185,49.012598],[36.972942,49.012598],[36.97290982320459,49.01268016574544],[36.972898,49.01271],[36.97289813986014,49.01271],[36.972718,49.01317],[36.97416,49.013308],[36.974401,49.01333134140436],[36.974401,49.013332],[36.975651,49.013451],[36.976275,49.012605],[36.974401,49.012547],[36.974401,49.01254756126482],[36.973561,49.012521],[36.973005,49.01244]]]}},{"type":"Feature","properties":{"cadnum":"6320483504:00:000:0010"},"geometry":{"type":"Polygon","coordinates":[[[36.980066,49.009976],[36.979374,49.009966],[36.979374,49.010211],[36.979597,49.01024],[36.979613,49.010296],[36.979786,49.010302],[36.979895,49.01030589285715],[36.979895,49.010306],[36.980178,49.010316],[36.981197,49.010354],[36.981273,49.009994],[36.980066,49.00997648185776],[36.980066,49.009976]]]}},{"type":"Feature","properties":{"cadnum":"6320483504:00:000:0005"},"geometry":{"type":"Polygon","coordinates":[[[36.973826,49.009176],[36.973732,49.009783],[36.973546,49.010517],[36.974401,49.01056861635833],[36.974401,49.010569],[36.976982,49.010723],[36.976903,49.010573],[36.976358,49.010403],[36.976378,49.010331],[36.974963,49.010196],[36.975025,49.009916],[36.975099,49.009582],[36.975249,49.009295],[36.974401,49.009224],[36.974401,49.00922449397591],[36.973826,49.009176]]]}},{"type":"Feature","properties":{"cadnum":"6320483504:00:000:0017"},"geometry":{"type":"Polygon","coordinates":[[[36.973512,49.015845],[36.971781,49.015659],[36.971621347094796,49.0162],[36.971621,49.0162],[36.97159904671067,49.01627556710475],[36.971588,49.016313],[36.97158817193676,49.016313],[36.971474,49.016706],[36.971392,49.017412],[36.972663,49.017521],[36.973201,49.0168],[36.972348,49.016708],[36.972476,49.0162],[36.973516,49.016313],[36.97351678947364,49.016313],[36.973526,49.016314],[36.973522,49.0162],[36.9735211025641,49.0162],[36.973512,49.015845]]]}},{"type":"Feature","properties":{"cadnum":"6320483504:00:000:0013"},"geometry":{"type":"Polygon","coordinates":[[[36.97629,49.008164],[36.976327,49.007897],[36.976318,49.007896],[36.975228,49.007815],[36.975162,49.008091],[36.976278,49.008163],[36.97629,49.008164]]]}},{"type":"Feature","properties":{"cadnum":"6320483504:00:000:0007"},"geometry":{"type":"Polygon","coordinates":[[[36.976475,49.005083],[36.97611,49.005052],[36.975932,49.00504],[36.975686,49.005026],[36.975516,49.005026],[36.975185,49.005081],[36.974781,49.005235],[36.974699,49.005294],[36.974623372881354,49.005391],[36.974623,49.005391],[36.974607,49.005412],[36.974573,49.005504],[36.97457305825243,49.005504],[36.974569,49.005515],[36.974558,49.00568],[36.975064,49.005699],[36.976649,49.005771],[36.976566,49.00562],[36.976504,49.005424],[36.976475,49.005083]]]}},{"type":"Feature","properties":{"cadnum":"6320483504:00:000:0011"},"geometry":{"type":"Polygon","coordinates":[[[36.979779,49.007909],[36.979826,49.00762],[36.978763,49.007518],[36.978741,49.007805],[36.979235,49.007857],[36.979779,49.007909]]]}},{"type":"Feature","properties":{"cadnum":"6320483504:00:000:0012"},"geometry":{"type":"Polygon","coordinates":[[[36.980066,49.00793627602617],[36.981576,49.00808],[36.981638,49.007794],[36.97991887671191,49.00762928767119],[36.979826,49.00762],[36.979779,49.007909],[36.980066,49.007937],[36.980066,49.00793627602617]]]}},{"type":"Feature","properties":{"cadnum":"6320483504:00:000:0006"},"geometry":{"type":"Polygon","coordinates":[[[36.976542,49.006764],[36.976567,49.006661],[36.976578,49.006623],[36.976597,49.006595],[36.976606,49.006554],[36.976613,49.006523],[36.97666,49.006355],[36.97613,49.006092],[36.975967,49.006715],[36.976542,49.006764]]]}}]}