{"type":"FeatureCollection","features":[{"type":"Feature","properties":{"cadnum":"6320680507:07:000:0060"},"geometry":{"type":"Polygon","coordinates":[[[36.708073,48.675935],[36.709567,48.67592],[36.709598,48.67435],[36.708159,48.674181],[36.708073,48.675935]]]}},{"type":"Feature","properties":{"cadnum":"6320680507:07:000:0053"},"geometry":{"type":"Polygon","coordinates":[[[36.704432,48.675901],[36.704436072249585,48.676397],[36.704436,48.676397],[36.704436249291774,48.67641856373861],[36.704437,48.67651],[36.70443730635838,48.67651],[36.70444,48.676743],[36.705214,48.676701],[36.705408,48.676724],[36.705408,48.67672282511924],[36.706494,48.676848],[36.70683,48.676982],[36.707232,48.676981],[36.707227,48.676397],[36.70722620141343,48.676397],[36.707223,48.675944],[36.706712,48.67594],[36.705914,48.675944],[36.705408,48.675929820059],[36.705408,48.675929],[36.704432,48.675901]]]}},{"type":"Feature","properties":{"cadnum":"6320680507:07:000:0005"},"geometry":{"type":"Polygon","coordinates":[[[36.705408,48.678435],[36.704908,48.678422],[36.704904,48.678703],[36.705236,48.678712222222224],[36.705236,48.678713],[36.706489,48.678746],[36.706505,48.678462],[36.705408,48.67843520173365],[36.705408,48.678435]]]}},{"type":"Feature","properties":{"cadnum":"6320680507:07:000:0035"},"geometry":{"type":"Polygon","coordinates":[[[36.705408,48.67785463258786],[36.706488,48.67789],[36.706508,48.677606],[36.705408,48.67757728712871],[36.705408,48.677577],[36.705397,48.677577],[36.705236,48.67757],[36.705236,48.677570043209876],[36.705073,48.677563],[36.705051,48.677843],[36.705408,48.677855],[36.705408,48.67785463258786]]]}},{"type":"Feature","properties":{"cadnum":"6320680507:07:000:0042"},"geometry":{"type":"Polygon","coordinates":[[[36.705097,48.679964],[36.70509457225434,48.680024],[36.705094,48.680024],[36.705086,48.680245],[36.705236,48.68025338509317],[36.705236,48.680254],[36.706431,48.680317],[36.706441,48.680036],[36.706225,48.680024],[36.70621506250005,48.680024],[36.705408,48.679981135269706],[36.705408,48.679981],[36.705097,48.679964]]]}},{"type":"Feature","properties":{"cadnum":"6320680507:07:000:0043"},"geometry":{"type":"Polygon","coordinates":[[[36.704955,48.685883],[36.704959,48.685608],[36.704346,48.685568],[36.704342,48.685851],[36.704955,48.685883]]]}},{"type":"Feature","properties":{"cadnum":"6320680507:07:000:0063"},"geometry":{"type":"Polygon","coordinates":[[[36.706706,48.685472],[36.706742,48.685205],[36.706756,48.685091],[36.706627,48.685106],[36.706323,48.685144],[36.706276,48.68515],[36.706273,48.685379],[36.705408,48.68535314175506],[36.705408,48.685353],[36.704976,48.685339],[36.704959,48.685608],[36.704956,48.685748],[36.705236,48.68576968141593],[36.705236,48.68577],[36.70538955101955,48.68578157142851],[36.705408,48.685783],[36.705408,48.68578296172249],[36.706072,48.685833],[36.706646,48.685947],[36.706706,48.685472]]]}},{"type":"Feature","properties":{"cadnum":"6320680507:07:000:0062"},"geometry":{"type":"Polygon","coordinates":[[[36.702593,48.685665],[36.702612,48.685442],[36.701646,48.685356],[36.701678,48.685102],[36.701248,48.685067],[36.701003,48.68554],[36.702593,48.685665]]]}},{"type":"Feature","properties":{"cadnum":"6320680507:07:000:0028"},"geometry":{"type":"Polygon","coordinates":[[[36.703324,48.685506],[36.703335,48.685237],[36.701678,48.685102],[36.701646,48.685356],[36.702612,48.685442],[36.702844,48.685463],[36.703324,48.685506]]]}},{"type":"Feature","properties":{"cadnum":"6320680507:07:000:0027"},"geometry":{"type":"Polygon","coordinates":[[[36.703425,48.685515],[36.703816,48.685509],[36.703978,48.685507],[36.703984,48.685299],[36.703335,48.685237],[36.703324,48.685506],[36.703425,48.685515]]]}},{"type":"Feature","properties":{"cadnum":"6320680507:07:000:0059"},"geometry":{"type":"Polygon","coordinates":[[[36.703973,48.685748],[36.703978,48.685607],[36.70398,48.685531],[36.703978,48.685507],[36.703816,48.685509],[36.703425,48.685515],[36.703324,48.685506],[36.702844,48.685463],[36.702612,48.685442],[36.702593,48.685665],[36.70291,48.68569],[36.703413,48.685725],[36.703973,48.685748]]]}},{"type":"Feature","properties":{"cadnum":"6320680507:07:000:0055"},"geometry":{"type":"Polygon","coordinates":[[[36.70218,48.687233],[36.702667,48.687059],[36.702632,48.68655],[36.701058,48.686444],[36.70110725871172,48.687277],[36.701107,48.687277],[36.70110878122933,48.68730274686026],[36.701114,48.687391],[36.70111488679245,48.687391],[36.701118,48.687436],[36.701352905660386,48.687391],[36.701354,48.687391],[36.70218,48.687233]]]}},{"type":"Feature","properties":{"cadnum":"6320680507:07:000:0061"},"geometry":{"type":"Polygon","coordinates":[[[36.70314,48.684842],[36.703073,48.684488],[36.702059,48.684403],[36.7021,48.684102],[36.70187,48.684087],[36.701882,48.683937],[36.70167,48.683923],[36.701247,48.683893],[36.701306,48.684131],[36.70148,48.684137],[36.701764,48.684079],[36.701693,48.684372],[36.701662,48.684728],[36.70314,48.684842]]]}},{"type":"Feature","properties":{"cadnum":"6320680507:07:000:0052"},"geometry":{"type":"Polygon","coordinates":[[[36.703991,48.6841],[36.704004,48.683948],[36.703911,48.683943],[36.703484,48.683924],[36.70328,48.683909],[36.701691,48.683802],[36.70167,48.683923],[36.70279,48.684],[36.703284,48.684049],[36.703649,48.684078],[36.703733,48.684082],[36.703991,48.6841]]]}},{"type":"Feature","properties":{"cadnum":"6320680507:07:000:0034"},"geometry":{"type":"Polygon","coordinates":[[[36.703119,48.684489],[36.703152,48.684177],[36.703061,48.684166],[36.7021,48.684102],[36.702059,48.684403],[36.703073,48.684488],[36.703119,48.684489]]]}},{"type":"Feature","properties":{"cadnum":"6320680507:07:000:0033"},"geometry":{"type":"Polygon","coordinates":[[[36.703965,48.684514],[36.703977,48.684238],[36.703437,48.684203],[36.70328,48.68419],[36.703152,48.684177],[36.703119,48.684489],[36.703965,48.684514]]]}},{"type":"Feature","properties":{"cadnum":"6320680507:07:000:0058"},"geometry":{"type":"Polygon","coordinates":[[[36.703977,48.684238],[36.703991,48.6841],[36.703733,48.684082],[36.703649,48.684078],[36.703284,48.684049],[36.70279,48.684],[36.701882,48.683937],[36.70187,48.684087],[36.7021,48.684102],[36.703061,48.684166],[36.703152,48.684177],[36.70328,48.68419],[36.703437,48.684203],[36.703977,48.684238]]]}},{"type":"Feature","properties":{"cadnum":"6320680507:07:000:0065"},"geometry":{"type":"Polygon","coordinates":[[[36.703956,48.686507],[36.703953,48.686291],[36.703174,48.68628],[36.703172,48.686167],[36.702715,48.686137],[36.702684,48.686449],[36.703956,48.686507]]]}},{"type":"Feature","properties":{"cadnum":"6320680507:07:000:0039"},"geometry":{"type":"Polygon","coordinates":[[[36.705006,48.682443],[36.705006,48.682161],[36.704405,48.682102],[36.704404,48.682387],[36.705006,48.682443]]]}},{"type":"Feature","properties":{"cadnum":"6320680507:07:000:0045"},"geometry":{"type":"Polygon","coordinates":[[[36.704776,48.683591],[36.704776,48.683271],[36.704393,48.683242],[36.704392,48.683558],[36.704776,48.683591]]]}},{"type":"Feature","properties":{"cadnum":"6320680507:07:000:0011"},"geometry":{"type":"Polygon","coordinates":[[[36.704976,48.680545],[36.704983,48.68039],[36.704432,48.680353],[36.704425,48.680508],[36.704976,48.680545]]]}},{"type":"Feature","properties":{"cadnum":"6320680507:07:000:0041"},"geometry":{"type":"Polygon","coordinates":[[[36.705097,48.679964],[36.704447,48.679929],[36.704438,48.680137],[36.70443937433155,48.680137],[36.704437,48.680211],[36.705086,48.680245],[36.70508990950226,48.680137],[36.70509,48.680137],[36.705097,48.679964]]]}},{"type":"Feature","properties":{"cadnum":"6320680507:07:000:0019"},"geometry":{"type":"Polygon","coordinates":[[[36.704797,48.681372],[36.704802,48.681082],[36.704425,48.681057],[36.704421,48.681351],[36.704797,48.681372]]]}},{"type":"Feature","properties":{"cadnum":"6320680507:07:000:0008"},"geometry":{"type":"Polygon","coordinates":[[[36.703799,48.681293],[36.703797,48.681049],[36.702157,48.68093],[36.702149,48.681189],[36.703017,48.681244],[36.70365,48.681285],[36.703799,48.681293]]]}},{"type":"Feature","properties":{"cadnum":"6320680507:07:000:0064"},"geometry":{"type":"Polygon","coordinates":[[[36.70291,48.683569],[36.702903,48.683298],[36.700477,48.683099],[36.700864,48.683399],[36.70291,48.683569]]]}},{"type":"Feature","properties":{"cadnum":"6320680507:07:000:0009"},"geometry":{"type":"Polygon","coordinates":[[[36.703606,48.681853],[36.703607,48.681574],[36.702151,48.681471],[36.702152,48.681746],[36.703606,48.681853]]]}},{"type":"Feature","properties":{"cadnum":"6320680507:07:000:0004"},"geometry":{"type":"Polygon","coordinates":[[[36.703335,48.682774],[36.703351,48.682485],[36.700964,48.682286],[36.700945,48.682607],[36.701086,48.682617],[36.703335,48.682774]]]}},{"type":"Feature","properties":{"cadnum":"6320680507:07:000:0010"},"geometry":{"type":"Polygon","coordinates":[[[36.704052,48.681875],[36.704052,48.681604],[36.703948,48.681599],[36.703607,48.681574],[36.703606,48.681853],[36.704052,48.681875]]]}},{"type":"Feature","properties":{"cadnum":"6320680507:07:000:0003"},"geometry":{"type":"Polygon","coordinates":[[[36.704017,48.682822],[36.704033,48.682541],[36.703351,48.682485],[36.703335,48.682774],[36.703466,48.682783],[36.704017,48.682822]]]}},{"type":"Feature","properties":{"cadnum":"6320680507:07:000:1220"},"geometry":{"type":"Polygon","coordinates":[[[36.704021,48.683662],[36.704021,48.683423],[36.704023,48.683386],[36.704017,48.68338],[36.703559,48.683351],[36.702903,48.683298],[36.70291,48.683569],[36.703524,48.68362],[36.704021,48.683662]]]}},{"type":"Feature","properties":{"cadnum":"6320680507:07:000:0031"},"geometry":{"type":"Polygon","coordinates":[[[36.704009,48.683105],[36.704017,48.682822],[36.703466,48.682783],[36.703458,48.683074],[36.704009,48.683105]]]}},{"type":"Feature","properties":{"cadnum":"6320680507:07:000:0026"},"geometry":{"type":"Polygon","coordinates":[[[36.70372,48.680455],[36.703718,48.68017],[36.702278,48.680157],[36.702226,48.680426],[36.70362,48.680453],[36.70372,48.680455]]]}},{"type":"Feature","properties":{"cadnum":"6320680507:07:000:0025"},"geometry":{"type":"Polygon","coordinates":[[[36.70406,48.680462],[36.704059,48.680174],[36.703718,48.68017],[36.70372,48.680455],[36.70406,48.680462]]]}},{"type":"Feature","properties":{"cadnum":"6320680507:07:000:0029"},"geometry":{"type":"Polygon","coordinates":[[[36.704055,48.680738],[36.70406,48.680462],[36.70372,48.680455],[36.70362,48.680453],[36.703615,48.680731],[36.704055,48.680738]]]}},{"type":"Feature","properties":{"cadnum":"6320680507:07:000:0007"},"geometry":{"type":"Polygon","coordinates":[[[36.704051,48.681306],[36.704051,48.681067],[36.703797,48.681049],[36.703799,48.681293],[36.704051,48.681306]]]}},{"type":"Feature","properties":{"cadnum":"6320680507:07:000:0046"},"geometry":{"type":"Polygon","coordinates":[[[36.704776,48.683271],[36.704776,48.683591],[36.704841,48.683596],[36.705236,48.68362943915344],[36.705236,48.68363],[36.706095,48.6837],[36.706095,48.683371],[36.705236,48.683306],[36.705236,48.683306664556966],[36.704776,48.683271]]]}},{"type":"Feature","properties":{"cadnum":"6320680507:07:000:0040"},"geometry":{"type":"Polygon","coordinates":[[[36.705408,48.68248081800581],[36.706269,48.68256],[36.706269,48.682282],[36.705408,48.68220031752178],[36.705408,48.6822],[36.705006,48.682161],[36.705006,48.682443],[36.705236,48.682464741293536],[36.705236,48.682465],[36.70533696992421,48.68247428571423],[36.705408,48.682481],[36.705408,48.68248081800581]]]}},{"type":"Feature","properties":{"cadnum":"6320680507:07:000:0001"},"geometry":{"type":"Polygon","coordinates":[[[36.704901,48.678421],[36.704901,48.678137],[36.704472,48.678126],[36.704473,48.678411],[36.704901,48.678421]]]}},{"type":"Feature","properties":{"cadnum":"6320680507:07:000:0006"},"geometry":{"type":"Polygon","coordinates":[[[36.704904,48.678703],[36.704908,48.678422],[36.704901,48.678421],[36.704473,48.678411],[36.704469,48.678691],[36.704904,48.678703]]]}},{"type":"Feature","properties":{"cadnum":"6320680507:07:000:0051"},"geometry":{"type":"Polygon","coordinates":[[[36.703155,48.677703],[36.703171,48.677359],[36.703028,48.677349],[36.702754,48.677341],[36.702739,48.677695],[36.703155,48.677703]]]}},{"type":"Feature","properties":{"cadnum":"6320680507:07:000:0038"},"geometry":{"type":"Polygon","coordinates":[[[36.704094,48.678032],[36.704107,48.677747],[36.70347,48.677724],[36.703457,48.678012],[36.704094,48.678032]]]}},{"type":"Feature","properties":{"cadnum":"6320680507:07:000:0049"},"geometry":{"type":"Polygon","coordinates":[[[36.704119,48.677742],[36.704133,48.677454],[36.703847,48.677439],[36.70385,48.677397],[36.703376,48.677373],[36.703171,48.677359],[36.703155,48.677703],[36.703419,48.677708],[36.703682,48.677708],[36.704119,48.677742]]]}},{"type":"Feature","properties":{"cadnum":"6320680507:07:000:0050"},"geometry":{"type":"Polygon","coordinates":[[[36.704133,48.677454],[36.704134,48.677412],[36.70385,48.677397],[36.703847,48.677439],[36.704133,48.677454]]]}},{"type":"Feature","properties":{"cadnum":"6320680507:07:000:0023"},"geometry":{"type":"Polygon","coordinates":[[[36.704063,48.679591],[36.704068,48.679305],[36.703728,48.679298],[36.703722,48.679585],[36.704063,48.679591]]]}},{"type":"Feature","properties":{"cadnum":"6320680507:07:000:0037"},"geometry":{"type":"Polygon","coordinates":[[[36.703457,48.678012],[36.70347,48.677724],[36.702328,48.677684],[36.702346,48.677979],[36.703457,48.678012]]]}},{"type":"Feature","properties":{"cadnum":"6320680507:07:000:0056"},"geometry":{"type":"Polygon","coordinates":[[[36.704092,48.678329],[36.704094,48.678032],[36.703457,48.678012],[36.703084,48.678002],[36.703081,48.678307],[36.70367,48.67832],[36.704092,48.678329]]]}},{"type":"Feature","properties":{"cadnum":"6320680507:07:000:0021"},"geometry":{"type":"Polygon","coordinates":[[[36.704091,48.678618],[36.704092,48.678329],[36.70367,48.67832],[36.703669,48.67861],[36.703675,48.67861],[36.704091,48.678618]]]}},{"type":"Feature","properties":{"cadnum":"6320680507:07:000:0054"},"geometry":{"type":"Polygon","coordinates":[[[36.702739,48.677699],[36.702754,48.677341],[36.702344,48.677329],[36.702328,48.677684],[36.702739,48.677699]]]}},{"type":"Feature","properties":{"cadnum":"6320680507:07:000:0047"},"geometry":{"type":"Polygon","coordinates":[[[36.70409,48.678824],[36.704091,48.678618],[36.703675,48.67861],[36.703675,48.678815],[36.70409,48.678824]]]}},{"type":"Feature","properties":{"cadnum":"6320680507:07:000:0022"},"geometry":{"type":"Polygon","coordinates":[[[36.703669,48.67861],[36.70367,48.67832],[36.70233,48.678291],[36.702326,48.678588],[36.703669,48.67861]]]}},{"type":"Feature","properties":{"cadnum":"6320680507:07:000:0057"},"geometry":{"type":"Polygon","coordinates":[[[36.703081,48.678307],[36.703084,48.678002],[36.702608,48.677987],[36.702605,48.678297],[36.703081,48.678307]]]}},{"type":"Feature","properties":{"cadnum":"6320680507:07:000:0036"},"geometry":{"type":"Polygon","coordinates":[[[36.705051,48.677843],[36.705073,48.677563],[36.704511,48.67754],[36.704489,48.677824],[36.705051,48.677843]]]}}]}