{"type":"FeatureCollection","features":[{"type":"Feature","properties":{"cadnum":"6320680505:05:000:0007"},"geometry":{"type":"Polygon","coordinates":[[[36.693403,48.729184],[36.693547,48.728864],[36.693651,48.728868],[36.693728,48.728967],[36.69396,48.729034],[36.694184,48.72912],[36.69425,48.729123327731095],[36.69425,48.729124],[36.694605,48.729141],[36.694695,48.728728],[36.694745,48.728506],[36.696366,48.728622],[36.69613,48.729151],[36.696574,48.729228],[36.696321,48.729962],[36.696676,48.729985],[36.696745,48.72966],[36.697103,48.729652],[36.697108,48.729481],[36.697348,48.729263],[36.697418,48.728992],[36.697813,48.728619],[36.697496,48.728599],[36.697245,48.728883],[36.696973,48.728864],[36.696869,48.728558],[36.695481,48.728469],[36.694776,48.728438],[36.694422,48.728416463878325],[36.694422,48.728416],[36.693203,48.72834],[36.692776,48.729244],[36.693403,48.729184]]]}},{"type":"Feature","properties":{"cadnum":"6320680505:05:000:0004"},"geometry":{"type":"Polygon","coordinates":[[[36.689714,48.728882],[36.689961,48.727807],[36.689383,48.727748],[36.689136,48.728823],[36.689714,48.728882]]]}},{"type":"Feature","properties":{"cadnum":"6320680505:05:000:0003"},"geometry":{"type":"Polygon","coordinates":[[[36.689634,48.729233],[36.689714,48.728882],[36.689136,48.728823],[36.689056,48.729174],[36.689634,48.729233]]]}},{"type":"Feature","properties":{"cadnum":"6320680505:05:000:0005"},"geometry":{"type":"Polygon","coordinates":[[[36.692017,48.730017],[36.692096,48.729733],[36.691471,48.729657],[36.691392,48.729941],[36.692017,48.730017]]]}},{"type":"Feature","properties":{"cadnum":"6320680505:05:000:0009"},"geometry":{"type":"Polygon","coordinates":[[[36.697686,48.730617],[36.697828,48.730364],[36.696656,48.730217],[36.696582,48.730473],[36.697686,48.730617]]]}},{"type":"Feature","properties":{"cadnum":"6320680505:05:000:0008"},"geometry":{"type":"Polygon","coordinates":[[[36.697686,48.730617],[36.696582,48.730473],[36.696656,48.730217],[36.695564,48.730103],[36.695523,48.730399],[36.69546914285714,48.730776],[36.695469,48.730776],[36.695463222222315,48.7308174444438],[36.695453,48.730889],[36.695453246648796,48.730889],[36.695365,48.731522],[36.69664,48.731747],[36.697583,48.730799],[36.697686,48.730617]]]}},{"type":"Feature","properties":{"cadnum":"6320680505:05:000:0001"},"geometry":{"type":"Polygon","coordinates":[[[36.695123,48.729581],[36.695298,48.728785],[36.694695,48.728728],[36.694521,48.729523],[36.695123,48.729581]]]}},{"type":"Feature","properties":{"cadnum":"6320680505:05:000:0002"},"geometry":{"type":"Polygon","coordinates":[[[36.695071,48.72982],[36.695123,48.729581],[36.694521,48.729523],[36.694469,48.729762],[36.695071,48.72982]]]}}]}