{"type":"FeatureCollection","features":[{"type":"Feature","properties":{"cadnum":"6320684801:01:000:0045"},"geometry":{"type":"Polygon","coordinates":[[[36.640524,48.86419],[36.640053,48.864005],[36.639605447780674,48.864658],[36.639604,48.864658],[36.639445,48.864893],[36.639691,48.864961],[36.639898,48.865092],[36.64011988940092,48.864771],[36.64012,48.864771],[36.640524,48.86419]]]}},{"type":"Feature","properties":{"cadnum":"6320684801:01:000:0031"},"geometry":{"type":"Polygon","coordinates":[[[36.63949,48.86302055326087],[36.641232,48.864328],[36.641344,48.863936],[36.641083,48.863753],[36.642143,48.863076],[36.641162,48.862349],[36.639614,48.862841],[36.63949,48.862900207207204],[36.63949,48.8629],[36.639392,48.862947],[36.63949,48.863021],[36.63949,48.86302055326087]]]}},{"type":"Feature","properties":{"cadnum":"6320684801:01:000:0032"},"geometry":{"type":"Polygon","coordinates":[[[36.639634,48.861896],[36.639318,48.861759],[36.639318,48.86175902564103],[36.639139,48.861681],[36.638913,48.861773],[36.638916,48.861804],[36.638868,48.861826],[36.638861,48.861823],[36.638687,48.861905],[36.639046,48.862233],[36.639137,48.862332],[36.6393480111744,48.86214669273637],[36.639634,48.861896]]]}},{"type":"Feature","properties":{"cadnum":"6320684801:01:000:0089"},"geometry":{"type":"Polygon","coordinates":[[[36.641162,48.862349],[36.640251,48.861671],[36.64002,48.861755],[36.639634,48.861896],[36.63949,48.8620222278481],[36.63949,48.862022],[36.6393480111744,48.86214669273637],[36.639318,48.862173],[36.639318,48.86217304815864],[36.639137,48.862332],[36.639318,48.86252530594901],[36.639318,48.862526],[36.639614,48.862841],[36.641162,48.862349]]]}},{"type":"Feature","properties":{"cadnum":"6320684801:01:000:0030"},"geometry":{"type":"Polygon","coordinates":[[[36.63949,48.862709],[36.639137,48.862332],[36.639046,48.862233],[36.638687,48.861905],[36.638466,48.862009],[36.638604,48.862143],[36.638659,48.862199],[36.638679,48.862219],[36.638833,48.862346],[36.639318,48.86286744007156],[36.639318,48.862868],[36.639392,48.862947],[36.639614,48.862841],[36.63949,48.862709040540544],[36.63949,48.862709]]]}},{"type":"Feature","properties":{"cadnum":"6320684801:01:000:0071"},"geometry":{"type":"Polygon","coordinates":[[[36.633997,48.862418876254175],[36.634124,48.862548],[36.634397,48.862441],[36.633997,48.86204617560074],[36.633997,48.862046],[36.633856,48.861907],[36.633825,48.861917],[36.633825,48.86191703272728],[36.633581,48.861996],[36.633997,48.862419],[36.633997,48.862418876254175]]]}},{"type":"Feature","properties":{"cadnum":"6320684801:01:000:0065"},"geometry":{"type":"Polygon","coordinates":[[[36.633825,48.863812333333335],[36.633825,48.863813],[36.634043,48.863717],[36.63395,48.863627],[36.633935,48.863608],[36.6338,48.863459],[36.633406,48.862979],[36.63312,48.863105],[36.633418,48.863448],[36.633387,48.863505],[36.633486,48.863608],[36.633498,48.86362],[36.633565,48.863703],[36.633674,48.86381],[36.633739,48.86385],[36.633825,48.863812333333335]]]}},{"type":"Feature","properties":{"cadnum":"6320684801:01:000:0090"},"geometry":{"type":"Polygon","coordinates":[[[36.633997,48.8632266504298],[36.63433,48.863594],[36.634618,48.863472],[36.634555,48.863405],[36.634366,48.863193],[36.633903,48.862705],[36.633825,48.862738],[36.633825,48.86273827272727],[36.633617,48.862827],[36.633825,48.863045285714286],[36.633825,48.863046],[36.633981,48.863209],[36.633997,48.863227],[36.633997,48.8632266504298]]]}},{"type":"Feature","properties":{"cadnum":"6320684801:01:000:0038"},"geometry":{"type":"Polygon","coordinates":[[[36.636483,48.873931],[36.636714,48.873794],[36.636108,48.873309],[36.636058,48.873275],[36.636049,48.873281],[36.635873,48.873163],[36.635828,48.873141],[36.635802,48.873157],[36.635585,48.873289],[36.635622,48.873317],[36.635545,48.873363],[36.635761,48.873518],[36.635876,48.873454],[36.636483,48.873931]]]}},{"type":"Feature","properties":{"cadnum":"6320684801:01:000:0047"},"geometry":{"type":"Polygon","coordinates":[[[36.637031,48.87187],[36.636947,48.871818],[36.636851,48.871766],[36.63668236966825,48.871885],[36.636682,48.871885],[36.636552,48.871977],[36.636516,48.871998],[36.636516735849064,48.871998],[36.636463,48.87203],[36.636584,48.872114],[36.636691,48.87219],[36.636982,48.872399],[36.637445,48.87215],[36.637394,48.872107],[36.63715682402209,48.8719525921786],[36.637031,48.87187]]]}},{"type":"Feature","properties":{"cadnum":"6320684801:01:000:0087"},"geometry":{"type":"Polygon","coordinates":[[[36.634849,48.873125],[36.635201,48.87289],[36.634969,48.872729],[36.634555,48.872421],[36.634214,48.87265],[36.634217,48.872651],[36.634507,48.872858],[36.634693,48.873006],[36.634849,48.873125]]]}},{"type":"Feature","properties":{"cadnum":"6320684801:01:000:0011"},"geometry":{"type":"Polygon","coordinates":[[[36.63397830337188,48.87193589045021],[36.633906,48.871885],[36.63390572423398,48.871885],[36.633485,48.87159],[36.633068615960106,48.871885],[36.633068,48.871885],[36.632919,48.871991],[36.632928,48.871998],[36.632929499999996,48.871998],[36.63363,48.872465],[36.633741,48.872382],[36.633997,48.872194],[36.633997,48.8721928914956],[36.634166,48.872068],[36.633997,48.87194905],[36.633997,48.871949],[36.63397830337188,48.87193589045021]]]}},{"type":"Feature","properties":{"cadnum":"6320684801:01:000:0063"},"geometry":{"type":"Polygon","coordinates":[[[36.633997,48.8729758],[36.634187,48.873105],[36.63452,48.873344],[36.634849,48.873125],[36.634693,48.873006],[36.634507,48.872858],[36.634217,48.872651],[36.633997,48.87279539436619],[36.633997,48.872795],[36.633862,48.872884],[36.633997,48.872976],[36.633997,48.8729758]]]}},{"type":"Feature","properties":{"cadnum":"6320684801:01:000:0075"},"geometry":{"type":"Polygon","coordinates":[[[36.64009,48.87277],[36.639609,48.872286],[36.63947065573746,48.872338295082066],[36.639254,48.87242],[36.638502,48.872701],[36.638433,48.872594],[36.637201,48.873015],[36.636526,48.873259],[36.637272,48.873968],[36.637979,48.873801],[36.637917,48.873747],[36.638575,48.873481],[36.638545,48.873312],[36.63949,48.872981],[36.63949,48.87298062176166],[36.64009,48.87277]]]}},{"type":"Feature","properties":{"cadnum":"6320684801:01:000:0029"},"geometry":{"type":"Polygon","coordinates":[[[36.63825211111155,48.87195522222206],[36.638443,48.871885],[36.638442714285716,48.871885],[36.638573,48.871837],[36.639037,48.871642],[36.639191,48.871544],[36.638905,48.871345],[36.638637,48.871254],[36.638419,48.871566],[36.63752,48.871328],[36.63717,48.871494],[36.636858,48.871698],[36.636937,48.871754],[36.637289,48.871998],[36.63728977848101,48.871998],[36.637584,48.872201],[36.63813582594937,48.871998],[36.638136,48.871998],[36.63825211111155,48.87195522222206]]]}},{"type":"Feature","properties":{"cadnum":"6320684801:01:000:0076"},"geometry":{"type":"Polygon","coordinates":[[[36.639774,48.871829],[36.639634,48.871885],[36.639544,48.871921],[36.639337,48.872001],[36.638997,48.872123],[36.639254,48.87242],[36.639318,48.872395864406776],[36.639318,48.872396],[36.640043,48.872124],[36.639825,48.871885],[36.63982469822486,48.871885],[36.639774,48.871829]]]}},{"type":"Feature","properties":{"cadnum":"6320684801:01:000:0093"},"geometry":{"type":"Polygon","coordinates":[[[36.635193,48.871738],[36.63497660869565,48.871885],[36.634976,48.871885],[36.634956,48.871899],[36.635508,48.87231],[36.635769,48.872458],[36.636058,48.87224],[36.635787,48.872095],[36.63551699999918,48.87193299999951],[36.635193,48.871738]]]}},{"type":"Feature","properties":{"cadnum":"6320684801:01:000:0051"},"geometry":{"type":"Polygon","coordinates":[[[36.637436,48.860747],[36.636168,48.861157],[36.636169800000005,48.861157],[36.636052,48.861195],[36.636984,48.862076],[36.637855,48.861697],[36.638102,48.861938],[36.638574,48.861729],[36.638457,48.861631],[36.63790858361775,48.861157],[36.637909,48.861157],[36.637436,48.860747]]]}},{"type":"Feature","properties":{"cadnum":"6320684801:01:000:0064"},"geometry":{"type":"Polygon","coordinates":[[[36.632912,48.874357],[36.633855,48.87375],[36.633611,48.873577],[36.632664,48.874204],[36.632912,48.874357]]]}},{"type":"Feature","properties":{"cadnum":"6320684801:01:000:0048"},"geometry":{"type":"Polygon","coordinates":[[[36.632412,48.87287],[36.632612,48.872733],[36.632231,48.87248],[36.632224,48.872484],[36.632186,48.872512],[36.632011,48.872645],[36.632302,48.872812],[36.632412,48.87287]]]}},{"type":"Feature","properties":{"cadnum":"6320684801:01:000:0049"},"geometry":{"type":"Polygon","coordinates":[[[36.632612,48.872733],[36.632994,48.872469],[36.632597,48.872218],[36.632231,48.87248],[36.632612,48.872733]]]}},{"type":"Feature","properties":{"cadnum":"6320684801:01:000:0010"},"geometry":{"type":"Polygon","coordinates":[[[36.633332,48.872683],[36.63363,48.872465],[36.632919,48.871991],[36.632597,48.872218],[36.632994,48.872469],[36.633332,48.872683]]]}},{"type":"Feature","properties":{"cadnum":"6320684801:01:000:0066"},"geometry":{"type":"Polygon","coordinates":[[[36.632664,48.874204],[36.633611,48.873577],[36.632801,48.873078],[36.632199,48.873519],[36.631889,48.873724],[36.632664,48.874204]]]}},{"type":"Feature","properties":{"cadnum":"6320684801:01:000:0007"},"geometry":{"type":"Polygon","coordinates":[[[36.63154,48.873949],[36.631799,48.873783],[36.631083,48.8733],[36.630844,48.873467],[36.63154,48.873949]]]}},{"type":"Feature","properties":{"cadnum":"6320684801:01:000:0008"},"geometry":{"type":"Polygon","coordinates":[[[36.63128,48.874115],[36.63154,48.873949],[36.630844,48.873467],[36.630604,48.873634],[36.63128,48.874115]]]}},{"type":"Feature","properties":{"cadnum":"6320684801:01:000:0006"},"geometry":{"type":"Polygon","coordinates":[[[36.632801,48.873078],[36.63309,48.87286],[36.633214,48.87277],[36.633332,48.872683],[36.632994,48.872469],[36.632412,48.87287],[36.632801,48.873078]]]}},{"type":"Feature","properties":{"cadnum":"6320684801:01:000:0073"},"geometry":{"type":"Polygon","coordinates":[[[36.632248,48.874833],[36.632912,48.874357],[36.632664,48.874204],[36.632578,48.87415],[36.631874,48.874646],[36.632248,48.874833]]]}},{"type":"Feature","properties":{"cadnum":"6320684801:01:000:0034"},"geometry":{"type":"Polygon","coordinates":[[[36.631799,48.873783],[36.632199,48.873519],[36.631806,48.87328],[36.631692,48.873368],[36.631304,48.873142],[36.631083,48.8733],[36.631799,48.873783]]]}},{"type":"Feature","properties":{"cadnum":"6320684801:01:000:0096"},"geometry":{"type":"Polygon","coordinates":[[[36.63303,48.870093],[36.633711,48.869627],[36.63338,48.869414],[36.632714,48.869852],[36.63303,48.870093]]]}},{"type":"Feature","properties":{"cadnum":"6320684801:01:000:0081"},"geometry":{"type":"Polygon","coordinates":[[[36.632126,48.869431],[36.632874,48.868928],[36.632512,48.868697],[36.631744,48.869217],[36.632126,48.869431]]]}},{"type":"Feature","properties":{"cadnum":"6320684801:01:000:0056"},"geometry":{"type":"Polygon","coordinates":[[[36.631633,48.868179],[36.631327,48.867983],[36.63088631094528,48.868272],[36.630886,48.868272],[36.630805786093724,48.86832480748829],[36.630714,48.868385],[36.63071435443037,48.868385],[36.630646,48.86843],[36.630923,48.868662],[36.63132997692307,48.868385],[36.63133,48.868385],[36.631633,48.868179]]]}},{"type":"Feature","properties":{"cadnum":"6320684801:01:000:0043"},"geometry":{"type":"Polygon","coordinates":[[[36.630695,48.868086],[36.630424,48.867912],[36.630405,48.867924],[36.630039,48.868176],[36.63017803448275,48.868272],[36.630177,48.868272],[36.630291,48.86835],[36.630411,48.868272],[36.630410363636365,48.868272],[36.630695,48.868086]]]}},{"type":"Feature","properties":{"cadnum":"6320684801:01:000:0055"},"geometry":{"type":"Polygon","coordinates":[[[36.63319,48.868239],[36.6331411780822,48.868272],[36.63314,48.868272],[36.632786,48.868512],[36.632512,48.868697],[36.632874,48.868928],[36.633128,48.868758],[36.633127,48.868738],[36.633258,48.868644],[36.633505,48.86847],[36.63327126249937,48.86829922499954],[36.63319,48.868239]]]}},{"type":"Feature","properties":{"cadnum":"6320684801:01:000:0079"},"geometry":{"type":"Polygon","coordinates":[[[36.634169,48.869314],[36.634413,48.869151],[36.634273,48.869051],[36.634245,48.86903],[36.634103,48.868925],[36.633827,48.86912],[36.633825,48.869121],[36.633825,48.86912131543624],[36.63338,48.869414],[36.633711,48.869627],[36.633997,48.869432],[36.633997,48.8694315],[36.634169,48.869314]]]}},{"type":"Feature","properties":{"cadnum":"6320684801:01:000:0072"},"geometry":{"type":"Polygon","coordinates":[[[36.63391202608766,48.8702391652169],[36.633997,48.87018],[36.633997,48.87017976498801],[36.634659,48.869717],[36.634468,48.869554],[36.633997,48.86986238413686],[36.633997,48.869862],[36.633313,48.87031],[36.633479,48.870437],[36.633825,48.87068557556936],[36.633825,48.870686],[36.633962,48.870784],[36.633997,48.87076],[36.633997,48.8707597051282],[36.634508,48.870405],[36.634218,48.87022],[36.633997,48.87035833587786],[36.633997,48.870358],[36.633777,48.870496],[36.633648,48.870423],[36.633825,48.87029975931232],[36.633825,48.8703],[36.63391202608766,48.8702391652169]]]}},{"type":"Feature","properties":{"cadnum":"6320684801:01:000:0009"},"geometry":{"type":"Polygon","coordinates":[[[36.636453,48.870637],[36.636546,48.870545],[36.636368,48.870466],[36.636274,48.870557],[36.636453,48.870637]]]}},{"type":"Feature","properties":{"cadnum":"6320684801:01:000:0088"},"geometry":{"type":"Polygon","coordinates":[[[36.637053,48.867285],[36.63544,48.866774],[36.634745,48.867576],[36.635789,48.867963],[36.63562,48.868157],[36.6359634868421,48.868272],[36.635963,48.868272],[36.63625658695597,48.8683701304346],[36.636301,48.868385],[36.6363010737705,48.868385],[36.636328,48.868394],[36.636407,48.868272],[36.63640696363637,48.868272],[36.637053,48.867285]]]}},{"type":"Feature","properties":{"cadnum":"6320684801:01:000:0077"},"geometry":{"type":"Polygon","coordinates":[[[36.634508,48.870405],[36.634991,48.87007],[36.635349,48.869828],[36.63536,48.869821],[36.635126,48.869648],[36.634741,48.869892],[36.634218,48.87022],[36.634508,48.870405]]]}},{"type":"Feature","properties":{"cadnum":"6320684801:01:000:0083"},"geometry":{"type":"Polygon","coordinates":[[[36.637568,48.867965],[36.63733,48.86818],[36.637519834146325,48.868272],[36.637519,48.868272],[36.63767370797595,48.86834657242334],[36.637753,48.868385],[36.63775342984015,48.868385],[36.638687,48.868835],[36.638773,48.868535],[36.638341937781384,48.868331464338425],[36.637568,48.867965]]]}},{"type":"Feature","properties":{"cadnum":"6320684801:01:000:0086"},"geometry":{"type":"Polygon","coordinates":[[[36.637951,48.870223],[36.638413,48.869434],[36.637032,48.868811],[36.63679,48.869302],[36.637382,48.869569],[36.637161,48.869818],[36.637951,48.870223]]]}},{"type":"Feature","properties":{"cadnum":"6320684801:01:000:0052"},"geometry":{"type":"Polygon","coordinates":[[[36.636485,48.87143],[36.636685,48.871286],[36.63712,48.870949],[36.636613,48.870829],[36.636423,48.87101],[36.636001,48.871315],[36.636485,48.87143]]]}},{"type":"Feature","properties":{"cadnum":"6320684801:01:000:0027"},"geometry":{"type":"Polygon","coordinates":[[[36.642591,48.875334],[36.643011,48.874903],[36.642243,48.874575],[36.642053,48.874734],[36.642313,48.87485],[36.642186,48.874976],[36.641928,48.87519],[36.641424,48.874928],[36.641181,48.875104],[36.64210166531441,48.875498],[36.642101,48.875498],[36.642333,48.875597],[36.642591,48.875334]]]}},{"type":"Feature","properties":{"cadnum":"6320684801:01:000:0028"},"geometry":{"type":"Polygon","coordinates":[[[36.64081,48.875397],[36.641181,48.875104],[36.641424,48.874928],[36.642033,48.874484],[36.642164,48.874388],[36.641943,48.874248],[36.641806,48.874125],[36.641586,48.873885],[36.639905,48.874484],[36.640609,48.875103],[36.640761,48.875247],[36.64066,48.875301],[36.640689,48.87532],[36.64081,48.875397]]]}},{"type":"Feature","properties":{"cadnum":"6320684801:01:000:0044"},"geometry":{"type":"Polygon","coordinates":[[[36.644576,48.873275],[36.643835,48.872542],[36.643353,48.872079],[36.642508,48.872401],[36.642961,48.872947],[36.643467,48.873386],[36.644236,48.873691],[36.644812,48.87395488625592],[36.644812,48.873955],[36.644869,48.873981],[36.645489,48.874081],[36.646264,48.874295],[36.646904,48.87458],[36.647197,48.874793],[36.64738,48.87468],[36.64712,48.87454],[36.646082,48.874085],[36.644812,48.873402],[36.644812,48.87340256756757],[36.644576,48.873275]]]}},{"type":"Feature","properties":{"cadnum":"6320684801:01:000:0026"},"geometry":{"type":"Polygon","coordinates":[[[36.641928,48.87519],[36.642186,48.874976],[36.642313,48.87485],[36.642053,48.874734],[36.642243,48.874575],[36.642033,48.874484],[36.641424,48.874928],[36.641928,48.87519]]]}},{"type":"Feature","properties":{"cadnum":"6320684801:01:000:0057"},"geometry":{"type":"Polygon","coordinates":[[[36.644875,48.874994],[36.644983,48.874926],[36.644983,48.874924729508194],[36.645363,48.874681],[36.645183,48.874543],[36.644955,48.874571],[36.644812,48.874434],[36.644812,48.87443408510639],[36.64472,48.874346],[36.644168,48.874161],[36.643878,48.874304],[36.643755,48.874168],[36.643866,48.874013],[36.642903,48.873594],[36.642793,48.873459],[36.641826,48.873871],[36.642143,48.874224],[36.642768,48.874489],[36.643091,48.874241],[36.643332,48.874404],[36.643071,48.874621],[36.644095,48.87506],[36.644619,48.875238],[36.644875,48.874994]]]}},{"type":"Feature","properties":{"cadnum":"6320684801:01:000:0062"},"geometry":{"type":"Polygon","coordinates":[[[36.645179,48.877352],[36.645921,48.876594],[36.64607,48.876444],[36.645167,48.876018],[36.644983,48.876176084507044],[36.644983,48.876176],[36.644098,48.876932],[36.644812,48.87734749152542],[36.644812,48.877348],[36.645158,48.877549],[36.645179,48.877352]]]}},{"type":"Feature","properties":{"cadnum":"6320684801:01:000:0037"},"geometry":{"type":"Polygon","coordinates":[[[36.63949,48.865899],[36.63949,48.86589762589927],[36.639491,48.865896],[36.63949,48.86589395238096],[36.63949,48.865893],[36.639428,48.865767],[36.63949,48.865679],[36.63949,48.86567797435897],[36.639506,48.865655],[36.63940580364648,48.865625687237],[36.639021,48.86551],[36.638885,48.865709],[36.638791,48.865842],[36.638707,48.865969],[36.639159,48.866082],[36.639316,48.866121],[36.639318,48.86612105555555],[36.639318,48.866122],[36.639352,48.866122],[36.63949,48.865899]]]}},{"type":"Feature","properties":{"cadnum":"6320684801:01:000:0068"},"geometry":{"type":"Polygon","coordinates":[[[36.638629,48.86467],[36.63858,48.864658],[36.63857757142858,48.864658],[36.638329,48.8646],[36.638285245614036,48.864658],[36.638284,48.864658],[36.638006,48.865031],[36.63873,48.865234],[36.638748,48.865204],[36.639159,48.865309],[36.639445,48.864893],[36.63899857847533,48.864771],[36.638999,48.864771],[36.638629,48.86467]]]}},{"type":"Feature","properties":{"cadnum":"6320684801:01:000:0018"},"geometry":{"type":"Polygon","coordinates":[[[36.635311,48.863197],[36.635696,48.863005],[36.635342,48.862703],[36.635114,48.862489],[36.634725,48.862642],[36.634963,48.862873],[36.635311,48.863197]]]}},{"type":"Feature","properties":{"cadnum":"6320684801:01:000:0046"},"geometry":{"type":"Polygon","coordinates":[[[36.63772,48.863165],[36.638079,48.862986],[36.637696,48.862654],[36.637606,48.862581],[36.637513,48.862506],[36.637437,48.86248],[36.637096,48.862655],[36.63733,48.862857],[36.63772,48.863165]]]}},{"type":"Feature","properties":{"cadnum":"6320684801:01:000:0060"},"geometry":{"type":"Polygon","coordinates":[[[36.635459,48.863782],[36.636218,48.863452],[36.635944,48.863165],[36.63518,48.863516],[36.635397,48.863731],[36.635429,48.863761],[36.635459,48.863782]]]}},{"type":"Feature","properties":{"cadnum":"6320684801:01:000:0002"},"geometry":{"type":"Polygon","coordinates":[[[36.635683,48.864771],[36.635683384180794,48.864771],[36.635567,48.864871],[36.635313,48.865074],[36.635889,48.865214],[36.636054,48.865255],[36.636222,48.864985],[36.636306,48.864858],[36.635773,48.864694],[36.635683,48.864771]]]}},{"type":"Feature","properties":{"cadnum":"6320684801:01:000:0085"},"geometry":{"type":"Polygon","coordinates":[[[36.638376,48.863696],[36.638706,48.863527],[36.638388,48.863253],[36.638044,48.863421],[36.638376,48.863696]]]}},{"type":"Feature","properties":{"cadnum":"6320684801:01:000:0003"},"geometry":{"type":"Polygon","coordinates":[[[36.636702,48.864267],[36.636415,48.864132],[36.636178,48.864349],[36.63581526086957,48.864658],[36.635814,48.864658],[36.635773,48.864694],[36.636023,48.864771],[36.636023249999994,48.864771],[36.636306,48.864858],[36.636363855,48.864771],[36.636364,48.864771],[36.636702,48.864267]]]}},{"type":"Feature","properties":{"cadnum":"6320684801:01:000:0024"},"geometry":{"type":"Polygon","coordinates":[[[36.638044,48.863421],[36.638388,48.863253],[36.638079,48.862986],[36.63772,48.863165],[36.638044,48.863421]]]}},{"type":"Feature","properties":{"cadnum":"6320684801:01:000:0061"},"geometry":{"type":"Polygon","coordinates":[[[36.636206,48.864322],[36.636415,48.864132],[36.636702,48.864267],[36.637226,48.863705],[36.63654,48.8632],[36.636332,48.863003],[36.635944,48.863165],[36.636218,48.863452],[36.635459,48.863782],[36.636206,48.864322]]]}},{"type":"Feature","properties":{"cadnum":"6320684801:01:000:0070"},"geometry":{"type":"Polygon","coordinates":[[[36.638329,48.8646],[36.639164,48.863492],[36.639031,48.863396],[36.638464,48.863769],[36.63822,48.864054],[36.636973,48.863058],[36.636579,48.863228],[36.637226,48.863705],[36.636702,48.864267],[36.63643991048035,48.864658],[36.636439,48.864658],[36.636395,48.864725],[36.636635,48.864771],[36.63663717647057,48.864771],[36.638006,48.865031],[36.63819978016086,48.864771],[36.6382,48.864771],[36.638329,48.8646]]]}},{"type":"Feature","properties":{"cadnum":"6320684801:01:000:0084"},"geometry":{"type":"Polygon","coordinates":[[[36.63822,48.864054],[36.638464,48.863769],[36.638044,48.863421],[36.63772,48.863165],[36.63733,48.862857],[36.636973,48.863058],[36.63822,48.864054]]]}},{"type":"Feature","properties":{"cadnum":"6320684801:01:000:0054"},"geometry":{"type":"Polygon","coordinates":[[[36.634904,48.863352],[36.635111,48.863261],[36.635164,48.863238],[36.63517,48.863235],[36.635026,48.863084],[36.634925,48.862964],[36.634397,48.862441],[36.634124,48.862548],[36.63467,48.863105],[36.634904,48.863352]]]}},{"type":"Feature","properties":{"cadnum":"6320684801:01:000:0053"},"geometry":{"type":"Polygon","coordinates":[[[36.637232,48.862319],[36.637491,48.862209],[36.638102,48.861938],[36.637855,48.861697],[36.637214,48.861976],[36.636984,48.862076],[36.637232,48.862319]]]}},{"type":"Feature","properties":{"cadnum":"6320684801:01:000:0082"},"geometry":{"type":"Polygon","coordinates":[[[36.636549,48.867028],[36.637053,48.866298],[36.636589,48.866162],[36.63629,48.866747],[36.636207,48.86691],[36.636549,48.867028]]]}},{"type":"Feature","properties":{"cadnum":"6320684801:01:000:0039"},"geometry":{"type":"Polygon","coordinates":[[[36.636446,48.865863],[36.636583,48.86563],[36.636038,48.865597],[36.63597,48.8656],[36.635841,48.865607],[36.635608,48.865622],[36.635567,48.865624],[36.63557,48.865659],[36.635598,48.865849],[36.636006,48.865823],[36.636105,48.865817],[36.636446,48.865863]]]}},{"type":"Feature","properties":{"cadnum":"6320684801:01:000:0058"},"geometry":{"type":"Polygon","coordinates":[[[36.635055,48.865956],[36.635416,48.865926],[36.635373,48.865675],[36.635036,48.865695],[36.63419,48.86566],[36.634197,48.865907],[36.635055,48.865956]]]}},{"type":"Feature","properties":{"cadnum":"6320684801:01:000:0091"},"geometry":{"type":"Polygon","coordinates":[[[36.633997,48.86676587450981],[36.634845,48.867066],[36.635107,48.866822],[36.634346,48.866544],[36.634429,48.866404],[36.634206,48.866344],[36.633888694784424,48.866217411042605],[36.63351,48.866065],[36.633176,48.866474],[36.633825,48.86670482582217],[36.633825,48.866705],[36.63392497258655,48.86674038245465],[36.633997,48.866766],[36.633997,48.86676587450981]]]}},{"type":"Feature","properties":{"cadnum":"6320684801:01:000:0013"},"geometry":{"type":"Polygon","coordinates":[[[36.638543,48.865526],[36.63873,48.865234],[36.638006,48.865031],[36.637818,48.8653],[36.638543,48.865526]]]}},{"type":"Feature","properties":{"cadnum":"6320684801:01:000:0059"},"geometry":{"type":"Polygon","coordinates":[[[36.633997,48.8658908],[36.634065,48.865901],[36.634197,48.865907],[36.63419,48.86566],[36.634124,48.865656],[36.634655,48.865162],[36.63414,48.865011],[36.634103,48.865058],[36.633855,48.865015],[36.633825,48.865016],[36.633825,48.86501621718377],[36.633436,48.865032],[36.633306,48.865189],[36.63362,48.865391],[36.633267,48.865633],[36.633023,48.865743],[36.633997,48.865892],[36.633997,48.8658908]]]}},{"type":"Feature","properties":{"cadnum":"6320684801:01:000:0067"},"geometry":{"type":"Polygon","coordinates":[[[36.638707,48.865969],[36.638791,48.865842],[36.638885,48.865709],[36.639021,48.86551],[36.639159,48.865309],[36.638748,48.865204],[36.63873,48.865234],[36.638543,48.865526],[36.638515,48.86557],[36.638327,48.865863],[36.638537,48.865924],[36.638584,48.865937],[36.638707,48.865969]]]}},{"type":"Feature","properties":{"cadnum":"6320684801:01:000:0050"},"geometry":{"type":"Polygon","coordinates":[[[36.63629,48.866747],[36.636697,48.865952],[36.636777,48.865836],[36.636911,48.865635],[36.636833,48.865612],[36.636663,48.865561],[36.636583,48.86563],[36.636446,48.865863],[36.636328,48.866164],[36.636089,48.866694],[36.63629,48.866747]]]}},{"type":"Feature","properties":{"cadnum":"6320684801:01:000:0012"},"geometry":{"type":"Polygon","coordinates":[[[36.638327,48.865863],[36.638515,48.86557],[36.638543,48.865526],[36.637818,48.8653],[36.637571,48.865653],[36.638327,48.865863]]]}},{"type":"Feature","properties":{"cadnum":"6320684801:01:000:0069"},"geometry":{"type":"Polygon","coordinates":[[[36.637041,48.86719],[36.637643,48.866266],[36.637187,48.866106],[36.636549,48.867028],[36.637041,48.86719]]]}},{"type":"Feature","properties":{"cadnum":"6320684801:01:000:0074"},"geometry":{"type":"Polygon","coordinates":[[[36.637053,48.866298],[36.637187,48.866106],[36.637229,48.866037],[36.637252,48.866003],[36.637279,48.865962],[36.637297,48.865934],[36.637399,48.86578],[36.637226,48.865726],[36.637174,48.865699],[36.637021,48.865656],[36.636919,48.865619],[36.636911,48.865635],[36.636777,48.865836],[36.636697,48.865952],[36.636589,48.866162],[36.637053,48.866298]]]}},{"type":"Feature","properties":{"cadnum":"6320684801:01:000:0092"},"geometry":{"type":"Polygon","coordinates":[[[36.636583,48.86563],[36.636663,48.865561],[36.63667,48.86552],[36.635975,48.865349],[36.635903,48.865323],[36.635613,48.865253],[36.635534,48.865262],[36.635538,48.865421],[36.635567,48.865624],[36.635608,48.865622],[36.635841,48.865607],[36.63597,48.8656],[36.636038,48.865597],[36.636583,48.86563]]]}},{"type":"Feature","properties":{"cadnum":"6320684801:01:000:0036"},"geometry":{"type":"Polygon","coordinates":[[[36.63108,48.867833],[36.631564,48.867516],[36.631871,48.867266],[36.631635,48.867083],[36.63138,48.867256],[36.631342,48.867283],[36.6308,48.867653],[36.63108,48.867833]]]}},{"type":"Feature","properties":{"cadnum":"6320684801:01:000:0041"},"geometry":{"type":"Polygon","coordinates":[[[36.630039,48.868176],[36.630405,48.867924],[36.630144,48.867766],[36.629795,48.868008],[36.630039,48.868176]]]}},{"type":"Feature","properties":{"cadnum":"6320684801:01:000:0078"},"geometry":{"type":"Polygon","coordinates":[[[36.629449,48.867435],[36.630404,48.866836],[36.630561,48.866745],[36.630262,48.866548],[36.630499,48.866396],[36.630186,48.866398],[36.629054,48.867105],[36.629064,48.867113],[36.629449,48.867435]]]}},{"type":"Feature","properties":{"cadnum":"6320684801:01:000:0080"},"geometry":{"type":"Polygon","coordinates":[[[36.630267,48.867279],[36.630663,48.867042],[36.630959,48.866831],[36.631102,48.866725],[36.630817,48.866553],[36.630561,48.866745],[36.630404,48.866836],[36.629986,48.867098],[36.630267,48.867279]]]}},{"type":"Feature","properties":{"cadnum":"6320684801:01:000:0040"},"geometry":{"type":"Polygon","coordinates":[[[36.630695,48.868086],[36.63108,48.867833],[36.6308,48.867653],[36.630762,48.86768],[36.630424,48.867912],[36.630695,48.868086]]]}},{"type":"Feature","properties":{"cadnum":"6320684801:01:000:0035"},"geometry":{"type":"Polygon","coordinates":[[[36.630762,48.86768],[36.6308,48.867653],[36.631342,48.867283],[36.63138,48.867256],[36.631635,48.867083],[36.631641,48.86708],[36.631399,48.866899],[36.630973,48.86719],[36.630497,48.867521],[36.630762,48.86768]]]}},{"type":"Feature","properties":{"cadnum":"6320684801:01:000:0042"},"geometry":{"type":"Polygon","coordinates":[[[36.630405,48.867924],[36.630424,48.867912],[36.630762,48.86768],[36.630497,48.867521],[36.630144,48.867766],[36.630405,48.867924]]]}},{"type":"Feature","properties":{"cadnum":"6320684801:01:000:0025"},"geometry":{"type":"Polygon","coordinates":[[[36.631633,48.868179],[36.632001,48.867929],[36.632172,48.867814],[36.632412,48.86766],[36.632131,48.867453],[36.631914,48.867617],[36.631701,48.867737],[36.631327,48.867983],[36.631633,48.868179]]]}}]}