{"type":"FeatureCollection","features":[{"type":"Feature","properties":{"cadnum":"6320480507:00:000:0037"},"geometry":{"type":"Polygon","coordinates":[[[37.057149,48.830383],[37.057207,48.830375],[37.057353,48.830358],[37.057323,48.830254],[37.057295,48.830143],[37.057276,48.83009],[37.057267,48.830058],[37.0572,48.829832],[37.05690910115634,48.829864644508646],[37.056794,48.829877],[37.056799,48.829896861111116],[37.056799,48.829899],[37.056866,48.830163],[37.056913,48.830303],[37.056945,48.830408],[37.056971,48.830405],[37.056971,48.83040481372549],[37.057149,48.830383]]]}},{"type":"Feature","properties":{"cadnum":"6320480507:00:000:0046"},"geometry":{"type":"Polygon","coordinates":[[[37.056885,48.829305],[37.056905,48.829359],[37.05694,48.829455],[37.05695,48.829491],[37.057071,48.829795],[37.057546,48.829719],[37.057448,48.829422],[37.057428,48.829372],[37.057386,48.829293],[37.05739,48.829273],[37.057377,48.829236],[37.057362,48.829197],[37.057337,48.829126],[37.057146,48.829154],[37.057103,48.829161],[37.056847,48.829197],[37.056885,48.829305]]]}},{"type":"Feature","properties":{"cadnum":"6320480507:00:000:0044"},"geometry":{"type":"Polygon","coordinates":[[[37.06097,48.824373],[37.0614,48.824327],[37.062204,48.824218],[37.062123,48.823973],[37.061368,48.824075],[37.061019,48.824143],[37.0609,48.824165],[37.060923,48.824237],[37.060936,48.824277],[37.06097,48.824373]]]}},{"type":"Feature","properties":{"cadnum":"6320480507:00:000:0041"},"geometry":{"type":"Polygon","coordinates":[[[37.06230868456388,48.82425130201341],[37.062464,48.824236],[37.062464,48.82423549557522],[37.062744,48.824207],[37.062774,48.824201],[37.062803,48.824198],[37.06298,48.824177],[37.062977,48.82417],[37.063142,48.824147],[37.063105,48.824025],[37.06309,48.823974],[37.063055,48.823859],[37.062983,48.823867],[37.06285,48.823883],[37.062849,48.823875],[37.062818,48.823881],[37.06258,48.823917],[37.062329161291075,48.823946612903136],[37.062179,48.823964],[37.062261,48.824256],[37.062292,48.82425294581281],[37.062292,48.824253],[37.06230868456388,48.82425130201341]]]}},{"type":"Feature","properties":{"cadnum":"6320480507:00:000:0034"},"geometry":{"type":"Polygon","coordinates":[[[37.060195,48.824683],[37.060514,48.824655],[37.060467,48.824448],[37.06047,48.824411],[37.06052,48.824404],[37.060854,48.824374],[37.060813,48.824246],[37.060801,48.82421],[37.060797,48.8242],[37.060774,48.82413],[37.060515,48.824162],[37.060416,48.824174],[37.060347,48.824183],[37.060314,48.824087],[37.060014,48.824129],[37.060195,48.824683]]]}},{"type":"Feature","properties":{"cadnum":"6320480507:00:000:0045"},"geometry":{"type":"Polygon","coordinates":[[[37.059158,48.824672],[37.058974,48.824245],[37.058631,48.824282],[37.058836,48.82482],[37.058864,48.824893],[37.058863,48.824893],[37.058892,48.824966],[37.058947,48.825124],[37.059072,48.82511],[37.059124,48.825105],[37.059276,48.825089],[37.05923319999988,48.82493919999957],[37.059158,48.824672]]]}},{"type":"Feature","properties":{"cadnum":"6320480507:00:000:0048"},"geometry":{"type":"Polygon","coordinates":[[[37.058892,48.824966],[37.058836,48.82482],[37.058647,48.824322],[37.058266,48.824375],[37.058304,48.824472],[37.058533,48.825006],[37.05853354814815,48.825006],[37.058601,48.825163],[37.058947,48.825124],[37.058905924050634,48.825006],[37.058906,48.825006],[37.058892,48.824966]]]}},{"type":"Feature","properties":{"cadnum":"6320480507:00:000:0050"},"geometry":{"type":"Polygon","coordinates":[[[37.058266,48.824375],[37.058647,48.824322],[37.058631,48.824282],[37.058322,48.823599],[37.057964,48.823645],[37.058053,48.823847],[37.058123,48.824004],[37.058266,48.824375]]]}},{"type":"Feature","properties":{"cadnum":"6320480507:00:000:0038"},"geometry":{"type":"Polygon","coordinates":[[[37.052061,48.824788],[37.052152,48.824776],[37.052076,48.824541],[37.051979,48.824554],[37.051477,48.82462411589896],[37.051477,48.824624],[37.051346651001886,48.82464232214833],[37.051306,48.824648],[37.051306,48.82464803614457],[37.051228,48.824659],[37.051311,48.824892],[37.051477,48.82487],[37.051477,48.82486898133333],[37.052061,48.824788]]]}},{"type":"Feature","properties":{"cadnum":"6320480507:00:000:0030"},"geometry":{"type":"Polygon","coordinates":[[[37.055931,48.824633],[37.05486,48.82475],[37.05488401953125,48.824893],[37.054882,48.824893],[37.054967,48.825389],[37.054979,48.825424],[37.055021,48.825452],[37.056048,48.825422],[37.055985875236296,48.825006],[37.055986,48.825006],[37.055931,48.824633]]]}},{"type":"Feature","properties":{"cadnum":"6320480507:00:000:0002"},"geometry":{"type":"Polygon","coordinates":[[[37.052841,48.824524],[37.054184,48.824326],[37.054161,48.824282],[37.054091,48.82414],[37.052777,48.824351],[37.052841,48.824524]]]}},{"type":"Feature","properties":{"cadnum":"6320480507:00:000:0036"},"geometry":{"type":"Polygon","coordinates":[[[37.052152,48.824776],[37.052651,48.824706],[37.052623,48.824617],[37.052615,48.824591],[37.052577,48.824472],[37.052391,48.824498],[37.052076,48.824541],[37.052152,48.824776]]]}},{"type":"Feature","properties":{"cadnum":"6320480507:00:000:0039"},"geometry":{"type":"Polygon","coordinates":[[[37.052777,48.824351],[37.053633,48.824214],[37.053563,48.824004],[37.053122,48.824064],[37.052701,48.824133],[37.052715,48.824175],[37.052727,48.824211],[37.052777,48.824351]]]}},{"type":"Feature","properties":{"cadnum":"6320480507:03:000:0006"},"geometry":{"type":"Polygon","coordinates":[[[37.068231,48.820246],[37.067972,48.819409],[37.06789953846155,48.81942217482517],[37.065218,48.819897],[37.065434,48.820741],[37.067785,48.820325405073326],[37.067785,48.820326],[37.068231,48.820246]]]}},{"type":"Feature","properties":{"cadnum":"6320480507:03:000:0008"},"geometry":{"type":"Polygon","coordinates":[[[37.067785,48.821195],[37.067785,48.82119533700787],[37.06732766964287,48.821276],[37.067325,48.821276],[37.066757475644955,48.82137656965003],[37.066687,48.821389],[37.0666873299663,48.821389],[37.065649,48.821573],[37.065859,48.822393],[37.067785,48.822052415633934],[37.067785,48.822053],[37.068735,48.821884],[37.06858194078948,48.821389],[37.068582,48.821389],[37.068484,48.821071],[37.067785,48.821195]]]}},{"type":"Feature","properties":{"cadnum":"6320480507:03:000:0007"},"geometry":{"type":"Polygon","coordinates":[[[37.068484,48.821071],[37.068231,48.820246],[37.067957,48.820295147982065],[37.067957,48.820295],[37.065434,48.820741],[37.065571878086416,48.821276],[37.065571,48.821276],[37.065649,48.821573],[37.066757475644714,48.82137656965007],[37.067957,48.821165],[37.067957,48.82116448783977],[37.068484,48.821071]]]}},{"type":"Feature","properties":{"cadnum":"6320480507:03:000:0005"},"geometry":{"type":"Polygon","coordinates":[[[37.06789953846155,48.81942217482517],[37.067957,48.819412],[37.067957,48.81941172727273],[37.067972,48.819409],[37.06782593877541,48.81893644897926],[37.06771,48.81856],[37.064998,48.81904],[37.065218,48.819897],[37.067785,48.819442456370936],[37.067785,48.819443],[37.06789953846155,48.81942217482517]]]}},{"type":"Feature","properties":{"cadnum":"6320480507:03:000:0010"},"geometry":{"type":"Polygon","coordinates":[[[37.068446,48.8239],[37.068658,48.823174],[37.068684,48.822786],[37.067957,48.822915388209125],[37.067957,48.822915],[37.066079,48.823247],[37.066317,48.824173],[37.067957,48.823964],[37.067957,48.82396288199698],[37.068446,48.8239]]]}},{"type":"Feature","properties":{"cadnum":"6320480507:00:000:0020"},"geometry":{"type":"Polygon","coordinates":[[[37.065656,48.824965],[37.066188,48.8249],[37.066083,48.824645],[37.065653,48.824719],[37.065202,48.824788],[37.065264,48.825006],[37.065265516949154,48.825006],[37.065267,48.825011],[37.0653092826087,48.825006],[37.065311,48.825006],[37.065656,48.824965]]]}},{"type":"Feature","properties":{"cadnum":"6320480507:00:000:0042"},"geometry":{"type":"Polygon","coordinates":[[[37.06364,48.824984],[37.063791,48.824964],[37.063842,48.824957],[37.063982,48.824939],[37.06403,48.824932],[37.064297,48.8249],[37.064243,48.82469],[37.06396,48.824728],[37.063846,48.824744],[37.063769,48.824755],[37.063719,48.824761],[37.063464,48.8248],[37.063486,48.824861],[37.063493384615384,48.824893],[37.063492,48.824893],[37.063495,48.8249],[37.063518,48.824985],[37.063557,48.824991],[37.06364,48.824984]]]}},{"type":"Feature","properties":{"cadnum":"6320480507:00:000:0040"},"geometry":{"type":"Polygon","coordinates":[[[37.065202,48.824788],[37.06528,48.824775],[37.065414,48.824755],[37.065489,48.824743],[37.06565,48.824719],[37.065653,48.824719],[37.066083,48.824645],[37.065996,48.824446],[37.065578,48.824506],[37.065497,48.824515],[37.065134,48.82457],[37.065151,48.824627],[37.065161,48.824657],[37.065202,48.824788]]]}},{"type":"Feature","properties":{"cadnum":"6320480507:03:000:0009"},"geometry":{"type":"Polygon","coordinates":[[[37.068684,48.822786],[37.068741,48.821906],[37.068735,48.821884],[37.067957,48.82202240210526],[37.067957,48.822022],[37.065859,48.822393],[37.066079,48.823247],[37.067785,48.82294540681576],[37.067785,48.822946],[37.068684,48.822786]]]}},{"type":"Feature","properties":{"cadnum":"6320480507:00:000:0035"},"geometry":{"type":"Polygon","coordinates":[[[37.058583,48.828435],[37.058575,48.82842],[37.058089,48.828486],[37.05809666666667,48.828509],[37.058096,48.828509],[37.058117,48.82857],[37.058133,48.828622],[37.05813330508475,48.828622],[37.058191,48.828806],[37.058229,48.828815],[37.058491,48.828777],[37.058538,48.828771],[37.058695,48.828747],[37.058656,48.828634],[37.058616,48.828529],[37.058583,48.828435]]]}},{"type":"Feature","properties":{"cadnum":"6320480507:00:000:0018"},"geometry":{"type":"Polygon","coordinates":[[[37.060423,48.829323],[37.060569,48.829302],[37.060803,48.829267],[37.060685,48.828912],[37.060284,48.828954],[37.060423,48.829323]]]}},{"type":"Feature","properties":{"cadnum":"6320480507:00:000:0017"},"geometry":{"type":"Polygon","coordinates":[[[37.060284,48.828954],[37.060685,48.828912],[37.060567,48.828635],[37.060188,48.828694],[37.060284,48.828954]]]}},{"type":"Feature","properties":{"cadnum":"6320480507:00:000:0019"},"geometry":{"type":"Polygon","coordinates":[[[37.06,48.829387],[37.060423,48.829323],[37.060284,48.828954],[37.060188,48.828694],[37.059771,48.828755],[37.059886,48.829048],[37.06,48.829387]]]}},{"type":"Feature","properties":{"cadnum":"6320480507:00:000:0047"},"geometry":{"type":"Polygon","coordinates":[[[37.05912,48.828422],[37.0591,48.828362],[37.059017,48.828113],[37.058508,48.828179],[37.058575,48.82842],[37.058583,48.828435],[37.058608978723406,48.828509],[37.058608,48.828509],[37.058616,48.828529],[37.058651,48.828622],[37.05865142857143,48.828622],[37.058656,48.828634],[37.058695,48.828747],[37.059209,48.828681],[37.05915,48.828509],[37.059149145,48.828509],[37.05912,48.828422]]]}},{"type":"Feature","properties":{"cadnum":"6320480507:00:000:0043"},"geometry":{"type":"Polygon","coordinates":[[[37.060011,48.830023],[37.060205,48.830001],[37.060216,48.829998],[37.060236,48.829996],[37.06028,48.829991],[37.060282,48.82999],[37.060326,48.829985],[37.060401,48.829976],[37.060315,48.829716],[37.060305,48.829693],[37.060207,48.829356],[37.06,48.829387],[37.059824,48.829413],[37.05983,48.829431],[37.059933,48.829744],[37.059964,48.82986],[37.060011,48.830023]]]}},{"type":"Feature","properties":{"cadnum":"6320480507:00:000:0033"},"geometry":{"type":"Polygon","coordinates":[[[37.05681267197442,48.826617878980905],[37.056971,48.826594],[37.056971,48.82659331656185],[37.057276,48.826546],[37.057215,48.826371],[37.056799,48.826435],[37.056799,48.82643524523161],[37.056604,48.826465],[37.056666,48.82664],[37.056799,48.826619940983605],[37.056799,48.82662],[37.05681267197442,48.826617878980905]]]}},{"type":"Feature","properties":{"cadnum":"6320480507:00:000:0013"},"geometry":{"type":"Polygon","coordinates":[[[37.054091,48.828],[37.054573,48.827925],[37.054561,48.82789],[37.054472,48.827643],[37.054421,48.827503],[37.053941,48.827584],[37.054091,48.828]]]}},{"type":"Feature","properties":{"cadnum":"6320480507:00:000:0012"},"geometry":{"type":"Polygon","coordinates":[[[37.053941,48.827584],[37.054421,48.827503],[37.054374,48.827371],[37.054349,48.827299],[37.054204,48.826893],[37.053747,48.826968],[37.053865,48.827374],[37.053941,48.827584]]]}},{"type":"Feature","properties":{"cadnum":"6320480507:00:000:0027"},"geometry":{"type":"Polygon","coordinates":[[[37.061018,48.828416],[37.061455,48.828353],[37.061552,48.828339],[37.061568,48.828336],[37.061483,48.828127],[37.060935,48.828204],[37.061018,48.828416]]]}},{"type":"Feature","properties":{"cadnum":"6320480507:00:000:0028"},"geometry":{"type":"Polygon","coordinates":[[[37.061568,48.828336],[37.061918,48.828287],[37.061925,48.828286],[37.061875,48.828105],[37.061862,48.828063],[37.061809,48.827874],[37.061475,48.82793],[37.060864,48.828003],[37.060909,48.828129],[37.06092,48.828161],[37.06092,48.828163],[37.060935,48.828204],[37.061483,48.828127],[37.061568,48.828336]]]}},{"type":"Feature","properties":{"cadnum":"6320480507:00:000:0032"},"geometry":{"type":"Polygon","coordinates":[[[37.05741,48.827772],[37.057526,48.827755],[37.057642,48.827737],[37.057636,48.827716],[37.057586,48.827573],[37.057354,48.827608],[37.057393,48.827721],[37.057405,48.827757],[37.05741,48.827772]]]}},{"type":"Feature","properties":{"cadnum":"6320480507:00:000:0031"},"geometry":{"type":"Polygon","coordinates":[[[37.057248,48.827299],[37.057272,48.827295],[37.057512,48.82726],[37.057436,48.827037],[37.057173,48.827077],[37.057244,48.827289],[37.057248,48.827299]]]}},{"type":"Feature","properties":{"cadnum":"6320480507:00:000:0004"},"geometry":{"type":"Polygon","coordinates":[[[37.057522,48.828126],[37.057856,48.828086],[37.057813,48.827949],[37.057484,48.827985],[37.057522,48.828126]]]}},{"type":"Feature","properties":{"cadnum":"6320480507:00:000:0029"},"geometry":{"type":"Polygon","coordinates":[[[37.060687,48.828457],[37.060735,48.828449],[37.060763,48.828452],[37.060817,48.828445],[37.060883,48.828436],[37.061018,48.828416],[37.060935,48.828204],[37.06092,48.828163],[37.06092,48.828161],[37.060909,48.828129],[37.060864,48.828003],[37.060743,48.827702],[37.060392,48.827757],[37.060558,48.828179],[37.060562,48.828181],[37.060629,48.828317],[37.060659,48.82838],[37.060687,48.828457]]]}},{"type":"Feature","properties":{"cadnum":"6320480507:00:000:0049"},"geometry":{"type":"Polygon","coordinates":[[[37.058508,48.828179],[37.059017,48.828113],[37.058908,48.827789],[37.058765,48.827817],[37.058757,48.827799],[37.058411,48.827849],[37.058508,48.828179]]]}}]}