{"type":"FeatureCollection","features":[{"type":"Feature","properties":{"cadnum":"6320682003:03:000:0009"},"geometry":{"type":"Polygon","coordinates":[[[36.606123,48.625422],[36.605612,48.625217],[36.605429,48.625466],[36.605326300469486,48.625591],[36.605325,48.625591],[36.605254,48.625679],[36.605319,48.625704],[36.60531905102041,48.625704],[36.605764,48.625875],[36.605942,48.625662],[36.605996,48.625591],[36.60599554583333,48.625591],[36.606123,48.625422]]]}},{"type":"Feature","properties":{"cadnum":"6320682003:03:000:0011"},"geometry":{"type":"Polygon","coordinates":[[[36.598533,48.625189],[36.597122,48.624693],[36.596549,48.625319],[36.59731413246754,48.625591],[36.597312,48.625591],[36.598134,48.625883],[36.598302,48.625591],[36.59830116699029,48.625591],[36.598533,48.625189]]]}},{"type":"Feature","properties":{"cadnum":"6320682003:03:000:0001"},"geometry":{"type":"Polygon","coordinates":[[[36.595545,48.62444559663866],[36.595611,48.62447],[36.596288,48.624719],[36.596391,48.624586],[36.59643,48.62454],[36.596442,48.624527],[36.5961,48.624395],[36.595788,48.624263],[36.59543187871873,48.62412741647604],[36.595314,48.624082],[36.595132,48.624291],[36.595373,48.624381447941886],[36.595373,48.624382],[36.59547238461546,48.624418747252776],[36.595545,48.624446],[36.595545,48.62444559663866]]]}},{"type":"Feature","properties":{"cadnum":"6320682003:03:000:0013"},"geometry":{"type":"Polygon","coordinates":[[[36.596937,48.622777],[36.596992,48.622702],[36.596705,48.62256],[36.595872,48.622229],[36.595729,48.622306],[36.596937,48.622777]]]}},{"type":"Feature","properties":{"cadnum":"6320682003:03:000:0002"},"geometry":{"type":"Polygon","coordinates":[[[36.598632,48.622547],[36.598704,48.622454],[36.598513,48.622388],[36.598439,48.622481],[36.598632,48.622547]]]}},{"type":"Feature","properties":{"cadnum":"6320682003:03:000:0008"},"geometry":{"type":"Polygon","coordinates":[[[36.599199,48.624084],[36.599332,48.623981],[36.599521,48.623835],[36.599552,48.623812],[36.599742,48.623551],[36.599944,48.623085],[36.598906,48.622723],[36.598719,48.622688],[36.598552,48.622657],[36.598324,48.622616],[36.598266,48.622687],[36.59792,48.623118],[36.598007,48.623146],[36.598289,48.623234],[36.597902,48.623687],[36.599046,48.624069],[36.599199,48.624084]],[[36.598708,48.623054],[36.598699,48.62304],[36.598722,48.623033],[36.598731,48.623048],[36.598708,48.623054]],[[36.599109,48.623541],[36.5991,48.623526],[36.599122,48.62352],[36.599132,48.623535],[36.599109,48.623541]]]}},{"type":"Feature","properties":{"cadnum":"6320682003:03:000:0014"},"geometry":{"type":"Polygon","coordinates":[[[36.59687,48.622869],[36.596937,48.622777],[36.595729,48.622306],[36.595601,48.622375],[36.59687,48.622869]]]}},{"type":"Feature","properties":{"cadnum":"6320682003:03:000:0015"},"geometry":{"type":"Polygon","coordinates":[[[36.596805,48.622957],[36.59687,48.622869],[36.595601,48.622375],[36.59548,48.62244],[36.596805,48.622957]]]}},{"type":"Feature","properties":{"cadnum":"6320682003:03:000:0110"},"geometry":{"type":"Polygon","coordinates":[[[36.602085,48.620095],[36.602327,48.619719],[36.60199,48.619624],[36.601759,48.619983],[36.602085,48.620095]]]}},{"type":"Feature","properties":{"cadnum":"6320682003:03:000:0005"},"geometry":{"type":"Polygon","coordinates":[[[36.600817,48.618343],[36.600897,48.618202],[36.6007,48.618082],[36.600554,48.617883],[36.599544,48.617506],[36.599118,48.618053],[36.600154,48.618442],[36.60015572563177,48.618442],[36.60059,48.618605],[36.600866,48.61870716574586],[36.600866,48.618708],[36.600952,48.618739],[36.601038,48.618625],[36.601038,48.61862418085106],[36.60114,48.618488],[36.60103668852459,48.618442],[36.601037,48.618442],[36.600817,48.618343]]]}},{"type":"Feature","properties":{"cadnum":"6320682003:03:000:0016"},"geometry":{"type":"Polygon","coordinates":[[[36.601038,48.61973292670157],[36.60138,48.619852],[36.601597,48.619512],[36.601302,48.619428],[36.600866,48.619292],[36.600866,48.619292054545454],[36.600818,48.619277],[36.600593,48.619574],[36.600866,48.61967174074074],[36.600866,48.619672],[36.600998,48.619719],[36.601038,48.619734],[36.601038,48.61973292670157]]]}},{"type":"Feature","properties":{"cadnum":"6320682003:03:000:0018"},"geometry":{"type":"Polygon","coordinates":[[[36.606531,48.62617],[36.606298,48.62608],[36.606131,48.626292],[36.606359,48.62637978],[36.606359,48.62638],[36.606663,48.626497],[36.606828,48.626285],[36.606531,48.62617037953092],[36.606531,48.62617]]]}},{"type":"Feature","properties":{"cadnum":"6320682003:03:000:0006"},"geometry":{"type":"Polygon","coordinates":[[[36.60662,48.625629],[36.606563,48.625704],[36.6065650177936,48.625704],[36.606531,48.62575040291263],[36.606531,48.62575],[36.606414,48.62591],[36.606359,48.62599],[36.606359,48.62599060344828],[36.606298,48.62608],[36.606359,48.62610356223176],[36.606359,48.626104],[36.606828,48.626285],[36.60697,48.626104],[36.607128,48.625827],[36.607057,48.6258],[36.606986,48.625772],[36.60681195804195,48.625704],[36.606813,48.625704],[36.60662,48.625629]]]}},{"type":"Feature","properties":{"cadnum":"6320682003:03:000:0007"},"geometry":{"type":"Polygon","coordinates":[[[36.595726,48.621251],[36.59543176759694,48.621106801116916],[36.595138,48.620961],[36.594318,48.621852],[36.593989,48.621701],[36.593591,48.621484],[36.593378,48.621755],[36.59385504402516,48.62196],[36.593854,48.62196],[36.594497,48.622236],[36.594434,48.622329],[36.594084,48.622741],[36.593691,48.623165],[36.593815,48.623201],[36.594441,48.623382],[36.595079,48.622325],[36.595230199999996,48.622073],[36.595231,48.622073],[36.595545,48.621553],[36.595545,48.62155147025496],[36.595726,48.621251]]]}},{"type":"Feature","properties":{"cadnum":"6320682003:03:000:0003"},"geometry":{"type":"Polygon","coordinates":[[[36.595129,48.62525],[36.595315,48.624979],[36.593962,48.624446],[36.593807,48.62439],[36.59391,48.624204],[36.594088,48.623905],[36.595132,48.624291],[36.595314,48.624082],[36.594249,48.623668],[36.594441,48.623382],[36.593815,48.623201],[36.592856,48.624522],[36.592731,48.624671],[36.593497,48.624897],[36.593579,48.62477],[36.595129,48.62525]]]}},{"type":"Feature","properties":{"cadnum":"6320682003:03:000:0010"},"geometry":{"type":"Polygon","coordinates":[[[36.598597,48.621155],[36.599316,48.620296],[36.59789,48.619645],[36.597452,48.620206],[36.597247,48.620599],[36.598597,48.621155]]]}},{"type":"Feature","properties":{"cadnum":"6320682003:03:000:0012"},"geometry":{"type":"Polygon","coordinates":[[[36.597996,48.621419],[36.598062,48.621348],[36.598224,48.621414],[36.598554,48.621137],[36.597241,48.620597],[36.597059,48.6208],[36.59733,48.620943],[36.597239,48.621137],[36.597996,48.621419]]]}},{"type":"Feature","properties":{"cadnum":"6320682003:03:000:0017"},"geometry":{"type":"Polygon","coordinates":[[[36.599328,48.620008],[36.599761,48.619524],[36.598629,48.619077],[36.598219,48.619563],[36.599328,48.620008]]]}}]}