{"type":"FeatureCollection","features":[{"type":"Feature","properties":{"cadnum":"6320681506:05:000:0006"},"geometry":{"type":"Polygon","coordinates":[[[36.667079,48.794415],[36.667549,48.794204],[36.667625,48.794087],[36.666784,48.793368],[36.666784,48.79336801139601],[36.666605,48.793214],[36.666319,48.793332],[36.665465,48.793621],[36.665322,48.793603],[36.666128,48.794617],[36.665965,48.794693],[36.665155,48.793655],[36.664927,48.793712],[36.665239,48.794114],[36.665768,48.79479],[36.666669,48.794624],[36.666956,48.794478],[36.666956,48.79447754237288],[36.667079,48.794415]]]}},{"type":"Feature","properties":{"cadnum":"6320681506:05:000:0002"},"geometry":{"type":"Polygon","coordinates":[[[36.654995,48.791384],[36.655566,48.791381],[36.655803,48.791386],[36.655747,48.790444],[36.65428,48.790476],[36.654339,48.790652],[36.654376,48.791007],[36.654401,48.791287],[36.654046,48.791629],[36.65410546821516,48.792334],[36.654105,48.792334],[36.654113244618316,48.79242618982295],[36.654115,48.792447],[36.65411510569106,48.792447],[36.654138,48.792703],[36.654973,48.792718],[36.654938,48.792441],[36.654944,48.792334],[36.65494377010407,48.792334],[36.654995,48.791384]]]}},{"type":"Feature","properties":{"cadnum":"6320681506:05:000:0001"},"geometry":{"type":"Polygon","coordinates":[[[36.65597,48.79138898214286],[36.655971,48.791389],[36.655986,48.791783],[36.656007,48.792306],[36.656043,48.792334],[36.656051,48.792447],[36.65605216945107,48.792447],[36.656077,48.792753],[36.656629,48.792744],[36.657072,48.792456],[36.657063,48.792334],[36.65706288929441,48.792334],[36.657012,48.791625],[36.656945,48.791],[36.65687,48.790595],[36.6568,48.790389],[36.65597,48.790432073852294],[36.65597,48.790432],[36.65593144392621,48.7904340747663],[36.655798,48.790441],[36.655798,48.79044125560538],[36.655747,48.790444],[36.655803,48.791386],[36.65597,48.791389],[36.65597,48.79138898214286]]]}},{"type":"Feature","properties":{"cadnum":"6320681506:05:000:0009"},"geometry":{"type":"Polygon","coordinates":[[[36.655798,48.797364905440425],[36.655798,48.797366],[36.655895,48.797262],[36.65401,48.796292],[36.653121,48.797008],[36.65413,48.797601],[36.655123,48.798081],[36.655798,48.797364905440425]]]}},{"type":"Feature","properties":{"cadnum":"6320681506:05:000:0007"},"geometry":{"type":"Polygon","coordinates":[[[36.660521,48.799505],[36.660450575419,48.799571],[36.66045,48.799571],[36.66033,48.799684],[36.660267,48.799732],[36.659506,48.800365],[36.659721,48.800481],[36.660458,48.799866],[36.660535,48.7998],[36.660591,48.799755],[36.660621,48.799734],[36.660763,48.799599],[36.660521,48.799505]]]}},{"type":"Feature","properties":{"cadnum":"6320681506:05:000:0008"},"geometry":{"type":"Polygon","coordinates":[[[36.656804,48.79873],[36.657367,48.798034],[36.657618,48.797724],[36.657394,48.797631],[36.657191,48.797876],[36.656915,48.798212],[36.656574,48.798635],[36.656804,48.79873]]]}},{"type":"Feature","properties":{"cadnum":"6320681506:05:000:0005"},"geometry":{"type":"Polygon","coordinates":[[[36.665965,48.794693],[36.666128,48.794617],[36.665322,48.793603],[36.665155,48.793655],[36.665965,48.794693]]]}},{"type":"Feature","properties":{"cadnum":"6320681506:05:000:0004"},"geometry":{"type":"Polygon","coordinates":[[[36.664994,48.7942],[36.665239,48.794114],[36.664927,48.793712],[36.664711,48.793838],[36.664994,48.7942]]]}},{"type":"Feature","properties":{"cadnum":"6320681506:05:000:0003"},"geometry":{"type":"Polygon","coordinates":[[[36.665803,48.79519],[36.666017,48.79511],[36.665239,48.794114],[36.664994,48.7942],[36.665489,48.794832],[36.665803,48.79519]]]}},{"type":"Feature","properties":{"cadnum":"6320681506:05:000:0011"},"geometry":{"type":"Polygon","coordinates":[[[36.663728,48.800327],[36.663814,48.800251],[36.663885,48.800192],[36.663968,48.800043],[36.664069,48.799944],[36.663716,48.799692],[36.66354,48.799817],[36.663115,48.800105],[36.663728,48.800327]]]}},{"type":"Feature","properties":{"cadnum":"6320681506:05:000:0012"},"geometry":{"type":"Polygon","coordinates":[[[36.662454,48.800402],[36.662616,48.800279],[36.662391,48.800164],[36.662178,48.800334],[36.661463,48.80085637442922],[36.661463,48.800856],[36.661302,48.800974],[36.661463,48.801057],[36.661463,48.80105661842105],[36.66153,48.801091],[36.662454,48.800402]]]}},{"type":"Feature","properties":{"cadnum":"6320681506:05:000:0010"},"geometry":{"type":"Polygon","coordinates":[[[36.662178,48.800334],[36.662385,48.800167],[36.66209,48.800052],[36.662017,48.800126],[36.661959,48.80018],[36.661931,48.800202],[36.661912,48.800216],[36.661291,48.800688],[36.661291,48.800688352201256],[36.661145,48.800799],[36.661291,48.8008716893617],[36.661291,48.800872],[36.66138,48.800916],[36.661463,48.800856],[36.661463,48.800855466165416],[36.662178,48.800334]]]}}]}