{"type":"FeatureCollection","features":[{"type":"Feature","properties":{"cadnum":"6320481801:00:000:0047"},"geometry":{"type":"Polygon","coordinates":[[[36.92105,48.87524],[36.921099,48.874889],[36.920696,48.874865],[36.920639,48.875211],[36.92059411025641,48.875498],[36.920594,48.875498],[36.920578,48.875601],[36.920716,48.875611],[36.920721793103404,48.875611],[36.920995,48.87563],[36.92100153846152,48.875579230769375],[36.92105,48.87524]]]}},{"type":"Feature","properties":{"cadnum":"6320481801:01:000:0034"},"geometry":{"type":"Polygon","coordinates":[[[36.922026,48.875352],[36.922108,48.874888],[36.921716,48.874898],[36.921641,48.875326],[36.921610824561405,48.875498],[36.92161,48.875498],[36.92159433333337,48.87559199999979],[36.921591,48.875611],[36.921591166666666,48.875611],[36.921582,48.875666],[36.921967,48.875693],[36.92199859574463,48.87550629787261],[36.922026,48.875352]]]}},{"type":"Feature","properties":{"cadnum":"6320481801:00:000:0018"},"geometry":{"type":"Polygon","coordinates":[[[36.923627,48.874973],[36.92376,48.874145],[36.923382,48.874114],[36.923254,48.874946],[36.923627,48.874973]]]}},{"type":"Feature","properties":{"cadnum":"6320481801:00:000:0020"},"geometry":{"type":"Polygon","coordinates":[[[36.923976,48.874904],[36.924101,48.874171],[36.92376,48.874145],[36.923642,48.874884],[36.923976,48.874904]]]}},{"type":"Feature","properties":{"cadnum":"6320481801:00:000:0017"},"geometry":{"type":"Polygon","coordinates":[[[36.923544,48.875464],[36.923627,48.874973],[36.923254,48.874946],[36.923151,48.875611],[36.92315151698113,48.875611],[36.923128,48.875763],[36.923504,48.875793],[36.92353222826087,48.87555507608694],[36.923544,48.875464]]]}},{"type":"Feature","properties":{"cadnum":"6320481801:00:000:0083"},"geometry":{"type":"Polygon","coordinates":[[[36.923236,48.875064],[36.923254,48.874946],[36.92336,48.874249],[36.92291,48.874218],[36.922796,48.875037],[36.923236,48.875064]]]}},{"type":"Feature","properties":{"cadnum":"6320481801:01:000:0035"},"geometry":{"type":"Polygon","coordinates":[[[36.921716,48.874898],[36.922108,48.874888],[36.922214,48.874277],[36.921829,48.874251],[36.921716,48.874898]]]}},{"type":"Feature","properties":{"cadnum":"6320481801:00:000:0076"},"geometry":{"type":"Polygon","coordinates":[[[36.923893,48.87539],[36.923976,48.874904],[36.923642,48.874884],[36.923627,48.874973],[36.923544,48.875464],[36.92353960544217,48.875498],[36.923539,48.875498],[36.92353222826087,48.87555507608694],[36.923525,48.875611],[36.92352559322034,48.875611],[36.923504,48.875793],[36.923835,48.875818],[36.923878,48.875498],[36.923877850678736,48.875498],[36.923893,48.87539]]]}},{"type":"Feature","properties":{"cadnum":"6320481801:00:000:0078"},"geometry":{"type":"Polygon","coordinates":[[[36.925135,48.872959],[36.923799,48.872874],[36.923594,48.874095],[36.924963,48.87419805256327],[36.924963,48.874199],[36.925558,48.874243],[36.925768,48.873],[36.925499,48.872982],[36.925135,48.87295958955224],[36.925135,48.872959]]]}},{"type":"Feature","properties":{"cadnum":"6320481801:00:000:0073"},"geometry":{"type":"Polygon","coordinates":[[[36.924625,48.871687],[36.923674,48.871629],[36.9236573495935,48.871885],[36.923657,48.871885],[36.923595,48.872861],[36.924963,48.87294805454545],[36.924963,48.872949],[36.925499,48.872982],[36.925568928789446,48.87188611597118],[36.925579,48.871744],[36.925135,48.87171805194805],[36.925135,48.871717],[36.924625,48.871687]]]}},{"type":"Feature","properties":{"cadnum":"6320481801:00:000:0074"},"geometry":{"type":"Polygon","coordinates":[[[36.923674,48.871629],[36.921785,48.871516],[36.921734,48.871998],[36.921734077373976,48.871998],[36.921656,48.872738],[36.923595,48.872861],[36.92364982172131,48.871998],[36.92365,48.871998],[36.923674,48.871629]]]}},{"type":"Feature","properties":{"cadnum":"6320481801:00:000:0087"},"geometry":{"type":"Polygon","coordinates":[[[36.921764,48.872785],[36.920608,48.872759],[36.920561,48.873275],[36.919912,48.873249],[36.919616,48.873243],[36.91929,48.873244],[36.919186,48.873936],[36.91947,48.87394973186813],[36.91947,48.87395],[36.920831,48.874014],[36.921223,48.874032],[36.921595,48.874068],[36.921764,48.872785]]]}},{"type":"Feature","properties":{"cadnum":"6320481801:00:000:0084"},"geometry":{"type":"Polygon","coordinates":[[[36.921785,48.871516],[36.921755,48.871311],[36.921668,48.871304],[36.921536,48.87135],[36.920419,48.87132],[36.92038483333333,48.871885],[36.920384,48.871885],[36.920364,48.872244],[36.920794,48.87225],[36.920771,48.872719],[36.921656,48.872738],[36.921746,48.871885],[36.921745956431536,48.871885],[36.921785,48.871516]]]}},{"type":"Feature","properties":{"cadnum":"6320481801:00:000:0048"},"geometry":{"type":"Polygon","coordinates":[[[36.921099,48.874889],[36.921223,48.874032],[36.920831,48.874014],[36.920696,48.874865],[36.921099,48.874889]]]}},{"type":"Feature","properties":{"cadnum":"6320481801:00:000:0082"},"geometry":{"type":"Polygon","coordinates":[[[36.923236,48.875064],[36.922796,48.875037],[36.92273,48.875497],[36.922729859649124,48.875498],[36.922729,48.875498],[36.922720352941155,48.87556573529428],[36.922714,48.875611],[36.92271457446808,48.875611],[36.922699,48.875733],[36.923128,48.875763],[36.923169,48.875498],[36.92316855941499,48.875498],[36.923236,48.875064]]]}},{"type":"Feature","properties":{"cadnum":"6320481801:00:000:0079"},"geometry":{"type":"Polygon","coordinates":[[[36.923594,48.874095],[36.923799,48.872874],[36.923595,48.872861],[36.92177,48.872745],[36.921595,48.874068],[36.922145,48.874033],[36.922628,48.873959],[36.923368,48.874036],[36.923594,48.874095]]]}},{"type":"Feature","properties":{"cadnum":"6320481801:00:000:0085"},"geometry":{"type":"Polygon","coordinates":[[[36.919641,48.870277],[36.918367,48.870199],[36.918303,48.871225],[36.91947,48.871252038116594],[36.91947,48.871253],[36.920803,48.871283],[36.920862,48.870351],[36.919671,48.870279],[36.919641,48.87027720895522],[36.919641,48.870277]]]}},{"type":"Feature","properties":{"cadnum":"6320481801:00:000:0044"},"geometry":{"type":"Polygon","coordinates":[[[36.919352,48.871578],[36.919039,48.871552],[36.91900241479821,48.871885],[36.919002,48.871885],[36.918984,48.872054],[36.91892,48.872555],[36.919226,48.872573],[36.919283,48.872076],[36.919309,48.871885],[36.91930887380953,48.871885],[36.919352,48.871578]]]}},{"type":"Feature","properties":{"cadnum":"6320481801:00:000:0080"},"geometry":{"type":"Polygon","coordinates":[[[36.91875,48.871329],[36.918488,48.87132],[36.918481,48.871378],[36.91842948225807,48.871885],[36.918429,48.871885],[36.91842274476986,48.87195130543948],[36.918418,48.871998],[36.91841833962264,48.871998],[36.918409,48.872097],[36.918345,48.872512],[36.918609,48.872526],[36.918658,48.872094],[36.918683,48.871885],[36.91868268161435,48.871885],[36.91875,48.871329]]]}},{"type":"Feature","properties":{"cadnum":"6320481801:00:000:0072"},"geometry":{"type":"Polygon","coordinates":[[[36.919641,48.869518250000006],[36.919658,48.869531],[36.919641,48.86956396969697],[36.919641,48.869563],[36.919526,48.869787],[36.919523,48.869787],[36.919641,48.870181],[36.919641,48.87017927027026],[36.919671,48.870279],[36.921675,48.8704],[36.921877,48.87041],[36.921903,48.870386],[36.921983,48.870287],[36.922068,48.869655],[36.922022,48.869388],[36.921601,48.869377],[36.91947,48.869294],[36.91947,48.86929442307692],[36.919407,48.869292],[36.919388,48.869329],[36.919641,48.86952],[36.919641,48.869518250000006]]]}},{"type":"Feature","properties":{"cadnum":"6320481801:00:000:0086"},"geometry":{"type":"Polygon","coordinates":[[[36.916094,48.871259],[36.917242,48.8712],[36.918303,48.871225],[36.918367,48.870199],[36.917879,48.87017],[36.916092,48.870061],[36.916021,48.870498],[36.916104,48.870649],[36.916151,48.870874],[36.916094,48.871259]]]}},{"type":"Feature","properties":{"cadnum":"6320481801:00:000:0071"},"geometry":{"type":"Polygon","coordinates":[[[36.919125,48.869839],[36.918856,48.869637],[36.918605,48.869792],[36.918079,48.869699],[36.917988,48.869458],[36.917937,48.869472],[36.917683,48.869322],[36.917725,48.869191],[36.916584,48.869121],[36.91635,48.869109],[36.916224,48.869399],[36.916156,48.869594],[36.916092,48.870061],[36.917879,48.87017],[36.91947,48.870266615777524],[36.91947,48.870267],[36.919671,48.870279],[36.919523,48.869787],[36.919125,48.869839]]]}},{"type":"Feature","properties":{"cadnum":"6320481801:00:000:0077"},"geometry":{"type":"Polygon","coordinates":[[[36.918481,48.871378],[36.918216,48.871365],[36.918143,48.871998],[36.91814428138528,48.871998],[36.918131,48.872116],[36.918084,48.872496],[36.918345,48.872512],[36.918409,48.872097],[36.91842274476986,48.87195130543948],[36.918481,48.871378]]]}},{"type":"Feature","properties":{"cadnum":"6320481801:00:000:0090"},"geometry":{"type":"Polygon","coordinates":[[[36.916798,48.871681],[36.916845,48.871267],[36.916088,48.871291],[36.916025,48.871618],[36.916021,48.871647],[36.916067,48.871649],[36.91655,48.871676],[36.916798,48.871681]]]}},{"type":"Feature","properties":{"cadnum":"6320481801:00:000:0057"},"geometry":{"type":"Polygon","coordinates":[[[36.916393,48.877269],[36.91653,48.876371],[36.916106,48.876331],[36.915963,48.87724],[36.916393,48.877269]]]}},{"type":"Feature","properties":{"cadnum":"6320481801:00:000:0056"},"geometry":{"type":"Polygon","coordinates":[[[36.91653,48.876371],[36.91664,48.875651],[36.916216,48.875622],[36.916106,48.876331],[36.91653,48.876371]]]}},{"type":"Feature","properties":{"cadnum":"6320481801:00:000:0066"},"geometry":{"type":"Polygon","coordinates":[[[36.924296,48.877356],[36.924409,48.876503],[36.924452,48.876171],[36.924197,48.876156],[36.924153,48.876489],[36.92415,48.876513],[36.924048,48.877273],[36.924039,48.877343],[36.924296,48.877356]]]}},{"type":"Feature","properties":{"cadnum":"6320481801:00:000:0081"},"geometry":{"type":"Polygon","coordinates":[[[36.924592,48.877759],[36.924814,48.876839],[36.92437,48.876807],[36.924296,48.877356],[36.924247,48.877737],[36.924592,48.877759]]]}},{"type":"Feature","properties":{"cadnum":"6320481801:00:000:0064"},"geometry":{"type":"Polygon","coordinates":[[[36.92381,48.877032],[36.923859,48.876596],[36.923862,48.876571],[36.923874,48.876491],[36.923905,48.876294],[36.92393,48.876141],[36.923583,48.876105],[36.923525,48.876578],[36.923478,48.876969],[36.923473,48.877013],[36.92381,48.877032]]]}},{"type":"Feature","properties":{"cadnum":"6320481801:00:000:0049"},"geometry":{"type":"Polygon","coordinates":[[[36.922562,48.877081],[36.922683,48.876379],[36.922739,48.876054],[36.922444,48.876035],[36.922391,48.876374],[36.922263,48.877071],[36.922562,48.877081]]]}},{"type":"Feature","properties":{"cadnum":"6320481801:00:000:0021"},"geometry":{"type":"Polygon","coordinates":[[[36.924814,48.876839],[36.924891,48.876507],[36.924907,48.876436],[36.924913,48.876403],[36.924955,48.8762],[36.924452,48.876171],[36.924409,48.876503],[36.92437,48.876807],[36.924814,48.876839]]]}},{"type":"Feature","properties":{"cadnum":"6320481801:00:000:0067"},"geometry":{"type":"Polygon","coordinates":[[[36.92424,48.877783],[36.924296,48.877356],[36.924039,48.877343],[36.923984,48.877756],[36.923983,48.877768],[36.92424,48.877783]]]}},{"type":"Feature","properties":{"cadnum":"6320481801:00:000:0050"},"geometry":{"type":"Polygon","coordinates":[[[36.92246,48.877679],[36.922493,48.877492],[36.922562,48.877081],[36.922263,48.877071],[36.9222,48.877484],[36.922169,48.877678],[36.92246,48.877679]]]}},{"type":"Feature","properties":{"cadnum":"6320481801:00:000:0058"},"geometry":{"type":"Polygon","coordinates":[[[36.924048,48.877273],[36.92415,48.876513],[36.924197,48.876156],[36.92393,48.876141],[36.923905,48.876294],[36.923874,48.876491],[36.923862,48.876571],[36.923783,48.877258],[36.924048,48.877273]]]}},{"type":"Feature","properties":{"cadnum":"6320481801:00:000:0053"},"geometry":{"type":"Polygon","coordinates":[[[36.92338,48.877758],[36.923401,48.877602],[36.923478,48.876969],[36.923126,48.876943],[36.923026,48.877744],[36.92338,48.877758]]]}},{"type":"Feature","properties":{"cadnum":"6320481801:00:000:0052"},"geometry":{"type":"Polygon","coordinates":[[[36.923478,48.876969],[36.923583,48.876105],[36.923229,48.876086],[36.923126,48.876943],[36.923478,48.876969]]]}},{"type":"Feature","properties":{"cadnum":"6320481801:00:000:0059"},"geometry":{"type":"Polygon","coordinates":[[[36.923984,48.877756],[36.924048,48.877273],[36.923783,48.877258],[36.923728,48.87774],[36.923984,48.877756]]]}},{"type":"Feature","properties":{"cadnum":"6320481801:00:000:0065"},"geometry":{"type":"Polygon","coordinates":[[[36.923401,48.877602],[36.923744,48.877595],[36.923783,48.877258],[36.92381,48.877032],[36.923473,48.877013],[36.923401,48.877602]]]}},{"type":"Feature","properties":{"cadnum":"6320481801:00:000:0045"},"geometry":{"type":"Polygon","coordinates":[[[36.903162,48.87449982071713],[36.903303,48.874506],[36.903342,48.874105],[36.903417,48.873336],[36.903146,48.873325],[36.903086,48.874088],[36.903052,48.874495],[36.903162,48.8745],[36.903162,48.87449982071713]]]}},{"type":"Feature","properties":{"cadnum":"6320481801:00:000:0046"},"geometry":{"type":"Polygon","coordinates":[[[36.903417,48.873336],[36.903421,48.873291],[36.903299,48.873287],[36.90315,48.873281],[36.903146,48.873325],[36.903417,48.873336]]]}},{"type":"Feature","properties":{"cadnum":"6320481801:01:000:0040"},"geometry":{"type":"Polygon","coordinates":[[[36.904829,48.87178],[36.904574,48.871758],[36.90455547916667,48.871885],[36.904555,48.871885],[36.90454047368428,48.87198789473639],[36.904539,48.871998],[36.904539047058826,48.871998],[36.904519,48.87214],[36.90444,48.872689],[36.904715,48.872704],[36.904785,48.872138],[36.904816,48.871885],[36.90481551376147,48.871885],[36.904829,48.87178]]]}},{"type":"Feature","properties":{"cadnum":"6320481801:01:000:0037"},"geometry":{"type":"Polygon","coordinates":[[[36.906613,48.8719],[36.906599,48.871998],[36.90660064222874,48.871998],[36.90657,48.872241],[36.906505,48.872753],[36.906751,48.872772],[36.906811,48.872255],[36.90685,48.871914],[36.906613,48.8719]]]}},{"type":"Feature","properties":{"cadnum":"6320481801:00:000:0060"},"geometry":{"type":"Polygon","coordinates":[[[36.90685,48.871914],[36.906839,48.871998],[36.906840392961875,48.871998],[36.906811,48.872255],[36.906751,48.872772],[36.906749,48.872786],[36.907071,48.872796],[36.907137,48.872229],[36.907169,48.87193],[36.90685,48.871914]]]}},{"type":"Feature","properties":{"cadnum":"6320481801:00:000:0051"},"geometry":{"type":"Polygon","coordinates":[[[36.908333,48.875145],[36.908282,48.875495],[36.90828176724138,48.875498],[36.908281,48.875498],[36.908274937329715,48.8755860299726],[36.908273,48.875611],[36.90827321763086,48.875611],[36.908256,48.875861],[36.908484,48.875869],[36.90848400000054,48.87586900000002],[36.908655,48.875875],[36.908655,48.87587466850829],[36.908665,48.875875],[36.908721,48.875498],[36.908720543379,48.875498],[36.908771,48.875173],[36.908655,48.87516572473867],[36.908655,48.875165],[36.908333,48.875145]]]}},{"type":"Feature","properties":{"cadnum":"6320481801:00:000:0091"},"geometry":{"type":"Polygon","coordinates":[[[36.90447,48.873545],[36.904572,48.872876],[36.904117,48.872854],[36.904087,48.873039],[36.904082,48.873074],[36.904012,48.873517],[36.90447,48.873545]]]}},{"type":"Feature","properties":{"cadnum":"6320481801:00:000:0075"},"geometry":{"type":"Polygon","coordinates":[[[36.927263,48.871844],[36.927093,48.871834],[36.926022,48.87177],[36.925579,48.871744],[36.92556900787402,48.871885],[36.925569,48.871885],[36.925568928789446,48.87188611597118],[36.925561,48.871998],[36.92556178942571,48.871998],[36.925499,48.872982],[36.927408,48.873104],[36.927476,48.872043],[36.927370701492606,48.87194513432842],[36.927263,48.871844]]]}},{"type":"Feature","properties":{"cadnum":"6320481801:00:000:0069"},"geometry":{"type":"Polygon","coordinates":[[[36.913366,48.87272],[36.913417,48.872383],[36.913085,48.87236],[36.913035,48.872699],[36.913366,48.87272]]]}},{"type":"Feature","properties":{"cadnum":"6320481801:00:000:0037"},"geometry":{"type":"Polygon","coordinates":[[[36.912842,48.872666],[36.912884,48.872307],[36.912544,48.87229],[36.912503,48.872648],[36.912842,48.872666]]]}},{"type":"Feature","properties":{"cadnum":"6320481801:00:000:0068"},"geometry":{"type":"Polygon","coordinates":[[[36.911195,48.873264],[36.911265,48.872491],[36.911298,48.872218],[36.910997,48.872196],[36.910977,48.872354],[36.910966,48.872521],[36.910918,48.87325],[36.911195,48.873264]]]}},{"type":"Feature","properties":{"cadnum":"6320481801:00:000:0063"},"geometry":{"type":"Polygon","coordinates":[[[36.909701,48.873138],[36.909904,48.87209],[36.909617,48.872072],[36.909591,48.872188],[36.909574,48.87227],[36.909416,48.873116],[36.909701,48.873138]]]}},{"type":"Feature","properties":{"cadnum":"6320481801:00:000:0089"},"geometry":{"type":"Polygon","coordinates":[[[36.910588,48.873115],[36.910665,48.872557],[36.910702,48.872286],[36.910723,48.872174],[36.910401,48.872153],[36.910342,48.872564],[36.910255,48.873095],[36.910588,48.873115]]]}},{"type":"Feature","properties":{"cadnum":"6320481801:00:000:0054"},"geometry":{"type":"Polygon","coordinates":[[[36.909091,48.875195],[36.908771,48.875173],[36.908703,48.875611],[36.90870421485411,48.875611],[36.908665,48.875875],[36.908628,48.876116],[36.908949,48.876139],[36.9090349060403,48.87556539821011],[36.909091,48.875195]]]}},{"type":"Feature","properties":{"cadnum":"6320481801:00:000:0032"},"geometry":{"type":"Polygon","coordinates":[[[36.911599,48.875488],[36.911293,48.875472],[36.911289090225566,48.875498],[36.911289,48.875498],[36.911273,48.875605],[36.911341,48.875609],[36.91134,48.875611],[36.9113407752809,48.875611],[36.911331,48.875698],[36.911571,48.875714],[36.911598,48.875498],[36.91159769918699,48.875498],[36.911599,48.875488]]]}},{"type":"Feature","properties":{"cadnum":"6320481801:00:000:0088"},"geometry":{"type":"Polygon","coordinates":[[[36.91055,48.874968],[36.910606,48.874534],[36.910779,48.873422],[36.910586,48.873407],[36.910413,48.874601],[36.910378,48.874956],[36.91055,48.874968]]]}},{"type":"Feature","properties":{"cadnum":"6320481801:00:000:0061"},"geometry":{"type":"Polygon","coordinates":[[[36.91929,48.873244],[36.919321,48.87304],[36.919372,48.872704],[36.91881,48.872666],[36.918762,48.872988],[36.918748,48.873],[36.918759,48.873005],[36.918728,48.873205],[36.91929,48.873244]]]}},{"type":"Feature","properties":{"cadnum":"6320481801:00:000:0055"},"geometry":{"type":"Polygon","coordinates":[[[36.915515,48.87284],[36.915558,48.872449],[36.914881,48.872416],[36.914882,48.87276],[36.914936,48.872819],[36.915515,48.87284]]]}},{"type":"Feature","properties":{"cadnum":"6320481801:00:000:0062"},"geometry":{"type":"Polygon","coordinates":[[[36.919186,48.873936],[36.91929,48.873244],[36.918728,48.873205],[36.918624,48.873897],[36.919186,48.873936]]]}},{"type":"Feature","properties":{"cadnum":"6320481801:01:000:0033"},"geometry":{"type":"Polygon","coordinates":[[[36.916082,48.874076],[36.916129,48.873808],[36.916012,48.873805],[36.915544,48.873774],[36.9155,48.874051],[36.916082,48.874076]]]}},{"type":"Feature","properties":{"cadnum":"6320481801:00:000:0015"},"geometry":{"type":"Polygon","coordinates":[[[36.915409,48.873705],[36.915457,48.873266],[36.914897,48.873228],[36.91484,48.873648],[36.915409,48.873705]]]}}]}