{"type":"FeatureCollection","features":[{"type":"Feature","properties":{"cadnum":"6320684803:02:000:0010"},"geometry":{"type":"Polygon","coordinates":[[[36.656926,48.907726],[36.656809,48.907762],[36.656029,48.908023],[36.655798,48.908103],[36.655798,48.908104],[36.655798,48.90810435699797],[36.654984,48.90839],[36.655257,48.908744],[36.6555,48.909124],[36.655756,48.909218],[36.65597,48.909199],[36.65597,48.90919841087614],[36.656129,48.909184],[36.656832,48.909052],[36.656776,48.908952],[36.657044,48.908899],[36.657112,48.908981],[36.657799,48.908774],[36.657249386511026,48.908116],[36.65725,48.908116],[36.656926,48.907726]]]}},{"type":"Feature","properties":{"cadnum":"6320684803:02:000:0009"},"geometry":{"type":"Polygon","coordinates":[[[36.653401,48.909931],[36.653558,48.909888],[36.653824,48.909873],[36.655172,48.909427],[36.655498,48.909219],[36.655464,48.909126],[36.655219,48.908752],[36.654962,48.908423],[36.654207,48.908588],[36.65389,48.908683],[36.653463,48.908848],[36.653176,48.908921],[36.652692,48.909077],[36.653401,48.909931]]]}},{"type":"Feature","properties":{"cadnum":"6320684803:02:000:0020"},"geometry":{"type":"Polygon","coordinates":[[[36.652771,48.907799],[36.65244,48.907895],[36.652492,48.907964],[36.65252099342106,48.908003],[36.65252,48.908003],[36.652607,48.908119],[36.653148,48.908624],[36.653448,48.908501],[36.652975,48.908051],[36.652771,48.907799]]]}},{"type":"Feature","properties":{"cadnum":"6320684803:02:000:0008"},"geometry":{"type":"Polygon","coordinates":[[[36.651291,48.910407],[36.652511,48.91017],[36.653401,48.909931],[36.652692,48.909077],[36.652531,48.909129],[36.6522,48.909239],[36.651686,48.909386],[36.651162,48.909604],[36.650856,48.909742],[36.650476,48.909962],[36.6504,48.910006],[36.650132,48.910213],[36.650173,48.91053],[36.650305,48.91051562376238],[36.650305,48.910516],[36.651291,48.910407]]]}},{"type":"Feature","properties":{"cadnum":"6320684803:02:000:0018"},"geometry":{"type":"Polygon","coordinates":[[[36.655671,48.908113],[36.655003,48.907408],[36.654749,48.90751],[36.654278,48.907702],[36.654207,48.90763],[36.654008,48.90772],[36.654056,48.907767],[36.65384,48.907867],[36.654132,48.908116],[36.6541330615942,48.908116],[36.654325,48.908279],[36.654559,48.908477],[36.654948,48.908393],[36.654948,48.908367],[36.65566246062992,48.908116],[36.655663,48.908116],[36.655671,48.908113]]]}},{"type":"Feature","properties":{"cadnum":"6320684803:02:000:0001"},"geometry":{"type":"Polygon","coordinates":[[[36.653739,48.907781],[36.653607,48.90765],[36.653534,48.907568],[36.653211,48.907665],[36.653352,48.907815],[36.653399,48.907857],[36.653466,48.907917],[36.653695,48.908116],[36.65369638133333,48.908116],[36.654001,48.908378],[36.654325,48.908279],[36.654,48.908003],[36.65399943582089,48.908003],[36.653739,48.907781]]]}},{"type":"Feature","properties":{"cadnum":"6320684803:02:000:0004"},"geometry":{"type":"Polygon","coordinates":[[[36.650476,48.90918249442379],[36.650574,48.909259],[36.650946,48.909147],[36.65034,48.908684],[36.650163,48.908542],[36.649813,48.908646],[36.649849,48.908685],[36.650071,48.908867],[36.650476,48.909183],[36.650476,48.90918249442379]]]}},{"type":"Feature","properties":{"cadnum":"6320684803:02:000:0024"},"geometry":{"type":"Polygon","coordinates":[[[36.652492,48.907964],[36.65244,48.907895],[36.652389,48.907911],[36.652094204301065,48.908003],[36.652094,48.908003],[36.652091,48.908004],[36.652178,48.908116],[36.65217951612903,48.908116],[36.652189,48.908128],[36.652335,48.908252],[36.652951,48.908765],[36.653192,48.908666],[36.653148,48.908624],[36.652607,48.908119],[36.65260475,48.908116],[36.652605,48.908116],[36.652492,48.907964]]]}},{"type":"Feature","properties":{"cadnum":"6320684803:02:000:0003"},"geometry":{"type":"Polygon","coordinates":[[[36.653466,48.907917],[36.653399,48.907857],[36.653352,48.907815],[36.653211,48.907665],[36.652912,48.907759],[36.653033,48.907907],[36.653117,48.907991],[36.653259,48.908116],[36.65326010950413,48.908116],[36.653684,48.908487],[36.654001,48.908378],[36.653565,48.908003],[36.65356496482412,48.908003],[36.653466,48.907917]]]}},{"type":"Feature","properties":{"cadnum":"6320684803:02:000:0011"},"geometry":{"type":"Polygon","coordinates":[[[36.658723,48.907089],[36.658416,48.907212],[36.657902,48.907419],[36.656926,48.907726],[36.657155412820515,48.908003],[36.657155,48.908003],[36.65721459873323,48.90807446286675],[36.657249,48.908116],[36.65724923994812,48.908116],[36.657798,48.908774],[36.658126,48.908676],[36.658818,48.908452],[36.659294,48.90829],[36.659589,48.908132],[36.659575728682164,48.908116],[36.659576,48.908116],[36.658723,48.907089]]]}},{"type":"Feature","properties":{"cadnum":"6320684803:02:000:0023"},"geometry":{"type":"Polygon","coordinates":[[[36.657195,48.9062],[36.657768,48.905976],[36.6569,48.905134],[36.656049,48.905473],[36.656643,48.906079],[36.656935,48.905991],[36.656966,48.90602],[36.657006,48.906001],[36.65704,48.906032],[36.657076,48.906056],[36.657104,48.906082],[36.657181,48.906192],[36.657195,48.9062]]]}},{"type":"Feature","properties":{"cadnum":"6320684803:02:000:0014"},"geometry":{"type":"Polygon","coordinates":[[[36.656533,48.906438],[36.655798,48.905657],[36.655798,48.905657174825166],[36.655684,48.905536],[36.655381,48.905589],[36.655079,48.90566],[36.654183,48.905991],[36.655079,48.906873],[36.65597,48.906608],[36.65597,48.90660728299319],[36.656533,48.906438]]]}},{"type":"Feature","properties":{"cadnum":"6320684803:02:000:0015"},"geometry":{"type":"Polygon","coordinates":[[[36.656722,48.90774],[36.657874,48.907378],[36.658795,48.907007],[36.65784,48.906438],[36.657072,48.906733],[36.655935,48.907146],[36.656722,48.90774]]]}},{"type":"Feature","properties":{"cadnum":"6320684803:02:000:0025"},"geometry":{"type":"Polygon","coordinates":[[[36.650476,48.906821],[36.650476,48.90682040425532],[36.651151,48.906597],[36.650305,48.90585],[36.650305,48.90585082917706],[36.649674,48.905293],[36.648498,48.905789],[36.649583,48.907115],[36.650476,48.906821]]]}},{"type":"Feature","properties":{"cadnum":"6320684803:02:000:0026"},"geometry":{"type":"Polygon","coordinates":[[[36.6477,48.908894],[36.646819,48.90801],[36.64597,48.908271],[36.646936,48.909158],[36.6477,48.908894]]]}},{"type":"Feature","properties":{"cadnum":"6320684803:02:000:0028"},"geometry":{"type":"Polygon","coordinates":[[[36.647554,48.907785],[36.647093,48.907925],[36.64717345026178,48.908003],[36.647172,48.908003],[36.647684,48.908496],[36.648113,48.908326],[36.64786558760076,48.90808745013447],[36.647554,48.907785]]]}},{"type":"Feature","properties":{"cadnum":"6320684803:02:000:0017"},"geometry":{"type":"Polygon","coordinates":[[[36.649633,48.910268],[36.650388,48.909798],[36.649644,48.909205],[36.649051,48.909441],[36.648941,48.90936],[36.648447,48.909378],[36.649054,48.909833],[36.649633,48.910268]]]}},{"type":"Feature","properties":{"cadnum":"6320684803:02:000:0022"},"geometry":{"type":"Polygon","coordinates":[[[36.645592,48.909882],[36.646035,48.909719],[36.645502,48.909148],[36.645871,48.908988],[36.646307,48.90943],[36.64642,48.909572],[36.647102,48.909312],[36.64597,48.908271],[36.645404,48.908447],[36.645272,48.908489],[36.644812,48.908683],[36.644812,48.90868335616438],[36.644326,48.908889],[36.644651,48.90949],[36.644983,48.909722],[36.644983,48.90972113],[36.645112,48.909811],[36.645329,48.909946],[36.645592,48.909882]]]}},{"type":"Feature","properties":{"cadnum":"6320684803:02:000:0012"},"geometry":{"type":"Polygon","coordinates":[[[36.648768,48.909977],[36.649054,48.909833],[36.648447,48.909378],[36.648222,48.909179],[36.648079,48.909222],[36.648044,48.909234],[36.647893,48.909281],[36.648158,48.909501],[36.648768,48.909977]]]}},{"type":"Feature","properties":{"cadnum":"6320684803:02:000:0016"},"geometry":{"type":"Polygon","coordinates":[[[36.649051,48.909441],[36.649644,48.909205],[36.649442,48.909045],[36.649363,48.908979],[36.649379,48.908973],[36.649346,48.908942],[36.649326,48.908951],[36.64931,48.908936],[36.649223,48.908862],[36.64917,48.908889],[36.648627,48.909069],[36.648941,48.90936],[36.649051,48.909441]]]}},{"type":"Feature","properties":{"cadnum":"6320684803:02:000:0027"},"geometry":{"type":"Polygon","coordinates":[[[36.648238,48.908989],[36.648524,48.908894],[36.648655,48.908848],[36.648113,48.908326],[36.647684,48.908496],[36.647998,48.908798],[36.648238,48.908989]]]}},{"type":"Feature","properties":{"cadnum":"6320684803:02:000:0013"},"geometry":{"type":"Polygon","coordinates":[[[36.64937,48.910446],[36.649696,48.910315],[36.649054,48.909833],[36.648768,48.909977],[36.64937,48.910446]]]}},{"type":"Feature","properties":{"cadnum":"6320684803:02:000:0021"},"geometry":{"type":"Polygon","coordinates":[[[36.646035,48.909719],[36.64642,48.909572],[36.646307,48.90943],[36.645871,48.908988],[36.645502,48.909148],[36.646035,48.909719]]]}},{"type":"Feature","properties":{"cadnum":"6320684803:02:000:0019"},"geometry":{"type":"Polygon","coordinates":[[[36.652232,48.906284],[36.653317,48.90588],[36.65349,48.905802],[36.652084,48.904695],[36.650993,48.905158],[36.651431,48.905629],[36.651669,48.905767],[36.652232,48.906284]]]}}]}