{"type":"FeatureCollection","features":[{"type":"Feature","properties":{"cadnum":"6320681501:01:000:0046"},"geometry":{"type":"Polygon","coordinates":[[[36.649496,48.821348],[36.649528,48.82134],[36.649512,48.821312],[36.649491,48.821276],[36.64949088,48.821276],[36.649424,48.821162],[36.649299,48.821194],[36.64917,48.821226],[36.6489213888889,48.821276],[36.648921,48.821276],[36.648812,48.821298],[36.648776,48.821304],[36.648412,48.821389],[36.648412551724114,48.821389],[36.647908,48.821507],[36.647998,48.821687],[36.64896,48.821467],[36.649036,48.821452],[36.649111,48.821435],[36.649314563218375,48.821389],[36.649315,48.821389],[36.649496,48.821348]]]}},{"type":"Feature","properties":{"cadnum":"6320681501:01:000:0069"},"geometry":{"type":"Polygon","coordinates":[[[36.650442,48.817901],[36.650379,48.817759],[36.650179,48.817813],[36.649932,48.817879],[36.650002,48.818012],[36.650305,48.81793556136363],[36.650305,48.817936],[36.650442,48.817901]]]}},{"type":"Feature","properties":{"cadnum":"6320681501:01:000:0013"},"geometry":{"type":"Polygon","coordinates":[[[36.647125,48.819041],[36.647421,48.818974],[36.647325,48.818744],[36.64772,48.81865],[36.647606,48.818447],[36.647185,48.818554],[36.64666,48.818668],[36.646733,48.818868],[36.647018,48.818812],[36.647125,48.819041]]]}},{"type":"Feature","properties":{"cadnum":"6320681501:01:000:0059"},"geometry":{"type":"Polygon","coordinates":[[[36.649251,48.817753],[36.649172,48.817772],[36.649174213793124,48.817772],[36.648665,48.817898],[36.648809,48.818141],[36.649138,48.818062],[36.649398,48.817994],[36.649455,48.817977],[36.649559,48.818157],[36.649605,48.818147],[36.649795,48.818109],[36.649699,48.81794],[36.649652,48.817858],[36.649543,48.817682],[36.649251,48.817753]]]}},{"type":"Feature","properties":{"cadnum":"6320681501:01:000:0042"},"geometry":{"type":"Polygon","coordinates":[[[36.646573,48.820716],[36.646901,48.820658],[36.646613,48.820082],[36.646599,48.820056],[36.646518,48.819793],[36.646501,48.819795],[36.646465,48.819801],[36.646159,48.819855],[36.646292,48.820135],[36.646573,48.820716]]]}},{"type":"Feature","properties":{"cadnum":"6320681501:01:000:0099"},"geometry":{"type":"Polygon","coordinates":[[[36.649105,48.820331],[36.64964,48.820165],[36.649965,48.820059],[36.649834,48.819882],[36.649446,48.819363],[36.649351,48.819202],[36.6485,48.819468],[36.649105,48.820331]]]}},{"type":"Feature","properties":{"cadnum":"6320681501:01:000:0014"},"geometry":{"type":"Polygon","coordinates":[[[36.646347,48.818275],[36.646469,48.818252],[36.646912,48.818161],[36.647372,48.81805],[36.647251,48.817838],[36.646792,48.817948],[36.64624,48.81806],[36.646251,48.818083],[36.646347,48.818275]]]}},{"type":"Feature","properties":{"cadnum":"6320681501:01:000:0098"},"geometry":{"type":"Polygon","coordinates":[[[36.648556,48.820696],[36.649021,48.820576],[36.648875,48.820367],[36.648591,48.820451],[36.648557,48.820444],[36.648536,48.820413],[36.648407,48.820457],[36.648556,48.820696]]]}},{"type":"Feature","properties":{"cadnum":"6320681501:01:000:0071"},"geometry":{"type":"Polygon","coordinates":[[[36.644592,48.817729],[36.644594,48.817737],[36.644507,48.817752],[36.644389,48.817772],[36.6443893076923,48.817772],[36.644354,48.817778],[36.64331,48.818002],[36.643402,48.818194],[36.643492,48.818173],[36.644444,48.817951],[36.64447,48.817946],[36.644939,48.817853],[36.644855,48.817677],[36.644592,48.817729]]]}},{"type":"Feature","properties":{"cadnum":"6320681501:01:000:0007"},"geometry":{"type":"Polygon","coordinates":[[[36.64582,48.820623],[36.646102,48.820553],[36.645903,48.82017],[36.645812,48.819977],[36.645788,48.819926],[36.645383,48.819995],[36.645541,48.820251],[36.64582,48.820623]]]}},{"type":"Feature","properties":{"cadnum":"6320681501:01:000:0086"},"geometry":{"type":"Polygon","coordinates":[[[36.649177,48.818969],[36.649562,48.818864],[36.649392,48.818513],[36.649198,48.81817],[36.648851,48.818255],[36.648978,48.818603],[36.649177,48.818969]]]}},{"type":"Feature","properties":{"cadnum":"6320681501:01:000:0068"},"geometry":{"type":"Polygon","coordinates":[[[36.650476,48.818621],[36.650476,48.818620072463766],[36.650624,48.818582],[36.650653,48.818575],[36.650753,48.818549],[36.650637,48.818334],[36.650585,48.818215],[36.650442,48.817901],[36.650002,48.818012],[36.650165,48.818322],[36.650263,48.818508],[36.650305,48.818579647058826],[36.650305,48.81858],[36.650348,48.818653],[36.650476,48.818621]]]}},{"type":"Feature","properties":{"cadnum":"6320681501:01:000:0038"},"geometry":{"type":"Polygon","coordinates":[[[36.645038,48.818057],[36.644994,48.817968],[36.644967,48.81792],[36.644939,48.817858],[36.644939,48.817853],[36.644812,48.817878],[36.644812,48.81787818336887],[36.64447,48.817946],[36.644444,48.817951],[36.643492,48.818173],[36.64358,48.81835],[36.644066,48.818243],[36.644555,48.818149],[36.644812,48.81809976168224],[36.644812,48.818101],[36.645038,48.818057]]]}},{"type":"Feature","properties":{"cadnum":"6320681501:01:000:0018"},"geometry":{"type":"Polygon","coordinates":[[[36.647142,48.817644],[36.64708157142858,48.817659],[36.647081,48.817659],[36.646719,48.817749],[36.646599,48.817772],[36.64659944144145,48.817772],[36.646142,48.81786],[36.646229,48.818062],[36.64624,48.81806],[36.646792,48.817948],[36.647251,48.817838],[36.647151,48.817659],[36.6471504375,48.817659],[36.647142,48.817644]]]}},{"type":"Feature","properties":{"cadnum":"6320681501:01:000:0089"},"geometry":{"type":"Polygon","coordinates":[[[36.648167,48.817571],[36.647873,48.817059],[36.647545,48.817137],[36.647597,48.81723],[36.647849,48.817642],[36.647923,48.817772],[36.64792411864407,48.817772],[36.647961,48.817836],[36.647978,48.817867],[36.64804,48.817974],[36.648358,48.817898],[36.64825359321996,48.81771976271123],[36.648167,48.817571]]]}},{"type":"Feature","properties":{"cadnum":"6320681501:01:000:0058"},"geometry":{"type":"Polygon","coordinates":[[[36.650997,48.821298],[36.650856,48.821078],[36.65043111902358,48.82116821973547],[36.650218,48.821212],[36.649768,48.821313],[36.649815,48.821389],[36.64981577941177,48.821389],[36.649939,48.821585],[36.65034,48.821476],[36.650463,48.821442],[36.650476,48.821439],[36.650476,48.82143848235294],[36.65065886956519,48.821389],[36.650659,48.821389],[36.650888,48.821327],[36.650997,48.821298]]]}},{"type":"Feature","properties":{"cadnum":"6320681501:01:000:0050"},"geometry":{"type":"Polygon","coordinates":[[[36.648244,48.820255],[36.648442,48.820196],[36.648288,48.819934],[36.648525,48.819864],[36.648258,48.819497],[36.648221,48.819492],[36.648076,48.819519],[36.647762,48.819575],[36.647885,48.819818],[36.64795,48.819946],[36.648024,48.819971],[36.648244,48.820255]]]}},{"type":"Feature","properties":{"cadnum":"6320681501:01:000:0015"},"geometry":{"type":"Polygon","coordinates":[[[36.645347,48.818263],[36.645796,48.81817],[36.646251,48.818083],[36.64624,48.81806],[36.646229,48.818062],[36.646142,48.81786],[36.646131,48.817833],[36.645687,48.817904],[36.645226,48.81801],[36.645347,48.818263]]]}},{"type":"Feature","properties":{"cadnum":"6320681501:01:000:0081"},"geometry":{"type":"Polygon","coordinates":[[[36.647572,48.819331],[36.647978,48.819264],[36.647863,48.819033],[36.64772,48.81865],[36.647325,48.818744],[36.647421,48.818974],[36.647572,48.819331]]]}},{"type":"Feature","properties":{"cadnum":"6320681501:01:000:0019"},"geometry":{"type":"Polygon","coordinates":[[[36.645522,48.818641],[36.646558,48.818464],[36.646469,48.818252],[36.646347,48.818275],[36.645695,48.8184],[36.645593,48.818419],[36.645431,48.81845],[36.645522,48.818641]]]}},{"type":"Feature","properties":{"cadnum":"6320681501:01:000:0034"},"geometry":{"type":"Polygon","coordinates":[[[36.645089,48.819114],[36.645504,48.819032],[36.645434,48.818881],[36.645415,48.818839],[36.645298,48.818863],[36.645009,48.818922],[36.644983,48.818927411167515],[36.644983,48.818927],[36.644578,48.81901],[36.644612,48.819086],[36.644521,48.819107],[36.644569,48.819217],[36.644812,48.81916886956522],[36.644812,48.819169],[36.645089,48.819114]]]}},{"type":"Feature","properties":{"cadnum":"6320681501:01:000:0110"},"geometry":{"type":"Polygon","coordinates":[[[36.650651,48.820414],[36.650829,48.820374],[36.650703,48.820172],[36.650305,48.820278],[36.650305,48.820278393665156],[36.649813,48.820409],[36.649689,48.82043],[36.64952,48.820465],[36.649501,48.820468],[36.649497,48.820476],[36.649422,48.8205],[36.64926,48.820548],[36.649373,48.820715],[36.649554,48.820668],[36.649952,48.820573],[36.650305,48.82049283396947],[36.650305,48.820494],[36.650651,48.820414]]]}},{"type":"Feature","properties":{"cadnum":"6320681501:01:000:0104"},"geometry":{"type":"Polygon","coordinates":[[[36.65079,48.820639],[36.650651,48.820414],[36.650476,48.82045446242775],[36.650476,48.820454],[36.649952,48.820573],[36.649554,48.820668],[36.649373,48.820715],[36.649387,48.820737],[36.649408,48.820767],[36.649505,48.820911],[36.649944,48.820807],[36.650305,48.82073575],[36.650305,48.820737],[36.65079,48.820639]]]}},{"type":"Feature","properties":{"cadnum":"6320681501:01:000:0105"},"geometry":{"type":"Polygon","coordinates":[[[36.646558,48.818464],[36.647055,48.818354],[36.647494,48.818249],[36.647372,48.81805],[36.6471,48.818116],[36.647053,48.818127],[36.646912,48.818161],[36.646469,48.818252],[36.646558,48.818464]]]}},{"type":"Feature","properties":{"cadnum":"6320681501:01:000:0709"},"geometry":{"type":"Polygon","coordinates":[[[36.646059,48.817619],[36.646036,48.817624],[36.646032,48.817613],[36.64581233707865,48.817659],[36.645811,48.817659],[36.645607,48.817702],[36.645415,48.817742],[36.645125,48.817808],[36.645223,48.818004],[36.645441,48.817959],[36.645502,48.817937],[36.64556,48.817925],[36.645642,48.817907],[36.646134,48.817818],[36.64611664150944,48.817772],[36.646117,48.817772],[36.646059,48.817619]]]}},{"type":"Feature","properties":{"cadnum":"6320681501:01:000:0095"},"geometry":{"type":"Polygon","coordinates":[[[36.645431,48.81845],[36.645593,48.818419],[36.645695,48.8184],[36.646347,48.818275],[36.646251,48.818083],[36.645796,48.81817],[36.645347,48.818263],[36.645431,48.81845]]]}},{"type":"Feature","properties":{"cadnum":"6320681501:01:000:0008"},"geometry":{"type":"Polygon","coordinates":[[[36.647849,48.817642],[36.647597,48.81723],[36.647211,48.817329],[36.64742241843971,48.817659],[36.647421,48.817659],[36.647482,48.817752],[36.64753,48.81774],[36.647547,48.817772],[36.64754835294118,48.817772],[36.647686,48.818012],[36.6477,48.818035],[36.647729,48.818049],[36.647942,48.817997],[36.64804,48.817974],[36.647978,48.817867],[36.647961,48.817836],[36.647859,48.817659],[36.64785867692308,48.817659],[36.647849,48.817642]]]}},{"type":"Feature","properties":{"cadnum":"6320681501:01:000:0022"},"geometry":{"type":"Polygon","coordinates":[[[36.64666,48.818668],[36.647185,48.818554],[36.647606,48.818447],[36.647494,48.818249],[36.647055,48.818354],[36.646558,48.818464],[36.64666,48.818668]]]}},{"type":"Feature","properties":{"cadnum":"6320681501:01:000:0107"},"geometry":{"type":"Polygon","coordinates":[[[36.645977,48.819615],[36.646326,48.819548],[36.646222,48.819212],[36.646193,48.819142],[36.646154,48.819039],[36.645712,48.819129],[36.645839,48.819389],[36.645858,48.819426],[36.645879,48.81947],[36.645948,48.819612],[36.645977,48.819615]]]}},{"type":"Feature","properties":{"cadnum":"6320681501:01:000:0062"},"geometry":{"type":"Polygon","coordinates":[[[36.647863,48.820456],[36.648253,48.820366],[36.64795,48.819946],[36.647885,48.819818],[36.647762,48.819575],[36.647436,48.819634],[36.647513,48.819785],[36.647541,48.819816],[36.64757,48.819884],[36.647625,48.820005],[36.647863,48.820456]]]}},{"type":"Feature","properties":{"cadnum":"6320681501:01:000:0033"},"geometry":{"type":"Polygon","coordinates":[[[36.648443,48.820114],[36.648576,48.820079],[36.64856,48.820051],[36.648591,48.820042],[36.64856,48.819991],[36.648528,48.82],[36.648506,48.819965],[36.648374,48.820002],[36.648443,48.820114]]]}},{"type":"Feature","properties":{"cadnum":"6320681501:01:000:0092"},"geometry":{"type":"Polygon","coordinates":[[[36.640529,48.82122],[36.640417,48.820975],[36.640115,48.821038],[36.640159,48.821147],[36.640197,48.821234],[36.640217,48.821272],[36.64021888034188,48.821276],[36.640218,48.821276],[36.640509,48.821888],[36.640538,48.821948],[36.640843,48.821884],[36.64060852631579,48.821389],[36.640609,48.821389],[36.640529,48.82122]]]}},{"type":"Feature","properties":{"cadnum":"6320681501:01:000:0011"},"geometry":{"type":"Polygon","coordinates":[[[36.639833,48.821188],[36.639803,48.821114],[36.639705,48.821136],[36.639466,48.821189],[36.639507325,48.821276],[36.639506,48.821276],[36.639557675000006,48.821382000000014],[36.639561,48.821389],[36.6395610875,48.821389],[36.639623,48.821516],[36.639906,48.822069],[36.640197,48.822029],[36.639938,48.821439],[36.63987,48.821276],[36.639869776119404,48.821276],[36.639833,48.821188]]]}},{"type":"Feature","properties":{"cadnum":"6320681501:01:000:0093"},"geometry":{"type":"Polygon","coordinates":[[[36.643708,48.820721],[36.643617,48.820522],[36.64357,48.820429],[36.643552,48.820392],[36.643513,48.820309],[36.643292,48.820352],[36.643243,48.820361],[36.643239,48.820359],[36.643249,48.820387],[36.643336,48.820532],[36.643377,48.820625],[36.64369,48.821389],[36.64369075862069,48.821389],[36.643692,48.821392],[36.643979,48.821337],[36.643708,48.820721]]]}},{"type":"Feature","properties":{"cadnum":"6320681501:01:000:0010"},"geometry":{"type":"Polygon","coordinates":[[[36.641483,48.82106],[36.64134,48.820769],[36.64126,48.820791],[36.641042,48.820842],[36.641189,48.821149],[36.6412398,48.821276],[36.641239,48.821276],[36.641425,48.82174],[36.641751,48.821677],[36.641577,48.821276],[36.64157622796352,48.821276],[36.641483,48.82106]]]}},{"type":"Feature","properties":{"cadnum":"6320681501:01:000:0094"},"geometry":{"type":"Polygon","coordinates":[[[36.642341,48.82096],[36.642167,48.820652],[36.642135,48.82058],[36.641873,48.820637],[36.641908,48.820707],[36.641939,48.820799],[36.641989,48.8209],[36.642215,48.821389],[36.64221589361702,48.821389],[36.642317,48.821605],[36.64261,48.821551],[36.642485,48.821276],[36.64248463636363,48.821276],[36.642341,48.82096]]]}},{"type":"Feature","properties":{"cadnum":"6320681501:01:000:0012"},"geometry":{"type":"Polygon","coordinates":[[[36.640253,48.822157],[36.640197,48.822029],[36.639906,48.822069],[36.639921,48.822098],[36.640253,48.822157]]]}},{"type":"Feature","properties":{"cadnum":"6320681501:01:000:0051"},"geometry":{"type":"Polygon","coordinates":[[[36.641189,48.821149],[36.641146,48.821061],[36.641042,48.820842],[36.640748,48.820906],[36.640847,48.821124],[36.640965,48.821389],[36.64096685,48.821389],[36.641168,48.821836],[36.641441,48.82178],[36.641425,48.82174],[36.6412842974138,48.821389],[36.641285,48.821389],[36.641189,48.821149]]]}},{"type":"Feature","properties":{"cadnum":"6320681501:01:000:0090"},"geometry":{"type":"Polygon","coordinates":[[[36.640217,48.821272],[36.640197,48.821234],[36.640159,48.821147],[36.640115,48.821038],[36.639914,48.821082],[36.639887,48.821087],[36.639829,48.821099],[36.639799,48.821106],[36.639803,48.821114],[36.639833,48.821188],[36.639917,48.821389],[36.6399171411043,48.821389],[36.639938,48.821439],[36.640167,48.821962],[36.640509,48.821888],[36.64027173039216,48.821389],[36.640272,48.821389],[36.640217,48.821272]]]}},{"type":"Feature","properties":{"cadnum":"6320681501:01:000:0100"},"geometry":{"type":"Polygon","coordinates":[[[36.642809,48.820805],[36.642785,48.820752],[36.642769,48.82071],[36.642699,48.820541],[36.64266,48.820477],[36.642399,48.82053],[36.642459,48.820674],[36.642466,48.820705],[36.6425,48.820714],[36.642547,48.820811],[36.642591,48.820906],[36.642741144927534,48.821276],[36.64274,48.821276],[36.642864,48.821581],[36.643108,48.82154],[36.64304622727273,48.821389],[36.643047,48.821389],[36.642809,48.820805]]]}},{"type":"Feature","properties":{"cadnum":"6320681501:01:000:0063"},"geometry":{"type":"Polygon","coordinates":[[[36.633152,48.821105],[36.632689,48.821266],[36.6326977804878,48.821276],[36.632697,48.821276],[36.63298,48.821598],[36.633156,48.821807],[36.633566,48.821681],[36.633552,48.821659],[36.633404,48.821454],[36.633275,48.821276],[36.63327483098591,48.821276],[36.633152,48.821105]]]}},{"type":"Feature","properties":{"cadnum":"6320681501:01:000:0017"},"geometry":{"type":"Polygon","coordinates":[[[36.633579,48.820527],[36.632899,48.820752],[36.633275753532175,48.821276],[36.633275,48.821276],[36.633552,48.821659],[36.633825,48.821570658426964],[36.633825,48.821571],[36.633986212122295,48.82151849090874],[36.633997,48.821515],[36.633997,48.821514977142854],[36.634,48.821514],[36.63389007537689,48.821389],[36.633891,48.821389],[36.633841655660206,48.82133367452811],[36.633613,48.821072],[36.633825,48.820999536723164],[36.633825,48.821001],[36.633967,48.820951],[36.633579,48.820527]]]}},{"type":"Feature","properties":{"cadnum":"6320681501:01:000:0028"},"geometry":{"type":"Polygon","coordinates":[[[36.628171,48.822499],[36.627861,48.822612],[36.628226,48.823],[36.628332,48.82310371223022],[36.628332,48.823104],[36.628568,48.823335],[36.628855,48.823219],[36.62869,48.823063],[36.628624,48.823006],[36.628332,48.822679],[36.628332,48.82267933933934],[36.628171,48.822499]]]}},{"type":"Feature","properties":{"cadnum":"6320681501:01:000:0052"},"geometry":{"type":"Polygon","coordinates":[[[36.628332,48.82343995939086],[36.628332,48.82344],[36.628511,48.823361],[36.628564,48.823337],[36.628568,48.823335],[36.628504,48.823272355932204],[36.628504,48.823272],[36.628311,48.823083],[36.628226,48.823],[36.627861,48.822612],[36.627817,48.822565],[36.627531,48.822672],[36.628051,48.82322],[36.628087,48.823251],[36.62814,48.8233],[36.628307,48.823451],[36.628332,48.82343995939086]]]}},{"type":"Feature","properties":{"cadnum":"6320681501:01:000:0091"},"geometry":{"type":"Polygon","coordinates":[[[36.645313,48.817536],[36.6454,48.817517],[36.645457,48.817504],[36.645488,48.817496],[36.64552,48.81749],[36.645931,48.817422],[36.645777,48.817105],[36.645407,48.817183],[36.644946,48.817287],[36.644864,48.817328],[36.644934,48.817445],[36.64495,48.817473],[36.644983,48.817536],[36.644983,48.8175340945946],[36.645024,48.81761],[36.645313,48.817536]]]}},{"type":"Feature","properties":{"cadnum":"6320681501:01:000:0088"},"geometry":{"type":"Polygon","coordinates":[[[36.647545,48.817137],[36.647873,48.817059],[36.647647,48.816664],[36.647321,48.816742],[36.647545,48.817137]]]}},{"type":"Feature","properties":{"cadnum":"6320681501:01:000:0060"},"geometry":{"type":"Polygon","coordinates":[[[36.649511,48.817609],[36.649799,48.817534],[36.649774,48.817491],[36.649632,48.817273],[36.649228,48.816637],[36.648914,48.816725],[36.649331,48.817313],[36.649511,48.817609]]]}},{"type":"Feature","properties":{"cadnum":"6320681501:01:000:0009"},"geometry":{"type":"Polygon","coordinates":[[[36.647211,48.817329],[36.647597,48.81723],[36.647314,48.81673],[36.64689,48.816831],[36.647211,48.817329]]]}},{"type":"Feature","properties":{"cadnum":"6320681501:01:000:0109"},"geometry":{"type":"Polygon","coordinates":[[[36.637551,48.821225],[36.637319,48.820925],[36.636937,48.821045],[36.637111593023256,48.821276],[36.637111,48.821276],[36.637216,48.821414],[36.637271,48.82151],[36.637287,48.821538],[36.63737,48.821675],[36.637803,48.821534],[36.637798,48.821526],[36.637721,48.821408],[36.637664,48.821349],[36.637551,48.821225]]]}},{"type":"Feature","properties":{"cadnum":"6320681501:01:000:0083"},"geometry":{"type":"Polygon","coordinates":[[[36.639748,48.819313],[36.640944,48.819071],[36.641435,48.818946],[36.639766,48.8185],[36.63949,48.81856530357143],[36.63949,48.818565],[36.638824,48.818722],[36.63842,48.818829],[36.637831,48.819012],[36.63807,48.819714],[36.638656,48.819594],[36.63949,48.81938],[36.63949,48.8193796],[36.639748,48.819313]]]}},{"type":"Feature","properties":{"cadnum":"6320681501:01:000:0077"},"geometry":{"type":"Polygon","coordinates":[[[36.63577,48.821029],[36.636057,48.820942],[36.635703,48.820568],[36.635282,48.820069],[36.635003,48.820162],[36.63557,48.820803],[36.63577,48.821029]]]}},{"type":"Feature","properties":{"cadnum":"6320681501:01:000:0041"},"geometry":{"type":"Polygon","coordinates":[[[36.635993,48.821184],[36.63572611711712,48.821276],[36.635726,48.821276],[36.635671,48.821295],[36.635758,48.821389],[36.635759447257385,48.821389],[36.636117,48.821769],[36.636322,48.821976],[36.636336,48.821989],[36.636668,48.821882],[36.636428,48.821626],[36.63619370857143,48.821389],[36.636194,48.821389],[36.635993,48.821184]]]}},{"type":"Feature","properties":{"cadnum":"6320681501:01:000:0073"},"geometry":{"type":"Polygon","coordinates":[[[36.648663,48.82183],[36.648683,48.821825],[36.649137,48.821733],[36.649674,48.821621],[36.649528,48.82134],[36.649496,48.821348],[36.649111,48.821435],[36.649036,48.821452],[36.64896,48.821467],[36.648526,48.821566],[36.648663,48.82183]]]}},{"type":"Feature","properties":{"cadnum":"6320681501:01:000:0045"},"geometry":{"type":"Polygon","coordinates":[[[36.648395,48.822211],[36.648843,48.822115],[36.648683,48.821825],[36.648229,48.821918],[36.648395,48.822211]]]}},{"type":"Feature","properties":{"cadnum":"6320681501:01:000:0049"},"geometry":{"type":"Polygon","coordinates":[[[36.6478,48.822474],[36.649247,48.822179],[36.649897,48.822021],[36.649821,48.821888],[36.649593,48.821931],[36.64952,48.821949],[36.649522,48.821955],[36.649457,48.821968],[36.649436,48.821974],[36.649438,48.82198],[36.64919,48.822041],[36.648843,48.822115],[36.648395,48.822211],[36.647765,48.822346],[36.6478,48.822474]]]}},{"type":"Feature","properties":{"cadnum":"6320681501:01:000:0075"},"geometry":{"type":"Polygon","coordinates":[[[36.647507,48.822065],[36.648229,48.821918],[36.648663,48.82183],[36.648526,48.821566],[36.647998,48.821687],[36.647379,48.821829],[36.647507,48.822065]]]}},{"type":"Feature","properties":{"cadnum":"6320681501:01:000:0070"},"geometry":{"type":"Polygon","coordinates":[[[36.647541,48.822394],[36.647765,48.822346],[36.648395,48.822211],[36.648229,48.821918],[36.647376,48.822092],[36.647541,48.822394]]]}},{"type":"Feature","properties":{"cadnum":"6320681501:01:000:0056"},"geometry":{"type":"Polygon","coordinates":[[[36.650476,48.821756],[36.650476,48.82175578756477],[36.650691,48.821709],[36.650981,48.821649],[36.651063,48.82163],[36.650888,48.821327],[36.650463,48.821442],[36.65034,48.821476],[36.650305,48.821485],[36.650305,48.82148551371571],[36.649939,48.821585],[36.650085,48.821839],[36.650299,48.821794],[36.650305,48.821792711864404],[36.650305,48.821793],[36.65040343000045,48.821771579999904],[36.650476,48.821756]]]}},{"type":"Feature","properties":{"cadnum":"6320681501:01:000:0047"},"geometry":{"type":"Polygon","coordinates":[[[36.647256,48.821853],[36.647379,48.821829],[36.647998,48.821687],[36.647908,48.821507],[36.647161,48.821683],[36.647256,48.821853]]]}},{"type":"Feature","properties":{"cadnum":"6320681501:01:000:0076"},"geometry":{"type":"Polygon","coordinates":[[[36.65037233550465,48.82325889902285],[36.650476,48.823236],[36.650476,48.8232356507353],[36.650577,48.823213],[36.650416,48.822954],[36.650305,48.822982],[36.650305,48.82298211038961],[36.650262,48.822993],[36.649995,48.823053],[36.64939,48.823172],[36.649347,48.823181],[36.649473,48.823425],[36.649618,48.8234],[36.650141,48.82331],[36.650305,48.823273773134325],[36.650305,48.823274],[36.65037233550465,48.82325889902285]]]}},{"type":"Feature","properties":{"cadnum":"6320681501:01:000:0053"},"geometry":{"type":"Polygon","coordinates":[[[36.650454,48.822056],[36.650476,48.822052],[36.650476,48.822051949206354],[36.650769,48.821998],[36.651249,48.821907],[36.651096,48.821622],[36.650981,48.821649],[36.650691,48.821709],[36.65040343000045,48.821771579999904],[36.650299,48.821794],[36.650085,48.821839],[36.650232,48.822099],[36.650305,48.82208486036036],[36.650305,48.822085],[36.650454,48.822056]]]}},{"type":"Feature","properties":{"cadnum":"6320681501:01:000:0065"},"geometry":{"type":"Polygon","coordinates":[[[36.648661,48.823315],[36.64939,48.823172],[36.649249,48.822902],[36.648522,48.823049],[36.648661,48.823315]]]}},{"type":"Feature","properties":{"cadnum":"6320681501:01:000:0078"},"geometry":{"type":"Polygon","coordinates":[[[36.648438,48.823604],[36.649473,48.823425],[36.649347,48.823181],[36.648661,48.823315],[36.6484,48.823366],[36.648438,48.823604]]]}},{"type":"Feature","properties":{"cadnum":"6320681501:01:000:0074"},"geometry":{"type":"Polygon","coordinates":[[[36.648673,48.823879],[36.649767,48.823688],[36.649618,48.8234],[36.649473,48.823425],[36.648438,48.823604],[36.648535,48.823869],[36.648673,48.823879]]]}},{"type":"Feature","properties":{"cadnum":"6320681501:01:000:0072"},"geometry":{"type":"Polygon","coordinates":[[[36.650309,48.823594],[36.650476,48.823559],[36.650476,48.82355810280374],[36.650737,48.823502],[36.650577,48.823213],[36.65037233550465,48.82325889902285],[36.650141,48.82331],[36.649618,48.8234],[36.649767,48.823688],[36.650305,48.82359469372694],[36.650305,48.823595],[36.650309,48.823594]]]}},{"type":"Feature","properties":{"cadnum":"6320681501:01:000:0043"},"geometry":{"type":"Polygon","coordinates":[[[36.648001,48.823155],[36.649751,48.822799],[36.649473,48.822276],[36.649295,48.822305],[36.647865,48.822612],[36.647706,48.822646],[36.647763,48.822717],[36.648001,48.823155]]]}},{"type":"Feature","properties":{"cadnum":"6320681501:01:000:0064"},"geometry":{"type":"Polygon","coordinates":[[[36.649995,48.823053],[36.650262,48.822993],[36.650416,48.822954],[36.650277,48.822702],[36.64992,48.822766],[36.649869,48.822775],[36.649751,48.822799],[36.649249,48.822902],[36.64939,48.823172],[36.649995,48.823053]]]}},{"type":"Feature","properties":{"cadnum":"6320681501:01:000:0048"},"geometry":{"type":"Polygon","coordinates":[[[36.647865,48.822612],[36.649295,48.822305],[36.649473,48.822276],[36.649582,48.822252],[36.649792,48.822195],[36.649798,48.822202],[36.649975,48.822154],[36.649897,48.822021],[36.649247,48.822179],[36.6478,48.822474],[36.647865,48.822612]]]}},{"type":"Feature","properties":{"cadnum":"6320681501:01:000:0044"},"geometry":{"type":"Polygon","coordinates":[[[36.648843,48.822115],[36.64919,48.822041],[36.649292,48.822016],[36.649438,48.82198],[36.649436,48.821974],[36.649457,48.821968],[36.649522,48.821955],[36.64952,48.821949],[36.649593,48.821931],[36.649821,48.821888],[36.649674,48.821621],[36.649137,48.821733],[36.648683,48.821825],[36.648843,48.822115]]]}},{"type":"Feature","properties":{"cadnum":"6320681501:01:000:0037"},"geometry":{"type":"Polygon","coordinates":[[[36.649751,48.822799],[36.649869,48.822775],[36.650277,48.822702],[36.649975,48.822154],[36.649798,48.822202],[36.649792,48.822195],[36.649582,48.822252],[36.649473,48.822276],[36.649751,48.822799]]]}},{"type":"Feature","properties":{"cadnum":"6320681501:01:000:0057"},"geometry":{"type":"Polygon","coordinates":[[[36.651249,48.821907],[36.651292,48.821899],[36.651704,48.821823],[36.651537,48.821519],[36.651096,48.821622],[36.651249,48.821907]]]}},{"type":"Feature","properties":{"cadnum":"6320681501:01:000:0079"},"geometry":{"type":"Polygon","coordinates":[[[36.650765,48.823177],[36.651222,48.82312],[36.651803,48.823015],[36.651832,48.82301],[36.6517,48.822753],[36.651355,48.822808],[36.651046,48.822853],[36.650629,48.822914],[36.650765,48.823177]]]}},{"type":"Feature","properties":{"cadnum":"6320681501:01:000:0783"},"geometry":{"type":"Polygon","coordinates":[[[36.650629,48.822914],[36.651046,48.822853],[36.651355,48.822808],[36.651666,48.822759],[36.651537,48.822481],[36.651221,48.82253],[36.650885,48.822585],[36.650499,48.822635],[36.650629,48.822914]]]}},{"type":"Feature","properties":{"cadnum":"6320681501:01:000:0101"},"geometry":{"type":"Polygon","coordinates":[[[36.651666,48.822759],[36.6517,48.822753],[36.65244,48.822636],[36.652303,48.822363],[36.651537,48.822481],[36.651666,48.822759]]]}},{"type":"Feature","properties":{"cadnum":"6320681501:01:000:0061"},"geometry":{"type":"Polygon","coordinates":[[[36.650918,48.82346],[36.651399,48.823387],[36.651926,48.823295],[36.651803,48.823015],[36.651222,48.82312],[36.650765,48.823177],[36.650918,48.82346]]]}},{"type":"Feature","properties":{"cadnum":"6320681501:01:000:0080"},"geometry":{"type":"Polygon","coordinates":[[[36.651832,48.82301],[36.652704,48.822849],[36.652585,48.822613],[36.6517,48.822753],[36.651832,48.82301]]]}},{"type":"Feature","properties":{"cadnum":"6320681501:01:000:0103"},"geometry":{"type":"Polygon","coordinates":[[[36.65079,48.820639],[36.651151,48.820567],[36.651013,48.820333],[36.650651,48.820414],[36.65079,48.820639]]]}},{"type":"Feature","properties":{"cadnum":"6320681501:01:000:0097"},"geometry":{"type":"Polygon","coordinates":[[[36.636954,48.822658],[36.637359,48.822555],[36.637017,48.821902],[36.636593,48.822034],[36.636954,48.822658]]]}},{"type":"Feature","properties":{"cadnum":"6320681501:01:000:0016"},"geometry":{"type":"Polygon","coordinates":[[[36.637796,48.822437],[36.638138,48.822361],[36.637857,48.821925],[36.637694,48.821733],[36.637367,48.821838],[36.637523,48.822017],[36.637796,48.822437]]]}},{"type":"Feature","properties":{"cadnum":"6320681501:01:000:0020"},"geometry":{"type":"Polygon","coordinates":[[[36.636592,48.822802],[36.636981,48.822705],[36.636593,48.822034],[36.636184,48.822158],[36.636592,48.822802]]]}},{"type":"Feature","properties":{"cadnum":"6320681501:01:000:0040"},"geometry":{"type":"Polygon","coordinates":[[[36.638496,48.822274],[36.63886,48.82215],[36.638645,48.821764],[36.638573,48.821617],[36.638476,48.821478],[36.638097,48.821608],[36.638032,48.821626],[36.638071,48.821688],[36.638136,48.821672],[36.638215,48.821802],[36.638496,48.822274]]]}},{"type":"Feature","properties":{"cadnum":"6320681501:01:000:0066"},"geometry":{"type":"Polygon","coordinates":[[[36.634906,48.823516],[36.635197,48.82343],[36.634851,48.822934],[36.6347,48.822768],[36.634613,48.82264],[36.634264,48.822744],[36.634535,48.823046],[36.634906,48.823516]]]}},{"type":"Feature","properties":{"cadnum":"6320681501:01:000:0108"},"geometry":{"type":"Polygon","coordinates":[[[36.633997,48.82379],[36.633997,48.82378925],[36.63415,48.823751],[36.633833496730006,48.82326212417988],[36.633761,48.82315],[36.633635,48.822926],[36.633207,48.823035],[36.633267,48.823092],[36.633324,48.823155],[36.633381,48.82322],[36.633697,48.823543],[36.633825,48.823728566137575],[36.633825,48.82373],[36.633886,48.823817],[36.633997,48.82379]]]}},{"type":"Feature","properties":{"cadnum":"6320681501:01:000:0036"},"geometry":{"type":"Polygon","coordinates":[[[36.633825,48.82267398019802],[36.633825,48.822674],[36.63382816417898,48.82267313432839],[36.633997,48.822628],[36.633997,48.82262694339622],[36.634037,48.822616],[36.63389,48.822382],[36.633639,48.822019],[36.633214,48.822164],[36.633454,48.822514],[36.633474,48.822548],[36.633491,48.822578],[36.633593,48.822736],[36.633825,48.82267398019802]]]}},{"type":"Feature","properties":{"cadnum":"6320681501:01:000:0085"},"geometry":{"type":"Polygon","coordinates":[[[36.637369,48.822574],[36.63781,48.822463],[36.637796,48.822437],[36.637523,48.822017],[36.637367,48.821838],[36.637332,48.821815],[36.637017,48.821902],[36.637359,48.822555],[36.637369,48.822574]]]}},{"type":"Feature","properties":{"cadnum":"6320681501:01:000:0084"},"geometry":{"type":"Polygon","coordinates":[[[36.637531,48.822883],[36.637921,48.822688],[36.63781,48.822463],[36.637369,48.822574],[36.637531,48.822883]]]}},{"type":"Feature","properties":{"cadnum":"6320681501:01:000:0096"},"geometry":{"type":"Polygon","coordinates":[[[36.637111,48.82297],[36.637531,48.822883],[36.637369,48.822574],[36.637359,48.822555],[36.636954,48.822658],[36.636981,48.822705],[36.637111,48.82297]]]}},{"type":"Feature","properties":{"cadnum":"6320681501:01:000:0027"},"geometry":{"type":"Polygon","coordinates":[[[36.630273,48.822738],[36.630727,48.822592],[36.630486,48.822316],[36.630266,48.82206],[36.629825,48.822229],[36.630022,48.82246],[36.630273,48.822738]]]}},{"type":"Feature","properties":{"cadnum":"6320681501:01:000:0102"},"geometry":{"type":"Polygon","coordinates":[[[36.629272,48.823097],[36.629599,48.822972],[36.629484,48.822837],[36.629331,48.822661],[36.628997,48.822291],[36.628666,48.822433],[36.629036,48.822842],[36.629245,48.823068],[36.629272,48.823097]]]}},{"type":"Feature","properties":{"cadnum":"6320681501:01:000:0026"},"geometry":{"type":"Polygon","coordinates":[[[36.629941,48.822849],[36.630273,48.822738],[36.630022,48.82246],[36.629825,48.822229],[36.629638,48.822011],[36.629318,48.822126],[36.629358,48.822173],[36.629693,48.822566],[36.629941,48.822849]]]}},{"type":"Feature","properties":{"cadnum":"6320681501:01:000:0087"},"geometry":{"type":"Polygon","coordinates":[[[36.632322,48.822963],[36.632744,48.822948],[36.632659,48.82282],[36.632562,48.822696],[36.632251,48.822213],[36.631878,48.822336],[36.632182,48.822768],[36.632322,48.822963]]]}},{"type":"Feature","properties":{"cadnum":"6320681501:01:000:0003"},"geometry":{"type":"Polygon","coordinates":[[[36.629599,48.822972],[36.629941,48.822849],[36.629693,48.822566],[36.629358,48.822173],[36.628997,48.822291],[36.629331,48.822661],[36.629484,48.822837],[36.629599,48.822972]]]}},{"type":"Feature","properties":{"cadnum":"6320681501:01:000:0035"},"geometry":{"type":"Polygon","coordinates":[[[36.641954,48.820415],[36.642251,48.820349],[36.642085,48.820029],[36.642041,48.819938],[36.641789,48.819482],[36.641466,48.819561],[36.641774,48.820111],[36.641834,48.820198],[36.641954,48.820415]]]}},{"type":"Feature","properties":{"cadnum":"6320681501:01:000:0106"},"geometry":{"type":"Polygon","coordinates":[[[36.643399,48.818714],[36.644159,48.818562],[36.644138,48.818519],[36.6441,48.818438],[36.644095,48.818427],[36.643689,48.818499],[36.643343,48.818573],[36.643399,48.818714]]]}},{"type":"Feature","properties":{"cadnum":"6320681501:01:000:0031"},"geometry":{"type":"Polygon","coordinates":[[[36.64453,48.821167],[36.644825,48.821117],[36.644574,48.820597],[36.644361,48.820157],[36.644071,48.820206],[36.644091,48.820248],[36.644105,48.820279],[36.644141,48.82036],[36.644187,48.820462],[36.644203,48.820496],[36.644285,48.820659],[36.64453,48.821167]]]}},{"type":"Feature","properties":{"cadnum":"6320681501:01:000:0067"},"geometry":{"type":"Polygon","coordinates":[[[36.640269,48.820812],[36.640558,48.820732],[36.640316,48.820305],[36.640047,48.819836],[36.639756,48.819918],[36.639831,48.820062],[36.640108,48.820539],[36.640269,48.820812]]]}},{"type":"Feature","properties":{"cadnum":"6320681501:01:000:1220"},"geometry":{"type":"Polygon","coordinates":[[[36.642137,48.82013],[36.642332,48.820071],[36.642369,48.819891],[36.642459,48.819838],[36.642391,48.819735],[36.641982,48.819829],[36.641993,48.819851],[36.642041,48.819938],[36.642085,48.820029],[36.642137,48.82013]]]}},{"type":"Feature","properties":{"cadnum":"6320681501:01:000:0082"},"geometry":{"type":"Polygon","coordinates":[[[36.641527,48.818922],[36.642036,48.818796],[36.643091,48.818536],[36.643123,48.818528],[36.643298,48.818487],[36.643342,48.818571],[36.643393,48.81856],[36.643696,48.818492],[36.64416,48.818405],[36.644066,48.818243],[36.64358,48.81835],[36.643492,48.818173],[36.643402,48.818194],[36.64331,48.818002],[36.64319,48.818029],[36.643099,48.817757],[36.64297,48.817783],[36.64271,48.817836],[36.64258,48.817863],[36.641555,48.818088],[36.64089,48.818234],[36.639863,48.818478],[36.641527,48.818922]],[[36.642868,48.817885],[36.642859,48.81787],[36.642882,48.817865],[36.64289,48.81788],[36.642868,48.817885]],[[36.64308,48.818275],[36.643072,48.81826],[36.643095,48.818254],[36.643103,48.818269],[36.64308,48.818275]]]}},{"type":"Feature","properties":{"cadnum":"6320681501:01:000:0055"},"geometry":{"type":"Polygon","coordinates":[[[36.641655,48.819176],[36.642176,48.819046],[36.642036,48.818796],[36.641527,48.818922],[36.641655,48.819176]]]}},{"type":"Feature","properties":{"cadnum":"6320681501:01:000:0021"},"geometry":{"type":"Polygon","coordinates":[[[36.639974,48.820889],[36.639988,48.820887],[36.640076,48.820863],[36.640269,48.820812],[36.640108,48.820539],[36.639831,48.820062],[36.639571,48.820255],[36.639791,48.820612],[36.639974,48.820889]]]}},{"type":"Feature","properties":{"cadnum":"6320681501:01:000:0054"},"geometry":{"type":"Polygon","coordinates":[[[36.642176,48.819046],[36.643237,48.818785],[36.643123,48.818528],[36.642036,48.818796],[36.642176,48.819046]]]}}]}