{"type":"FeatureCollection","features":[{"type":"Feature","properties":{"cadnum":"6320484001:00:000:0281"},"geometry":{"type":"Polygon","coordinates":[[[36.690109,49.069394],[36.68991,49.069296],[36.689503,49.069177],[36.68946,49.069218],[36.689765,49.069314],[36.689739,49.069372],[36.689952,49.069594],[36.690103,49.070012],[36.68947152755905,49.070211],[36.68947,49.070211],[36.689297,49.070266],[36.689555,49.07099],[36.690781,49.071345],[36.690943,49.071391],[36.69139,49.071452],[36.691577,49.071465],[36.692178,49.071403],[36.692583,49.071287],[36.692693,49.071154],[36.692717,49.071075],[36.69266,49.070975],[36.692647,49.070915],[36.690868,49.070939],[36.69051,49.070211],[36.690509593548384,49.070211],[36.690109,49.069394]]]}},{"type":"Feature","properties":{"cadnum":"6320484001:00:000:0286"},"geometry":{"type":"Polygon","coordinates":[[[36.69274,49.070125],[36.693071,49.070063],[36.693057,49.069629],[36.692678,49.069627],[36.692685,49.069721],[36.692709,49.070107],[36.692296,49.070119],[36.692271,49.069732],[36.692264,49.069624],[36.6916,49.069642],[36.691691,49.069778],[36.691748,49.069991],[36.69163899099099,49.070211],[36.691638,49.070211],[36.691561,49.070367],[36.691564,49.070398],[36.691583,49.070413],[36.691721,49.070427],[36.692111,49.070413],[36.692382,49.07043],[36.692468,49.070295],[36.69274,49.070125]]]}},{"type":"Feature","properties":{"cadnum":"6320484001:00:000:0230"},"geometry":{"type":"Polygon","coordinates":[[[36.681481,49.062651],[36.68188,49.062648],[36.681844,49.062389],[36.681713,49.061903],[36.681295,49.06195],[36.681481,49.062651]]]}},{"type":"Feature","properties":{"cadnum":"6320484001:01:000:0082"},"geometry":{"type":"Polygon","coordinates":[[[36.682982,49.062959],[36.683006,49.063125],[36.68300666115702,49.063125],[36.683026,49.063255],[36.683384,49.063246],[36.68336911627904,49.063029255813476],[36.683364,49.062946],[36.682982,49.062959]]]}},{"type":"Feature","properties":{"cadnum":"6320484001:01:000:0081"},"geometry":{"type":"Polygon","coordinates":[[[36.682982,49.062959],[36.681958,49.062985],[36.681962,49.063013],[36.68196200000006,49.06301300000042],[36.681978,49.063125],[36.681978759124085,49.063125],[36.682003,49.063287],[36.683026,49.063255],[36.68299,49.063013],[36.682989807228914,49.063013],[36.682982,49.062959]]]}},{"type":"Feature","properties":{"cadnum":"6320484001:00:000:0291"},"geometry":{"type":"Polygon","coordinates":[[[36.678182,49.070061],[36.678182,49.070146],[36.677977466666654,49.070211],[36.677976,49.070211],[36.677946,49.070221],[36.677775,49.070299],[36.67778,49.070324],[36.677780737704914,49.070324],[36.677789,49.07036],[36.677788,49.070386],[36.677942,49.07042],[36.677942,49.07041997601919],[36.678205,49.070478],[36.678907,49.070634],[36.67905,49.070547],[36.679114,49.07049],[36.679165,49.070374],[36.67920262499992,49.07030268750015],[36.679257,49.070203],[36.678182,49.070061]]]}},{"type":"Feature","properties":{"cadnum":"6320484001:00:000:0264"},"geometry":{"type":"Polygon","coordinates":[[[36.68056,49.068711],[36.680576,49.068192],[36.680013,49.068188],[36.680025,49.068524],[36.680155,49.068524],[36.68015,49.068698],[36.68056,49.068711]]]}},{"type":"Feature","properties":{"cadnum":"6320484001:00:000:0229"},"geometry":{"type":"Polygon","coordinates":[[[36.679041,49.06888],[36.679861,49.068865],[36.679855,49.068543],[36.679505,49.068519],[36.679474,49.068472],[36.679046,49.068457],[36.679041,49.06888]]]}},{"type":"Feature","properties":{"cadnum":"6320484001:00:000:0274"},"geometry":{"type":"Polygon","coordinates":[[[36.679655,49.070245],[36.679609,49.070324],[36.67960971208226,49.070324],[36.679432,49.070634],[36.680108,49.070722],[36.680049,49.071081],[36.680213,49.071085],[36.680297,49.070293],[36.679655,49.070245]]]}},{"type":"Feature","properties":{"cadnum":"6320484001:00:000:0250"},"geometry":{"type":"Polygon","coordinates":[[[36.681233,49.068554],[36.682287,49.068516],[36.682259,49.068247],[36.681822,49.068231],[36.681225,49.068252],[36.681233,49.068554]]]}},{"type":"Feature","properties":{"cadnum":"6320484001:00:000:0227"},"geometry":{"type":"Polygon","coordinates":[[[36.682344,49.068992],[36.682309,49.068731],[36.681046,49.06876],[36.681056,49.068985],[36.681401,49.068983],[36.682344,49.068992]]]}},{"type":"Feature","properties":{"cadnum":"6320484001:01:000:0064"},"geometry":{"type":"Polygon","coordinates":[[[36.681628,49.067246],[36.68208,49.067211],[36.682019,49.066861],[36.681557,49.066863],[36.681628,49.067246]]]}},{"type":"Feature","properties":{"cadnum":"6320484001:01:000:0065"},"geometry":{"type":"Polygon","coordinates":[[[36.681237,49.067159],[36.681229,49.066959],[36.680429,49.066957],[36.680437,49.067157],[36.681237,49.067159]]]}},{"type":"Feature","properties":{"cadnum":"6320484001:00:000:0058"},"geometry":{"type":"Polygon","coordinates":[[[36.68141,49.06928],[36.682342,49.069259],[36.682344,49.068992],[36.681401,49.068983],[36.68141,49.06928]]]}},{"type":"Feature","properties":{"cadnum":"6320484001:00:000:0254"},"geometry":{"type":"Polygon","coordinates":[[[36.680911,49.068763],[36.681046,49.06876],[36.682309,49.068731],[36.682287,49.068516],[36.680911,49.068565],[36.680911,49.068763]]]}},{"type":"Feature","properties":{"cadnum":"6320484001:01:000:0063"},"geometry":{"type":"Polygon","coordinates":[[[36.68126,49.067985],[36.681579,49.067974],[36.682153,49.067955],[36.682133,49.067716],[36.681481,49.067732],[36.681263,49.067772],[36.68126,49.067985]]]}},{"type":"Feature","properties":{"cadnum":"6320484001:00:000:0211"},"geometry":{"type":"Polygon","coordinates":[[[36.683724,49.070131],[36.683571,49.069271],[36.683435,49.06928118892508],[36.683435,49.069281],[36.683218,49.069296],[36.683371,49.070158],[36.683435,49.070154],[36.683435,49.070153104815866],[36.683724,49.070131]]]}},{"type":"Feature","properties":{"cadnum":"6320484001:00:000:0203"},"geometry":{"type":"Polygon","coordinates":[[[36.682615,49.070185],[36.682992,49.070181],[36.682949,49.069765],[36.682906,49.069331],[36.682572,49.069368],[36.682574,49.069451],[36.682566,49.069452],[36.682573,49.069518],[36.682573,49.069657],[36.682561,49.069657],[36.682565,49.069748],[36.682615,49.070185]]]}},{"type":"Feature","properties":{"cadnum":"6320484001:01:000:0066"},"geometry":{"type":"Polygon","coordinates":[[[36.680859,49.066618],[36.680862,49.066725],[36.68086296296296,49.066725],[36.680871,49.066942],[36.681249,49.066943],[36.681263,49.066863],[36.681557,49.066863],[36.682019,49.066861],[36.681978,49.066618],[36.680859,49.066618]]]}},{"type":"Feature","properties":{"cadnum":"6320484001:01:000:0060"},"geometry":{"type":"Polygon","coordinates":[[[36.682259,49.068247],[36.682208,49.067952],[36.682153,49.067955],[36.681579,49.067974],[36.681622,49.068224],[36.682259,49.068247]]]}},{"type":"Feature","properties":{"cadnum":"6320484001:00:000:0276"},"geometry":{"type":"Polygon","coordinates":[[[36.684449,49.068768],[36.684351,49.06806],[36.684146,49.068071],[36.683347,49.06811],[36.683174,49.068119],[36.68308,49.068124],[36.682564,49.06815],[36.682568,49.068191],[36.682698,49.068327],[36.682706,49.068335],[36.682735,49.068366],[36.682753,49.068384],[36.683067,49.068712],[36.683435,49.068785],[36.683435,49.06878425],[36.683516,49.0688],[36.684449,49.068768]]]}},{"type":"Feature","properties":{"cadnum":"6320484001:00:000:0255"},"geometry":{"type":"Polygon","coordinates":[[[36.682564,49.06815],[36.68308,49.068124],[36.683174,49.068119],[36.683347,49.06811],[36.683338,49.068029],[36.683334,49.067985],[36.683305,49.067738],[36.682518,49.067743],[36.68254,49.067938],[36.682564,49.06815]]]}},{"type":"Feature","properties":{"cadnum":"6320484001:01:000:0068"},"geometry":{"type":"Polygon","coordinates":[[[36.683264,49.066631],[36.683264,49.066631286496346],[36.68233,49.066656],[36.682336,49.066725],[36.68233638434164,49.066725],[36.682356,49.066937],[36.683264,49.06691175440223],[36.683264,49.066912],[36.683452,49.066907],[36.683426,49.066627],[36.683264,49.066631]]]}},{"type":"Feature","properties":{"cadnum":"6320484001:00:000:0256"},"geometry":{"type":"Polygon","coordinates":[[[36.684146,49.068071],[36.684105,49.067732],[36.683881,49.067733],[36.683794,49.067734],[36.683305,49.067738],[36.683334,49.067985],[36.683338,49.068029],[36.683347,49.06811],[36.683435,49.068107],[36.683435,49.06810570463079],[36.684146,49.068071]]]}},{"type":"Feature","properties":{"cadnum":"6320484001:01:000:0067"},"geometry":{"type":"Polygon","coordinates":[[[36.680426,49.066617],[36.680427,49.066716],[36.680342,49.066718],[36.680342,49.066725],[36.68034228251121,49.066725],[36.680351,49.066941],[36.680871,49.066942],[36.680859,49.066618],[36.680426,49.066617]]]}},{"type":"Feature","properties":{"cadnum":"6320484001:00:000:0059"},"geometry":{"type":"Polygon","coordinates":[[[36.682046,49.069747],[36.682035,49.069402],[36.681213,49.069419],[36.681221,49.069702],[36.682046,49.069747]]]}},{"type":"Feature","properties":{"cadnum":"6320484001:01:000:0062"},"geometry":{"type":"Polygon","coordinates":[[[36.681679,49.067696],[36.682163,49.067689],[36.68208,49.067211],[36.681628,49.067246],[36.681511,49.067254],[36.681534,49.067628],[36.681579,49.067679],[36.681679,49.067696]]]}},{"type":"Feature","properties":{"cadnum":"6320484001:00:000:0001"},"geometry":{"type":"Polygon","coordinates":[[[36.683305,49.067738],[36.683435,49.067737],[36.683435,49.06773628947368],[36.683457,49.067736],[36.683433,49.067405],[36.683264,49.067409],[36.683264,49.06740920746888],[36.682469,49.067429],[36.682518,49.067743],[36.683264,49.06773826048285],[36.683264,49.067739],[36.683305,49.067738]]]}},{"type":"Feature","properties":{"cadnum":"6320484001:01:000:0098"},"geometry":{"type":"Polygon","coordinates":[[[36.696514,49.065806],[36.696877,49.065779],[36.696617,49.065022],[36.696185,49.065054],[36.696314,49.065472],[36.696435,49.065459],[36.696514,49.065806]]]}},{"type":"Feature","properties":{"cadnum":"6320484001:01:000:0099"},"geometry":{"type":"Polygon","coordinates":[[[36.696185,49.065054],[36.696617,49.065022],[36.696458,49.064556],[36.695995,49.06459],[36.696126,49.064861],[36.696185,49.065054]]]}},{"type":"Feature","properties":{"cadnum":"6320484001:01:000:0102"},"geometry":{"type":"Polygon","coordinates":[[[36.697458,49.065914],[36.697133,49.06595],[36.697144,49.066725],[36.69714494158075,49.066725],[36.697148,49.066903],[36.697469,49.066868],[36.697465,49.066612],[36.69746488532675,49.066612],[36.697458,49.065914]]]}},{"type":"Feature","properties":{"cadnum":"6320484001:01:000:0100"},"geometry":{"type":"Polygon","coordinates":[[[36.697133,49.06595],[36.696833,49.065983],[36.69683893396226,49.066612],[36.696838,49.066612],[36.696842,49.066994],[36.69715,49.066961],[36.697148,49.066903],[36.697143,49.066612],[36.69714239612903,49.066612],[36.697133,49.06595]]]}},{"type":"Feature","properties":{"cadnum":"6320484001:00:000:0219"},"geometry":{"type":"Polygon","coordinates":[[[36.697942,49.066666],[36.697911,49.066201],[36.697852,49.06587],[36.697458,49.065914],[36.697514,49.066205],[36.6975597875,49.066612],[36.697559,49.066612],[36.697568,49.066685],[36.697942,49.066666]]]}},{"type":"Feature","properties":{"cadnum":"6320484001:01:000:0104"},"geometry":{"type":"Polygon","coordinates":[[[36.698366,49.06648],[36.698823,49.066429],[36.698818,49.065763],[36.698354,49.065814],[36.698366,49.06648]]]}},{"type":"Feature","properties":{"cadnum":"6320484001:01:000:0105"},"geometry":{"type":"Polygon","coordinates":[[[36.698823,49.066429],[36.698366,49.06648],[36.69836761632653,49.066612],[36.698367,49.066612],[36.698377,49.067212],[36.698831,49.067206],[36.698825,49.066612],[36.69882485472973,49.066612],[36.698823,49.066429]]]}},{"type":"Feature","properties":{"cadnum":"6320484001:00:000:0295"},"geometry":{"type":"Polygon","coordinates":[[[36.695732,49.066376],[36.695308,49.066371],[36.695216,49.066172],[36.694414,49.066234],[36.694573,49.066725],[36.694574078125,49.066725],[36.6946,49.066804],[36.695445,49.066778],[36.695469,49.066989],[36.695863,49.066968],[36.695784,49.066612],[36.69578339255014,49.066612],[36.695732,49.066376]]]}},{"type":"Feature","properties":{"cadnum":"6320484001:01:000:0087"},"geometry":{"type":"Polygon","coordinates":[[[36.694359,49.064241],[36.69425,49.064089],[36.69425,49.06408928378377],[36.694211,49.064035],[36.692834,49.064336],[36.692963,49.064516],[36.694125,49.064287],[36.69425,49.06426242735043],[36.69425,49.064263],[36.694359,49.064241]]]}},{"type":"Feature","properties":{"cadnum":"6320484001:01:000:0086"},"geometry":{"type":"Polygon","coordinates":[[[36.694872,49.064412],[36.694762,49.064162],[36.694359,49.064241],[36.694125,49.064287],[36.69425,49.06446259523809],[36.69425,49.064463],[36.694293,49.064523],[36.694872,49.064412]]]}},{"type":"Feature","properties":{"cadnum":"6320484001:01:000:0088"},"geometry":{"type":"Polygon","coordinates":[[[36.694762,49.064162],[36.694914,49.064132],[36.694813,49.063903],[36.694422,49.063989117229134],[36.694422,49.063989],[36.694211,49.064035],[36.694359,49.064241],[36.694422,49.064229],[36.694422,49.06422865012407],[36.694762,49.064162]]]}},{"type":"Feature","properties":{"cadnum":"6320484001:00:000:0290"},"geometry":{"type":"Polygon","coordinates":[[[36.699277,49.065186],[36.699747,49.065155],[36.699028,49.064167],[36.699378,49.064156],[36.699609,49.064149],[36.699488,49.06399],[36.698512,49.064014],[36.698556,49.06408],[36.699277,49.065186]]]}},{"type":"Feature","properties":{"cadnum":"6320484001:00:000:0287"},"geometry":{"type":"Polygon","coordinates":[[[36.699915,49.065145],[36.699915,49.065144417322834],[36.700382,49.065115],[36.699946,49.06457],[36.69979574320327,49.06438273414004],[36.699609,49.064149],[36.699378,49.064156],[36.699028,49.064167],[36.699743,49.065149503477045],[36.699743,49.06515],[36.699747,49.065155],[36.699915,49.065145]]]}},{"type":"Feature","properties":{"cadnum":"6320484001:01:000:0103"},"geometry":{"type":"Polygon","coordinates":[[[36.697152,49.067315],[36.697474,49.067312],[36.697469,49.066868],[36.697148,49.066903],[36.69715,49.066961],[36.697152,49.067315]]]}},{"type":"Feature","properties":{"cadnum":"6320484001:01:000:0101"},"geometry":{"type":"Polygon","coordinates":[[[36.696834,49.067321],[36.697152,49.067315],[36.69715,49.066961],[36.696842,49.066994],[36.696834,49.067321]]]}},{"type":"Feature","properties":{"cadnum":"6320484001:00:000:0215"},"geometry":{"type":"Polygon","coordinates":[[[36.699743,49.06998476951673],[36.699743,49.069985],[36.699853,49.069977],[36.699737,49.069363],[36.699734,49.069307],[36.699671,49.068945],[36.699628,49.06895],[36.699361,49.068982],[36.699409,49.069333],[36.69944,49.06954],[36.699498,49.069534],[36.699584,49.069996],[36.699743,49.06998476951673]]]}},{"type":"Feature","properties":{"cadnum":"6320484001:00:000:0288"},"geometry":{"type":"Polygon","coordinates":[[[36.700182,49.069845],[36.700042,49.06924],[36.699975,49.068919],[36.699915,49.068924172413794],[36.699915,49.068924],[36.699671,49.068945],[36.699734,49.069307],[36.699737,49.069363],[36.699743,49.0693946875],[36.699743,49.069399],[36.699833,49.06987],[36.699915,49.069865],[36.699915,49.0698641260745],[36.700182,49.069845]]]}},{"type":"Feature","properties":{"cadnum":"6320484001:00:000:0249"},"geometry":{"type":"Polygon","coordinates":[[[36.698008,49.069792],[36.698454,49.069776],[36.69839,49.069092],[36.69793,49.069128],[36.698008,49.069792]]]}},{"type":"Feature","properties":{"cadnum":"6320484001:00:000:0204"},"geometry":{"type":"Polygon","coordinates":[[[36.695469,49.066989],[36.695445,49.066778],[36.694379,49.06681],[36.694054,49.066813],[36.694096,49.067051],[36.694422,49.067037],[36.694422,49.067036239540606],[36.695469,49.066989]]]}},{"type":"Feature","properties":{"cadnum":"6320484001:01:000:0004"},"geometry":{"type":"Polygon","coordinates":[[[36.679109,49.063899],[36.679345,49.063625],[36.678928,49.06347],[36.678692,49.063744],[36.679109,49.063899]]]}},{"type":"Feature","properties":{"cadnum":"6320484001:01:000:0079"},"geometry":{"type":"Polygon","coordinates":[[[36.682121,49.064095],[36.683284,49.064048],[36.68325,49.063785],[36.682084,49.063833],[36.682121,49.064095]]]}},{"type":"Feature","properties":{"cadnum":"6320484001:00:000:0195"},"geometry":{"type":"Polygon","coordinates":[[[36.682084,49.063833],[36.68325,49.063785],[36.683175,49.063531],[36.68203,49.063558],[36.682084,49.063833]]]}},{"type":"Feature","properties":{"cadnum":"6320484001:00:000:0293"},"geometry":{"type":"Polygon","coordinates":[[[36.68203,49.063558],[36.683144,49.063532],[36.683115,49.063253],[36.683026,49.063255],[36.682003,49.063287],[36.68203,49.063558]]]}},{"type":"Feature","properties":{"cadnum":"6320484001:01:000:0003"},"geometry":{"type":"Polygon","coordinates":[[[36.679397,49.064673],[36.679589,49.064495],[36.679683,49.0644],[36.679529,49.064333],[36.679295,49.064234],[36.678999,49.064473],[36.679246,49.064587],[36.679397,49.064673]]]}},{"type":"Feature","properties":{"cadnum":"6320484001:00:000:0014"},"geometry":{"type":"Polygon","coordinates":[[[36.683435,49.06474511842106],[36.68376,49.064929],[36.683759,49.064997],[36.684144,49.065175],[36.684111,49.065328],[36.684598,49.065372],[36.684844,49.065393],[36.684825,49.06572],[36.685088,49.065726],[36.685128,49.065026],[36.685093,49.064913],[36.685093,49.06486],[36.685047,49.06486],[36.685049,49.064606],[36.685027,49.064443],[36.684315,49.064487],[36.683875,49.064024],[36.683488,49.063993],[36.683435,49.06422840833332],[36.683435,49.064226],[36.683368,49.064526],[36.683334,49.064661],[36.683335,49.064715],[36.68338,49.064714],[36.683435,49.064746],[36.683435,49.06474511842106]]]}},{"type":"Feature","properties":{"cadnum":"6320484001:00:000:0213"},"geometry":{"type":"Polygon","coordinates":[[[36.681377,49.065646],[36.681815,49.065643],[36.681795,49.065493],[36.681754,49.065374],[36.681738,49.065349],[36.681393,49.065104],[36.681168,49.065218],[36.68108,49.065244],[36.681056,49.065637],[36.681377,49.065646]]]}},{"type":"Feature","properties":{"cadnum":"6320484001:01:000:0070"},"geometry":{"type":"Polygon","coordinates":[[[36.681895,49.066133],[36.681858,49.065922],[36.680384,49.065894],[36.680386,49.066095],[36.681895,49.066133]]]}},{"type":"Feature","properties":{"cadnum":"6320484001:01:000:0080"},"geometry":{"type":"Polygon","coordinates":[[[36.683462,49.064041],[36.683458,49.063945],[36.683614,49.063769],[36.683435,49.063777182857145],[36.683435,49.063777],[36.68325,49.063785],[36.683284,49.064048],[36.683435,49.064043],[36.683435,49.06404206179776],[36.683462,49.064041]]]}},{"type":"Feature","properties":{"cadnum":"6320484001:00:000:0194"},"geometry":{"type":"Polygon","coordinates":[[[36.683614,49.063769],[36.68374,49.063763],[36.683671,49.063521],[36.683435,49.06352621867322],[36.683435,49.063526],[36.683175,49.063531],[36.68325,49.063785],[36.683264,49.0637843945946],[36.683264,49.063785],[36.683614,49.063769]]]}},{"type":"Feature","properties":{"cadnum":"6320484001:01:000:0071"},"geometry":{"type":"Polygon","coordinates":[[[36.682301,49.066338],[36.683308,49.066312],[36.683281,49.066016],[36.682273,49.066023],[36.682301,49.066338]]]}},{"type":"Feature","properties":{"cadnum":"6320484001:01:000:0074"},"geometry":{"type":"Polygon","coordinates":[[[36.677942,49.06462793717277],[36.677962,49.064636],[36.678204,49.064398],[36.6777861929817,49.06422817543829],[36.677693,49.06419],[36.67745,49.064428],[36.677771,49.064558487804874],[36.677771,49.064559],[36.67792331645629,49.06462040506353],[36.677942,49.064628],[36.677942,49.06462793717277]]]}},{"type":"Feature","properties":{"cadnum":"6320484001:00:000:0217"},"geometry":{"type":"Polygon","coordinates":[[[36.682153,49.064364],[36.683265,49.064305],[36.683214,49.064051],[36.682121,49.064095],[36.682153,49.064364]]]}},{"type":"Feature","properties":{"cadnum":"6320484001:00:000:0214"},"geometry":{"type":"Polygon","coordinates":[[[36.681056,49.065637],[36.68108,49.065244],[36.680256,49.065498],[36.680142,49.065612],[36.681056,49.065637]]]}},{"type":"Feature","properties":{"cadnum":"6320484001:00:000:0273"},"geometry":{"type":"Polygon","coordinates":[[[36.68144,49.066421],[36.681912,49.066395],[36.681929,49.066394],[36.681893,49.066164],[36.681881,49.066164],[36.681436,49.066187],[36.681345,49.066184],[36.681071,49.066175],[36.680568,49.066161],[36.680604,49.06639],[36.681058,49.066407],[36.681331,49.066417],[36.68144,49.066421]]]}},{"type":"Feature","properties":{"cadnum":"6320484001:01:000:0072"},"geometry":{"type":"Polygon","coordinates":[[[36.683638,49.066304],[36.683622,49.066013],[36.683281,49.066016],[36.683308,49.066312],[36.683435,49.066309],[36.683435,49.066308921212126],[36.683638,49.066304]]]}},{"type":"Feature","properties":{"cadnum":"6320484001:00:000:0297"},"geometry":{"type":"Polygon","coordinates":[[[36.682262,49.065712],[36.682601,49.065702],[36.683283,49.065709],[36.683292,49.065418],[36.682663,49.065406],[36.682236,49.065407],[36.682262,49.065712]]]}},{"type":"Feature","properties":{"cadnum":"6320484001:01:000:0073"},"geometry":{"type":"Polygon","coordinates":[[[36.678656,49.063954],[36.678239,49.063785],[36.678135,49.063886],[36.67804,49.063849],[36.677942,49.06394554275093],[36.677942,49.063945],[36.677693,49.06419],[36.677771,49.064221951807234],[36.677771,49.064222],[36.6777861929817,49.06422817543829],[36.677942,49.064292],[36.677942,49.064291505773674],[36.678204,49.064398],[36.678656,49.063954]]]}},{"type":"Feature","properties":{"cadnum":"6320484001:01:000:0091"},"geometry":{"type":"Polygon","coordinates":[[[36.693038,49.062963],[36.692363,49.063125],[36.69236459067358,49.063125],[36.692028,49.063206],[36.692222,49.063477],[36.693215,49.063212],[36.69308639622632,49.063031773584775],[36.693038,49.062963]]]}},{"type":"Feature","properties":{"cadnum":"6320484001:00:000:0242"},"geometry":{"type":"Polygon","coordinates":[[[36.691278,49.063125],[36.69128083116884,49.063125],[36.691272,49.063127],[36.691005,49.063207],[36.691207,49.063602],[36.691898,49.063491],[36.691612,49.06305],[36.691278,49.063125]]]}},{"type":"Feature","properties":{"cadnum":"6320484001:01:000:0092"},"geometry":{"type":"Polygon","coordinates":[[[36.693755,49.062791],[36.693168,49.062931],[36.693038,49.062963],[36.693073185185185,49.063013],[36.693073,49.063013],[36.69308639622632,49.063031773584775],[36.693152,49.063125],[36.69315291959799,49.063125],[36.693215,49.063212],[36.69388,49.063034],[36.693755,49.062791]]]}},{"type":"Feature","properties":{"cadnum":"6320484001:01:000:0085"},"geometry":{"type":"Polygon","coordinates":[[[36.693125,49.064745],[36.694293,49.064523],[36.694125,49.064287],[36.692963,49.064516],[36.693125,49.064745]]]}},{"type":"Feature","properties":{"cadnum":"6320484001:01:000:0089"},"geometry":{"type":"Polygon","coordinates":[[[36.69267,49.064107],[36.693598,49.063888],[36.693392,49.063596],[36.692473,49.063831],[36.69267,49.064107]]]}},{"type":"Feature","properties":{"cadnum":"6320484001:00:000:0218"},"geometry":{"type":"Polygon","coordinates":[[[36.692473,49.063831],[36.693242,49.063635],[36.693028,49.063291],[36.692238,49.063502],[36.692473,49.063831]]]}},{"type":"Feature","properties":{"cadnum":"6320484001:01:000:0093"},"geometry":{"type":"Polygon","coordinates":[[[36.693038,49.062963],[36.693168,49.062931],[36.693004,49.062702],[36.691864,49.062975],[36.691890853333334,49.063013],[36.69189,49.063013],[36.691962991735316,49.063115082644316],[36.69197,49.063125],[36.691970082901555,49.063125],[36.692028,49.063206],[36.69283,49.063013],[36.69282966666668,49.063013],[36.693038,49.062963]]]}},{"type":"Feature","properties":{"cadnum":"6320484001:00:000:0243"},"geometry":{"type":"Polygon","coordinates":[[[36.689036,49.066537],[36.689314,49.066478],[36.689399,49.066472],[36.690361,49.066299],[36.690242,49.066069],[36.689351,49.066284],[36.688821,49.066394],[36.688882,49.066564],[36.688929,49.066556],[36.688929,49.06655575974026],[36.689036,49.066537]]]}},{"type":"Feature","properties":{"cadnum":"6320484001:00:000:0265"},"geometry":{"type":"Polygon","coordinates":[[[36.69221,49.065422],[36.69305,49.065143],[36.692863,49.064863],[36.691978,49.065119],[36.69221,49.065422]]]}},{"type":"Feature","properties":{"cadnum":"6320484001:01:000:0084"},"geometry":{"type":"Polygon","coordinates":[[[36.691714,49.065789],[36.691994,49.065714],[36.691879,49.065543],[36.691807,49.065569],[36.691714,49.065789]]]}},{"type":"Feature","properties":{"cadnum":"6320484001:00:000:0251"},"geometry":{"type":"Polygon","coordinates":[[[36.688969,49.065929],[36.689955,49.065626],[36.689757,49.065424],[36.689045,49.065654],[36.688943,49.065697],[36.688929,49.0657],[36.688845,49.065718],[36.688851,49.065731],[36.688757,49.065749],[36.688757,49.06574926855124],[36.688568,49.065786],[36.688659,49.065987],[36.688757,49.06596848888889],[36.688757,49.065969],[36.688969,49.065929]]]}},{"type":"Feature","properties":{"cadnum":"6320484001:00:000:0266"},"geometry":{"type":"Polygon","coordinates":[[[36.69174,49.065586],[36.691807,49.065569],[36.691879,49.065543],[36.69211,49.065456],[36.69221,49.065422],[36.691978,49.065119],[36.691962,49.065124],[36.69174,49.065586]]]}},{"type":"Feature","properties":{"cadnum":"6320484001:01:000:0083"},"geometry":{"type":"Polygon","coordinates":[[[36.691994,49.065714],[36.693216,49.065392],[36.69305,49.065143],[36.69211,49.065456],[36.691879,49.065543],[36.691994,49.065714]]]}},{"type":"Feature","properties":{"cadnum":"6320484001:00:000:0210"},"geometry":{"type":"Polygon","coordinates":[[[36.692818,49.064306],[36.693964,49.064049],[36.693818,49.063818],[36.692654,49.064073],[36.692818,49.064306]]]}},{"type":"Feature","properties":{"cadnum":"6320484001:01:000:0090"},"geometry":{"type":"Polygon","coordinates":[[[36.693598,49.063888],[36.694086,49.063776],[36.693892,49.063467],[36.693392,49.063596],[36.693598,49.063888]]]}},{"type":"Feature","properties":{"cadnum":"6320484001:00:000:0239"},"geometry":{"type":"Polygon","coordinates":[[[36.700526,49.066219],[36.70097,49.066214],[36.700972,49.066088],[36.700969,49.065994],[36.700968,49.065754],[36.700965,49.065711],[36.700961,49.065556],[36.70089,49.06553],[36.700607,49.065561],[36.700486,49.065574],[36.70051,49.065956],[36.700526,49.066219]]]}},{"type":"Feature","properties":{"cadnum":"6320484001:00:000:0268"},"geometry":{"type":"Polygon","coordinates":[[[36.700545,49.066482],[36.700201,49.066486],[36.70020627196653,49.066612],[36.700206,49.066612],[36.70020782832202,49.06664919689632],[36.700211,49.066725],[36.70021155423729,49.066725],[36.700235,49.067202],[36.7006,49.067189],[36.700585,49.067026],[36.700555,49.066612],[36.70055462962963,49.066612],[36.700545,49.066482]]]}},{"type":"Feature","properties":{"cadnum":"6320484001:00:000:0269"},"geometry":{"type":"Polygon","coordinates":[[[36.700201,49.066486],[36.700545,49.066482],[36.700526,49.066219],[36.70051,49.065956],[36.700508,49.065908],[36.700502,49.065833],[36.700486,49.065574],[36.700135,49.065613],[36.700154,49.065824],[36.700162,49.065912],[36.700176,49.066082],[36.700201,49.066486]]]}},{"type":"Feature","properties":{"cadnum":"6320484001:00:000:0202"},"geometry":{"type":"Polygon","coordinates":[[[36.70324,49.066101],[36.70124,49.066128],[36.701239,49.066154],[36.701247,49.06655],[36.701248,49.066574],[36.701248,49.066598],[36.7012431496063,49.066612],[36.701243,49.066612],[36.70123123809526,49.0666463809523],[36.701204,49.066725],[36.701204342105264,49.066725],[36.701165,49.06684],[36.701164,49.066882],[36.701165,49.066902],[36.703261,49.066858],[36.70325667479675,49.066725],[36.703257,49.066725],[36.70324,49.066101]]]}},{"type":"Feature","properties":{"cadnum":"6320484001:00:000:0240"},"geometry":{"type":"Polygon","coordinates":[[[36.70097,49.066214],[36.700526,49.066219],[36.700563,49.066725],[36.700563188405795,49.066725],[36.700585,49.067026],[36.700956,49.067017],[36.700972,49.066726],[36.70097,49.066612],[36.70097,49.066214]]]}},{"type":"Feature","properties":{"cadnum":"6320484001:00:000:0292"},"geometry":{"type":"Polygon","coordinates":[[[36.701182,49.06661],[36.701194,49.066518],[36.701181,49.066362],[36.701159,49.066076],[36.701149,49.06565],[36.701133,49.065548],[36.700965,49.065521],[36.70089,49.06553],[36.700961,49.065556],[36.700965,49.065711],[36.700968,49.065754],[36.700969,49.065994],[36.700972,49.066035],[36.700972,49.066088],[36.70097,49.066214],[36.70097,49.066612],[36.70097,49.066725],[36.70097198245614,49.066725],[36.700972,49.066726],[36.700956,49.067017],[36.700973,49.066986],[36.700988,49.066932],[36.701062,49.066846],[36.70108,49.06682],[36.701127,49.066762],[36.70114032,49.066725],[36.701141,49.066725],[36.701182,49.06661]]]}},{"type":"Feature","properties":{"cadnum":"6320484001:00:000:0216"},"geometry":{"type":"Polygon","coordinates":[[[36.691864,49.062975],[36.692161,49.062904],[36.692212,49.062892],[36.693004,49.062702],[36.692869,49.062468],[36.691694,49.06275],[36.691864,49.062975]]]}},{"type":"Feature","properties":{"cadnum":"6320484001:00:000:0222"},"geometry":{"type":"Polygon","coordinates":[[[36.6905,49.061012],[36.691463,49.06078],[36.691298,49.060507],[36.690314,49.060741],[36.6905,49.061012]]]}},{"type":"Feature","properties":{"cadnum":"6320484001:00:000:0223"},"geometry":{"type":"Polygon","coordinates":[[[36.691463,49.06078],[36.692472,49.060562],[36.692296,49.060299],[36.691298,49.060507],[36.691463,49.06078]]]}},{"type":"Feature","properties":{"cadnum":"6320484001:00:000:0233"},"geometry":{"type":"Polygon","coordinates":[[[36.691187,49.061986],[36.691603,49.061901],[36.69152,49.061762],[36.692014,49.061613],[36.691884,49.061394],[36.690946,49.06164],[36.690958,49.061657],[36.690967,49.061661],[36.691187,49.061986]]]}},{"type":"Feature","properties":{"cadnum":"6320484001:00:000:0096"},"geometry":{"type":"Polygon","coordinates":[[[36.690152,49.060509],[36.690227,49.060494],[36.690346,49.060466],[36.691343,49.060247],[36.691186,49.06002],[36.689999,49.060289],[36.690008,49.060303],[36.690023,49.060324],[36.690152,49.060509]]]}},{"type":"Feature","properties":{"cadnum":"6320484001:00:000:0232"},"geometry":{"type":"Polygon","coordinates":[[[36.691694,49.06275],[36.692833,49.062477],[36.692626,49.062249],[36.691525,49.062519],[36.691694,49.06275]]]}},{"type":"Feature","properties":{"cadnum":"6320484001:00:000:0097"},"geometry":{"type":"Polygon","coordinates":[[[36.691343,49.060247],[36.692346,49.060026],[36.69222,49.059785],[36.691186,49.06002],[36.691343,49.060247]]]}},{"type":"Feature","properties":{"cadnum":"6320484001:01:000:0094"},"geometry":{"type":"Polygon","coordinates":[[[36.693168,49.062931],[36.693755,49.062791],[36.694195,49.062684],[36.694078,49.062444],[36.693004,49.062702],[36.693168,49.062931]]]}},{"type":"Feature","properties":{"cadnum":"6320484001:00:000:0296"},"geometry":{"type":"Polygon","coordinates":[[[36.693004,49.062702],[36.694078,49.062444],[36.694186,49.062418],[36.693983,49.062243],[36.693751,49.061876],[36.692576,49.062165],[36.692626,49.062249],[36.692833,49.062477],[36.692869,49.062468],[36.693004,49.062702]]]}},{"type":"Feature","properties":{"cadnum":"6320484001:00:000:0299"},"geometry":{"type":"Polygon","coordinates":[[[36.691191,49.061312],[36.692847,49.06089],[36.692607,49.060533],[36.692472,49.060562],[36.691463,49.06078],[36.69094,49.060906],[36.691191,49.061312]]]}},{"type":"Feature","properties":{"cadnum":"6320484001:01:000:0095"},"geometry":{"type":"Polygon","coordinates":[[[36.690317,49.062826],[36.691348,49.062613],[36.691186,49.062371],[36.69063,49.062524],[36.69037,49.062501],[36.690268,49.06255],[36.690217,49.062678],[36.690317,49.062826]]]}},{"type":"Feature","properties":{"cadnum":"6320484001:00:000:0197"},"geometry":{"type":"Polygon","coordinates":[[[36.690272,49.063048],[36.690716,49.062974],[36.690807,49.063038],[36.691487,49.062843],[36.691348,49.062613],[36.690317,49.062826],[36.690197,49.06285],[36.690272,49.063048]]]}},{"type":"Feature","properties":{"cadnum":"6320484001:00:000:0258"},"geometry":{"type":"Polygon","coordinates":[[[36.674206,49.065769],[36.67486,49.065167],[36.674623,49.065052],[36.674037,49.065595],[36.674206,49.065769]]]}},{"type":"Feature","properties":{"cadnum":"6320484001:00:000:0261"},"geometry":{"type":"Polygon","coordinates":[[[36.67658,49.065491],[36.677099,49.064893],[36.676741,49.064727],[36.67649,49.065003],[36.676207,49.06534],[36.67658,49.065491]]]}},{"type":"Feature","properties":{"cadnum":"6320484001:00:000:0225"},"geometry":{"type":"Polygon","coordinates":[[[36.676148,49.065409],[36.67649,49.065003],[36.676741,49.064727],[36.676462,49.064598],[36.67577,49.065255],[36.676148,49.065409]]]}},{"type":"Feature","properties":{"cadnum":"6320484001:00:000:0228"},"geometry":{"type":"Polygon","coordinates":[[[36.67486,49.065167],[36.675625,49.064461],[36.675763,49.064312],[36.675483,49.064205],[36.675335,49.064393],[36.674623,49.065052],[36.67486,49.065167]]]}},{"type":"Feature","properties":{"cadnum":"6320484001:00:000:0209"},"geometry":{"type":"Polygon","coordinates":[[[36.693388,49.069775],[36.693765,49.069758],[36.693679,49.068966],[36.693677,49.068951],[36.693299,49.068958],[36.693388,49.069775]]]}},{"type":"Feature","properties":{"cadnum":"6320484001:00:000:0201"},"geometry":{"type":"Polygon","coordinates":[[[36.692296,49.070119],[36.692709,49.070107],[36.692685,49.069721],[36.692271,49.069732],[36.692296,49.070119]]]}},{"type":"Feature","properties":{"cadnum":"6320484001:01:000:0078"},"geometry":{"type":"Polygon","coordinates":[[[36.690023,49.068138],[36.690333,49.068042],[36.690339,49.068002],[36.689987,49.068113],[36.690023,49.068138]]]}},{"type":"Feature","properties":{"cadnum":"6320484001:01:000:0077"},"geometry":{"type":"Polygon","coordinates":[[[36.689987,49.068113],[36.690339,49.068002],[36.690262,49.067822],[36.690114,49.067649],[36.689981,49.067686],[36.689788,49.067485],[36.689393,49.067609],[36.689571,49.067828],[36.689987,49.068113]]]}},{"type":"Feature","properties":{"cadnum":"6320484001:00:000:0275"},"geometry":{"type":"Polygon","coordinates":[[[36.690007,49.068956],[36.690105,49.068668],[36.69066,49.068393],[36.690739,49.068313],[36.690904,49.067942],[36.690699,49.067454],[36.690114,49.067649],[36.690262,49.067822],[36.690339,49.068002],[36.690333,49.068042],[36.690023,49.068138],[36.690093,49.068209],[36.68961,49.068505],[36.689792,49.068568],[36.689536,49.068718],[36.68945,49.068688],[36.688757,49.068551],[36.688757,49.0685515540721],[36.68818,49.068436],[36.688148,49.06869],[36.688143,49.068752],[36.688249,49.069026],[36.688294,49.069019],[36.688545,49.068977],[36.688757,49.06903276041666],[36.688757,49.069033],[36.68946,49.069218],[36.689503,49.069177],[36.68991,49.069296],[36.690109,49.069394],[36.690007,49.068956]]]}},{"type":"Feature","properties":{"cadnum":"6320484001:00:000:0231"},"geometry":{"type":"Polygon","coordinates":[[[36.693275,49.068879],[36.693656,49.068853],[36.693702,49.068801],[36.693694,49.068695],[36.69407,49.068664],[36.694018,49.068358],[36.693216,49.068446],[36.693275,49.068879]]]}},{"type":"Feature","properties":{"cadnum":"6320484001:00:000:0191"},"geometry":{"type":"Polygon","coordinates":[[[36.68961,49.068505],[36.690093,49.068209],[36.690023,49.068138],[36.689987,49.068113],[36.689721,49.067931],[36.689198,49.068232],[36.68961,49.068505]]]}},{"type":"Feature","properties":{"cadnum":"6320484001:00:000:0284"},"geometry":{"type":"Polygon","coordinates":[[[36.691658,49.067856],[36.693585,49.067657],[36.693557,49.067332],[36.691816,49.067497],[36.691658,49.067856]]]}},{"type":"Feature","properties":{"cadnum":"6320484001:00:000:0285"},"geometry":{"type":"Polygon","coordinates":[[[36.691816,49.067497],[36.693557,49.067332],[36.693545,49.067187],[36.693378,49.067102],[36.692884,49.067153],[36.692795,49.066922],[36.692354,49.066956],[36.691927,49.067057],[36.691887,49.067335],[36.691816,49.067497]]]}},{"type":"Feature","properties":{"cadnum":"6320484001:00:000:0200"},"geometry":{"type":"Polygon","coordinates":[[[36.692271,49.069732],[36.692685,49.069721],[36.692637,49.068977],[36.692222,49.068989],[36.692271,49.069732]]]}},{"type":"Feature","properties":{"cadnum":"6320484001:00:000:0190"},"geometry":{"type":"Polygon","coordinates":[[[36.688929,49.06799464444445],[36.689047,49.068131],[36.689198,49.068232],[36.689721,49.067931],[36.689571,49.067828],[36.689393,49.067609],[36.688777,49.067819],[36.688929,49.067995],[36.688929,49.06799464444445]]]}},{"type":"Feature","properties":{"cadnum":"6320484001:00:000:0300"},"geometry":{"type":"Polygon","coordinates":[[[36.6916,49.069642],[36.691862,49.069635],[36.691843,49.069],[36.691277,49.069016],[36.691294,49.069348],[36.691349,49.069377],[36.6916,49.069642]]]}},{"type":"Feature","properties":{"cadnum":"6320484001:00:000:0262"},"geometry":{"type":"Polygon","coordinates":[[[36.683378,49.070193],[36.68373,49.070165],[36.683724,49.070131],[36.683371,49.070158],[36.683378,49.070193]]]}},{"type":"Feature","properties":{"cadnum":"6320484001:00:000:0298"},"geometry":{"type":"Polygon","coordinates":[[[36.683457,49.067736],[36.683794,49.067734],[36.683881,49.067733],[36.684105,49.067732],[36.684098,49.067644],[36.684211,49.067587],[36.68435,49.067578],[36.684341,49.067381],[36.683433,49.067405],[36.683457,49.067736]]]}},{"type":"Feature","properties":{"cadnum":"6320484001:00:000:0272"},"geometry":{"type":"Polygon","coordinates":[[[36.687232,49.068852],[36.687491,49.068767],[36.687243,49.068451],[36.687231,49.068436],[36.687001,49.068524],[36.687011,49.068537],[36.687232,49.068852]]]}},{"type":"Feature","properties":{"cadnum":"6320484001:00:000:0221"},"geometry":{"type":"Polygon","coordinates":[[[36.688046,49.070121],[36.688356,49.070043],[36.688037,49.069426],[36.687932,49.069175],[36.68761,49.0692],[36.687738,49.069519],[36.688046,49.070121]]]}},{"type":"Feature","properties":{"cadnum":"6320484001:00:000:0289"},"geometry":{"type":"Polygon","coordinates":[[[36.686128,49.070128],[36.686485,49.070071],[36.68624,49.069429],[36.686179,49.06922],[36.68584,49.069226],[36.686083,49.069983],[36.686128,49.070128]]]}},{"type":"Feature","properties":{"cadnum":"6320484001:00:000:0241"},"geometry":{"type":"Polygon","coordinates":[[[36.68621,49.067567],[36.686718,49.067528],[36.686649,49.06705],[36.68614,49.067089],[36.68621,49.067567]]]}},{"type":"Feature","properties":{"cadnum":"6320484001:01:000:0069"},"geometry":{"type":"Polygon","coordinates":[[[36.683426,49.066627],[36.683434,49.066725],[36.6834351,49.066725],[36.683452,49.066907],[36.683886,49.066894],[36.683878,49.066615],[36.683426,49.066627]]]}},{"type":"Feature","properties":{"cadnum":"6320484001:00:000:0234"},"geometry":{"type":"Polygon","coordinates":[[[36.688372,49.070075],[36.688762,49.069987],[36.688316,49.069378],[36.688179,49.069138],[36.687934,49.069166],[36.687932,49.069175],[36.688037,49.069426],[36.688356,49.070043],[36.688372,49.070075]]]}},{"type":"Feature","properties":{"cadnum":"6320484001:00:000:0283"},"geometry":{"type":"Polygon","coordinates":[[[36.686583,49.066599],[36.6862176551724,49.066612],[36.686212,49.066612],[36.685768,49.066628],[36.685737,49.066249],[36.686552,49.066225],[36.68654,49.066042],[36.686026,49.06592],[36.685351,49.065796],[36.685223,49.066074],[36.685216,49.06616],[36.685226,49.066608],[36.68522641025641,49.066612],[36.685226,49.066612],[36.68522975308641,49.06664459259251],[36.685238,49.066725],[36.685239012121215,49.066725],[36.685245,49.066777],[36.685288,49.066872],[36.685369,49.066969],[36.68547,49.067035],[36.686539,49.066895],[36.6866,49.066665],[36.686583,49.066599]]]}},{"type":"Feature","properties":{"cadnum":"6320484001:00:000:0012"},"geometry":{"type":"Polygon","coordinates":[[[36.68533,49.068557],[36.685592,49.068527],[36.685585,49.0685],[36.685549,49.068377],[36.685294,49.068407],[36.685324,49.068531],[36.68533,49.068557]]]}},{"type":"Feature","properties":{"cadnum":"6320484001:00:000:0271"},"geometry":{"type":"Polygon","coordinates":[[[36.684487,49.067971],[36.685609,49.067802],[36.685439,49.067161],[36.684492,49.067236],[36.684487,49.067971]]]}},{"type":"Feature","properties":{"cadnum":"6320484001:00:000:0224"},"geometry":{"type":"Polygon","coordinates":[[[36.684691,49.070062],[36.685081,49.070044],[36.684958,49.069479],[36.684937,49.069218],[36.684567,49.069223],[36.684691,49.070062]]]}},{"type":"Feature","properties":{"cadnum":"6320484001:00:000:0206"},"geometry":{"type":"Polygon","coordinates":[[[36.685666,49.070012],[36.686083,49.069983],[36.68584,49.069226],[36.685466,49.069231],[36.685666,49.070012]]]}},{"type":"Feature","properties":{"cadnum":"6320484001:00:000:0235"},"geometry":{"type":"Polygon","coordinates":[[[36.687594,49.070056],[36.687978,49.069987],[36.687738,49.069519],[36.68761,49.0692],[36.687252,49.069224],[36.687366,49.069499],[36.687563,49.069976],[36.687594,49.070056]]]}},{"type":"Feature","properties":{"cadnum":"6320484001:00:000:0245"},"geometry":{"type":"Polygon","coordinates":[[[36.687204,49.070047],[36.687563,49.069976],[36.687366,49.069499],[36.687252,49.069224],[36.687251,49.069205],[36.687119,49.069207],[36.686912,49.069202],[36.686952,49.069444],[36.687204,49.070047]]]}},{"type":"Feature","properties":{"cadnum":"6320484001:00:000:0244"},"geometry":{"type":"Polygon","coordinates":[[[36.687594,49.070056],[36.687563,49.069976],[36.687204,49.070047],[36.687271494584834,49.070211],[36.687271,49.070211],[36.68730898870736,49.07030210413981],[36.687318,49.070324],[36.68731811886793,49.070324],[36.687492,49.070741],[36.68787,49.070718],[36.687659,49.070211],[36.6876587761194,49.070211],[36.687594,49.070056]]]}},{"type":"Feature","properties":{"cadnum":"6320484001:00:000:0257"},"geometry":{"type":"Polygon","coordinates":[[[36.685666,49.070012],[36.685258,49.070056],[36.685085,49.07007],[36.685112,49.070324],[36.68511233450704,49.070324],[36.685131,49.070495],[36.685198,49.070952],[36.685894,49.070903],[36.685717,49.070211],[36.68571638782051,49.070211],[36.685666,49.070012]]]}},{"type":"Feature","properties":{"cadnum":"6320484001:00:000:0207"},"geometry":{"type":"Polygon","coordinates":[[[36.686083,49.069983],[36.685666,49.070012],[36.68571638782051,49.070211],[36.685715,49.070211],[36.685904,49.070946],[36.686363,49.070874],[36.686154,49.070211],[36.686153873900295,49.070211],[36.686083,49.069983]]]}},{"type":"Feature","properties":{"cadnum":"6320484001:00:000:0263"},"geometry":{"type":"Polygon","coordinates":[[[36.685085,49.07007],[36.685081,49.070044],[36.684691,49.070062],[36.684731,49.070324],[36.684732019933556,49.070324],[36.684762,49.070512],[36.685131,49.070495],[36.6851,49.070211],[36.68509998818897,49.070211],[36.685085,49.07007]]]}},{"type":"Feature","properties":{"cadnum":"6320484001:01:000:0076"},"geometry":{"type":"Polygon","coordinates":[[[36.686724,49.069109],[36.687219,49.069093],[36.687145,49.068728],[36.686617,49.068762],[36.686724,49.069109]]]}},{"type":"Feature","properties":{"cadnum":"6320484001:00:000:0015"},"geometry":{"type":"Polygon","coordinates":[[[36.685809,49.068518],[36.686175,49.068442],[36.686297,49.068417],[36.686429,49.068391],[36.686321,49.068039],[36.686308,49.067983],[36.685957,49.068021],[36.685918,49.067891],[36.685349,49.067964],[36.685399,49.06813],[36.685635,49.0681],[36.685809,49.068518]]]}},{"type":"Feature","properties":{"cadnum":"6320484001:00:000:0208"},"geometry":{"type":"Polygon","coordinates":[[[36.685131,49.068537],[36.685198,49.068525],[36.685178,49.068482],[36.685112,49.068494],[36.685131,49.068537]]]}},{"type":"Feature","properties":{"cadnum":"6320484001:01:000:0005"},"geometry":{"type":"Polygon","coordinates":[[[36.684799,49.06912],[36.685249,49.06904],[36.685222,49.068975],[36.685089,49.068999],[36.685051,49.068907],[36.684735,49.068963],[36.684799,49.06912]]]}},{"type":"Feature","properties":{"cadnum":"6320484001:01:000:0075"},"geometry":{"type":"Polygon","coordinates":[[[36.686401,49.06912],[36.686724,49.069109],[36.686617,49.068762],[36.686578,49.068634],[36.685882,49.068763],[36.68599,49.069116],[36.686401,49.06912]]]}},{"type":"Feature","properties":{"cadnum":"6320484001:00:000:0199"},"geometry":{"type":"Polygon","coordinates":[[[36.684578,49.068753],[36.68516,49.068635],[36.685152,49.068617],[36.685081,49.068458],[36.685255,49.068424],[36.685097,49.067922],[36.684491,49.068013],[36.684575,49.068733],[36.684578,49.068753]]]}},{"type":"Feature","properties":{"cadnum":"6320484001:00:000:0270"},"geometry":{"type":"Polygon","coordinates":[[[36.686123,49.067946],[36.686761,49.0679],[36.686784,49.067899],[36.686745,49.067661],[36.686733,49.067662],[36.686084,49.067709],[36.686112,49.067877],[36.686119,49.067922],[36.686123,49.067946]]]}},{"type":"Feature","properties":{"cadnum":"6320484001:00:000:0016"},"geometry":{"type":"Polygon","coordinates":[[[36.685455,49.06912],[36.685882,49.069042],[36.68577,49.068774],[36.685593,49.068806],[36.685514,49.068821],[36.685344,49.068852],[36.685455,49.06912]]]}},{"type":"Feature","properties":{"cadnum":"6320484001:00:000:0279"},"geometry":{"type":"Polygon","coordinates":[[[36.685642,49.067926],[36.685668,49.067922],[36.68579,49.067906],[36.685918,49.067891],[36.68611,49.067865],[36.686084,49.067709],[36.686456,49.067681],[36.686733,49.067662],[36.686745,49.067661],[36.686739,49.06763],[36.686718,49.067528],[36.68621,49.067567],[36.68614,49.067089],[36.685439,49.067161],[36.685565,49.067637],[36.6856,49.067769],[36.685609,49.067802],[36.685642,49.067926]]]}},{"type":"Feature","properties":{"cadnum":"6320484001:00:000:0280"},"geometry":{"type":"Polygon","coordinates":[[[36.687204,49.070047],[36.686952,49.069444],[36.686942,49.069389],[36.686623,49.069405],[36.68624,49.069429],[36.686582,49.070324],[36.68658239734121,49.070324],[36.686799,49.070888],[36.687263,49.07073],[36.687492,49.070741],[36.68730898870736,49.07030210413981],[36.687204,49.070047]]]}},{"type":"Feature","properties":{"cadnum":"6320484001:00:000:0246"},"geometry":{"type":"Polygon","coordinates":[[[36.685258,49.070056],[36.685666,49.070012],[36.685466,49.069231],[36.685148,49.069225],[36.685151,49.069468],[36.685258,49.070056]]]}},{"type":"Feature","properties":{"cadnum":"6320484001:00:000:0247"},"geometry":{"type":"Polygon","coordinates":[[[36.685285,49.061702],[36.685662,49.061665],[36.686085,49.061596],[36.686116,49.061514],[36.686014,49.061226],[36.68518,49.061379],[36.685285,49.061702]]]}},{"type":"Feature","properties":{"cadnum":"6320484001:00:000:0226"},"geometry":{"type":"Polygon","coordinates":[[[36.685573,49.063068],[36.68611,49.062935],[36.686724,49.062756],[36.686595,49.062535],[36.686398,49.062575],[36.68637,49.06259],[36.686395,49.062642],[36.686197,49.062695],[36.686108,49.062683],[36.686036,49.062698],[36.685911,49.062693],[36.685452,49.062772],[36.685573,49.063068]]]}},{"type":"Feature","properties":{"cadnum":"6320484001:00:000:0252"},"geometry":{"type":"Polygon","coordinates":[[[36.686824,49.062917],[36.686724,49.062756],[36.68611,49.062935],[36.68579544262297,49.063013],[36.685794,49.063013],[36.685372,49.063118],[36.685372,49.063125],[36.68537278289474,49.063125],[36.685389,49.06327],[36.686304,49.063058],[36.686824,49.062917]]]}},{"type":"Feature","properties":{"cadnum":"6320484001:00:000:0282"},"geometry":{"type":"Polygon","coordinates":[[[36.684781,49.062617],[36.685171,49.062598],[36.685141,49.0623],[36.685022,49.061832],[36.684629,49.061864],[36.684734,49.06233],[36.684781,49.062617]]]}},{"type":"Feature","properties":{"cadnum":"6320484001:00:000:0267"},"geometry":{"type":"Polygon","coordinates":[[[36.679228,49.071082],[36.679549,49.071064],[36.679863,49.071076],[36.680049,49.071081],[36.680108,49.070722],[36.679432,49.070634],[36.679289,49.070887],[36.679244,49.071004],[36.679228,49.071082]]]}},{"type":"Feature","properties":{"cadnum":"6320484001:00:000:0253"},"geometry":{"type":"Polygon","coordinates":[[[36.679569,49.071597],[36.67957,49.071553],[36.679729,49.071552],[36.679863,49.071076],[36.679549,49.071064],[36.679228,49.071082],[36.679105,49.071519],[36.67932,49.071548],[36.679318,49.07157],[36.679397,49.071573],[36.679399,49.071549],[36.679428,49.071549],[36.679427,49.071595],[36.679569,49.071597]]]}},{"type":"Feature","properties":{"cadnum":"6320484001:00:000:0205"},"geometry":{"type":"Polygon","coordinates":[[[36.678699,49.071424],[36.678707,49.071402],[36.678779,49.071411],[36.678784,49.071394],[36.678905,49.071409],[36.678991,49.07113],[36.678772,49.071107],[36.678602,49.071094],[36.678036,49.070983],[36.67789,49.07126],[36.678436,49.071387],[36.678699,49.071424]]]}},{"type":"Feature","properties":{"cadnum":"6320484001:00:000:0259"},"geometry":{"type":"Polygon","coordinates":[[[36.680553,49.070871],[36.681189,49.070837],[36.681174,49.070627],[36.680553,49.070651],[36.680553,49.070871]]]}},{"type":"Feature","properties":{"cadnum":"6320484001:01:000:0057"},"geometry":{"type":"Polygon","coordinates":[[[36.6812,49.071013],[36.681645,49.07096],[36.68165,49.070504],[36.68117,49.07056],[36.6812,49.071013]]]}},{"type":"Feature","properties":{"cadnum":"6320484001:00:000:0260"},"geometry":{"type":"Polygon","coordinates":[[[36.680626,49.071354],[36.681347,49.071265],[36.6812,49.071013],[36.681189,49.070837],[36.680553,49.070871],[36.680569,49.071069],[36.680626,49.071354]]]}},{"type":"Feature","properties":{"cadnum":"6320484001:01:000:0056"},"geometry":{"type":"Polygon","coordinates":[[[36.681645,49.07096],[36.68232,49.070881],[36.682325,49.070424],[36.68165,49.070504],[36.681645,49.07096]]]}},{"type":"Feature","properties":{"cadnum":"6320484001:00:000:0278"},"geometry":{"type":"Polygon","coordinates":[[[36.683768,49.072556],[36.683958,49.07248],[36.684983,49.072067],[36.684581,49.071264],[36.683639,49.071436],[36.683264,49.071443],[36.683264,49.07144301056338],[36.683151,49.071445],[36.682662,49.071242],[36.682927,49.072487],[36.682957,49.072621],[36.683435,49.072583],[36.683435,49.07258242857143],[36.683768,49.072556]]]}},{"type":"Feature","properties":{"cadnum":"6320484001:00:000:0236"},"geometry":{"type":"Polygon","coordinates":[[[36.70131,49.068603],[36.701644,49.068564],[36.701571,49.06785],[36.701111,49.067862],[36.701127,49.068121],[36.701192,49.068161],[36.70126,49.068549],[36.70131,49.068603]]]}},{"type":"Feature","properties":{"cadnum":"6320484001:01:000:0106"},"geometry":{"type":"Polygon","coordinates":[[[36.700729,49.068653],[36.701088,49.06864],[36.701015,49.067789],[36.700654,49.067802],[36.700729,49.068653]]]}},{"type":"Feature","properties":{"cadnum":"6320484001:01:000:0107"},"geometry":{"type":"Polygon","coordinates":[[[36.700654,49.067802],[36.701015,49.067789],[36.700956,49.067017],[36.700585,49.067026],[36.700654,49.067802]]]}},{"type":"Feature","properties":{"cadnum":"6320484001:00:000:0198"},"geometry":{"type":"Polygon","coordinates":[[[36.684983,49.072067],[36.685133,49.07203],[36.685668,49.071894],[36.685585,49.071727],[36.685198,49.070952],[36.685131,49.070495],[36.684762,49.070512],[36.684813,49.070847],[36.68442,49.070942],[36.684983,49.072067]]]}},{"type":"Feature","properties":{"cadnum":"6320484001:00:000:0248"},"geometry":{"type":"Polygon","coordinates":[[[36.686308,49.064372],[36.68748,49.064247],[36.68741,49.063993],[36.686969,49.064036],[36.686245,49.064118],[36.686308,49.064372]]]}},{"type":"Feature","properties":{"cadnum":"6320484001:00:000:0212"},"geometry":{"type":"Polygon","coordinates":[[[36.683903,49.06646],[36.684365,49.066454],[36.684319,49.066066],[36.684357,49.065813],[36.684361,49.065792],[36.684286,49.065787],[36.68428,49.065802],[36.684207,49.065796],[36.684211,49.065782],[36.683873,49.065759],[36.683874,49.06578],[36.683903,49.06646]]]}},{"type":"Feature","properties":{"cadnum":"6320484001:00:000:0196"},"geometry":{"type":"Polygon","coordinates":[[[36.687483,49.066402],[36.687604,49.06624],[36.687621,49.06621],[36.68777,49.065946],[36.687601,49.065574],[36.68757,49.065508],[36.687067,49.066205],[36.687483,49.066402]]]}},{"type":"Feature","properties":{"cadnum":"6320484001:00:000:0237"},"geometry":{"type":"Polygon","coordinates":[[[36.685448,49.063642],[36.68702,49.063256],[36.686924,49.063081],[36.685363,49.063472],[36.685448,49.063642]]]}},{"type":"Feature","properties":{"cadnum":"6320484001:00:000:0277"},"geometry":{"type":"Polygon","coordinates":[[[36.687067,49.066205],[36.68757,49.065508],[36.687476,49.065268],[36.68709,49.065371],[36.686634,49.065451],[36.686313,49.065565],[36.686264,49.065582],[36.686116,49.065635],[36.686379,49.065774],[36.686452,49.065813],[36.686478,49.065835],[36.686794,49.066105],[36.687067,49.066205]]]}},{"type":"Feature","properties":{"cadnum":"6320484001:00:000:0238"},"geometry":{"type":"Polygon","coordinates":[[[36.685768,49.066628],[36.686583,49.066599],[36.686552,49.066225],[36.685737,49.066249],[36.685768,49.066628]]]}},{"type":"Feature","properties":{"cadnum":"6320484001:00:000:0294"},"geometry":{"type":"Polygon","coordinates":[[[36.687868,49.066456],[36.688041,49.066436],[36.68803,49.066331],[36.688399,49.066287],[36.687856,49.065204],[36.687476,49.065268],[36.68757,49.065508],[36.687601,49.065574],[36.68777,49.065946],[36.687752,49.065979],[36.687868,49.066456]]]}}]}