{"type":"FeatureCollection","features":[{"type":"Feature","properties":{"cadnum":"6320682002:02:000:0004"},"geometry":{"type":"Polygon","coordinates":[[[36.572805,48.63619],[36.573057,48.635875],[36.571422,48.635072],[36.570595,48.634666],[36.57017,48.635135],[36.571496,48.635762],[36.572088,48.635921],[36.572805,48.63619]]]}},{"type":"Feature","properties":{"cadnum":"6320682002:02:000:0005"},"geometry":{"type":"Polygon","coordinates":[[[36.570429,48.635993],[36.569753,48.635767],[36.569203597104945,48.636482],[36.569203,48.636482],[36.568632,48.637226],[36.570374,48.637784],[36.570641,48.637424],[36.571015,48.636899],[36.570095,48.636527],[36.570429,48.635993]]]}},{"type":"Feature","properties":{"cadnum":"6320682002:02:000:0002"},"geometry":{"type":"Polygon","coordinates":[[[36.568079,48.63419009302325],[36.568359,48.634586],[36.568633,48.634507],[36.569015,48.634758],[36.569871,48.634158],[36.568617,48.63351],[36.567929,48.633978],[36.568079,48.634191],[36.568079,48.63419009302325]]]}},{"type":"Feature","properties":{"cadnum":"6320682002:02:000:0006"},"geometry":{"type":"Polygon","coordinates":[[[36.565982,48.635697],[36.56626,48.635601],[36.566134,48.635177],[36.56633,48.634608],[36.566531,48.634515],[36.5659,48.633685],[36.565457,48.633859],[36.564998,48.633915],[36.5651,48.634834],[36.565217,48.635032],[36.565398,48.635301],[36.565818,48.635552],[36.565982,48.635697]]]}},{"type":"Feature","properties":{"cadnum":"6320682002:02:000:0003"},"geometry":{"type":"Polygon","coordinates":[[[36.588017,48.643484],[36.588314,48.642949],[36.588941,48.642287],[36.588602,48.642148],[36.588086,48.642203],[36.587969,48.642353],[36.587501,48.642986],[36.587321,48.643229],[36.587538,48.64339],[36.588017,48.643484]]]}},{"type":"Feature","properties":{"cadnum":"6320682002:02:000:0001"},"geometry":{"type":"Polygon","coordinates":[[[36.587321,48.643229],[36.587501,48.642986],[36.587969,48.642353],[36.58712,48.641974],[36.587447,48.641618],[36.586867,48.641349],[36.586117,48.642389],[36.585959,48.642608],[36.586255,48.64282],[36.586755,48.643044],[36.587226,48.643163],[36.587321,48.643229]]]}},{"type":"Feature","properties":{"cadnum":"6320682002:02:000:0008"},"geometry":{"type":"Polygon","coordinates":[[[36.564859,48.629063],[36.564038,48.628262],[36.563946,48.628334],[36.563433,48.62852],[36.56316,48.628547],[36.563299,48.628749],[36.564083,48.629335],[36.564083446308715,48.629335],[36.564728,48.629817],[36.565312,48.629616],[36.56508150886076,48.629335],[36.565082,48.629335],[36.564859,48.629063]]]}},{"type":"Feature","properties":{"cadnum":"6320682002:02:000:0007"},"geometry":{"type":"Polygon","coordinates":[[[36.565692,48.631519],[36.566844,48.631158],[36.567341,48.630795],[36.56706,48.630489],[36.566723,48.630555],[36.566128,48.629683],[36.565312,48.629616],[36.564728,48.629817],[36.565375,48.63057],[36.56568,48.631045],[36.565692,48.631519]]]}}]}