{"type":"FeatureCollection","features":[{"type":"Feature","properties":{"cadnum":"6320481504:00:000:0005"},"geometry":{"type":"Polygon","coordinates":[[[36.699915,48.84595362040817],[36.699915,48.845953],[36.699326,48.846047],[36.699408,48.846444],[36.699417,48.846489],[36.699505,48.8467],[36.69950543209877,48.8467],[36.69973,48.847235],[36.699743,48.84723296216216],[36.699743,48.847233],[36.69976223976816,48.8472299461985],[36.699915,48.847206],[36.699915,48.847205699574474],[36.702093,48.84686],[36.70203265714286,48.8467],[36.702033,48.8467],[36.702027,48.846685],[36.701884,48.8467],[36.701884627118666,48.8467],[36.701467,48.846744],[36.70143705746077,48.84662934198393],[36.701213,48.845747],[36.699915,48.84595362040817]]]}},{"type":"Feature","properties":{"cadnum":"6320481504:00:000:0004"},"geometry":{"type":"Polygon","coordinates":[[[36.701213,48.845747],[36.700898,48.844508],[36.700037,48.844607],[36.699743,48.844654],[36.699743,48.84465432710281],[36.699059,48.844763],[36.699152,48.845207],[36.699326,48.846047],[36.699743,48.84598044991511],[36.699743,48.845981],[36.701213,48.845747]]]}},{"type":"Feature","properties":{"cadnum":"6320481504:00:000:0012"},"geometry":{"type":"Polygon","coordinates":[[[36.704198,48.84547],[36.702539,48.845838],[36.7029,48.8467],[36.70290082572614,48.8467],[36.702955,48.846828],[36.703081,48.847095],[36.704577,48.84689],[36.704846,48.846831],[36.70476049999983,48.84665269230733],[36.704198,48.84547]]]}},{"type":"Feature","properties":{"cadnum":"6320481504:00:000:0002"},"geometry":{"type":"Polygon","coordinates":[[[36.69973,48.847235],[36.699743,48.847266199999986],[36.699743,48.847267],[36.700139,48.848216],[36.70246,48.847847],[36.702093,48.84686],[36.69976223976816,48.8472299461985],[36.69973,48.847235]]]}},{"type":"Feature","properties":{"cadnum":"6320481504:00:000:0008"},"geometry":{"type":"Polygon","coordinates":[[[36.706198,48.853044],[36.705974,48.852663],[36.706508,48.852524],[36.707654,48.852227],[36.707441,48.851839],[36.705509,48.852375],[36.705236,48.852345],[36.705236,48.85234573224044],[36.70431,48.852242],[36.704409,48.852829],[36.7045,48.853059],[36.704713,48.853422],[36.705236,48.85328880431655],[36.705236,48.853289],[36.706198,48.853044]]]}},{"type":"Feature","properties":{"cadnum":"6320481504:00:000:0006"},"geometry":{"type":"Polygon","coordinates":[[[36.707353,48.853819],[36.707507,48.853772],[36.708393,48.853494],[36.709288,48.853225],[36.708961,48.852724],[36.708612,48.852166],[36.708066,48.852319],[36.708521,48.853149],[36.708202,48.853226],[36.707654,48.852227],[36.706508,48.852524],[36.707353,48.853819]]]}},{"type":"Feature","properties":{"cadnum":"6320481504:00:000:0009"},"geometry":{"type":"Polygon","coordinates":[[[36.706508,48.852524],[36.705974,48.852663],[36.706198,48.853044],[36.705408,48.85324519542619],[36.705408,48.853245],[36.704713,48.853422],[36.70494458185404,48.853816],[36.704944,48.853816],[36.705236,48.854310612244895],[36.705236,48.854312],[36.705238,48.854314],[36.705408,48.85428],[36.705408,48.85427914266755],[36.706745,48.854005],[36.707353,48.853819],[36.706508,48.852524]]]}},{"type":"Feature","properties":{"cadnum":"6320481504:00:000:0010"},"geometry":{"type":"Polygon","coordinates":[[[36.702321,48.853439],[36.704414,48.853038],[36.704181,48.85239],[36.701941,48.852874],[36.70186,48.8527],[36.704095,48.852154],[36.704028,48.851968],[36.701598,48.852524],[36.701613,48.852553],[36.70187,48.853028],[36.702132,48.852984],[36.702321,48.853439]]]}},{"type":"Feature","properties":{"cadnum":"6320481504:00:000:0007"},"geometry":{"type":"Polygon","coordinates":[[[36.701598,48.852524],[36.704028,48.851968],[36.703753,48.851208],[36.701182,48.85167],[36.701387,48.8521],[36.701523,48.852384],[36.701598,48.852524]]]}},{"type":"Feature","properties":{"cadnum":"6320481504:00:000:0003"},"geometry":{"type":"Polygon","coordinates":[[[36.701182,48.85167],[36.703753,48.851208],[36.703604,48.850856],[36.702745,48.851038],[36.702425,48.850376],[36.700848,48.850591],[36.701028,48.851232],[36.701182,48.85167]]]}},{"type":"Feature","properties":{"cadnum":"6320481504:00:000:0001"},"geometry":{"type":"Polygon","coordinates":[[[36.702011,48.849518],[36.702852,48.849292],[36.702762,48.848873],[36.700545,48.849225],[36.700651,48.849583],[36.700686,48.84995],[36.700742,48.8502],[36.70074253913043,48.850202],[36.700742,48.850202],[36.700848,48.850591],[36.702425,48.850376],[36.702341,48.850202],[36.70234055583438,48.850202],[36.702011,48.849518]]]}},{"type":"Feature","properties":{"cadnum":"6320481504:00:000:0011"},"geometry":{"type":"Polygon","coordinates":[[[36.700545,48.849225],[36.702762,48.848873],[36.702653,48.848366],[36.70246,48.847847],[36.700139,48.848216],[36.700506,48.849096],[36.700545,48.849225]]]}}]}