{"type":"FeatureCollection","features":[{"type":"Feature","properties":{"cadnum":"6320655102:03:000:0035"},"geometry":{"type":"Polygon","coordinates":[[[36.584491,48.820377],[36.584387,48.820309],[36.584387,48.820309292413796],[36.583766,48.819905],[36.583676,48.81997],[36.584078,48.820235],[36.584387,48.820418522099445],[36.584387,48.820419],[36.58444,48.82045],[36.584491,48.820377]]]}},{"type":"Feature","properties":{"cadnum":"6320655102:03:000:0128"},"geometry":{"type":"Polygon","coordinates":[[[36.58664,48.820674],[36.586841,48.820391],[36.587609,48.819949],[36.588375,48.820434],[36.58863,48.820288],[36.588008,48.819846],[36.587864,48.819656],[36.587575,48.819881],[36.586474,48.820504],[36.585816,48.82002],[36.585264,48.819558],[36.584789,48.819935],[36.585052,48.820215],[36.585442,48.820577],[36.586007,48.820209],[36.58664,48.820674]]]}},{"type":"Feature","properties":{"cadnum":"6320655102:03:000:0083"},"geometry":{"type":"Polygon","coordinates":[[[36.585264,48.819558],[36.585305,48.819466],[36.586276,48.818683],[36.584821,48.81796],[36.584502545456026,48.81829166233612],[36.584131,48.818678],[36.58388,48.818872],[36.583959,48.819126],[36.584387,48.81954328213689],[36.584387,48.819544],[36.584789,48.819935],[36.585264,48.819558]]]}},{"type":"Feature","properties":{"cadnum":"6320655102:03:000:0197"},"geometry":{"type":"Polygon","coordinates":[[[36.586016,48.821313],[36.58561,48.821069],[36.585155,48.821389],[36.585155716312045,48.821389],[36.585116,48.821417],[36.585468,48.821635],[36.585955,48.821387],[36.586016,48.821313]],[[36.585147,48.821408],[36.585171,48.821404],[36.585178,48.821419],[36.585154,48.821423],[36.585147,48.821408]]]}},{"type":"Feature","properties":{"cadnum":"6320655102:03:000:0119"},"geometry":{"type":"Polygon","coordinates":[[[36.58813,48.820978],[36.587816,48.820767],[36.587792,48.820748],[36.587882,48.820697],[36.587226,48.820249],[36.586883,48.820427],[36.586787,48.820574],[36.586917,48.820678],[36.586789,48.820772],[36.587204,48.821092],[36.58690728795813,48.821276],[36.586907,48.821276],[36.586896,48.821283],[36.587073,48.821389],[36.58707432941177,48.821389],[36.587325,48.821538],[36.587702,48.821276],[36.58770076399028,48.821276],[36.58813,48.820978]]]}},{"type":"Feature","properties":{"cadnum":"6320655102:03:000:0157"},"geometry":{"type":"Polygon","coordinates":[[[36.58453,48.821291],[36.584558,48.821277],[36.584558,48.821276921787714],[36.584709,48.821201],[36.58444,48.82107],[36.584404,48.821106],[36.584446,48.821128],[36.584387,48.821182],[36.584387,48.82118234210527],[36.584332,48.821233],[36.584469,48.821318],[36.58453,48.821291]]]}},{"type":"Feature","properties":{"cadnum":"6320655102:03:000:0118"},"geometry":{"type":"Polygon","coordinates":[[[36.584127,48.821514],[36.584387,48.82169376798144],[36.584387,48.821694],[36.58443958019549,48.821730122733776],[36.584558,48.821812],[36.584558,48.82181147745358],[36.584764,48.821953],[36.584795,48.821939],[36.584848,48.821974],[36.584412,48.822231],[36.584558,48.822351],[36.584558,48.82235076880223],[36.58513,48.82282],[36.585823,48.822653],[36.584895,48.82195],[36.585233,48.82178],[36.58456,48.821313],[36.58454275562718,48.821321073954906],[36.584127,48.821514]]]}},{"type":"Feature","properties":{"cadnum":"6320655102:03:000:0135"},"geometry":{"type":"Polygon","coordinates":[[[36.586448,48.821005],[36.586236,48.821101],[36.586519767361104,48.821276],[36.586519,48.821276],[36.587147,48.821663],[36.587325,48.821538],[36.586896,48.821283],[36.586448,48.821005]]]}},{"type":"Feature","properties":{"cadnum":"6320655102:03:000:0081"},"geometry":{"type":"Polygon","coordinates":[[[36.586474,48.820504],[36.587575,48.819881],[36.587864,48.819656],[36.586396,48.818743],[36.586276,48.818683],[36.585305,48.819466],[36.585264,48.819558],[36.585816,48.82002],[36.586474,48.820504]]]}},{"type":"Feature","properties":{"cadnum":"6320655102:03:000:0125"},"geometry":{"type":"Polygon","coordinates":[[[36.586236,48.821101],[36.58609198958334,48.821276],[36.586091,48.821276],[36.586043270531334,48.82133520289864],[36.585999,48.821389],[36.5859998992248,48.821389],[36.585987,48.821405],[36.585423,48.821692],[36.585347,48.821759],[36.586203,48.822404],[36.586979,48.821879],[36.587147,48.821663],[36.586702369509055,48.821389],[36.586703,48.821389],[36.586236,48.821101]]]}},{"type":"Feature","properties":{"cadnum":"6320655102:03:000:0190"},"geometry":{"type":"Polygon","coordinates":[[[36.586074,48.821163],[36.586711,48.82088],[36.586621,48.820792],[36.585984,48.821075],[36.586074,48.821163]]]}},{"type":"Feature","properties":{"cadnum":"6320655102:03:000:0196"},"geometry":{"type":"Polygon","coordinates":[[[36.584558,48.82107655571848],[36.58488418944843,48.821276],[36.584884,48.821276],[36.584915491406925,48.82129513917403],[36.585069,48.821389],[36.585069929078024,48.821389],[36.585116,48.821417],[36.585316,48.821276],[36.58531567187501,48.821276],[36.58561,48.821069],[36.585187,48.820805],[36.584832,48.820616],[36.584619,48.820435],[36.584443,48.820646],[36.584199,48.820857],[36.584558,48.821077],[36.584558,48.82107655571848]],[[36.58501,48.821013],[36.585017,48.821029],[36.584992,48.821033],[36.584985,48.821017],[36.58501,48.821013]]]}},{"type":"Feature","properties":{"cadnum":"6320655102:03:000:0084"},"geometry":{"type":"Polygon","coordinates":[[[36.590367,48.821386],[36.590361,48.821389],[36.59036128124999,48.821389],[36.590245,48.82145],[36.590512,48.821695],[36.590642,48.821803],[36.590797,48.821944],[36.591088,48.821798],[36.590883,48.821643],[36.590958,48.821604],[36.590532,48.821296],[36.590367,48.821386]]]}},{"type":"Feature","properties":{"cadnum":"6320655102:03:000:0114"},"geometry":{"type":"Polygon","coordinates":[[[36.58073,48.832148],[36.580604,48.831981],[36.580463,48.832026],[36.580326,48.832073],[36.58031,48.832079],[36.580288,48.832085],[36.580268,48.832094],[36.580177101694915,48.832125],[36.580177,48.832125],[36.580095,48.832153],[36.579855,48.832238],[36.579855300000006,48.832238],[36.579531,48.832353],[36.57967,48.832505],[36.580221,48.832318],[36.580321,48.832285],[36.580502,48.832224],[36.58073,48.832148]]]}},{"type":"Feature","properties":{"cadnum":"6320655102:03:000:0086"},"geometry":{"type":"Polygon","coordinates":[[[36.582942,48.8321],[36.58287605797101,48.832125],[36.582874,48.832125],[36.5826569811324,48.83220805660365],[36.582578,48.832238],[36.582578741935485,48.832238],[36.582469,48.83228],[36.582639,48.83248],[36.583115,48.832305],[36.582964,48.832125],[36.582963014492755,48.832125],[36.582942,48.8321]]]}},{"type":"Feature","properties":{"cadnum":"6320655102:03:000:0097"},"geometry":{"type":"Polygon","coordinates":[[[36.580126,48.83302],[36.58071,48.832803],[36.581112,48.832661],[36.58097,48.832472],[36.580587,48.832597],[36.580467,48.832636],[36.579934,48.832802],[36.580126,48.83302]]]}},{"type":"Feature","properties":{"cadnum":"6320655102:03:000:0110"},"geometry":{"type":"Polygon","coordinates":[[[36.579934,48.832802],[36.580467,48.832636],[36.580587,48.832597],[36.58097,48.832472],[36.580848,48.83231],[36.580337,48.832471],[36.579785,48.83264],[36.579934,48.832802]]]}},{"type":"Feature","properties":{"cadnum":"6320655102:03:000:0107"},"geometry":{"type":"Polygon","coordinates":[[[36.578894,48.831998],[36.578894,48.83199842616033],[36.578662,48.831879],[36.578664,48.831866],[36.578404,48.831733],[36.578141,48.832084],[36.578365,48.832158],[36.578703,48.832264],[36.578801,48.832331],[36.578831,48.832449],[36.578894,48.83238896153846],[36.578894,48.832389],[36.57893900000024,48.832346076922846],[36.579065,48.832226],[36.579065,48.83222589230769],[36.579154,48.832141],[36.579056,48.832087],[36.578899,48.832001],[36.578894,48.831998]]]}},{"type":"Feature","properties":{"cadnum":"6320655102:03:000:0113"},"geometry":{"type":"Polygon","coordinates":[[[36.579154,48.832141],[36.579052,48.832238],[36.579052306451615,48.832238],[36.57893900000024,48.832346076922846],[36.578831,48.832449],[36.578894,48.83251065384615],[36.578894,48.832511],[36.57895888663104,48.83257415401072],[36.579065,48.832678],[36.579065,48.83267743391188],[36.579643,48.83324],[36.579933,48.833104],[36.579216,48.832297],[36.579338,48.832243],[36.579328980392155,48.832238],[36.57933,48.832238],[36.579154,48.832141]]]}},{"type":"Feature","properties":{"cadnum":"6320655102:03:000:0073"},"geometry":{"type":"Polygon","coordinates":[[[36.582513,48.831968],[36.582382,48.831786],[36.581699,48.832024],[36.58142319230769,48.832125],[36.581422,48.832125],[36.581415,48.832128],[36.581309,48.832163],[36.581074,48.832238],[36.58107497222223,48.832238],[36.580972,48.832271],[36.581094,48.832435],[36.58152,48.832305],[36.58171690555556,48.832238],[36.581717,48.832238],[36.582513,48.831968]]]}},{"type":"Feature","properties":{"cadnum":"6320655102:03:000:0198"},"geometry":{"type":"Polygon","coordinates":[[[36.580502,48.832224],[36.580459,48.832238],[36.58046045901639,48.832238],[36.580321,48.832285],[36.580221,48.832318],[36.57967,48.832505],[36.579785,48.83264],[36.580337,48.832471],[36.580848,48.83231],[36.58073,48.832148],[36.580502,48.832224]]]}},{"type":"Feature","properties":{"cadnum":"6320655102:03:000:0182"},"geometry":{"type":"Polygon","coordinates":[[[36.579051,48.833418],[36.578298,48.832762],[36.578223,48.832734],[36.578096,48.832656],[36.57807,48.832641],[36.577888,48.832561],[36.577834,48.832541],[36.577679,48.832734],[36.578,48.832836],[36.578231,48.832903],[36.578277,48.832924],[36.578499,48.833113],[36.578604,48.833205],[36.578556,48.833207],[36.578823,48.833471],[36.578894,48.833547679999995],[36.578894,48.833548],[36.578898,48.833552],[36.579051,48.833418]]]}},{"type":"Feature","properties":{"cadnum":"6320655102:03:000:0147"},"geometry":{"type":"Polygon","coordinates":[[[36.579933,48.833104],[36.580067,48.833046],[36.579343,48.83224],[36.579338,48.832243],[36.579216,48.832297],[36.579933,48.833104]]]}},{"type":"Feature","properties":{"cadnum":"6320655102:03:000:0085"},"geometry":{"type":"Polygon","coordinates":[[[36.581447,48.832917],[36.582639,48.83248],[36.582469,48.83228],[36.581644,48.832591],[36.581294,48.83271],[36.581447,48.832917]]]}},{"type":"Feature","properties":{"cadnum":"6320655102:03:000:0131"},"geometry":{"type":"Polygon","coordinates":[[[36.582389,48.83201],[36.58205005263157,48.832125],[36.582049,48.832125],[36.58152,48.832305],[36.581094,48.832435],[36.58121,48.832597],[36.581262,48.832613],[36.581666,48.832488],[36.58182,48.832464],[36.582524,48.83218],[36.582389,48.83201]]]}},{"type":"Feature","properties":{"cadnum":"6320655102:03:000:0046"},"geometry":{"type":"Polygon","coordinates":[[[36.571656,48.830249],[36.571672,48.830089],[36.571696,48.829842],[36.571657,48.82984],[36.571676,48.829757],[36.571699,48.829634],[36.571707,48.829598],[36.571721,48.829509],[36.571725,48.82946],[36.571469,48.829435],[36.57143,48.829612],[36.571405,48.829726],[36.571381,48.82982],[36.571216,48.829811],[36.571154,48.830182],[36.571149,48.830214],[36.571656,48.830249]]]}},{"type":"Feature","properties":{"cadnum":"6320655102:03:000:0134"},"geometry":{"type":"Polygon","coordinates":[[[36.573008,48.829926],[36.573033,48.829807],[36.573059,48.829721],[36.573064,48.829702],[36.573053,48.829701],[36.573068,48.829613],[36.573079,48.829615],[36.573081,48.829578],[36.572812,48.829556],[36.572808,48.829592],[36.572801,48.829592],[36.572784,48.829681],[36.572776,48.829715],[36.572767,48.829771],[36.572765,48.829786],[36.572776,48.829786],[36.572747,48.829907],[36.573008,48.829926]]]}},{"type":"Feature","properties":{"cadnum":"6320655102:03:000:0071"},"geometry":{"type":"Polygon","coordinates":[[[36.57214,48.830412],[36.572181,48.830177],[36.572203,48.830103],[36.57224,48.829844],[36.571935,48.829838],[36.571697,48.829829],[36.571672,48.830089],[36.571642,48.830385],[36.57214,48.830412]]]}},{"type":"Feature","properties":{"cadnum":"6320655102:03:000:0068"},"geometry":{"type":"Polygon","coordinates":[[[36.571122,48.830352],[36.571153,48.830155],[36.571204,48.829817],[36.571007,48.829792],[36.570792,48.829764],[36.5707,48.829753],[36.570612,48.830314],[36.570797,48.830328],[36.571055,48.830347],[36.571122,48.830352]]]}},{"type":"Feature","properties":{"cadnum":"6320655102:03:000:0062"},"geometry":{"type":"Polygon","coordinates":[[[36.571123,48.829807],[36.571142,48.829697],[36.571173,48.829561],[36.5712,48.829424],[36.571201,48.829415],[36.570952,48.8294],[36.570948,48.829415],[36.570944,48.829454],[36.570922,48.829452],[36.57089,48.829626],[36.570913,48.829629],[36.570901,48.829673],[36.570879,48.829776],[36.571123,48.829807]]]}},{"type":"Feature","properties":{"cadnum":"6320655102:03:000:0065"},"geometry":{"type":"Polygon","coordinates":[[[36.573572,48.82995916487455],[36.573679,48.829963],[36.574046,48.829929],[36.574147,48.829848],[36.574088,48.829772],[36.573973,48.829691],[36.573851,48.829638],[36.573726,48.829617],[36.57348366371715,48.8295976725664],[36.573355,48.829587],[36.573332,48.829726],[36.57332,48.829756],[36.573312,48.829811],[36.573301,48.82995],[36.573572,48.82996],[36.573572,48.82995916487455]]]}},{"type":"Feature","properties":{"cadnum":"6320655102:03:000:0161"},"geometry":{"type":"Polygon","coordinates":[[[36.57865,48.82293],[36.578833,48.822827],[36.578694,48.822734],[36.578561,48.822644],[36.578074,48.822316],[36.577923,48.822219],[36.577763,48.822116],[36.577349,48.821847],[36.577235,48.821929],[36.577699,48.822253],[36.578332,48.822691],[36.578452,48.822786],[36.57865,48.82293]]]}},{"type":"Feature","properties":{"cadnum":"6320655102:03:000:0025"},"geometry":{"type":"Polygon","coordinates":[[[36.578112,48.82317],[36.578341,48.823047],[36.577827,48.822686],[36.577519,48.82285],[36.577878,48.823009],[36.578112,48.82317]]]}},{"type":"Feature","properties":{"cadnum":"6320655102:03:000:0037"},"geometry":{"type":"Polygon","coordinates":[[[36.578145,48.824702],[36.578359,48.824494],[36.577756,48.824162],[36.577393,48.823962],[36.577244,48.824108],[36.577575,48.824289],[36.577496,48.824343],[36.578145,48.824702]]]}},{"type":"Feature","properties":{"cadnum":"6320655102:03:000:0056"},"geometry":{"type":"Polygon","coordinates":[[[36.579468,48.821284],[36.579342,48.82121],[36.57924539664805,48.821276],[36.579245,48.821276],[36.579178747719666,48.82132153495488],[36.57908,48.821389],[36.579080587677716,48.821389],[36.578938,48.821487],[36.579059,48.821564],[36.579065,48.821568],[36.579065,48.821567740259745],[36.579213,48.82166],[36.579617,48.821384],[36.579468,48.821284]]]}},{"type":"Feature","properties":{"cadnum":"6320655102:03:000:0156"},"geometry":{"type":"Polygon","coordinates":[[[36.578894,48.82279176724138],[36.578894,48.822793],[36.57901675221221,48.82272086725674],[36.579065,48.822693],[36.579065,48.82269251546392],[36.579088,48.822679],[36.578935,48.822583],[36.578894,48.822552],[36.578894,48.82255228522337],[36.578644,48.822365],[36.578188,48.82204],[36.577923,48.822219],[36.578074,48.822316],[36.578561,48.822644],[36.578694,48.822734],[36.578833,48.822827],[36.578894,48.82279176724138]]]}},{"type":"Feature","properties":{"cadnum":"6320655102:03:000:0093"},"geometry":{"type":"Polygon","coordinates":[[[36.578938,48.82335],[36.579021,48.823298],[36.579065,48.823273],[36.579065,48.82327274914089],[36.579312,48.823131],[36.579004,48.822918],[36.578894,48.822978],[36.578894,48.82297803663004],[36.578731,48.823067],[36.57841,48.823254],[36.578711,48.823488],[36.578894,48.823376748898674],[36.578894,48.823377],[36.578938,48.82335]]]}},{"type":"Feature","properties":{"cadnum":"6320655102:03:000:0080"},"geometry":{"type":"Polygon","coordinates":[[[36.579013,48.823521],[36.579065,48.823495],[36.579065,48.82349422553192],[36.579248,48.8234],[36.579484,48.823264],[36.579312,48.823131],[36.579021,48.823298],[36.578938,48.82335],[36.578711,48.823488],[36.578648,48.823533],[36.578426,48.823694],[36.5782,48.823834],[36.578357,48.82396],[36.578894,48.823600635670736],[36.578894,48.823602],[36.579013,48.823521]]]}},{"type":"Feature","properties":{"cadnum":"6320655102:03:000:0115"},"geometry":{"type":"Polygon","coordinates":[[[36.579335,48.823649],[36.579473,48.823563],[36.57971,48.823442],[36.579484,48.823264],[36.579248,48.8234],[36.579098,48.823478],[36.579013,48.823521],[36.578494,48.823868],[36.578733,48.824026],[36.578894,48.82392513253012],[36.578894,48.823926],[36.579335,48.823649]]]}},{"type":"Feature","properties":{"cadnum":"6320655102:03:000:0159"},"geometry":{"type":"Polygon","coordinates":[[[36.577821,48.824824],[36.576995,48.824336],[36.576745,48.824576],[36.577168,48.824797],[36.577345301435415,48.824893],[36.577345,48.824893],[36.57750858823435,48.8249814117642],[36.577554,48.825006],[36.57755408383234,48.825006],[36.577654,48.82506],[36.57769183233533,48.825006],[36.577692,48.825006],[36.577821,48.824824]]]}},{"type":"Feature","properties":{"cadnum":"6320655102:03:000:0100"},"geometry":{"type":"Polygon","coordinates":[[[36.579586,48.823819],[36.579936,48.823619],[36.57971,48.823442],[36.579473,48.823563],[36.579335,48.823649],[36.579065,48.823818591836734],[36.579065,48.823818],[36.578733,48.824026],[36.578894,48.82412886111111],[36.578894,48.824129],[36.578985,48.824187],[36.579065,48.824139],[36.579065,48.82413801497505],[36.579586,48.823819]]]}},{"type":"Feature","properties":{"cadnum":"6320655102:03:000:0094"},"geometry":{"type":"Polygon","coordinates":[[[36.5782,48.823834],[36.578426,48.823694],[36.578648,48.823533],[36.578711,48.823488],[36.57841,48.823254],[36.578035,48.823469],[36.577865,48.823566],[36.578135,48.823783],[36.5782,48.823834]]]}},{"type":"Feature","properties":{"cadnum":"6320655102:03:000:0033"},"geometry":{"type":"Polygon","coordinates":[[[36.577964,48.824873],[36.578145,48.824702],[36.577496,48.824343],[36.577575,48.824289],[36.577244,48.824108],[36.576981,48.824313],[36.577283,48.824492],[36.577964,48.824873]]]}},{"type":"Feature","properties":{"cadnum":"6320655102:03:000:0138"},"geometry":{"type":"Polygon","coordinates":[[[36.580498,48.831611],[36.580742,48.831535],[36.580817,48.83151],[36.580904,48.831483],[36.581847,48.831155],[36.581719,48.83099],[36.580766,48.83132],[36.580546,48.831393],[36.580409,48.831437],[36.580378,48.831445],[36.5804,48.831474],[36.580498,48.831611]]]}},{"type":"Feature","properties":{"cadnum":"6320655102:03:000:0088"},"geometry":{"type":"Polygon","coordinates":[[[36.580854,48.832102],[36.581035,48.83205],[36.581089,48.832032],[36.581125,48.832021],[36.581253,48.831982],[36.581396,48.831935],[36.582327,48.831592],[36.582214,48.831443],[36.581254,48.831765],[36.581065,48.83183],[36.581001,48.83185],[36.580731,48.831934],[36.580854,48.832102]]]}},{"type":"Feature","properties":{"cadnum":"6320655102:03:000:0144"},"geometry":{"type":"Polygon","coordinates":[[[36.581212,48.828214],[36.58116,48.828167],[36.58047675164836,48.828509],[36.580476,48.828509],[36.579619,48.828938],[36.579651,48.828964],[36.579688,48.828994],[36.579954,48.829208],[36.580001,48.829246],[36.580638,48.82976],[36.582036,48.828975],[36.581652699570824,48.828622],[36.581654,48.828622],[36.581212,48.828214]]]}},{"type":"Feature","properties":{"cadnum":"6320655102:03:000:0126"},"geometry":{"type":"Polygon","coordinates":[[[36.579107,48.829236],[36.579123,48.829227],[36.579151,48.829213],[36.579167,48.829205],[36.579393,48.829091],[36.579401,48.829063],[36.579413,48.829018],[36.579241,48.828833],[36.579065,48.82891309907121],[36.579065,48.828913],[36.578918,48.82898],[36.578654,48.828734],[36.578481,48.828815],[36.578266,48.828941],[36.578452,48.829161],[36.578349,48.829242],[36.578148,48.829365],[36.578033,48.829647],[36.57795,48.82985],[36.578002,48.829891],[36.578035,48.829917],[36.578147,48.829842],[36.57816,48.829832],[36.5783,48.829738],[36.578723,48.829429],[36.578894,48.829342999999994],[36.578894,48.829343],[36.579107,48.829236]]]}},{"type":"Feature","properties":{"cadnum":"6320655102:03:000:0137"},"geometry":{"type":"Polygon","coordinates":[[[36.580452,48.830563],[36.580347,48.830428],[36.58086,48.830223],[36.580504,48.829923],[36.579065,48.83041369006211],[36.579065,48.830413],[36.578532,48.830594],[36.578743,48.830862],[36.578894,48.830846993788825],[36.578894,48.830847],[36.578903999995426,48.830846000000456],[36.579065,48.83083],[36.579065,48.8308299],[36.579174,48.830819],[36.579319,48.830887],[36.580452,48.830563]]]}},{"type":"Feature","properties":{"cadnum":"6320655102:03:002:0002"},"geometry":{"type":"Polygon","coordinates":[[[36.579065,48.828404597285065],[36.579115,48.828446],[36.57919804545454,48.828509],[36.579198,48.828509],[36.57920599999948,48.828515034482365],[36.579347,48.828622],[36.57934780571429,48.828622],[36.579662,48.828859],[36.579893,48.828737],[36.57970504635592,48.828595569535146],[36.579334,48.828315],[36.578949,48.827999],[36.578719,48.828118],[36.579065,48.828406],[36.579065,48.828404597285065]]]}},{"type":"Feature","properties":{"cadnum":"6320655102:03:000:0052"},"geometry":{"type":"Polygon","coordinates":[[[36.580258,48.831282],[36.581558,48.830869],[36.581591,48.830861],[36.581316,48.830646],[36.58053,48.830952],[36.580583,48.831067],[36.580594,48.831089],[36.580203,48.831211],[36.580258,48.831282]]]}},{"type":"Feature","properties":{"cadnum":"6320655102:03:000:0096"},"geometry":{"type":"Polygon","coordinates":[[[36.579409,48.831975],[36.579917,48.8318],[36.580365,48.831658],[36.580241,48.831497],[36.579992,48.83158],[36.579791,48.831646],[36.5793,48.831823],[36.579409,48.831975]]]}},{"type":"Feature","properties":{"cadnum":"6320655102:03:000:0101"},"geometry":{"type":"Polygon","coordinates":[[[36.581049,48.821389],[36.581049067796606,48.821389],[36.58103,48.821404],[36.581161,48.821484],[36.581258,48.821541],[36.58127,48.821549],[36.581951,48.821938],[36.582073,48.821836],[36.58209,48.821822],[36.581412,48.821413],[36.58118,48.821286],[36.581049,48.821389]]]}},{"type":"Feature","properties":{"cadnum":"6320655102:03:000:0074"},"geometry":{"type":"Polygon","coordinates":[[[36.582083,48.821011],[36.581788,48.820812],[36.581525,48.821016],[36.581809,48.821205],[36.581922059782606,48.821276],[36.581922,48.821276],[36.582368,48.821556],[36.582604,48.821366],[36.582472,48.821276],[36.58247191549296,48.821276],[36.582083,48.821011]]]}},{"type":"Feature","properties":{"cadnum":"6320655102:03:000:0049"},"geometry":{"type":"Polygon","coordinates":[[[36.583712,48.824549],[36.584052,48.824862],[36.584085583333334,48.824893],[36.584085,48.824893],[36.584127456521514,48.82493165217371],[36.584208,48.825006],[36.58420912204725,48.825006],[36.584364,48.825147],[36.584387,48.825135737113406],[36.584387,48.825136],[36.584701,48.824983],[36.584403,48.824709],[36.584387,48.824694],[36.584387,48.82469405705705],[36.58407,48.824398],[36.583712,48.824549]]]}},{"type":"Feature","properties":{"cadnum":"6320655102:03:000:0133"},"geometry":{"type":"Polygon","coordinates":[[[36.584558,48.82485151677852],[36.58460311678832,48.824893],[36.584601,48.824893],[36.584701,48.824983],[36.584981,48.824848],[36.584718,48.824603],[36.584387,48.824292],[36.584387,48.824293208955226],[36.584223,48.824139],[36.583925,48.82427],[36.58407,48.824398],[36.584403,48.824709],[36.584558,48.824852],[36.584558,48.82485151677852]]]}},{"type":"Feature","properties":{"cadnum":"6320655102:03:000:0142"},"geometry":{"type":"Polygon","coordinates":[[[36.582835,48.821234],[36.582796,48.821198],[36.582308,48.820903],[36.582263,48.820871],[36.582233,48.820851],[36.582174,48.820816],[36.582118,48.820793],[36.582033,48.820742],[36.581962,48.820705],[36.581926,48.820729],[36.581914,48.820729],[36.581788,48.820812],[36.582083,48.821011],[36.582604,48.821366],[36.582835,48.821234]]]}},{"type":"Feature","properties":{"cadnum":"6320655102:03:002:0019"},"geometry":{"type":"Polygon","coordinates":[[[36.582798,48.824814],[36.58263020155038,48.824893],[36.58263,48.824893],[36.582524,48.824943],[36.582594,48.825006],[36.58259462308762,48.825006],[36.58333,48.825662],[36.583609,48.825521],[36.582943248837225,48.82494192558141],[36.582798,48.824814]]]}},{"type":"Feature","properties":{"cadnum":"6320655102:03:000:0165"},"geometry":{"type":"Polygon","coordinates":[[[36.582153,48.823456],[36.58248,48.823253],[36.581961,48.822946],[36.581851,48.822887],[36.581666,48.822789],[36.581388,48.823008],[36.581566,48.823103],[36.581713,48.823192],[36.582153,48.823456]]]}},{"type":"Feature","properties":{"cadnum":"6320655102:03:000:0185"},"geometry":{"type":"Polygon","coordinates":[[[36.580719,48.823415],[36.581014,48.823182],[36.580687,48.822999],[36.580642,48.822978],[36.580523,48.823055],[36.57998,48.822709],[36.579807,48.822825],[36.580354,48.823163],[36.580389,48.823235],[36.580719,48.823415]]]}},{"type":"Feature","properties":{"cadnum":"6320655102:03:000:0058"},"geometry":{"type":"Polygon","coordinates":[[[36.581218,48.822404],[36.581485,48.822216],[36.580959,48.821913],[36.580579,48.821699],[36.580393,48.821854],[36.580707,48.822075],[36.581218,48.822404]]]}},{"type":"Feature","properties":{"cadnum":"6320655102:03:000:0195"},"geometry":{"type":"Polygon","coordinates":[[[36.584558,48.822144407692306],[36.584817,48.821991],[36.584764,48.821953],[36.5844,48.821703],[36.584137,48.82186],[36.584557,48.822145],[36.584558,48.822145],[36.584558,48.822144407692306]]]}},{"type":"Feature","properties":{"cadnum":"6320655102:03:000:0044"},"geometry":{"type":"Polygon","coordinates":[[[36.580132,48.823338],[36.580354,48.823163],[36.579788,48.822813],[36.579468,48.822627],[36.57926,48.822801],[36.579551,48.822985],[36.580132,48.823338]]]}},{"type":"Feature","properties":{"cadnum":"6320655102:03:000:0130"},"geometry":{"type":"Polygon","coordinates":[[[36.583838,48.823537],[36.583903,48.823438],[36.583872,48.823247],[36.583448,48.822819],[36.58303,48.822403],[36.583148,48.82232],[36.582649,48.822002],[36.582397,48.822208],[36.583118,48.822719],[36.583251,48.822849],[36.583475,48.823129],[36.58351,48.823411],[36.58355,48.823458],[36.583838,48.823537]],[[36.583236,48.822778],[36.58322,48.822764],[36.583286,48.822732],[36.583302,48.822747],[36.583236,48.822778]],[[36.583408,48.822923],[36.583341,48.822891],[36.583357,48.822877],[36.583424,48.822908],[36.583408,48.822923]]]}},{"type":"Feature","properties":{"cadnum":"6320655102:03:000:0194"},"geometry":{"type":"Polygon","coordinates":[[[36.583736,48.821155],[36.58357642028985,48.821276],[36.583575,48.821276],[36.583554,48.821293],[36.583435,48.821389],[36.58343596721311,48.821389],[36.583404,48.821415],[36.583502,48.821464],[36.583672,48.821559],[36.583828,48.821678],[36.584088,48.821826],[36.584137,48.82186],[36.5844,48.821703],[36.584127,48.821514],[36.58423,48.821467],[36.584106261780114,48.821389],[36.584107,48.821389],[36.583736,48.821155]]]}},{"type":"Feature","properties":{"cadnum":"6320655102:03:000:0136"},"geometry":{"type":"Polygon","coordinates":[[[36.581674,48.822114],[36.58176,48.822066],[36.581951,48.821938],[36.58127,48.821549],[36.581258,48.821541],[36.581161,48.821484],[36.58103,48.821404],[36.580797,48.82158],[36.581018,48.821735],[36.581674,48.822114]]]}},{"type":"Feature","properties":{"cadnum":"6320655102:03:000:0050"},"geometry":{"type":"Polygon","coordinates":[[[36.579854,48.822043],[36.580166,48.821751],[36.579756,48.821476],[36.579617,48.821384],[36.579213,48.82166],[36.579325,48.82173],[36.579728,48.821974],[36.579767,48.821997],[36.579854,48.822043]]]}},{"type":"Feature","properties":{"cadnum":"6320655102:03:000:0077"},"geometry":{"type":"Polygon","coordinates":[[[36.579065,48.82104486764705],[36.579098,48.821068],[36.579441,48.820822],[36.579065,48.82060306329114],[36.579065,48.820603],[36.578967,48.820546],[36.578731,48.820397],[36.578718,48.820406],[36.578687,48.820385],[36.578408,48.820585],[36.579065,48.821046],[36.579065,48.82104486764705]]]}},{"type":"Feature","properties":{"cadnum":"6320655102:03:002:0028"},"geometry":{"type":"Polygon","coordinates":[[[36.588434,48.823124],[36.588847,48.822918],[36.588323,48.822644],[36.588074,48.822533],[36.587744,48.82279],[36.588005,48.822911],[36.588434,48.823124]]]}},{"type":"Feature","properties":{"cadnum":"6320655102:03:000:0069"},"geometry":{"type":"Polygon","coordinates":[[[36.589562,48.822558],[36.589903,48.822395],[36.589573,48.822166],[36.589311,48.821968],[36.589136,48.822065],[36.588972,48.822171],[36.588933,48.822195],[36.589272,48.822382],[36.589562,48.822558]]]}},{"type":"Feature","properties":{"cadnum":"6320655102:03:000:0089"},"geometry":{"type":"Polygon","coordinates":[[[36.58531,48.824879],[36.58528067716535,48.824893],[36.58528,48.824893],[36.58512340298378,48.82496808955286],[36.585044,48.825006],[36.58504434188034,48.825006],[36.585036,48.82501],[36.585234,48.825176],[36.585619,48.825502],[36.585897,48.82537],[36.585558,48.825068],[36.585403,48.824952],[36.58531,48.824879]]]}},{"type":"Feature","properties":{"cadnum":"6320655102:03:002:0022"},"geometry":{"type":"Polygon","coordinates":[[[36.587469,48.823519],[36.58775,48.82335],[36.587575,48.823263],[36.587211,48.823083],[36.586665,48.822796],[36.586417,48.822942],[36.58701,48.823253],[36.587411,48.823485],[36.587469,48.823519]]]}},{"type":"Feature","properties":{"cadnum":"6320655102:03:000:0109"},"geometry":{"type":"Polygon","coordinates":[[[36.585348,48.824666],[36.585676,48.824514],[36.585995,48.824347],[36.586031,48.824314],[36.585701,48.824184],[36.58548,48.824097],[36.584976,48.824344],[36.58515,48.824495],[36.585348,48.824666]]]}},{"type":"Feature","properties":{"cadnum":"6320655102:03:000:0092"},"geometry":{"type":"Polygon","coordinates":[[[36.587744,48.82279],[36.588074,48.822533],[36.587702,48.822372],[36.58738,48.822617],[36.587744,48.82279]]]}},{"type":"Feature","properties":{"cadnum":"6320655102:03:000:0158"},"geometry":{"type":"Polygon","coordinates":[[[36.586063,48.824841],[36.585816,48.824624],[36.585669,48.824698],[36.585629,48.82472],[36.58531,48.824879],[36.58532783561644,48.824893],[36.585327,48.824893],[36.585403,48.824952],[36.585474,48.825006],[36.58547515517241,48.825006],[36.585558,48.825068],[36.585776,48.825263],[36.586274,48.825015],[36.58618227035819,48.82493989250804],[36.586063,48.824841]]]}},{"type":"Feature","properties":{"cadnum":"6320655102:03:000:0193"},"geometry":{"type":"Polygon","coordinates":[[[36.588972,48.822171],[36.589136,48.822065],[36.588812,48.821829],[36.588764,48.821799],[36.588728,48.821771],[36.588676,48.82173],[36.588586,48.821661],[36.588558,48.821637],[36.588338,48.821767],[36.588365,48.821782],[36.588515,48.821881],[36.588972,48.822171]]]}},{"type":"Feature","properties":{"cadnum":"6320655102:03:000:0189"},"geometry":{"type":"Polygon","coordinates":[[[36.590052,48.822318],[36.590052,48.82231726086957],[36.590133,48.822275],[36.590104,48.822244],[36.590021,48.822172],[36.58997,48.82213],[36.589938,48.8221],[36.589849,48.822028],[36.589566,48.821803],[36.589358,48.821938],[36.589311,48.821968],[36.589573,48.822166],[36.58988,48.822379039393944],[36.58988,48.82238],[36.589903,48.822395],[36.590052,48.822318]]]}},{"type":"Feature","properties":{"cadnum":"6320655102:03:000:0064"},"geometry":{"type":"Polygon","coordinates":[[[36.57446,48.839244],[36.574097,48.839124],[36.573662,48.838982],[36.573575,48.839153],[36.573556,48.839189],[36.573549,48.839204],[36.573493,48.839327],[36.573585400000006,48.839357],[36.573584,48.839357],[36.573878,48.839452],[36.573932,48.83947],[36.57393326315789,48.83947],[36.574228,48.839566],[36.574378,48.839357],[36.574377999999996,48.839357],[36.57446,48.839244]]]}},{"type":"Feature","properties":{"cadnum":"6320655102:03:000:0061"},"geometry":{"type":"Polygon","coordinates":[[[36.575294,48.83823],[36.575381,48.83806],[36.574558,48.837721],[36.574161,48.837582],[36.574088,48.83783],[36.574426,48.837909],[36.575294,48.83823]]]}},{"type":"Feature","properties":{"cadnum":"6320655102:03:000:0042"},"geometry":{"type":"Polygon","coordinates":[[[36.577245,48.838882],[36.577358,48.838757],[36.577452,48.838653],[36.577236,48.838544],[36.576879,48.838379],[36.57667,48.838614],[36.577008,48.838771],[36.577207,48.838861],[36.577245,48.838882]]]}},{"type":"Feature","properties":{"cadnum":"6320655102:03:001:0011"},"geometry":{"type":"Polygon","coordinates":[[[36.577264,48.836825],[36.57741,48.836666],[36.577432,48.836643],[36.577459,48.836613],[36.577385,48.836584],[36.577396,48.836572],[36.577366,48.836557],[36.577173,48.836459],[36.576843,48.836305],[36.576615,48.836519],[36.576984,48.836699],[36.577032,48.836721],[36.577094,48.836748],[36.577208,48.836799],[36.577264,48.836825]]]}},{"type":"Feature","properties":{"cadnum":"6320655102:03:001:0008"},"geometry":{"type":"Polygon","coordinates":[[[36.575545,48.835693],[36.575460478260865,48.835777],[36.575287,48.835948],[36.575585,48.836133],[36.575904,48.836343],[36.575998,48.836401],[36.576304,48.836194],[36.575841,48.83588],[36.57565683333333,48.835764166666664],[36.575545,48.835693]]]}},{"type":"Feature","properties":{"cadnum":"6320655102:03:000:0129"},"geometry":{"type":"Polygon","coordinates":[[[36.575695,48.837234],[36.576006,48.836918],[36.575784,48.8368],[36.575466,48.836683],[36.575223,48.836922],[36.575451,48.837084],[36.575532,48.837136],[36.575662,48.837216],[36.575695,48.837234]]]}},{"type":"Feature","properties":{"cadnum":"6320655102:03:001:0016"},"geometry":{"type":"Polygon","coordinates":[[[36.576541,48.837662],[36.576772,48.837397],[36.576515,48.837294],[36.575996,48.837101],[36.575971,48.837092],[36.575784,48.837402],[36.575808,48.83741],[36.576284,48.83757],[36.576541,48.837662]]]}},{"type":"Feature","properties":{"cadnum":"6320655102:03:000:0067"},"geometry":{"type":"Polygon","coordinates":[[[36.574874,48.835657],[36.574456,48.835418],[36.574425,48.8354],[36.574176,48.835623],[36.57441075147838,48.8357555857983],[36.574641,48.835886],[36.574992,48.836083],[36.575007,48.836068],[36.575022,48.836053],[36.57521,48.835858],[36.575014,48.835741],[36.57501385786802,48.835741],[36.574874,48.835657]]]}},{"type":"Feature","properties":{"cadnum":"6320655102:03:000:0001"},"geometry":{"type":"Polygon","coordinates":[[[36.576046,48.835775],[36.575703,48.835536],[36.575545,48.835693],[36.575620428571426,48.835741],[36.57562,48.835741],[36.57565683333333,48.835764166666664],[36.575798,48.835854],[36.57579966187049,48.835854],[36.575841,48.83588],[36.575861,48.835894],[36.575937,48.835944],[36.576304,48.836194],[36.576464,48.836301],[36.576643,48.836111],[36.576131,48.835817],[36.576046,48.835775]]]}},{"type":"Feature","properties":{"cadnum":"6320655102:03:000:0173"},"geometry":{"type":"Polygon","coordinates":[[[36.576135,48.839189],[36.575923,48.839098],[36.575861,48.839071],[36.575641,48.838979],[36.575321,48.83935],[36.57533173333333,48.839357],[36.57533,48.839357],[36.57541811111115,48.839413333333354],[36.575505,48.83947],[36.57550674358974,48.83947],[36.575513,48.839474],[36.575746,48.83962],[36.575881171102665,48.83947],[36.575882,48.83947],[36.576135,48.839189]]]}},{"type":"Feature","properties":{"cadnum":"6320655102:03:000:0171"},"geometry":{"type":"Polygon","coordinates":[[[36.575232,48.836913],[36.575466,48.836683],[36.575519,48.836637],[36.575552,48.836606],[36.574982,48.83627],[36.574724,48.836558],[36.574842,48.836643],[36.574983,48.836744],[36.575232,48.836913]]]}},{"type":"Feature","properties":{"cadnum":"6320655102:03:001:0004"},"geometry":{"type":"Polygon","coordinates":[[[36.576653,48.838634],[36.576879,48.838379],[36.576616,48.838243],[36.576439,48.838158],[36.576362,48.838121],[36.576237,48.838271],[36.576214,48.838298],[36.576203,48.83831],[36.576122,48.838409],[36.576384,48.83852],[36.576653,48.838634]]]}},{"type":"Feature","properties":{"cadnum":"6320655102:03:000:0172"},"geometry":{"type":"Polygon","coordinates":[[[36.576842,48.839324],[36.576705,48.839268],[36.576681,48.839274],[36.576607,48.839241],[36.576434,48.839166],[36.576367,48.839138],[36.57617042771084,48.839357],[36.57617,48.839357],[36.57607677391353,48.83946133912989],[36.576069,48.83947],[36.57606903550296,48.83947],[36.575868,48.839695],[36.575963,48.839755],[36.576006,48.839781],[36.576586,48.839601],[36.576671,48.839575],[36.576674,48.839519],[36.576814,48.839357],[36.576813520547944,48.839357],[36.576842,48.839324]]]}},{"type":"Feature","properties":{"cadnum":"6320655102:03:000:0124"},"geometry":{"type":"Polygon","coordinates":[[[36.575723,48.838635],[36.575942,48.838375],[36.576044,48.838253],[36.575788,48.838155],[36.575463,48.838053],[36.575291,48.838481],[36.575723,48.838635]]]}},{"type":"Feature","properties":{"cadnum":"6320655102:03:000:0151"},"geometry":{"type":"Polygon","coordinates":[[[36.578353,48.837647],[36.578524,48.837539],[36.57857,48.837417],[36.578581,48.83736],[36.578451,48.837258],[36.57818,48.837016],[36.577944,48.837242],[36.577783,48.837407],[36.578113,48.837539],[36.578353,48.837647]]]}},{"type":"Feature","properties":{"cadnum":"6320655102:03:000:0155"},"geometry":{"type":"Polygon","coordinates":[[[36.578153,48.837881],[36.578365,48.837655],[36.578353,48.837647],[36.578113,48.837539],[36.577783,48.837407],[36.57774,48.83745],[36.577567,48.837628],[36.577921,48.837776],[36.578029,48.837829],[36.578153,48.837881]]]}},{"type":"Feature","properties":{"cadnum":"6320655102:03:000:0184"},"geometry":{"type":"Polygon","coordinates":[[[36.574835,48.837835],[36.574936,48.837687],[36.57505,48.837502],[36.574703,48.83734],[36.574294,48.837228],[36.574161,48.837582],[36.574558,48.837721],[36.574835,48.837835]]]}},{"type":"Feature","properties":{"cadnum":"6320655102:03:001:0009"},"geometry":{"type":"Polygon","coordinates":[[[36.576189,48.83652],[36.576464,48.836301],[36.576304,48.836194],[36.575998,48.836401],[36.576189,48.83652]]]}},{"type":"Feature","properties":{"cadnum":"6320655102:03:000:0121"},"geometry":{"type":"Polygon","coordinates":[[[36.575195,48.838363],[36.575294,48.83823],[36.574426,48.837909],[36.574088,48.83783],[36.574036,48.837986],[36.574239,48.838051],[36.574274,48.838062],[36.574393,48.838099],[36.575195,48.838363]]]}},{"type":"Feature","properties":{"cadnum":"6320655102:03:000:0103"},"geometry":{"type":"Polygon","coordinates":[[[36.576006,48.836918],[36.576067,48.836864],[36.576313,48.836663],[36.576343,48.836641],[36.576351,48.836636],[36.576217,48.836557],[36.576189,48.83652],[36.575998,48.836401],[36.575904,48.836343],[36.575863,48.836315],[36.575519,48.836637],[36.575466,48.836683],[36.575784,48.8368],[36.576006,48.836918]]]}},{"type":"Feature","properties":{"cadnum":"6320655102:03:000:0099"},"geometry":{"type":"Polygon","coordinates":[[[36.5742,48.83681],[36.574294,48.83661],[36.574095,48.836569],[36.574,48.836768],[36.5742,48.83681]]]}},{"type":"Feature","properties":{"cadnum":"6320655102:03:000:0024"},"geometry":{"type":"Polygon","coordinates":[[[36.575298000001,48.835764399998936],[36.57532,48.835741],[36.5753199375,48.835741],[36.575424,48.83563],[36.575106,48.835417],[36.574692,48.83514],[36.574456,48.835418],[36.574874,48.835657],[36.575202,48.835854],[36.575203299145294,48.835854],[36.57521,48.835858],[36.575213760683766,48.835854],[36.575214,48.835854],[36.575298000001,48.835764399998936]]]}},{"type":"Feature","properties":{"cadnum":"6320655102:03:000:0169"},"geometry":{"type":"Polygon","coordinates":[[[36.576135,48.839189],[36.576229,48.839081],[36.576426,48.838903],[36.57608,48.83876],[36.575896,48.838677],[36.575641,48.838979],[36.575861,48.839071],[36.575923,48.839098],[36.576135,48.839189]]]}},{"type":"Feature","properties":{"cadnum":"6320655102:03:000:0180"},"geometry":{"type":"Polygon","coordinates":[[[36.575357,48.83805],[36.575413,48.837912],[36.57549,48.837689],[36.57505,48.837502],[36.574936,48.837687],[36.574835,48.837835],[36.575357,48.83805]]]}},{"type":"Feature","properties":{"cadnum":"6320655102:03:000:0051"},"geometry":{"type":"Polygon","coordinates":[[[36.579065,48.8381673],[36.579254,48.838308],[36.579431,48.838193],[36.57937,48.838103],[36.578906,48.837666],[36.578894,48.837656],[36.578894,48.837656222222215],[36.57869,48.83749],[36.578609,48.837581],[36.578585,48.837608],[36.578454,48.837755],[36.578613,48.837857],[36.57882,48.837985],[36.579065,48.838168],[36.579065,48.8381673]]]}},{"type":"Feature","properties":{"cadnum":"6320655102:03:001:0012"},"geometry":{"type":"Polygon","coordinates":[[[36.575321,48.83935],[36.57523,48.83947],[36.57523046527778,48.83947],[36.575207,48.839501],[36.575164,48.839558],[36.575133,48.839801],[36.575101,48.840065],[36.575963,48.839755],[36.575513,48.839474],[36.57541811111115,48.839413333333354],[36.575321,48.83935]]]}},{"type":"Feature","properties":{"cadnum":"6320655102:03:000:0047"},"geometry":{"type":"Polygon","coordinates":[[[36.577515,48.838582],[36.577735,48.838345],[36.577528,48.838252],[36.577169,48.838093],[36.576954,48.838316],[36.577304,48.838491],[36.577515,48.838582]]]}},{"type":"Feature","properties":{"cadnum":"6320655102:03:000:0122"},"geometry":{"type":"Polygon","coordinates":[[[36.5784,48.839003],[36.578625,48.838912],[36.578081,48.838516],[36.577889,48.838385],[36.57763,48.838655],[36.577825,48.83875],[36.578112,48.838877],[36.5784,48.839003]]]}},{"type":"Feature","properties":{"cadnum":"6320655102:03:000:0120"},"geometry":{"type":"Polygon","coordinates":[[[36.57455,48.836527],[36.574806,48.836273],[36.574418,48.836113],[36.573881,48.835908],[36.573875,48.836236],[36.574152,48.83636],[36.574314,48.836413],[36.574331,48.836414],[36.574366,48.836423],[36.57455,48.836527]]]}},{"type":"Feature","properties":{"cadnum":"6320655102:03:000:0162"},"geometry":{"type":"Polygon","coordinates":[[[36.579065,48.83867],[36.579065,48.8386695],[36.579246,48.838579],[36.578894,48.838356],[36.578894,48.838356749565214],[36.57849,48.838101],[36.578266,48.837965],[36.578076,48.838183],[36.578329,48.83833],[36.578954,48.838725],[36.579065,48.83867]]]}},{"type":"Feature","properties":{"cadnum":"6320655102:03:000:0070"},"geometry":{"type":"Polygon","coordinates":[[[36.57441075147838,48.8357555857983],[36.574385,48.835741],[36.57438492640693,48.835741],[36.574176,48.835623],[36.574086,48.835614],[36.574053494047625,48.835741],[36.574052,48.835741],[36.574043,48.835782],[36.573949,48.835854],[36.573950428571436,48.835854],[36.573881,48.835908],[36.574418,48.836113],[36.574806,48.836273],[36.574992,48.836083],[36.574641,48.835886],[36.57458450344827,48.835854],[36.574585,48.835854],[36.57441075147838,48.8357555857983]]]}},{"type":"Feature","properties":{"cadnum":"6320655102:03:000:0168"},"geometry":{"type":"Polygon","coordinates":[[[36.57340390601504,48.83947],[36.573309,48.839623],[36.5734,48.839655322404376],[36.5734,48.839656],[36.573492,48.839688],[36.573572,48.839717],[36.573572,48.839716282828284],[36.573591,48.839723],[36.57411,48.839916],[36.574327,48.839598],[36.574228,48.839566],[36.573878,48.839452],[36.573493,48.839327],[36.573474118881116,48.839357],[36.573474,48.839357],[36.573465869565204,48.83937010724639],[36.573403,48.83947],[36.57340390601504,48.83947]]]}},{"type":"Feature","properties":{"cadnum":"6320655102:03:000:0076"},"geometry":{"type":"Polygon","coordinates":[[[36.570827,48.841697],[36.571428,48.84141],[36.57161,48.841319],[36.571475,48.841222],[36.571422,48.841187],[36.571272,48.841081],[36.571134,48.841174],[36.57065,48.84153],[36.570827,48.841697]]]}},{"type":"Feature","properties":{"cadnum":"6320655102:03:000:0170"},"geometry":{"type":"Polygon","coordinates":[[[36.573572,48.84006324878049],[36.57381,48.840148],[36.573928,48.840178],[36.574208,48.83996],[36.573572,48.8397215],[36.573572,48.839721],[36.573312,48.839623],[36.573016,48.839859],[36.573236,48.839944],[36.573273,48.839956],[36.5734,48.840001872909696],[36.5734,48.840002],[36.5734248881787,48.84001086261973],[36.573572,48.840064],[36.573572,48.84006324878049]]]}},{"type":"Feature","properties":{"cadnum":"6320655102:03:000:0108"},"geometry":{"type":"Polygon","coordinates":[[[36.573572,48.840335],[36.573572,48.84033423342175],[36.57381,48.840148],[36.5734248881787,48.84001086261973],[36.573273,48.839956],[36.573236,48.839944],[36.573016,48.839859],[36.572691,48.840096],[36.573013,48.840224],[36.5734,48.84042579285714],[36.5734,48.840426],[36.573433,48.840443],[36.573572,48.840335]]]}},{"type":"Feature","properties":{"cadnum":"6320655102:03:000:0026"},"geometry":{"type":"Polygon","coordinates":[[[36.592663,48.822149],[36.592821,48.822084],[36.592286,48.821537],[36.592116,48.821607],[36.592663,48.822149]]]}},{"type":"Feature","properties":{"cadnum":"6320655102:03:000:0186"},"geometry":{"type":"Polygon","coordinates":[[[36.591458,48.822799],[36.59176,48.822653],[36.591424,48.822313],[36.591157,48.822087],[36.591099,48.822039],[36.591095,48.822035],[36.590775,48.822184],[36.590911,48.822319],[36.591066,48.82246],[36.591458,48.822799]]]}},{"type":"Feature","properties":{"cadnum":"6320655102:03:000:0087"},"geometry":{"type":"Polygon","coordinates":[[[36.582796,48.821198],[36.583035,48.821015],[36.582545,48.82068],[36.582265,48.820491],[36.581962,48.820705],[36.582033,48.820742],[36.582118,48.820793],[36.582174,48.820816],[36.582233,48.820851],[36.582263,48.820871],[36.582308,48.820903],[36.582796,48.821198]]]}},{"type":"Feature","properties":{"cadnum":"6320655102:03:000:0053"},"geometry":{"type":"Polygon","coordinates":[[[36.582,48.820218],[36.582158,48.820091],[36.581982,48.819984],[36.581955,48.819967],[36.581953,48.819966],[36.581922,48.819947],[36.581907,48.819937],[36.581908,48.819934],[36.581903,48.81993],[36.581828,48.819888],[36.581808,48.819876],[36.581233,48.819547],[36.581058,48.819585],[36.580988,48.819624],[36.581621,48.820017],[36.581729,48.820069],[36.581812,48.82012],[36.581807,48.820124],[36.581845,48.820133],[36.581927,48.820182],[36.582,48.820218]]]}},{"type":"Feature","properties":{"cadnum":"6320655102:03:000:0164"},"geometry":{"type":"Polygon","coordinates":[[[36.582489,48.819812],[36.582866,48.819499],[36.582718,48.819409],[36.582452,48.819244],[36.582312,48.819154],[36.581937,48.819466],[36.58219,48.819639],[36.58225,48.819676],[36.582489,48.819812]]]}},{"type":"Feature","properties":{"cadnum":"6320655102:03:000:0192"},"geometry":{"type":"Polygon","coordinates":[[[36.583677,48.821083],[36.583958,48.820858],[36.583952,48.820842],[36.583837,48.820764],[36.583766,48.820705],[36.583632,48.820608],[36.583247,48.820844],[36.58344,48.820949],[36.583677,48.821083]]]}},{"type":"Feature","properties":{"cadnum":"6320655102:03:000:0183"},"geometry":{"type":"Polygon","coordinates":[[[36.582866,48.819499],[36.583044,48.819361],[36.582883,48.819275],[36.582784,48.819222],[36.582603,48.819121],[36.582037,48.818774],[36.581892,48.818898],[36.582312,48.819154],[36.582452,48.819244],[36.582718,48.819409],[36.582866,48.819499]]]}},{"type":"Feature","properties":{"cadnum":"6320655102:03:000:0176"},"geometry":{"type":"Polygon","coordinates":[[[36.582246,48.820019],[36.582489,48.819812],[36.58225,48.819676],[36.58219,48.819639],[36.581937,48.819466],[36.581722,48.81932],[36.581399,48.819551],[36.581888,48.819836],[36.581912,48.819819],[36.58212,48.819944],[36.582246,48.820019]]]}},{"type":"Feature","properties":{"cadnum":"6320655102:03:000:0132"},"geometry":{"type":"Polygon","coordinates":[[[36.584119,48.820804],[36.584217,48.820731],[36.584257,48.820674],[36.58444,48.82045],[36.584105,48.820251],[36.583911,48.820375],[36.583789,48.82044],[36.583621,48.820524],[36.583759,48.820633],[36.583913,48.820724],[36.584119,48.820804]]]}},{"type":"Feature","properties":{"cadnum":"6320655102:03:000:0079"},"geometry":{"type":"Polygon","coordinates":[[[36.582315,48.818493],[36.582684,48.818244],[36.582165,48.817827],[36.581735,48.818144],[36.582033,48.818307],[36.58202,48.818317],[36.582315,48.818493]]]}},{"type":"Feature","properties":{"cadnum":"6320655102:03:000:0146"},"geometry":{"type":"Polygon","coordinates":[[[36.581211,48.820893],[36.581375,48.820741],[36.581132,48.820578],[36.580483,48.820178],[36.580386,48.820118],[36.580207,48.820258],[36.580888,48.820669],[36.581211,48.820893]]]}},{"type":"Feature","properties":{"cadnum":"6320655102:03:000:0034"},"geometry":{"type":"Polygon","coordinates":[[[36.583789,48.82044],[36.583911,48.820375],[36.583533,48.820124],[36.583479,48.820091],[36.583439,48.820066],[36.583406,48.820047],[36.583372,48.820027],[36.583172,48.819905],[36.583091,48.819856],[36.583018,48.819811],[36.582873,48.819924],[36.583007,48.820001],[36.582963,48.820034],[36.58333,48.820244],[36.583381,48.820212],[36.583402,48.820201],[36.583789,48.82044]]]}},{"type":"Feature","properties":{"cadnum":"6320655102:03:002:0006"},"geometry":{"type":"Polygon","coordinates":[[[36.581617,48.820533],[36.581768,48.82041],[36.581667,48.820348],[36.581624,48.820321],[36.581613,48.820314],[36.58155,48.820276],[36.58153,48.820263],[36.580748,48.819802],[36.580597,48.819914],[36.581359,48.820371],[36.581368,48.820376],[36.581498,48.820458],[36.581587,48.820514],[36.581617,48.820533]]]}},{"type":"Feature","properties":{"cadnum":"6320655102:03:000:0075"},"geometry":{"type":"Polygon","coordinates":[[[36.581768,48.82041],[36.582,48.820218],[36.581927,48.820182],[36.581845,48.820133],[36.581807,48.820124],[36.581812,48.82012],[36.581729,48.820069],[36.581693,48.820051],[36.581621,48.820017],[36.581018,48.819642],[36.580786,48.819824],[36.581465,48.820224],[36.58153,48.820263],[36.58155,48.820276],[36.581613,48.820314],[36.581624,48.820321],[36.581667,48.820348],[36.581768,48.82041]]]}},{"type":"Feature","properties":{"cadnum":"6320655102:03:002:0005"},"geometry":{"type":"Polygon","coordinates":[[[36.581375,48.820741],[36.581481,48.82065],[36.581617,48.820533],[36.581569,48.820503],[36.581359,48.820371],[36.580738,48.819997],[36.580483,48.820178],[36.581132,48.820578],[36.581375,48.820741]]]}},{"type":"Feature","properties":{"cadnum":"6320655102:03:000:0116"},"geometry":{"type":"Polygon","coordinates":[[[36.581101,48.819484],[36.581399,48.819246],[36.581047,48.819023],[36.580787,48.818854],[36.580469,48.81909],[36.580697,48.819229],[36.580744,48.819258],[36.581101,48.819484]]]}},{"type":"Feature","properties":{"cadnum":"6320655102:03:002:0004"},"geometry":{"type":"Polygon","coordinates":[[[36.582558,48.818695],[36.582929,48.818457],[36.582724,48.818251],[36.582304,48.81853],[36.582558,48.818695]]]}},{"type":"Feature","properties":{"cadnum":"6320655102:03:000:0066"},"geometry":{"type":"Polygon","coordinates":[[[36.582005,48.818753],[36.582315,48.818493],[36.58202,48.818317],[36.582033,48.818307],[36.581735,48.818144],[36.581424,48.818378],[36.581671,48.818551],[36.582005,48.818753]]]}},{"type":"Feature","properties":{"cadnum":"6320655102:03:002:0003"},"geometry":{"type":"Polygon","coordinates":[[[36.583228,48.819212],[36.583465,48.819018],[36.583201,48.818732],[36.582929,48.818457],[36.582558,48.818695],[36.582909,48.818925],[36.582824,48.818991],[36.583228,48.819212]]]}},{"type":"Feature","properties":{"cadnum":"6320655102:03:000:0187"},"geometry":{"type":"Polygon","coordinates":[[[36.581723,48.819],[36.582005,48.818753],[36.581671,48.818551],[36.581424,48.818378],[36.581106,48.818615],[36.581255,48.818716],[36.581381,48.818798],[36.581723,48.819]]]}},{"type":"Feature","properties":{"cadnum":"6320655102:03:000:0163"},"geometry":{"type":"Polygon","coordinates":[[[36.582488,48.826083],[36.58274,48.825957],[36.582464,48.825721],[36.582155,48.825527],[36.582057,48.82548],[36.581853,48.825359],[36.581573,48.825497],[36.581632,48.825541],[36.581785,48.825635],[36.581912,48.825727],[36.582488,48.826083]]]}},{"type":"Feature","properties":{"cadnum":"6320655102:03:002:0009"},"geometry":{"type":"Polygon","coordinates":[[[36.582257,48.827331],[36.582452,48.827209],[36.582277,48.82708],[36.581955,48.826839],[36.581949,48.826834],[36.581721,48.826665],[36.581479,48.826796],[36.581725,48.826965],[36.582257,48.827331]]]}},{"type":"Feature","properties":{"cadnum":"6320655102:03:000:0063"},"geometry":{"type":"Polygon","coordinates":[[[36.581908,48.826383],[36.582488,48.826083],[36.581912,48.825727],[36.581532,48.825936],[36.58167,48.826057],[36.581908,48.826383]]]}},{"type":"Feature","properties":{"cadnum":"6320655102:03:000:0031"},"geometry":{"type":"Polygon","coordinates":[[[36.58041,48.827112],[36.580793,48.826944],[36.580276,48.826393],[36.579871,48.826571],[36.58041,48.827112]]]}},{"type":"Feature","properties":{"cadnum":"6320655102:03:000:0178"},"geometry":{"type":"Polygon","coordinates":[[[36.580174,48.827223],[36.58041,48.827112],[36.579871,48.826571],[36.579646,48.826345],[36.579422,48.826436],[36.579362,48.826462],[36.57993,48.827005],[36.579983,48.827044],[36.580174,48.827223]]]}},{"type":"Feature","properties":{"cadnum":"6320655102:03:000:0141"},"geometry":{"type":"Polygon","coordinates":[[[36.579065,48.827609996515676],[36.579181,48.827707],[36.579469,48.827567],[36.579281,48.827403],[36.579159,48.827294],[36.57904174336409,48.82718913274449],[36.578773,48.826948],[36.57842,48.827118],[36.578442,48.82714],[36.57865,48.827349],[36.578714,48.827322],[36.578882,48.827457],[36.579065,48.827611],[36.579065,48.827609996515676]]]}},{"type":"Feature","properties":{"cadnum":"6320655102:03:000:0072"},"geometry":{"type":"Polygon","coordinates":[[[36.579469,48.827567],[36.580004,48.827308],[36.579752,48.82709],[36.579696,48.827052],[36.579159,48.827294],[36.579281,48.827403],[36.579469,48.827567]]]}},{"type":"Feature","properties":{"cadnum":"6320655102:03:000:0106"},"geometry":{"type":"Polygon","coordinates":[[[36.580759,48.828303],[36.58099,48.828198],[36.580385,48.827704],[36.580133,48.827498],[36.579946,48.827592],[36.580054,48.827688],[36.580184,48.827805],[36.580759,48.828303]]]}},{"type":"Feature","properties":{"cadnum":"6320655102:03:000:0032"},"geometry":{"type":"Polygon","coordinates":[[[36.579871,48.826571],[36.580276,48.826393],[36.580032,48.826132],[36.579646,48.826345],[36.579871,48.826571]]]}},{"type":"Feature","properties":{"cadnum":"6320655102:03:002:0011"},"geometry":{"type":"Polygon","coordinates":[[[36.582452,48.827209],[36.582886,48.826936],[36.582721,48.826828],[36.582277,48.82708],[36.582452,48.827209]]]}},{"type":"Feature","properties":{"cadnum":"6320655102:03:000:0153"},"geometry":{"type":"Polygon","coordinates":[[[36.580004,48.827308],[36.580174,48.827223],[36.579983,48.827044],[36.57993,48.827005],[36.579362,48.826462],[36.579157,48.826523],[36.579625,48.827005],[36.579752,48.82709],[36.580004,48.827308]]]}},{"type":"Feature","properties":{"cadnum":"6320655102:03:000:0149"},"geometry":{"type":"Polygon","coordinates":[[[36.58097,48.826142],[36.581474,48.825886],[36.581532,48.825936],[36.581912,48.825727],[36.581785,48.825635],[36.581632,48.825541],[36.581365,48.825345],[36.580514,48.825746],[36.580861,48.8261],[36.58097,48.826142]]]}},{"type":"Feature","properties":{"cadnum":"6320655102:03:000:0105"},"geometry":{"type":"Polygon","coordinates":[[[36.581192,48.827686],[36.581584,48.827463],[36.581255,48.827171],[36.581047,48.827024],[36.580626,48.827238],[36.580916,48.827464],[36.581192,48.827686]]]}},{"type":"Feature","properties":{"cadnum":"6320655102:03:002:0010"},"geometry":{"type":"Polygon","coordinates":[[[36.582277,48.82708],[36.582721,48.826828],[36.582436,48.826642],[36.582378,48.826604],[36.582134,48.826445],[36.582047,48.826491],[36.581945,48.826545],[36.581721,48.826665],[36.581949,48.826834],[36.581955,48.826839],[36.582277,48.82708]]]}},{"type":"Feature","properties":{"cadnum":"6320655102:03:000:0091"},"geometry":{"type":"Polygon","coordinates":[[[36.577471,48.832103],[36.57713,48.831843],[36.576716,48.831933],[36.576964026229504,48.832125],[36.576964,48.832125],[36.57696791423017,48.8321280097467],[36.57711,48.832238],[36.57711095854922,48.832238],[36.577215,48.832318],[36.577397,48.832416],[36.577612,48.832518],[36.57763,48.832518],[36.577827,48.832273],[36.577599821158934,48.83216488916888],[36.577471,48.832103]]]}},{"type":"Feature","properties":{"cadnum":"6320655102:03:000:0111"},"geometry":{"type":"Polygon","coordinates":[[[36.575203,48.83212],[36.575198296610175,48.832125],[36.575198,48.832125],[36.57511050000074,48.83221833333254],[36.575092,48.832238],[36.575092062500005,48.832238],[36.574958,48.832381],[36.574904,48.832482],[36.574811,48.832692],[36.574896,48.832762],[36.575181,48.832837],[36.575325,48.832608],[36.575573,48.832211],[36.575224,48.832125],[36.57522332967031,48.832125],[36.575203,48.83212]]]}},{"type":"Feature","properties":{"cadnum":"6320655102:03:000:0166"},"geometry":{"type":"Polygon","coordinates":[[[36.575745,48.830586],[36.576447,48.8304],[36.576254,48.83012],[36.576085,48.829951],[36.575746,48.830154],[36.575608,48.830293],[36.575601,48.830347],[36.575745,48.830586]]]}},{"type":"Feature","properties":{"cadnum":"6320655102:03:000:0191"},"geometry":{"type":"Polygon","coordinates":[[[36.574042,48.830509],[36.574105,48.830308],[36.574227,48.830349],[36.574487,48.830171],[36.574027,48.829988],[36.573675,48.829984],[36.573643,48.830161],[36.57363,48.830273],[36.573595,48.83049],[36.574042,48.830509]]]}},{"type":"Feature","properties":{"cadnum":"6320655102:03:000:0175"},"geometry":{"type":"Polygon","coordinates":[[[36.574786,48.830534],[36.574941,48.830439],[36.574684,48.830256],[36.574528,48.830352],[36.574786,48.830534]]]}},{"type":"Feature","properties":{"cadnum":"6320655102:03:000:0139"},"geometry":{"type":"Polygon","coordinates":[[[36.573983,48.829312],[36.574448,48.829108],[36.57443,48.829093],[36.574526,48.829035],[36.574374,48.82892],[36.573885,48.829137],[36.573983,48.829312]]]}},{"type":"Feature","properties":{"cadnum":"6320655102:03:000:0039"},"geometry":{"type":"Polygon","coordinates":[[[36.57803,48.831988],[36.578237,48.831732],[36.578179,48.831719],[36.577947,48.831637],[36.577813,48.831572],[36.577634,48.831438],[36.577107,48.831603],[36.577701,48.831961],[36.577754,48.831896],[36.577836,48.831922],[36.577955,48.831962],[36.57803,48.831988]]]}},{"type":"Feature","properties":{"cadnum":"6320655102:03:000:0059"},"geometry":{"type":"Polygon","coordinates":[[[36.57803,48.831988],[36.577955,48.831962],[36.577836,48.831922],[36.577754,48.831896],[36.577701,48.831961],[36.577196,48.831656],[36.576962,48.831715],[36.577471,48.832103],[36.5775167925926,48.832125],[36.577516,48.832125],[36.577599821158934,48.83216488916888],[36.577752,48.832238],[36.577753452702694,48.832238],[36.577827,48.832273],[36.577851831081084,48.832238],[36.577852,48.832238],[36.57803,48.831988]]]}},{"type":"Feature","properties":{"cadnum":"6320655102:03:000:0150"},"geometry":{"type":"Polygon","coordinates":[[[36.577393,48.829415],[36.577941,48.829134],[36.577748,48.828923],[36.577538,48.828776],[36.577232,48.828928],[36.577035,48.829041],[36.577393,48.829415]]]}},{"type":"Feature","properties":{"cadnum":"6320655102:03:000:0291"},"geometry":{"type":"Polygon","coordinates":[[[36.577428,48.828588],[36.577621,48.828489],[36.577376,48.828283],[36.577115,48.828053],[36.576694,48.828261],[36.576921,48.828488],[36.576941166666664,48.828509],[36.576941,48.828509],[36.577042,48.828614],[36.57705,48.828622],[36.57705135714286,48.828622],[36.577173,48.828726],[36.577381,48.828613],[36.577428,48.828588]]]}},{"type":"Feature","properties":{"cadnum":"6320655102:03:000:0041"},"geometry":{"type":"Polygon","coordinates":[[[36.574724,48.829364],[36.575196,48.829116],[36.57497,48.828907],[36.574607,48.829108],[36.574526,48.829035],[36.57443,48.829093],[36.574607,48.829256],[36.574724,48.829364]]]}},{"type":"Feature","properties":{"cadnum":"6320655102:03:000:0143"},"geometry":{"type":"Polygon","coordinates":[[[36.5763,48.828453],[36.57618634319528,48.828509],[36.576186,48.828509],[36.575112,48.829038],[36.575196,48.829116],[36.575287,48.829199],[36.575424,48.829342],[36.575623,48.829547],[36.575758,48.829491],[36.575817,48.829466],[36.575864,48.829481],[36.576059,48.829544],[36.576122,48.829507],[36.577008,48.829029],[36.576895,48.828943],[36.576859,48.828917],[36.576811,48.828881],[36.576584,48.828756],[36.576457595141704,48.828622],[36.576458,48.828622],[36.5763,48.828453]]]}},{"type":"Feature","properties":{"cadnum":"6320655102:03:000:0145"},"geometry":{"type":"Polygon","coordinates":[[[36.576822,48.830082],[36.576975,48.830035],[36.577259,48.829931],[36.577146,48.829801],[36.577559,48.829597],[36.577245,48.829274],[36.577145,48.829171],[36.577008,48.829029],[36.576122,48.829507],[36.576156,48.829528],[36.576504,48.829734],[36.576675,48.829919],[36.576725,48.829973],[36.576822,48.830082]]]}},{"type":"Feature","properties":{"cadnum":"6320655102:03:000:0078"},"geometry":{"type":"Polygon","coordinates":[[[36.578237,48.831732],[36.578427,48.831479],[36.578419,48.831467],[36.578241,48.831405],[36.578228,48.8314],[36.578155,48.83139],[36.578042,48.831443],[36.577897,48.831514],[36.577813,48.831572],[36.577947,48.831637],[36.578179,48.831719],[36.578237,48.831732]]]}},{"type":"Feature","properties":{"cadnum":"6320655102:03:000:0040"},"geometry":{"type":"Polygon","coordinates":[[[36.57519,48.829792],[36.575623,48.829547],[36.575424,48.829342],[36.575287,48.829199],[36.575196,48.829116],[36.574724,48.829364],[36.574945,48.829568],[36.574963,48.829584],[36.574972,48.829593],[36.575006,48.829623],[36.575126,48.829734],[36.57519,48.829792]]]}},{"type":"Feature","properties":{"cadnum":"6320655102:03:002:0008"},"geometry":{"type":"Polygon","coordinates":[[[36.574885,48.829964],[36.574974,48.829914],[36.57519,48.829792],[36.575126,48.829734],[36.575006,48.829623],[36.574963,48.829584],[36.574945,48.829568],[36.574607,48.829256],[36.574248,48.829414],[36.574198,48.829436],[36.574602,48.829758],[36.574708,48.829842],[36.574805,48.829913],[36.574817,48.829907],[36.574885,48.829964]]]}},{"type":"Feature","properties":{"cadnum":"6320655102:03:001:0013"},"geometry":{"type":"Polygon","coordinates":[[[36.575097,48.840098],[36.576006,48.839781],[36.575963,48.839755],[36.575101,48.840065],[36.575097,48.840098]]]}},{"type":"Feature","properties":{"cadnum":"6320655102:03:000:0095"},"geometry":{"type":"Polygon","coordinates":[[[36.574924,48.826259],[36.575132,48.826029],[36.574924,48.825929],[36.574418,48.825667],[36.574322,48.825615],[36.574078,48.825926],[36.574374,48.826056],[36.574709,48.826164],[36.574747,48.826176],[36.574924,48.826259]]]}},{"type":"Feature","properties":{"cadnum":"6320655102:03:000:0117"},"geometry":{"type":"Polygon","coordinates":[[[36.575349,48.827132],[36.575747,48.826978],[36.575273,48.826471],[36.57492,48.826556],[36.575102,48.826821],[36.575349,48.827132]]]}},{"type":"Feature","properties":{"cadnum":"6320655102:03:000:0007"},"geometry":{"type":"Polygon","coordinates":[[[36.578628,48.827993],[36.578871,48.827857],[36.578849,48.827839],[36.578648,48.827674],[36.578219,48.827322],[36.577964,48.827452],[36.578405,48.827812],[36.578628,48.827993]]]}},{"type":"Feature","properties":{"cadnum":"6320655102:03:000:0179"},"geometry":{"type":"Polygon","coordinates":[[[36.576773,48.825747],[36.577052,48.82549],[36.576307,48.825032],[36.576056,48.825272],[36.576773,48.825747]]]}},{"type":"Feature","properties":{"cadnum":"6320655102:03:000:0090"},"geometry":{"type":"Polygon","coordinates":[[[36.577781,48.827421],[36.578051,48.827292],[36.57842,48.827118],[36.578132,48.826837],[36.57772,48.827038],[36.577487,48.827156],[36.577781,48.827421]]]}},{"type":"Feature","properties":{"cadnum":"6320655102:03:000:0188"},"geometry":{"type":"Polygon","coordinates":[[[36.575895,48.82691],[36.576399,48.82668],[36.576166,48.826507],[36.575832,48.826267],[36.575734,48.826308],[36.575688,48.826329],[36.575419,48.826422],[36.575895,48.82691]]]}},{"type":"Feature","properties":{"cadnum":"6320655102:03:000:0140"},"geometry":{"type":"Polygon","coordinates":[[[36.576694,48.828261],[36.577115,48.828053],[36.576513,48.827518],[36.576615,48.827472],[36.576099,48.826989],[36.575427,48.827263],[36.575415,48.827397],[36.575612,48.827644],[36.575938,48.827502],[36.576694,48.828261]]]}},{"type":"Feature","properties":{"cadnum":"6320655102:03:000:0152"},"geometry":{"type":"Polygon","coordinates":[[[36.574401,48.8329],[36.574347,48.832585],[36.573905,48.83254],[36.573587,48.832506],[36.573552,48.832648],[36.573539,48.83276],[36.57354,48.832899],[36.573938,48.832896],[36.574401,48.8329]]]}},{"type":"Feature","properties":{"cadnum":"6320655102:03:000:0082"},"geometry":{"type":"Polygon","coordinates":[[[36.578196,48.833558],[36.578823,48.833471],[36.578556,48.833207],[36.578381,48.833229],[36.578286,48.833177],[36.577581,48.832936],[36.577571,48.833176],[36.577614,48.833295],[36.577754,48.833232],[36.577921,48.833246],[36.578025,48.833212],[36.578081,48.833279],[36.578108,48.833334],[36.578196,48.833558]]]}},{"type":"Feature","properties":{"cadnum":"6320655102:03:000:0104"},"geometry":{"type":"Polygon","coordinates":[[[36.578068,48.834791],[36.578237,48.834607],[36.577608,48.834161],[36.577267,48.833919],[36.577082,48.834109],[36.577153,48.834162],[36.577209,48.834199],[36.577228,48.834214],[36.577366,48.834307],[36.578068,48.834791]]]}},{"type":"Feature","properties":{"cadnum":"6320655102:03:000:0055"},"geometry":{"type":"Polygon","coordinates":[[[36.577111,48.835622],[36.577186,48.835571],[36.577424,48.835352],[36.577097,48.835139],[36.57681,48.835428],[36.577111,48.835622]]]}},{"type":"Feature","properties":{"cadnum":"6320655102:03:000:0048"},"geometry":{"type":"Polygon","coordinates":[[[36.57681,48.835428],[36.577097,48.835139],[36.576992,48.835071],[36.57649,48.83472],[36.576375,48.834833],[36.576324,48.834885],[36.576178,48.835031],[36.576563,48.83527],[36.57681,48.835428]]]}},{"type":"Feature","properties":{"cadnum":"6320655102:03:000:0054"},"geometry":{"type":"Polygon","coordinates":[[[36.575527,48.833419],[36.575726,48.833188],[36.57486,48.832934],[36.574795,48.833175],[36.575527,48.833419]]]}},{"type":"Feature","properties":{"cadnum":"6320655102:03:000:0112"},"geometry":{"type":"Polygon","coordinates":[[[36.573645,48.833952],[36.573991,48.833938],[36.574,48.833858],[36.574354,48.833864],[36.574377,48.833674],[36.573887,48.833703],[36.573886,48.833694],[36.573869,48.833695],[36.573863,48.833695],[36.573756,48.8337],[36.573627,48.833707],[36.573618,48.833707],[36.573645,48.833952]]]}},{"type":"Feature","properties":{"cadnum":"6320655102:03:000:0181"},"geometry":{"type":"Polygon","coordinates":[[[36.576409,48.834637],[36.576689,48.834344],[36.576602,48.834304],[36.57654,48.834267],[36.576397,48.834196],[36.575927,48.833968],[36.575676,48.834228],[36.576036,48.834412],[36.576122,48.834463],[36.576241,48.834541],[36.576409,48.834637]]]}},{"type":"Feature","properties":{"cadnum":"6320655102:03:000:0174"},"geometry":{"type":"Polygon","coordinates":[[[36.577892,48.834985],[36.578068,48.834791],[36.577366,48.834307],[36.577228,48.834214],[36.577209,48.834199],[36.577153,48.834162],[36.577082,48.834109],[36.57691,48.83429],[36.577302,48.834552],[36.577892,48.834985]]]}},{"type":"Feature","properties":{"cadnum":"6320655102:03:000:0160"},"geometry":{"type":"Polygon","coordinates":[[[36.578381,48.833229],[36.578556,48.833207],[36.578604,48.833205],[36.578499,48.833113],[36.578277,48.832924],[36.578231,48.832903],[36.578,48.832836],[36.577679,48.832734],[36.577642,48.832782],[36.577581,48.832936],[36.578286,48.833177],[36.578381,48.833229]]]}},{"type":"Feature","properties":{"cadnum":"6320655102:03:001:0019"},"geometry":{"type":"Polygon","coordinates":[[[36.573627,48.833707],[36.573869,48.833695],[36.573886,48.833694],[36.573887,48.833703],[36.574412,48.833672],[36.574412,48.833463],[36.574142,48.833479],[36.573594,48.833514],[36.573627,48.833707]]]}},{"type":"Feature","properties":{"cadnum":"6320655102:03:001:0018"},"geometry":{"type":"Polygon","coordinates":[[[36.573594,48.833514],[36.574142,48.833479],[36.574121,48.833166],[36.573557,48.833169],[36.573587,48.833447],[36.573592,48.833505],[36.573594,48.833514]]]}},{"type":"Feature","properties":{"cadnum":"6320655102:03:000:0167"},"geometry":{"type":"Polygon","coordinates":[[[36.574908,48.834169],[36.57532,48.833662],[36.575076,48.833576],[36.57478,48.83352],[36.574664,48.834065],[36.574908,48.834169]]]}},{"type":"Feature","properties":{"cadnum":"6320655102:03:000:0177"},"geometry":{"type":"Polygon","coordinates":[[[36.578237,48.834607],[36.578356,48.834316],[36.577641,48.833873],[36.577445,48.833778],[36.577404,48.833779],[36.577267,48.833919],[36.577608,48.834161],[36.578237,48.834607]]]}},{"type":"Feature","properties":{"cadnum":"6320655102:03:000:0045"},"geometry":{"type":"Polygon","coordinates":[[[36.573752,48.835012],[36.574125,48.835009],[36.574165,48.834996],[36.57419,48.834976],[36.57415,48.83471],[36.574314,48.834369],[36.574008,48.834372],[36.573692,48.834374],[36.573724,48.834677],[36.573752,48.835012]]]}},{"type":"Feature","properties":{"cadnum":"6320655102:03:000:0060"},"geometry":{"type":"Polygon","coordinates":[[[36.575813,48.833003],[36.575985,48.832771],[36.576234,48.832447],[36.575886,48.832293],[36.575639,48.832685],[36.575494,48.832926],[36.575758,48.832989],[36.575797,48.832999],[36.575813,48.833003]]]}},{"type":"Feature","properties":{"cadnum":"6320655102:03:000:0123"},"geometry":{"type":"Polygon","coordinates":[[[36.578231,48.833648],[36.578196,48.833558],[36.578108,48.833334],[36.578081,48.833279],[36.578068,48.833264],[36.578025,48.833212],[36.577921,48.833246],[36.577754,48.833232],[36.577614,48.833295],[36.577653,48.833335],[36.577685,48.833366],[36.57776,48.833438],[36.577713,48.833459],[36.57781,48.833548],[36.57794,48.833638],[36.578231,48.833648]]]}},{"type":"Feature","properties":{"cadnum":"6320655102:03:000:0148"},"geometry":{"type":"Polygon","coordinates":[[[36.577424,48.835352],[36.577637,48.835183],[36.577047,48.834782],[36.576889,48.834693],[36.5768,48.834645],[36.576795,48.834649],[36.576639,48.834571],[36.57649,48.83472],[36.576992,48.835071],[36.577097,48.835139],[36.577424,48.835352]]]}}]}