{"type":"FeatureCollection","features":[{"type":"Feature","properties":{"cadnum":"6320485506:00:000:0008"},"geometry":{"type":"Polygon","coordinates":[[[36.848043,48.921417],[36.847605,48.921273],[36.847324,48.921273],[36.847014,48.921184],[36.846832,48.921121],[36.846347398800596,48.922443],[36.846347,48.922443],[36.846343,48.922455],[36.847045,48.922556],[36.847046793650804,48.922556],[36.84766,48.922644],[36.847698006396364,48.922520785714994],[36.848043,48.921417]]]}},{"type":"Feature","properties":{"cadnum":"6320485506:00:000:0006"},"geometry":{"type":"Polygon","coordinates":[[[36.842737,48.92202762710566],[36.843872,48.922211],[36.844088,48.921465],[36.842566,48.921223],[36.842566,48.9212236745164],[36.841548,48.921061],[36.841143,48.921769],[36.842468,48.921984],[36.842737,48.922028],[36.842737,48.92202762710566]]]}},{"type":"Feature","properties":{"cadnum":"6320485506:00:000:0004"},"geometry":{"type":"Polygon","coordinates":[[[36.842737,48.9212501892247],[36.844088,48.921465],[36.844149,48.921247],[36.84384,48.92119],[36.844001,48.920746],[36.843435,48.920657],[36.843634,48.92014],[36.843412,48.920106],[36.842736999989725,48.92025600000228],[36.841903,48.920441],[36.841548,48.921061],[36.842737,48.921251],[36.842737,48.9212501892247]]]}},{"type":"Feature","properties":{"cadnum":"6320485506:00:000:0005"},"geometry":{"type":"Polygon","coordinates":[[[36.85301,48.922432],[36.853037,48.9224],[36.852519,48.922087],[36.852491,48.922117],[36.852463,48.922148],[36.8521911372549,48.922443],[36.852191,48.922443],[36.852174869565296,48.922460652173825],[36.852087,48.922556],[36.85208774137931,48.922556],[36.851979,48.922675],[36.851788,48.922921],[36.852511,48.923137],[36.852715,48.922797],[36.85299606896579,48.922449103447946],[36.85301,48.922432]]]}},{"type":"Feature","properties":{"cadnum":"6320485506:00:000:0009"},"geometry":{"type":"Polygon","coordinates":[[[36.855779,48.922255],[36.855133,48.922231],[36.855126,48.922556],[36.85512705841924,48.922556],[36.855124,48.922734],[36.855353,48.922766],[36.855409,48.922775],[36.855629,48.922803],[36.855694,48.922576],[36.855706,48.922526],[36.855779,48.922255]]]}},{"type":"Feature","properties":{"cadnum":"6320485506:00:000:0007"},"geometry":{"type":"Polygon","coordinates":[[[36.847681,48.920504],[36.848059,48.92051279069767],[36.848059,48.920513],[36.848111,48.920514],[36.848249,48.920039],[36.848059,48.919955],[36.847501,48.919707],[36.84723,48.920251],[36.847104,48.920575],[36.847615,48.92067],[36.847681,48.920504]]]}},{"type":"Feature","properties":{"cadnum":"6320485506:00:000:0002"},"geometry":{"type":"Polygon","coordinates":[[[36.844887,48.920181],[36.84508,48.919759],[36.845275,48.919259],[36.844929,48.919196],[36.844723,48.919857],[36.844611,48.92013],[36.844887,48.920181]]]}},{"type":"Feature","properties":{"cadnum":"6320485506:00:000:0003"},"geometry":{"type":"Polygon","coordinates":[[[36.844611,48.92013],[36.844723,48.919857],[36.844907,48.919265],[36.844678,48.919217],[36.844198,48.920042],[36.844611,48.92013]]]}},{"type":"Feature","properties":{"cadnum":"6320485506:00:000:0001"},"geometry":{"type":"Polygon","coordinates":[[[36.844149,48.921247],[36.844388,48.920528],[36.844501,48.920293],[36.844191,48.920231],[36.844109,48.920445],[36.84384,48.92119],[36.844149,48.921247]]]}}]}