{"type":"FeatureCollection","features":[{"type":"Feature","properties":{"cadnum":"6320482513:00:000:0015"},"geometry":{"type":"Polygon","coordinates":[[[37.152264,48.889865],[37.151685,48.889923],[37.151690430656934,48.889947],[37.15169,48.889947],[37.151702979999975,48.8900024599999],[37.151716,48.89006],[37.15171644680851,48.89006],[37.151745,48.890182],[37.152339,48.890149],[37.152286,48.889947],[37.15228544615385,48.889947],[37.152264,48.889865]]]}},{"type":"Feature","properties":{"cadnum":"6320482513:00:000:0003"},"geometry":{"type":"Polygon","coordinates":[[[37.150354,48.89232079401408],[37.150751,48.892383],[37.150816,48.892204],[37.15020002445049,48.89211252811745],[37.150026,48.892086],[37.150015,48.892093],[37.149943,48.892085],[37.149909,48.892081],[37.149847,48.892062],[37.149825,48.892094],[37.149817,48.892092],[37.149724,48.892216],[37.149779,48.892232],[37.150354,48.892322],[37.150354,48.89232079401408]]]}},{"type":"Feature","properties":{"cadnum":"6320482513:00:000:0009"},"geometry":{"type":"Polygon","coordinates":[[[37.153859,48.882617],[37.154054,48.882569],[37.153946,48.882328],[37.153844,48.8821],[37.153804,48.882017],[37.153755,48.881918],[37.153636,48.881944],[37.15364,48.881951],[37.153578,48.881965],[37.15355,48.88197],[37.153558,48.881988],[37.153612,48.88211],[37.153739,48.882381],[37.153859,48.882617]]]}},{"type":"Feature","properties":{"cadnum":"6320482513:00:000:0026"},"geometry":{"type":"Polygon","coordinates":[[[37.151669,48.882039],[37.151864,48.881962],[37.151906,48.882009],[37.151957,48.881993],[37.152035,48.881962],[37.151978,48.8819],[37.15202,48.881884],[37.152,48.881861],[37.151958,48.881877],[37.151914,48.881828],[37.151826,48.881862],[37.151811,48.881846],[37.151771,48.881861],[37.151759,48.881882],[37.151587,48.881949],[37.151639,48.882006],[37.151669,48.882039]]]}},{"type":"Feature","properties":{"cadnum":"6320482513:00:000:0030"},"geometry":{"type":"Polygon","coordinates":[[[37.15194,48.882503],[37.151905,48.882449],[37.151736,48.882519],[37.15167,48.882543],[37.151658,48.88257],[37.151737375939845,48.882723],[37.151737,48.882723],[37.15175224390242,48.88275165853656],[37.151796,48.882836],[37.15179710638298,48.882836],[37.151812,48.882864],[37.152064,48.883295],[37.152334,48.883236],[37.152058,48.882723],[37.1520575975976,48.882723],[37.15194,48.882503]]]}},{"type":"Feature","properties":{"cadnum":"6320482513:00:000:0006"},"geometry":{"type":"Polygon","coordinates":[[[37.150313712040294,48.88891208900544],[37.150354,48.888907],[37.150354,48.888906876712326],[37.15084,48.888844],[37.150774,48.888615],[37.150354,48.888669010152284],[37.150354,48.888669],[37.150002,48.888714],[37.150069,48.888943],[37.150183,48.8889286],[37.150183,48.888929],[37.150313712040294,48.88891208900544]]]}},{"type":"Feature","properties":{"cadnum":"6320482513:00:000:0017"},"geometry":{"type":"Polygon","coordinates":[[[37.15106,48.889027],[37.15191,48.88892],[37.151937,48.888917],[37.151862,48.888685],[37.151836,48.888689],[37.150993,48.888807],[37.15106,48.889027]]]}},{"type":"Feature","properties":{"cadnum":"6320482513:00:000:0016"},"geometry":{"type":"Polygon","coordinates":[[[37.149181,48.885557],[37.150038,48.885468],[37.149967,48.885239],[37.14911,48.885329],[37.149181,48.885557]]]}},{"type":"Feature","properties":{"cadnum":"6320482513:00:000:0010"},"geometry":{"type":"Polygon","coordinates":[[[37.149978,48.883302],[37.149991,48.88333],[37.150106,48.883575],[37.150273,48.883959],[37.150578,48.883885],[37.150417,48.883498],[37.150267,48.883175],[37.149978,48.883302]]]}},{"type":"Feature","properties":{"cadnum":"6320482513:00:000:0023"},"geometry":{"type":"Polygon","coordinates":[[[37.148977,48.884155],[37.14921,48.884104],[37.148985,48.88369],[37.148974,48.88367],[37.14875,48.883766],[37.148765,48.88379],[37.148773,48.883804],[37.148863,48.883951],[37.148902,48.884015],[37.148977,48.884155]]]}},{"type":"Feature","properties":{"cadnum":"6320482513:00:000:0025"},"geometry":{"type":"Polygon","coordinates":[[[37.148178,48.884815],[37.148312,48.884788],[37.148568,48.884751],[37.148272,48.884015],[37.14786,48.884242],[37.148178,48.884815]]]}},{"type":"Feature","properties":{"cadnum":"6320482513:00:000:0024"},"geometry":{"type":"Polygon","coordinates":[[[37.149583,48.891618],[37.149746,48.891407],[37.149208,48.891263],[37.148441,48.891057],[37.148323,48.89125],[37.148443,48.891285],[37.149261,48.89152],[37.149583,48.891618]]]}},{"type":"Feature","properties":{"cadnum":"6320482513:00:000:0022"},"geometry":{"type":"Polygon","coordinates":[[[37.149218,48.89214],[37.149359,48.891917],[37.148171,48.891577],[37.148022,48.891785],[37.149218,48.89214]]]}},{"type":"Feature","properties":{"cadnum":"6320482513:00:000:0007"},"geometry":{"type":"Polygon","coordinates":[[[37.149429,48.891817],[37.149583,48.891618],[37.149261,48.89152],[37.148443,48.891285],[37.148293,48.891516],[37.148874,48.891686],[37.149247,48.891781],[37.149429,48.891817]]]}},{"type":"Feature","properties":{"cadnum":"6320482513:00:000:0027"},"geometry":{"type":"Polygon","coordinates":[[[37.148474,48.893227],[37.148627,48.89301],[37.148195,48.892884],[37.147459,48.892675],[37.147309,48.892896],[37.14804,48.893102],[37.148115,48.893123],[37.148167,48.893139],[37.148474,48.893227]]]}},{"type":"Feature","properties":{"cadnum":"6320482513:00:000:0008"},"geometry":{"type":"Polygon","coordinates":[[[37.174363,48.882242],[37.174551,48.881299],[37.174226,48.881272],[37.174044,48.882188],[37.174363,48.882242]]]}},{"type":"Feature","properties":{"cadnum":"6320482513:00:000:0011"},"geometry":{"type":"Polygon","coordinates":[[[37.152924,48.884939],[37.153206,48.884846],[37.152894,48.883915],[37.152605,48.883986],[37.152924,48.884939]]]}},{"type":"Feature","properties":{"cadnum":"6320482513:00:000:0012"},"geometry":{"type":"Polygon","coordinates":[[[37.151075,48.884297],[37.151421,48.884174],[37.151354,48.88406],[37.15113,48.883557],[37.150841,48.883634],[37.150995,48.884108],[37.151075,48.884297]]]}},{"type":"Feature","properties":{"cadnum":"6320482513:00:000:0005"},"geometry":{"type":"Polygon","coordinates":[[[37.149898,48.889586],[37.149894,48.889572],[37.149886,48.889538],[37.149865,48.889455],[37.149732,48.889469],[37.149724,48.889441],[37.149696,48.889443],[37.149632,48.889447],[37.149632,48.889469],[37.149581,48.88947],[37.149581,48.889447],[37.149579,48.889423],[37.149448,48.889407],[37.148307,48.889259],[37.148316,48.889371],[37.149058,48.889471],[37.14944,48.889538],[37.149524,48.889551],[37.149658,48.889563],[37.149898,48.889586]]]}},{"type":"Feature","properties":{"cadnum":"6320482513:00:000:0029"},"geometry":{"type":"Polygon","coordinates":[[[37.147762,48.886726],[37.14853,48.886702],[37.148729,48.886707],[37.148804,48.886708],[37.14919,48.8867],[37.149125,48.886473],[37.148854,48.886486],[37.148697,48.886483],[37.148576,48.886481],[37.147743,48.886519],[37.147762,48.886726]]]}},{"type":"Feature","properties":{"cadnum":"6320482513:00:000:0021"},"geometry":{"type":"Polygon","coordinates":[[[37.147132,48.895093],[37.147149,48.895069],[37.147214,48.894978],[37.146838,48.894871],[37.145454,48.894516],[37.145329,48.894632],[37.146461,48.894919],[37.146908,48.895048],[37.146959,48.895063],[37.146969,48.895048],[37.147109,48.895087],[37.147132,48.895093]]]}},{"type":"Feature","properties":{"cadnum":"6320482513:00:000:0019"},"geometry":{"type":"Polygon","coordinates":[[[37.148374,48.89605],[37.148437,48.895956],[37.14764,48.895798],[37.147171,48.895699],[37.147113,48.895684],[37.147102,48.895701],[37.147041,48.895785],[37.147083,48.895797],[37.147209,48.89583],[37.147271,48.895845],[37.147382,48.895872],[37.148374,48.89605]]]}},{"type":"Feature","properties":{"cadnum":"6320482513:00:000:0020"},"geometry":{"type":"Polygon","coordinates":[[[37.148956,48.895222],[37.14904,48.895101],[37.148154,48.894932],[37.147739,48.894837],[37.147669,48.894938],[37.148084,48.895039],[37.148956,48.895222]]]}},{"type":"Feature","properties":{"cadnum":"6320482513:00:000:0014"},"geometry":{"type":"Polygon","coordinates":[[[37.149418,48.894772],[37.149488,48.894562],[37.148375,48.894361],[37.148151,48.894306],[37.148005,48.894495],[37.148333,48.894574],[37.149342,48.894759],[37.149418,48.894772]]]}},{"type":"Feature","properties":{"cadnum":"6320482513:00:000:0013"},"geometry":{"type":"Polygon","coordinates":[[[37.149273,48.894957],[37.149342,48.894759],[37.148333,48.894574],[37.148005,48.894495],[37.147857,48.894701],[37.148268,48.894788],[37.149273,48.894957]]]}},{"type":"Feature","properties":{"cadnum":"6320482513:00:000:0018"},"geometry":{"type":"Polygon","coordinates":[[[37.146381,48.896145],[37.146527,48.895939],[37.146011,48.895826],[37.145097,48.895667],[37.14503,48.895864],[37.145891,48.896022],[37.146381,48.896145]]]}},{"type":"Feature","properties":{"cadnum":"6320482513:00:000:0028"},"geometry":{"type":"Polygon","coordinates":[[[37.149817,48.894114],[37.149882,48.89391],[37.149033,48.893773],[37.148804,48.893726],[37.148616,48.893678],[37.148431,48.893895],[37.148638,48.893941],[37.148734,48.893957],[37.148787,48.893966],[37.148864,48.89398],[37.149817,48.894114]]]}}]}