{"type":"FeatureCollection","features":[{"type":"Feature","properties":{"cadnum":"6320483703:00:000:0001"},"geometry":{"type":"Polygon","coordinates":[[[37.259992,48.9481],[37.259751,48.948354],[37.259611,48.948297],[37.25954,48.948373],[37.259479,48.948438],[37.259424,48.948594],[37.259303,48.948739],[37.259683,48.948847],[37.259825,48.948889],[37.260046,48.9489553562341],[37.260046,48.948956],[37.26043,48.94907],[37.260081,48.9496],[37.260218,48.949651],[37.260218,48.94965083421052],[37.260841,48.949882],[37.261496,48.949215],[37.261784,48.948533],[37.261737,48.948351],[37.261576,48.948294],[37.261299,48.948189],[37.261045,48.948095],[37.260739,48.948079],[37.260636,48.948073],[37.260105000001715,48.94809549999993],[37.259992,48.9481]]]}},{"type":"Feature","properties":{"cadnum":"6320483703:00:000:0002"},"geometry":{"type":"Polygon","coordinates":[[[37.258941,48.948779],[37.259139,48.948575],[37.25919,48.948524],[37.25917,48.948515],[37.259154,48.948508],[37.259019,48.948448],[37.258914,48.9484],[37.258753,48.948593],[37.258689,48.948671],[37.25871,48.948679],[37.258941,48.948779]]]}},{"type":"Feature","properties":{"cadnum":"6320483703:00:000:0003"},"geometry":{"type":"Polygon","coordinates":[[[37.253253,48.951219],[37.253296269607844,48.95131],[37.253296,48.95131],[37.253465,48.951665],[37.254725,48.951804],[37.254725,48.95180391751086],[37.255244,48.951861],[37.255325,48.951734],[37.255925,48.951848],[37.256282,48.95131],[37.256281155660375,48.95131],[37.256347,48.951211],[37.254553,48.950858],[37.254553,48.95085809552692],[37.253406,48.950632],[37.253253,48.951219]]]}},{"type":"Feature","properties":{"cadnum":"6320483703:00:000:0005"},"geometry":{"type":"Polygon","coordinates":[[[37.252827,48.960943],[37.253197,48.960476],[37.253377,48.960218],[37.253008,48.96013],[37.252844,48.960366],[37.252492,48.960836],[37.252827,48.960943]]]}},{"type":"Feature","properties":{"cadnum":"6320483703:00:000:0004"},"geometry":{"type":"Polygon","coordinates":[[[37.256161,48.952199],[37.256327,48.951964],[37.255925,48.951848],[37.255325,48.951734],[37.255244,48.951861],[37.255189,48.952029],[37.256161,48.952199]]]}}]}