{"type":"FeatureCollection","features":[{"type":"Feature","properties":{"cadnum":"6320481512:00:000:0003"},"geometry":{"type":"Polygon","coordinates":[[[36.846799,48.884166],[36.847503,48.8839],[36.847223,48.883553],[36.846794,48.883743],[36.846747,48.883764],[36.846533,48.883855],[36.846799,48.884166]]]}},{"type":"Feature","properties":{"cadnum":"6320481512:00:000:0004"},"geometry":{"type":"Polygon","coordinates":[[[36.848086,48.884643],[36.84823,48.884561],[36.84823,48.884560655172415],[36.848434,48.884444],[36.848414,48.884188],[36.84834,48.883887],[36.848224,48.88363],[36.847503,48.8839],[36.846799,48.884166],[36.844883,48.884886],[36.845021,48.884954],[36.845394,48.885068],[36.845694,48.885145],[36.846161,48.885111],[36.847084,48.884944],[36.848059,48.88465111077844],[36.848059,48.884652],[36.848086,48.884643]]]}},{"type":"Feature","properties":{"cadnum":"6320481512:00:000:0007"},"geometry":{"type":"Polygon","coordinates":[[[36.848228,48.881392],[36.848224,48.881221],[36.848272,48.881088],[36.848132,48.880742],[36.847601,48.880973],[36.847731,48.881194],[36.847906,48.881492],[36.848059,48.88144448447205],[36.848059,48.881445],[36.848228,48.881392]]]}},{"type":"Feature","properties":{"cadnum":"6320481512:00:000:0005"},"geometry":{"type":"Polygon","coordinates":[[[36.837235,48.881821],[36.837123,48.881657],[36.837072,48.881668],[36.837072,48.881668244094485],[36.836488,48.881797],[36.835818,48.881945],[36.835931,48.88216],[36.836631,48.882015],[36.837072,48.88187335430464],[36.837072,48.881874],[36.837235,48.881821]]]}},{"type":"Feature","properties":{"cadnum":"6320481512:00:000:0009"},"geometry":{"type":"Polygon","coordinates":[[[36.837436,48.882114],[36.837392,48.882045],[36.837369,48.882012],[36.83733,48.881959],[36.837244,48.88198633333334],[36.837244,48.881986],[36.83683,48.882117],[36.835581,48.882407],[36.835666,48.882552],[36.836929,48.882269],[36.837072,48.88222541904762],[36.837072,48.882226],[36.837436,48.882114]]]}},{"type":"Feature","properties":{"cadnum":"6320481512:00:000:0002"},"geometry":{"type":"Polygon","coordinates":[[[36.83786,48.883185],[36.838066,48.883121],[36.837908,48.882898],[36.837701,48.882961],[36.83786,48.883185]]]}},{"type":"Feature","properties":{"cadnum":"6320481512:00:000:0008"},"geometry":{"type":"Polygon","coordinates":[[[36.839359,48.883667],[36.839773,48.883608],[36.839383,48.883064],[36.838978,48.883185],[36.839359,48.883667]]]}}]}