{"type":"FeatureCollection","features":[{"type":"Feature","properties":{"cadnum":"6320481511:00:000:0006"},"geometry":{"type":"Polygon","coordinates":[[[36.752034,48.867986],[36.751385,48.86784],[36.751167,48.867791],[36.7508982594697,48.868272],[36.750897,48.868272],[36.750872,48.868319],[36.750806,48.868304],[36.74983,48.868084],[36.749988,48.867802],[36.749811,48.86776],[36.7495390256,48.868272],[36.749538,48.868272],[36.749239,48.868839],[36.749353,48.868866],[36.749353,48.86886595875344],[36.75033,48.869097],[36.750586,48.869157],[36.751313,48.86933],[36.751819441398865,48.868385],[36.75182,48.868385],[36.752034,48.867986]],[[36.751212,48.867857],[36.751223,48.86784],[36.751247,48.867847],[36.751238,48.867864],[36.751212,48.867857]],[[36.750881,48.868398],[36.750906,48.868404],[36.750896,48.868421],[36.75087,48.868415],[36.750881,48.868398]],[[36.750465,48.86909],[36.750491,48.869097],[36.750481,48.869113],[36.750456,48.869106],[36.750465,48.86909]]]}},{"type":"Feature","properties":{"cadnum":"6320481511:00:000:0001"},"geometry":{"type":"Polygon","coordinates":[[[36.748097,48.86801],[36.746135,48.867431],[36.745782,48.86731],[36.745272,48.867223],[36.744957,48.868037],[36.745057,48.868051],[36.7457,48.868242],[36.7457946153846,48.868272],[36.745794,48.868272],[36.746068999992424,48.868358999997604],[36.746151,48.868385],[36.74615118390806,48.868385],[36.746344,48.868446],[36.746725,48.868468],[36.747225,48.868542],[36.747748,48.86869],[36.74790341866028,48.868385],[36.747904,48.868385],[36.748097,48.86801]]]}},{"type":"Feature","properties":{"cadnum":"6320481511:00:000:0005"},"geometry":{"type":"Polygon","coordinates":[[[36.74848789272031,48.864658],[36.748487,48.864658],[36.747532,48.864875],[36.747665,48.865365],[36.747857,48.865425],[36.747503,48.86568],[36.74917,48.866171],[36.749182,48.866153622950826],[36.749182,48.866155],[36.749805,48.86525],[36.749687,48.865163],[36.749265,48.864658],[36.7492642085308,48.864658],[36.749182,48.86456],[36.749182,48.86456008450705],[36.74914,48.86451],[36.74848789272031,48.864658]]]}},{"type":"Feature","properties":{"cadnum":"6320481511:00:000:0014"},"geometry":{"type":"Polygon","coordinates":[[[36.747779,48.866973],[36.747926,48.866746],[36.746636,48.866412],[36.746549,48.866649],[36.747779,48.866973]]]}},{"type":"Feature","properties":{"cadnum":"6320481511:00:000:0013"},"geometry":{"type":"Polygon","coordinates":[[[36.748997,48.867316],[36.749127,48.867146],[36.748692,48.867003],[36.74873,48.866953],[36.747926,48.866746],[36.747779,48.866973],[36.748487,48.867158],[36.748581,48.867188],[36.748997,48.867316]]]}},{"type":"Feature","properties":{"cadnum":"6320481511:00:000:0007"},"geometry":{"type":"Polygon","coordinates":[[[36.748691,48.867003],[36.74917,48.866171],[36.747503,48.86568],[36.747857,48.865425],[36.747665,48.865365],[36.747532,48.864875],[36.747367,48.864913],[36.746571,48.866443],[36.748691,48.867003]]]}},{"type":"Feature","properties":{"cadnum":"6320481511:00:000:0002"},"geometry":{"type":"Polygon","coordinates":[[[36.744957,48.868037],[36.745272,48.867223],[36.745782,48.86731],[36.746018,48.866681],[36.746321,48.866332],[36.7452,48.866199],[36.74455,48.866153],[36.744268,48.867115],[36.744006,48.868003],[36.744586,48.867983],[36.744957,48.868037]]]}},{"type":"Feature","properties":{"cadnum":"6320481511:00:000:0008"},"geometry":{"type":"Polygon","coordinates":[[[36.748334,48.867607],[36.748581,48.867188],[36.748487,48.867158],[36.747779,48.866973],[36.746997,48.866767],[36.746776,48.867148],[36.748334,48.867607]]]}},{"type":"Feature","properties":{"cadnum":"6320481511:00:000:0009"},"geometry":{"type":"Polygon","coordinates":[[[36.748097,48.86801],[36.748334,48.867607],[36.746776,48.867148],[36.74654,48.86755],[36.748097,48.86801]]]}},{"type":"Feature","properties":{"cadnum":"6320481511:00:000:0004"},"geometry":{"type":"Polygon","coordinates":[[[36.752044,48.867968],[36.752119,48.867785],[36.751023,48.867543],[36.750917,48.867715],[36.752044,48.867968]]]}},{"type":"Feature","properties":{"cadnum":"6320481511:00:000:0010"},"geometry":{"type":"Polygon","coordinates":[[[36.750917,48.867715],[36.751023,48.867543],[36.749883,48.867292],[36.74943,48.867191],[36.749335,48.86736],[36.74978,48.86746],[36.750917,48.867715]]]}},{"type":"Feature","properties":{"cadnum":"6320481511:00:000:0003"},"geometry":{"type":"Polygon","coordinates":[[[36.752316,48.867365],[36.752694,48.866501],[36.75227,48.866388],[36.750701,48.865972],[36.750668,48.866037],[36.750265,48.866835],[36.751509,48.867157],[36.751775,48.867226],[36.752316,48.867365]],[[36.751849,48.866863],[36.751824,48.866856],[36.751833,48.866839],[36.751859,48.866846],[36.751849,48.866863]]]}},{"type":"Feature","properties":{"cadnum":"6320481511:00:000:0011"},"geometry":{"type":"Polygon","coordinates":[[[36.752119,48.867785],[36.752316,48.867365],[36.751775,48.867226],[36.751509,48.867157],[36.750853,48.866986],[36.750609,48.867451],[36.751023,48.867543],[36.752119,48.867785]],[[36.751573,48.867331],[36.751547,48.867325],[36.751557,48.867308],[36.751582,48.867315],[36.751573,48.867331]]]}},{"type":"Feature","properties":{"cadnum":"6320481511:00:000:0012"},"geometry":{"type":"Polygon","coordinates":[[[36.750609,48.867451],[36.750853,48.866986],[36.750576,48.866915],[36.750328,48.86739],[36.750609,48.867451]]]}},{"type":"Feature","properties":{"cadnum":"6320481511:00:000:0015"},"geometry":{"type":"Polygon","coordinates":[[[36.750328,48.86739],[36.750576,48.866915],[36.75031,48.866846],[36.750051,48.867329],[36.750328,48.86739]]]}}]}