{"type":"FeatureCollection","features":[{"type":"Feature","properties":{"cadnum":"6320482002:00:000:0013"},"geometry":{"type":"Polygon","coordinates":[[[36.839976,49.091743],[36.839957,49.091766],[36.83992766666667,49.091799],[36.839926,49.091799],[36.839925,49.091802],[36.839831,49.091911],[36.83983188442211,49.091911],[36.839755,49.092001],[36.839669,49.0921],[36.841003,49.092744],[36.841353,49.092419],[36.841414,49.092362],[36.84010600000299,49.09179900000129],[36.839976,49.091743]]]}},{"type":"Feature","properties":{"cadnum":"6320482002:00:000:0003"},"geometry":{"type":"Polygon","coordinates":[[[36.844722,49.090819],[36.844978,49.09059],[36.844135,49.090151],[36.843865,49.090372],[36.844722,49.090819]]]}},{"type":"Feature","properties":{"cadnum":"6320482002:00:000:0009"},"geometry":{"type":"Polygon","coordinates":[[[36.845543,49.090192],[36.845816,49.089961],[36.845771,49.089939],[36.845727,49.089917],[36.845587,49.089847],[36.845323,49.089711],[36.845267,49.089683],[36.844957,49.089532],[36.844705,49.089754],[36.845055,49.089937],[36.845543,49.090192]]]}},{"type":"Feature","properties":{"cadnum":"6320482002:00:000:0007"},"geometry":{"type":"Polygon","coordinates":[[[36.845022,49.090617],[36.845285,49.090398],[36.844907,49.090196],[36.84443,49.089943],[36.844164,49.090166],[36.844643,49.090416],[36.844978,49.09059],[36.845022,49.090617]]]}},{"type":"Feature","properties":{"cadnum":"6320482002:00:000:0005"},"geometry":{"type":"Polygon","coordinates":[[[36.845727,49.089917],[36.845981,49.089694],[36.84554,49.089465],[36.845127,49.089255],[36.84486,49.089486],[36.845267,49.089683],[36.845727,49.089917]]]}},{"type":"Feature","properties":{"cadnum":"6320482002:00:000:0010"},"geometry":{"type":"Polygon","coordinates":[[[36.844705,49.089755],[36.844957,49.089532],[36.84486,49.089486],[36.844702,49.089408],[36.844459,49.089627],[36.844705,49.089755]]]}},{"type":"Feature","properties":{"cadnum":"6320482002:00:000:0006"},"geometry":{"type":"Polygon","coordinates":[[[36.84486,49.089486],[36.845127,49.089255],[36.844859,49.089118],[36.844591,49.089354],[36.84486,49.089486]]]}},{"type":"Feature","properties":{"cadnum":"6320482002:00:000:0012"},"geometry":{"type":"Polygon","coordinates":[[[36.84789,49.089817],[36.848141,49.089598],[36.847052,49.089205],[36.846841,49.089385],[36.84789,49.089817]]]}},{"type":"Feature","properties":{"cadnum":"6320482002:00:000:0011"},"geometry":{"type":"Polygon","coordinates":[[[36.845285,49.090398],[36.845543,49.090192],[36.845055,49.089937],[36.844705,49.089754],[36.844621,49.089711],[36.844379,49.089916],[36.84443,49.089943],[36.844907,49.090196],[36.845285,49.090398]]]}},{"type":"Feature","properties":{"cadnum":"6320482002:00:000:0008"},"geometry":{"type":"Polygon","coordinates":[[[36.844164,49.090166],[36.84443,49.089943],[36.84416,49.0898],[36.843893,49.090026],[36.844135,49.090151],[36.844164,49.090166]]]}},{"type":"Feature","properties":{"cadnum":"6320482002:00:000:0015"},"geometry":{"type":"Polygon","coordinates":[[[36.850673,49.099008],[36.850563,49.099105],[36.85056414444444,49.099105],[36.850471,49.099188],[36.851896,49.099581],[36.852116,49.099376],[36.85105335597827,49.099105],[36.851055,49.099105],[36.850673,49.099008]]]}},{"type":"Feature","properties":{"cadnum":"6320482002:00:000:0014"},"geometry":{"type":"Polygon","coordinates":[[[36.849892,49.098808],[36.84922,49.098643],[36.849148,49.098849],[36.849315,49.098882],[36.849763,49.098993],[36.850471,49.099188],[36.850673,49.099008],[36.849892,49.098808]]]}}]}