{"type":"FeatureCollection","features":[{"type":"Feature","properties":{"cadnum":"6320482001:01:000:0128"},"geometry":{"type":"Polygon","coordinates":[[[36.887679,49.119623],[36.888234,49.119273],[36.888284,49.119316],[36.888741,49.11904],[36.888317,49.118744],[36.887348,49.119391],[36.887679,49.119623]]]}},{"type":"Feature","properties":{"cadnum":"6320482001:01:000:0123"},"geometry":{"type":"Polygon","coordinates":[[[36.887678,49.118372],[36.888312,49.117938],[36.888189,49.117815],[36.887983,49.117687],[36.887329,49.118157],[36.887678,49.118372]]]}},{"type":"Feature","properties":{"cadnum":"6320482001:01:000:0032"},"geometry":{"type":"Polygon","coordinates":[[[36.891055,49.119745],[36.89134,49.119569],[36.891928,49.119217],[36.891677,49.119017],[36.891036,49.119403],[36.890793,49.119546],[36.891055,49.119745]]]}},{"type":"Feature","properties":{"cadnum":"6320482001:01:000:0016"},"geometry":{"type":"Polygon","coordinates":[[[36.889774,49.120262],[36.889532,49.120076],[36.888936,49.120499],[36.888852,49.120558],[36.88896873912984,49.12063756521698],[36.889101,49.120728],[36.88931566666594,49.12057866666717],[36.889774,49.120262]]]}},{"type":"Feature","properties":{"cadnum":"6320482001:01:000:0015"},"geometry":{"type":"Polygon","coordinates":[[[36.889774,49.120262],[36.890322,49.119883],[36.890636,49.11966],[36.890399,49.119479],[36.890029,49.119725],[36.889532,49.120076],[36.889774,49.120262]]]}},{"type":"Feature","properties":{"cadnum":"6320482001:01:000:0059"},"geometry":{"type":"Polygon","coordinates":[[[36.892775,49.117821],[36.893379,49.117622],[36.893336,49.117569],[36.893254,49.117492],[36.893464,49.117408],[36.893283,49.117234],[36.892837,49.117419],[36.892004,49.117758],[36.892004,49.11775892678227],[36.891657,49.1179],[36.892004,49.11804069900497],[36.892004,49.118041],[36.892059,49.118063],[36.892176,49.118076],[36.892176,49.11807564864865],[36.892244,49.118083],[36.892775,49.117821]]]}},{"type":"Feature","properties":{"cadnum":"6320482001:01:000:0033"},"geometry":{"type":"Polygon","coordinates":[[[36.892012578034596,49.11916686705207],[36.892176,49.11907],[36.892176,49.119069078167115],[36.892746,49.118728],[36.892473,49.118537],[36.89214063779593,49.11873825984212],[36.891677,49.119017],[36.891928,49.119217],[36.892004,49.119171951612906],[36.892004,49.119172],[36.892012578034596,49.11916686705207]]]}},{"type":"Feature","properties":{"cadnum":"6320482001:01:000:0130"},"geometry":{"type":"Polygon","coordinates":[[[36.889235,49.118419],[36.890055,49.117961],[36.889787,49.11774],[36.88896,49.118194],[36.889235,49.118419]]]}},{"type":"Feature","properties":{"cadnum":"6320482001:01:000:0127"},"geometry":{"type":"Polygon","coordinates":[[[36.888741,49.11904],[36.889109,49.118818],[36.88897,49.118737],[36.88924,49.118601],[36.888894,49.11836],[36.888317,49.118744],[36.888741,49.11904]]]}},{"type":"Feature","properties":{"cadnum":"6320482001:00:000:0205"},"geometry":{"type":"Polygon","coordinates":[[[36.892176,49.117033292134835],[36.892176,49.117033],[36.891418,49.117363],[36.891634,49.11758],[36.892176,49.117331],[36.892176,49.11733091954023],[36.892439,49.11721],[36.892236,49.117007],[36.892176,49.117033292134835]]]}},{"type":"Feature","properties":{"cadnum":"6320482001:01:000:0020"},"geometry":{"type":"Polygon","coordinates":[[[36.888936,49.120499],[36.889532,49.120076],[36.889248,49.119922],[36.888556,49.120407],[36.888936,49.120499]]]}},{"type":"Feature","properties":{"cadnum":"6320482001:00:000:0201"},"geometry":{"type":"Polygon","coordinates":[[[36.891961,49.116728],[36.891763,49.116524],[36.890704332688586,49.116973],[36.890704,49.116973],[36.890544,49.117041],[36.890592,49.117085],[36.890592265306125,49.117085],[36.890759,49.117237],[36.891117696969694,49.117085],[36.891118,49.117085],[36.891961,49.116728]]]}},{"type":"Feature","properties":{"cadnum":"6320482001:01:000:0132"},"geometry":{"type":"Polygon","coordinates":[[[36.890525,49.119337],[36.891312,49.118853],[36.891002,49.118651],[36.890215,49.119135],[36.890525,49.119337]]]}},{"type":"Feature","properties":{"cadnum":"6320482001:01:000:0125"},"geometry":{"type":"Polygon","coordinates":[[[36.887824,49.118672],[36.888591,49.118157],[36.888312,49.117938],[36.887678,49.118372],[36.887552,49.118458],[36.887824,49.118672]]]}},{"type":"Feature","properties":{"cadnum":"6320482001:01:000:0131"},"geometry":{"type":"Polygon","coordinates":[[[36.891312,49.118853],[36.892036,49.118408],[36.891728,49.118207],[36.891002,49.118651],[36.891312,49.118853]]]}},{"type":"Feature","properties":{"cadnum":"6320482001:01:000:0019"},"geometry":{"type":"Polygon","coordinates":[[[36.889532,49.120076],[36.890029,49.119725],[36.890399,49.119479],[36.890152,49.119302],[36.889868,49.119488],[36.889248,49.119922],[36.889532,49.120076]]]}},{"type":"Feature","properties":{"cadnum":"6320482001:01:000:0124"},"geometry":{"type":"Polygon","coordinates":[[[36.886799,49.118972],[36.887552,49.118458],[36.887678,49.118372],[36.887329,49.118157],[36.886511,49.118744],[36.886511,49.11874412064343],[36.88631,49.118888],[36.886511,49.11901236875],[36.886511,49.119013],[36.88663,49.119086],[36.886683,49.119051],[36.886683,49.119050248520715],[36.886799,49.118972]]]}},{"type":"Feature","properties":{"cadnum":"6320482001:01:000:0126"},"geometry":{"type":"Polygon","coordinates":[[[36.887104,49.119155],[36.887824,49.118672],[36.887552,49.118458],[36.886799,49.118972],[36.887104,49.119155]]]}},{"type":"Feature","properties":{"cadnum":"6320482001:01:000:0129"},"geometry":{"type":"Polygon","coordinates":[[[36.890055,49.117961],[36.890656,49.117627],[36.890391,49.117408],[36.889787,49.11774],[36.890055,49.117961]]]}},{"type":"Feature","properties":{"cadnum":"6320482001:00:000:0285"},"geometry":{"type":"Polygon","coordinates":[[[36.888854,49.11688],[36.88849,49.117085],[36.8884907090909,49.117085],[36.88791,49.117413],[36.888148,49.117595],[36.888278,49.117533],[36.889099,49.117067],[36.888976,49.116973],[36.88897584491979,49.116973],[36.888854,49.11688]]]}},{"type":"Feature","properties":{"cadnum":"6320482001:00:000:0288"},"geometry":{"type":"Polygon","coordinates":[[[36.888411,49.117795],[36.889271,49.117366],[36.889008,49.117119],[36.888278,49.117533],[36.888148,49.117595],[36.888411,49.117795]]]}},{"type":"Feature","properties":{"cadnum":"6320482001:00:000:0203"},"geometry":{"type":"Polygon","coordinates":[[[36.907814,49.120317],[36.908156272727275,49.120568],[36.908156,49.120568],[36.908484,49.12080816736402],[36.908484,49.120809],[36.908634,49.120918],[36.908655,49.120907],[36.908655,49.12090645],[36.908874,49.120786],[36.908878,49.120759],[36.908847,49.120694],[36.908673,49.120568],[36.9086727188755,49.120568],[36.908484,49.120431],[36.908484,49.12043177717391],[36.908103,49.120155],[36.907814,49.120317]]]}},{"type":"Feature","properties":{"cadnum":"6320482001:00:000:0234"},"geometry":{"type":"Polygon","coordinates":[[[36.908655,49.121645404255325],[36.908907,49.121842],[36.90922,49.121659],[36.908655,49.121213073550216],[36.908655,49.121213],[36.908513,49.121101],[36.908191,49.121284],[36.908655,49.121647],[36.908655,49.121645404255325]]]}},{"type":"Feature","properties":{"cadnum":"6320482001:01:000:0135"},"geometry":{"type":"Polygon","coordinates":[[[36.908655,49.122318],[36.908655,49.12231690909091],[36.908886,49.122189],[36.908484,49.121892],[36.908484,49.121892333333335],[36.907899,49.121459],[36.907659,49.121593],[36.908484,49.1222044213198],[36.908484,49.122205],[36.908644,49.122323],[36.908655,49.122318]]]}},{"type":"Feature","properties":{"cadnum":"6320482001:01:000:0136"},"geometry":{"type":"Polygon","coordinates":[[[36.90888,49.122499],[36.909122,49.122365],[36.908886,49.122189],[36.908644,49.122323],[36.90888,49.122499]]]}},{"type":"Feature","properties":{"cadnum":"6320482001:00:000:0235"},"geometry":{"type":"Polygon","coordinates":[[[36.912838,49.120356],[36.912481,49.12014],[36.912235,49.120335],[36.912515,49.120496],[36.91263160869565,49.120568],[36.91263,49.120568],[36.91313,49.120877],[36.913384,49.12067],[36.913207,49.120568],[36.913206636942675,49.120568],[36.912838,49.120356]]]}},{"type":"Feature","properties":{"cadnum":"6320482001:00:000:0244"},"geometry":{"type":"Polygon","coordinates":[[[36.911567,49.120537],[36.911616,49.120489],[36.911658,49.120448],[36.911973,49.119949],[36.912505,49.119147],[36.912743,49.118874],[36.912653,49.118925],[36.912188,49.119176],[36.911092,49.119774],[36.909893,49.120427],[36.909851,49.12045],[36.90964013913044,49.120568],[36.90964,49.120568],[36.90961018633599,49.12058476190443],[36.90944,49.12068],[36.909440790513834,49.12068],[36.90919,49.120821],[36.909528,49.120915],[36.91013,49.121053],[36.910635,49.121073],[36.911005,49.121078],[36.911282,49.120817],[36.911462714286344,49.120639142856525],[36.911567,49.120537]],[[36.912377,49.119093],[36.912389,49.119077],[36.912413,49.119084],[36.912402,49.119101],[36.912377,49.119093]],[[36.912063,49.119568],[36.912074,49.119552],[36.912099,49.119559],[36.912088,49.119575],[36.912063,49.119568]],[[36.911717,49.12009],[36.911728,49.120073],[36.911753,49.120081],[36.911742,49.120097],[36.911717,49.12009]],[[36.911363,49.120621],[36.911375,49.120604],[36.911399,49.120611],[36.911388,49.120628],[36.911363,49.120621]],[[36.910576,49.120956],[36.910592,49.120941],[36.910615,49.120952],[36.910598,49.120967],[36.910576,49.120956]],[[36.910117,49.120782],[36.910132,49.120767],[36.910155,49.120778],[36.91014,49.120793],[36.910117,49.120782]],[[36.910081,49.120766],[36.910091,49.120755],[36.910108,49.120761],[36.910096,49.120773],[36.910081,49.120766]]]}},{"type":"Feature","properties":{"cadnum":"6320482001:00:000:0243"},"geometry":{"type":"Polygon","coordinates":[[[36.895342,49.108849],[36.895268,49.108667],[36.893804,49.108516],[36.893608312046446,49.109782],[36.893608,49.109782],[36.893602297971924,49.10982090795626],[36.893591,49.109894],[36.893591586206895,49.109894],[36.893591,49.109898],[36.894956,49.110149],[36.89503465309293,49.109881725137924],[36.895342,49.108849]]]}},{"type":"Feature","properties":{"cadnum":"6320482001:00:000:0247"},"geometry":{"type":"Polygon","coordinates":[[[36.897036,49.106042],[36.895467,49.105624],[36.895158,49.106028],[36.895749037037035,49.106186],[36.895747,49.106186],[36.89615187394977,49.106293689075684],[36.896168,49.106298],[36.89616808154506,49.106298],[36.896623,49.106419],[36.896878,49.106186],[36.896877375,49.106186],[36.897036,49.106042]]]}},{"type":"Feature","properties":{"cadnum":"6320482001:00:000:0236"},"geometry":{"type":"Polygon","coordinates":[[[36.901692,49.113204],[36.901716,49.113156],[36.901365,49.113008],[36.900746548469385,49.113377],[36.900745,49.113377],[36.900708,49.1134],[36.900835,49.11349],[36.9008371011236,49.11349],[36.901091,49.113667],[36.90132048965517,49.11349],[36.901321,49.11349],[36.901692,49.113204]]]}},{"type":"Feature","properties":{"cadnum":"6320482001:00:000:0212"},"geometry":{"type":"Polygon","coordinates":[[[36.897458,49.113364],[36.897433824561396,49.113377],[36.897433,49.113377],[36.897246,49.113478],[36.89726,49.11349],[36.89726085714286,49.11349],[36.897454,49.113646],[36.897497,49.11362267452831],[36.897497,49.113623],[36.897666,49.113531],[36.89748771428578,49.11338800000005],[36.897458,49.113364]]]}},{"type":"Feature","properties":{"cadnum":"6320482001:01:000:0118"},"geometry":{"type":"Polygon","coordinates":[[[36.8975885,49.11441],[36.897669,49.114368],[36.897669,49.1143677704918],[36.897863,49.114266],[36.897607,49.114058],[36.896735,49.114427],[36.897037,49.114673],[36.897347,49.114536],[36.897497,49.11445773913044],[36.897497,49.114458],[36.8975885,49.11441]]]}},{"type":"Feature","properties":{"cadnum":"6320482001:01:000:0112"},"geometry":{"type":"Polygon","coordinates":[[[36.900779,49.115361],[36.901759,49.114631],[36.901523,49.114488],[36.90058,49.115153],[36.900779,49.115361]]]}},{"type":"Feature","properties":{"cadnum":"6320482001:00:000:0189"},"geometry":{"type":"Polygon","coordinates":[[[36.899463,49.112948],[36.899352,49.112863],[36.89934,49.112869],[36.899281,49.112903],[36.899018,49.11305],[36.899163,49.113152],[36.899329,49.113261],[36.899313,49.113269],[36.89955939999911,49.11345939999931],[36.899719,49.113583],[36.900061,49.113391],[36.900043,49.113377],[36.900042101580134,49.113377],[36.899463,49.112948]]]}},{"type":"Feature","properties":{"cadnum":"6320482001:00:000:0230"},"geometry":{"type":"Polygon","coordinates":[[[36.899884,49.11349],[36.89988465625,49.11349],[36.899719,49.113583],[36.899862,49.113692],[36.900204,49.1135],[36.900061,49.113391],[36.899884,49.11349]]]}},{"type":"Feature","properties":{"cadnum":"6320482001:01:000:0113"},"geometry":{"type":"Polygon","coordinates":[[[36.899943,49.115983],[36.900779,49.115361],[36.90058,49.115153],[36.89973,49.115759],[36.899943,49.115983]]]}},{"type":"Feature","properties":{"cadnum":"6320482001:00:000:0062"},"geometry":{"type":"Polygon","coordinates":[[[36.89809,49.114229],[36.898287,49.114127],[36.898027,49.113894],[36.897977,49.113849],[36.897749,49.113965],[36.898077,49.114218],[36.89809,49.114229]]]}},{"type":"Feature","properties":{"cadnum":"6320482001:00:000:0291"},"geometry":{"type":"Polygon","coordinates":[[[36.900787,49.114369],[36.901482,49.113867],[36.901107,49.113655],[36.901091,49.113667],[36.900383,49.114161],[36.900787,49.114369]]]}},{"type":"Feature","properties":{"cadnum":"6320482001:00:000:0290"},"geometry":{"type":"Polygon","coordinates":[[[36.901822,49.113266],[36.901692,49.113204],[36.90146758391609,49.113377],[36.901467,49.113377],[36.901107,49.113655],[36.901482,49.113867],[36.902112,49.113411],[36.902045,49.113377],[36.902044000000004,49.113377],[36.901822,49.113266]]]}},{"type":"Feature","properties":{"cadnum":"6320482001:00:000:0282"},"geometry":{"type":"Polygon","coordinates":[[[36.902313,49.11432],[36.90262,49.113906],[36.902718,49.113786],[36.902729,49.113736],[36.902679,49.113642],[36.902414,49.113552],[36.902313,49.113678],[36.902281,49.11372],[36.902242,49.113769],[36.901908,49.114182],[36.902313,49.11432]]]}},{"type":"Feature","properties":{"cadnum":"6320482001:00:000:0217"},"geometry":{"type":"Polygon","coordinates":[[[36.901777,49.116567],[36.90291,49.115837],[36.903032,49.115312],[36.901994,49.116004],[36.901479,49.116344],[36.901777,49.116567]]]}},{"type":"Feature","properties":{"cadnum":"6320482001:01:000:0120"},"geometry":{"type":"Polygon","coordinates":[[[36.898597,49.11677],[36.898952,49.116639],[36.899026,49.116701],[36.899965,49.116336],[36.899807,49.116159],[36.898533,49.116702],[36.898597,49.11677]]]}},{"type":"Feature","properties":{"cadnum":"6320482001:01:000:0097"},"geometry":{"type":"Polygon","coordinates":[[[36.903972,49.116857],[36.903619,49.116437],[36.902994,49.116707],[36.903162,49.116907],[36.903162,49.11690669811321],[36.903217777777776,49.116973],[36.903217,49.116973],[36.903295641975326,49.117065555555584],[36.903312,49.117085],[36.903312163398695,49.117085],[36.903347,49.117126],[36.90351266666336,49.117054600001424],[36.903972,49.116857]]]}},{"type":"Feature","properties":{"cadnum":"6320482001:01:000:0122"},"geometry":{"type":"Polygon","coordinates":[[[36.900249,49.117085],[36.900250238281245,49.117085],[36.899749,49.117246],[36.90021,49.117617],[36.90057,49.117332],[36.900772,49.117173],[36.900546,49.11699],[36.900249,49.117085]]]}},{"type":"Feature","properties":{"cadnum":"6320482001:00:000:0216"},"geometry":{"type":"Polygon","coordinates":[[[36.901421,49.116816],[36.901777,49.116567],[36.901479,49.116344],[36.901111,49.116594],[36.900763,49.116797],[36.90095,49.116973],[36.900949,49.116973],[36.901035,49.117053],[36.901421,49.116816]]]}},{"type":"Feature","properties":{"cadnum":"6320482001:00:000:0257"},"geometry":{"type":"Polygon","coordinates":[[[36.898899,49.116545],[36.899389,49.116336],[36.899807,49.116159],[36.8996,49.115929],[36.899274,49.116062],[36.899107,49.116129],[36.898669,49.116335],[36.898899,49.116545]]]}},{"type":"Feature","properties":{"cadnum":"6320482001:00:000:0278"},"geometry":{"type":"Polygon","coordinates":[[[36.899623,49.116948],[36.900131,49.11676],[36.900279,49.11671],[36.900119,49.11652],[36.89984,49.116633],[36.899803,49.116635],[36.899785,49.116643],[36.899757,49.116668],[36.899475,49.116781],[36.899623,49.116948]]]}},{"type":"Feature","properties":{"cadnum":"6320482001:01:000:0035"},"geometry":{"type":"Polygon","coordinates":[[[36.906843,49.124057],[36.90642,49.123722],[36.906127,49.123464],[36.905738,49.123642],[36.906,49.123902],[36.90626740490798,49.124163],[36.906267,49.124163],[36.906334,49.124228],[36.906843,49.124057]]]}},{"type":"Feature","properties":{"cadnum":"6320482001:01:000:0018"},"geometry":{"type":"Polygon","coordinates":[[[36.905658,49.12406],[36.905375,49.123748],[36.904946,49.124001],[36.90509735766424,49.124163],[36.905097,49.124163],[36.905443,49.124533],[36.905914,49.124369],[36.90579877992337,49.12423100386172],[36.905658,49.12406]]]}},{"type":"Feature","properties":{"cadnum":"6320482001:01:000:0037"},"geometry":{"type":"Polygon","coordinates":[[[36.906,49.123902],[36.905911,49.123815],[36.905565,49.123959],[36.905658,49.12406],[36.90574327441861,49.124163],[36.905742,49.124163],[36.90583194686952,49.12427010436486],[36.905836,49.124275],[36.90583605825242,49.124275],[36.905915,49.124369],[36.906334,49.124228],[36.906,49.123902]]]}},{"type":"Feature","properties":{"cadnum":"6320482001:00:000:0186"},"geometry":{"type":"Polygon","coordinates":[[[36.907,49.112378],[36.907688,49.111559],[36.907329,49.111443],[36.906638,49.112262],[36.907,49.112378]]]}},{"type":"Feature","properties":{"cadnum":"6320482001:00:000:0233"},"geometry":{"type":"Polygon","coordinates":[[[36.906185,49.11292],[36.906696,49.11228],[36.906638,49.112262],[36.906652,49.112247],[36.906411,49.112171],[36.905888,49.112825],[36.906185,49.11292]]]}},{"type":"Feature","properties":{"cadnum":"6320482001:01:000:0056"},"geometry":{"type":"Polygon","coordinates":[[[36.905697,49.110859],[36.905872,49.110649],[36.905003,49.110343],[36.90493,49.110318],[36.904703,49.110241],[36.904546,49.110469],[36.904873,49.110556],[36.905697,49.110859]]]}},{"type":"Feature","properties":{"cadnum":"6320482001:00:000:0185"},"geometry":{"type":"Polygon","coordinates":[[[36.907688,49.111559],[36.908256,49.110883],[36.907897,49.110767],[36.907329,49.111443],[36.907688,49.111559]]]}},{"type":"Feature","properties":{"cadnum":"6320482001:01:000:0091"},"geometry":{"type":"Polygon","coordinates":[[[36.904555,49.10989],[36.90458,49.109836],[36.904323,49.109786],[36.904325,49.109782],[36.90432481538461,49.109782],[36.904382,49.109656],[36.904035,49.109589],[36.90394704262295,49.109782],[36.903947,49.109782],[36.90382,49.110059],[36.904529,49.110202],[36.904663,49.10991],[36.904576599999984,49.109894],[36.904578,49.109894],[36.904555,49.10989]]]}},{"type":"Feature","properties":{"cadnum":"6320482001:00:000:0226"},"geometry":{"type":"Polygon","coordinates":[[[36.902387,49.10977],[36.90203,49.109691],[36.90198729608939,49.109782],[36.901987,49.109782],[36.901946,49.10987],[36.902049,49.109894],[36.902051368029724,49.109894],[36.90299,49.11010779508891],[36.90299,49.110108],[36.903127,49.110139],[36.903162,49.11007],[36.903162,49.1100696930693],[36.903228,49.109939],[36.902996,49.109891],[36.902387,49.10977]]]}},{"type":"Feature","properties":{"cadnum":"6320482001:01:000:0090"},"geometry":{"type":"Polygon","coordinates":[[[36.902387,49.10977],[36.90244739669424,49.109782],[36.902443,49.109782],[36.90299,49.10988981735985],[36.90299,49.10989],[36.902996,49.109891],[36.903008,49.109894],[36.903009,49.109894],[36.903010228571425,49.109894],[36.903162,49.109926],[36.903162,49.10992484466019],[36.90382,49.110059],[36.903895649819496,49.109894],[36.903896,49.109894],[36.904035,49.109589],[36.903209,49.10943],[36.903073755486645,49.10940344514121],[36.902599,49.109309],[36.902387,49.10977]]]}},{"type":"Feature","properties":{"cadnum":"6320482001:00:000:0223"},"geometry":{"type":"Polygon","coordinates":[[[36.904401,49.110429],[36.904506,49.110247],[36.904526,49.110206],[36.904529,49.110202],[36.90382,49.110059],[36.903228,49.109939],[36.903127,49.110139],[36.904401,49.110429]]]}},{"type":"Feature","properties":{"cadnum":"6320482001:00:000:0228"},"geometry":{"type":"Polygon","coordinates":[[[36.905856,49.112866],[36.905888,49.112825],[36.906411,49.112171],[36.906092,49.112072],[36.905722,49.112543],[36.90554,49.112776],[36.905856,49.112866]]]}},{"type":"Feature","properties":{"cadnum":"6320482001:01:000:0093"},"geometry":{"type":"Polygon","coordinates":[[[36.904228,49.112334],[36.904572,49.112313],[36.904687,49.112112],[36.903682,49.111895],[36.903519,49.112179],[36.904228,49.112334]]]}},{"type":"Feature","properties":{"cadnum":"6320482001:00:000:0229"},"geometry":{"type":"Polygon","coordinates":[[[36.905856,49.112866],[36.90554,49.112776],[36.904979,49.11349],[36.90497994144145,49.11349],[36.904895,49.113599],[36.905217,49.113664],[36.905446,49.113377],[36.905445725961535,49.113377],[36.905856,49.112866]]]}},{"type":"Feature","properties":{"cadnum":"6320482001:00:000:0231"},"geometry":{"type":"Polygon","coordinates":[[[36.906185,49.11292],[36.905888,49.112825],[36.905856,49.112866],[36.905355,49.11349],[36.905355836236936,49.11349],[36.905217,49.113664],[36.905538,49.11373],[36.90572904815864,49.11349],[36.90573,49.11349],[36.906185,49.11292]]]}},{"type":"Feature","properties":{"cadnum":"6320482001:01:000:0095"},"geometry":{"type":"Polygon","coordinates":[[[36.908757,49.11349],[36.909039,49.113114],[36.908529,49.112964],[36.908243982889736,49.113377],[36.908243,49.113377],[36.90807,49.113628],[36.908548,49.113769],[36.908655,49.113626],[36.908655,49.11362535616438],[36.90875582653061,49.11349],[36.908757,49.11349]]]}},{"type":"Feature","properties":{"cadnum":"6320482001:00:000:0220"},"geometry":{"type":"Polygon","coordinates":[[[36.908626,49.111004],[36.908423,49.110938],[36.908433,49.110925],[36.908445,49.110908],[36.90839,49.11089],[36.908379,49.110906],[36.908368,49.11092],[36.908256,49.110883],[36.907714,49.111528],[36.908089,49.11165],[36.908484,49.11117482309125],[36.908484,49.111176],[36.908626,49.111004]]]}},{"type":"Feature","properties":{"cadnum":"6320482001:01:000:0049"},"geometry":{"type":"Polygon","coordinates":[[[36.908856,49.112623],[36.908966,49.112511],[36.909037,49.112428],[36.909611,49.112022],[36.909288,49.111877],[36.908655,49.11243914179104],[36.908655,49.112439],[36.90825,49.112797],[36.908484,49.11287161919505],[36.908484,49.112872],[36.908573,49.1129],[36.908655,49.11282],[36.908655,49.112819738515896],[36.908856,49.112623]]]}},{"type":"Feature","properties":{"cadnum":"6320482001:00:000:0219"},"geometry":{"type":"Polygon","coordinates":[[[36.907386,49.112496],[36.908089,49.11165],[36.907714,49.111528],[36.907688,49.111559],[36.907006,49.112372],[36.907386,49.112496]]]}},{"type":"Feature","properties":{"cadnum":"6320482001:01:000:0057"},"geometry":{"type":"Polygon","coordinates":[[[36.906421,49.111124],[36.906554,49.110951],[36.906591,49.110901],[36.905872,49.110649],[36.905697,49.110859],[36.906421,49.111124]]]}},{"type":"Feature","properties":{"cadnum":"6320482001:01:000:0053"},"geometry":{"type":"Polygon","coordinates":[[[36.906614,49.112127],[36.90688,49.112057],[36.90753,49.111245],[36.907336,49.111162],[36.906888,49.11097],[36.906847,49.110992],[36.906421,49.111784],[36.906248,49.111992],[36.906614,49.112127]]]}},{"type":"Feature","properties":{"cadnum":"6320482001:01:000:0052"},"geometry":{"type":"Polygon","coordinates":[[[36.90753,49.111245],[36.907676,49.111063],[36.907897,49.110843],[36.90762,49.110715],[36.907348,49.110635],[36.907242,49.110773],[36.906888,49.11097],[36.90753,49.111245]]]}},{"type":"Feature","properties":{"cadnum":"6320482001:01:000:0092"},"geometry":{"type":"Polygon","coordinates":[[[36.905646,49.112529],[36.905752,49.112344],[36.904687,49.112112],[36.904572,49.112313],[36.904635,49.11231],[36.905646,49.112529]]]}},{"type":"Feature","properties":{"cadnum":"6320482001:00:000:0232"},"geometry":{"type":"Polygon","coordinates":[[[36.904044,49.110974],[36.904244,49.110674],[36.903861,49.110583],[36.90333,49.110463],[36.903146,49.110739],[36.903929,49.11095],[36.904044,49.110974]]]}},{"type":"Feature","properties":{"cadnum":"6320482001:00:000:0187"},"geometry":{"type":"Polygon","coordinates":[[[36.902799,49.111333],[36.902618,49.111651],[36.90299,49.11175699264706],[36.90299,49.111758],[36.903468,49.111893],[36.903642,49.111587],[36.90304015384455,49.11140607692259],[36.902799,49.111333]]]}},{"type":"Feature","properties":{"cadnum":"6320482001:00:000:0267"},"geometry":{"type":"Polygon","coordinates":[[[36.903652,49.113347],[36.903757,49.113131],[36.90392,49.112801],[36.90335,49.11269],[36.903206,49.112996],[36.903292,49.113262],[36.903652,49.113347]]]}},{"type":"Feature","properties":{"cadnum":"6320482001:00:000:0255"},"geometry":{"type":"Polygon","coordinates":[[[36.905951,49.111577],[36.90621,49.111242],[36.905988,49.111162],[36.905104,49.110844],[36.904844,49.111224],[36.905951,49.111577]]]}},{"type":"Feature","properties":{"cadnum":"6320482001:00:000:0258"},"geometry":{"type":"Polygon","coordinates":[[[36.906559,49.111367],[36.906681,49.11122],[36.906421,49.111124],[36.906111,49.111011],[36.905988,49.111162],[36.90621,49.111242],[36.906559,49.111367]]]}},{"type":"Feature","properties":{"cadnum":"6320482001:00:000:0275"},"geometry":{"type":"Polygon","coordinates":[[[36.903157,49.112353],[36.90299,49.112305],[36.90299,49.112305198538365],[36.902336,49.112118],[36.902131,49.11242],[36.902957,49.112678],[36.903157,49.112353]]]}},{"type":"Feature","properties":{"cadnum":"6320482001:00:000:0281"},"geometry":{"type":"Polygon","coordinates":[[[36.9046,49.11337],[36.904879,49.112844],[36.904453,49.112757],[36.904205,49.113287],[36.9041643373494,49.113377],[36.904164,49.113377],[36.90413,49.113453],[36.904321,49.11349],[36.90438,49.113501],[36.904511,49.113527],[36.904596,49.113377],[36.90459597500001,49.113377],[36.9046,49.11337]]]}},{"type":"Feature","properties":{"cadnum":"6320482001:00:000:0259"},"geometry":{"type":"Polygon","coordinates":[[[36.905988,49.111162],[36.906111,49.111011],[36.905697,49.110859],[36.904873,49.110556],[36.904546,49.110469],[36.904451,49.110623],[36.904679,49.110693],[36.904783,49.110729],[36.905988,49.111162]]]}},{"type":"Feature","properties":{"cadnum":"6320482001:00:000:0280"},"geometry":{"type":"Polygon","coordinates":[[[36.904879,49.112844],[36.905085,49.112456],[36.904631,49.112378],[36.904453,49.112757],[36.904879,49.112844]]]}},{"type":"Feature","properties":{"cadnum":"6320482001:00:000:0265"},"geometry":{"type":"Polygon","coordinates":[[[36.905298,49.111613],[36.905441,49.111414],[36.904844,49.111224],[36.904585,49.111141],[36.904546,49.111129],[36.904408,49.111084],[36.90427,49.11104],[36.904203,49.111019],[36.90407,49.111233],[36.904405,49.111337],[36.905298,49.111613]]]}},{"type":"Feature","properties":{"cadnum":"6320482001:00:000:0272"},"geometry":{"type":"Polygon","coordinates":[[[36.906758,49.112976],[36.907199,49.112425],[36.906941,49.11234],[36.906483,49.112891],[36.906758,49.112976]]]}},{"type":"Feature","properties":{"cadnum":"6320482001:00:000:0264"},"geometry":{"type":"Polygon","coordinates":[[[36.90392,49.112801],[36.904156,49.112318],[36.903583,49.112193],[36.90335,49.11269],[36.90392,49.112801]]]}},{"type":"Feature","properties":{"cadnum":"6320482001:00:000:0266"},"geometry":{"type":"Polygon","coordinates":[[[36.905805,49.111771],[36.905951,49.111577],[36.905441,49.111414],[36.905298,49.111613],[36.905805,49.111771]]]}},{"type":"Feature","properties":{"cadnum":"6320482001:00:000:0256"},"geometry":{"type":"Polygon","coordinates":[[[36.904844,49.111224],[36.905104,49.110844],[36.904842,49.11075],[36.904783,49.110729],[36.904679,49.110693],[36.904451,49.110623],[36.904203,49.111019],[36.90427,49.11104],[36.904408,49.111084],[36.904585,49.111141],[36.904844,49.111224]]]}},{"type":"Feature","properties":{"cadnum":"6320482001:00:000:0249"},"geometry":{"type":"Polygon","coordinates":[[[36.907742,49.113373],[36.907409,49.113275],[36.907332618604656,49.113377],[36.907331,49.113377],[36.907042,49.113766],[36.906922,49.113954],[36.906893,49.114],[36.907272,49.114089],[36.907393,49.113905],[36.907652,49.113502],[36.90767395744673,49.11347008510649],[36.907742,49.113373]]]}},{"type":"Feature","properties":{"cadnum":"6320482001:00:000:0252"},"geometry":{"type":"Polygon","coordinates":[[[36.907742,49.113373],[36.908215,49.112703],[36.907891,49.112626],[36.907409,49.113275],[36.907742,49.113373]]]}},{"type":"Feature","properties":{"cadnum":"6320482001:00:000:0270"},"geometry":{"type":"Polygon","coordinates":[[[36.906503,49.113293],[36.906758,49.112976],[36.906483,49.112891],[36.90623,49.113194],[36.906086264367815,49.113377],[36.906086,49.113377],[36.906025,49.113455],[36.906006,49.113482],[36.905966,49.11353],[36.905825,49.113747],[36.905807,49.113786],[36.9061,49.113845],[36.906131,49.113799],[36.906196,49.113707],[36.906275,49.113594],[36.90640793445136,49.11341702591445],[36.906503,49.113293]]]}},{"type":"Feature","properties":{"cadnum":"6320482001:01:000:0071"},"geometry":{"type":"Polygon","coordinates":[[[36.908795,49.114658],[36.908938,49.114565],[36.908961,49.114581],[36.909075,49.114478],[36.908902,49.114435],[36.908884,49.114431],[36.908725,49.114431],[36.908689,49.114454],[36.908581,49.114519],[36.908517,49.114569],[36.908655,49.114686],[36.908655,49.114685651933705],[36.908698,49.114722],[36.908795,49.114658]]]}},{"type":"Feature","properties":{"cadnum":"6320482001:00:000:0240"},"geometry":{"type":"Polygon","coordinates":[[[36.906949,49.115299],[36.907074,49.115223],[36.907222,49.115122],[36.907617,49.114869],[36.907297,49.114655],[36.906568,49.115059],[36.906653,49.115127],[36.906949,49.115299]]]}},{"type":"Feature","properties":{"cadnum":"6320482001:00:000:0238"},"geometry":{"type":"Polygon","coordinates":[[[36.906568,49.115059],[36.907297,49.114655],[36.907617,49.114869],[36.907841,49.114726],[36.907873,49.114659],[36.907698,49.114546],[36.907509,49.114442],[36.906452,49.114966],[36.906568,49.115059]]]}},{"type":"Feature","properties":{"cadnum":"6320482001:00:000:0195"},"geometry":{"type":"Polygon","coordinates":[[[36.909149,49.114779],[36.909196,49.114738],[36.909298,49.114668],[36.909355,49.114626],[36.909379,49.114606],[36.909452,49.114511],[36.909111,49.114428],[36.908769,49.114703],[36.90865499999893,49.11478300000075],[36.908313,49.115021],[36.908484,49.11511685467128],[36.908484,49.115117],[36.908602,49.115183],[36.908655,49.115144],[36.908655,49.115143855575866],[36.909149,49.114779]]]}},{"type":"Feature","properties":{"cadnum":"6320482001:00:000:0196"},"geometry":{"type":"Polygon","coordinates":[[[36.908602,49.115183],[36.908313,49.115021],[36.907943,49.11528],[36.907856,49.11535],[36.908152,49.115516],[36.908484,49.11527032],[36.908484,49.115271],[36.908602,49.115183]]]}},{"type":"Feature","properties":{"cadnum":"6320482001:00:000:0192"},"geometry":{"type":"Polygon","coordinates":[[[36.905273,49.115704],[36.905719,49.115424],[36.905088,49.115004],[36.904668,49.115309],[36.905273,49.115704]]]}},{"type":"Feature","properties":{"cadnum":"6320482001:01:000:0094"},"geometry":{"type":"Polygon","coordinates":[[[36.908138,49.114314],[36.908548,49.113769],[36.90807,49.113628],[36.90769,49.114182],[36.908138,49.114314]]]}},{"type":"Feature","properties":{"cadnum":"6320482001:01:000:0072"},"geometry":{"type":"Polygon","coordinates":[[[36.903894,49.11594],[36.903924,49.115923],[36.903901,49.115904],[36.903893,49.115898],[36.903873,49.115879],[36.903845,49.115897],[36.903894,49.11594]]]}},{"type":"Feature","properties":{"cadnum":"6320482001:01:000:0096"},"geometry":{"type":"Polygon","coordinates":[[[36.903972,49.116857],[36.90451,49.116625],[36.904158,49.116205],[36.903619,49.116437],[36.903972,49.116857]]]}},{"type":"Feature","properties":{"cadnum":"6320482001:00:000:0191"},"geometry":{"type":"Polygon","coordinates":[[[36.905829,49.116068],[36.906238,49.115768],[36.906214,49.115752],[36.905719,49.115424],[36.905273,49.115704],[36.905829,49.116068]]]}},{"type":"Feature","properties":{"cadnum":"6320482001:01:000:0027"},"geometry":{"type":"Polygon","coordinates":[[[36.907826,49.116868],[36.907549,49.117085],[36.907550431999994,49.117085],[36.907534,49.117098],[36.908078,49.117445],[36.908395,49.117195],[36.90820274774775,49.117085],[36.908203,49.117085],[36.907826,49.116868]]]}},{"type":"Feature","properties":{"cadnum":"6320482001:00:000:0183"},"geometry":{"type":"Polygon","coordinates":[[[36.905471,49.116802],[36.90523,49.116596],[36.904931,49.116744],[36.904958,49.116806],[36.905023,49.116881],[36.904947,49.116915],[36.90499885882353,49.116973],[36.904998,49.116973],[36.90529,49.117298],[36.905765,49.117096],[36.905642,49.116973],[36.905471,49.116802]]]}},{"type":"Feature","properties":{"cadnum":"6320482001:00:000:0254"},"geometry":{"type":"Polygon","coordinates":[[[36.904799,49.116994],[36.904558,49.117085],[36.90455944444444,49.117085],[36.904491,49.117111],[36.904287,49.117194],[36.904657,49.117636],[36.905184,49.11746],[36.90487418240343,49.117085],[36.904875,49.117085],[36.904799,49.116994]]]}},{"type":"Feature","properties":{"cadnum":"6320482001:01:000:0121"},"geometry":{"type":"Polygon","coordinates":[[[36.899969,49.117808],[36.90021,49.117617],[36.899749,49.117246],[36.899407,49.117356],[36.899969,49.117808]]]}},{"type":"Feature","properties":{"cadnum":"6320482001:01:000:0031"},"geometry":{"type":"Polygon","coordinates":[[[36.901101,49.119596],[36.901751,49.119286],[36.902084,49.119127],[36.901634,49.118609],[36.901293,49.118759],[36.900613,49.119057],[36.901101,49.119596]]]}},{"type":"Feature","properties":{"cadnum":"6320482001:00:000:0213"},"geometry":{"type":"Polygon","coordinates":[[[36.903162,49.120064],[36.902841,49.12018],[36.90300792000006,49.12040308000007],[36.903214,49.12068],[36.9032145942029,49.12068],[36.903234,49.120706],[36.903436,49.120621],[36.903661,49.120519],[36.90365,49.120479],[36.903328,49.120004],[36.903162,49.12006440828402],[36.903162,49.120064]]]}},{"type":"Feature","properties":{"cadnum":"6320482001:01:000:0030"},"geometry":{"type":"Polygon","coordinates":[[[36.902084,49.119127],[36.902516,49.11892],[36.902432,49.118828],[36.90225,49.118627],[36.902211,49.118584],[36.902062,49.118421],[36.901634,49.118609],[36.902084,49.119127]]]}},{"type":"Feature","properties":{"cadnum":"6320482001:00:000:0260"},"geometry":{"type":"Polygon","coordinates":[[[36.898821,49.11836],[36.899206,49.118197],[36.898798,49.117755],[36.898691,49.117638],[36.898279,49.11779],[36.89838,49.117896],[36.89849,49.118012],[36.898821,49.11836]]]}},{"type":"Feature","properties":{"cadnum":"6320482001:00:000:0286"},"geometry":{"type":"Polygon","coordinates":[[[36.898305,49.117626],[36.897989,49.117279],[36.897497,49.117473],[36.897497,49.117473304347826],[36.897324,49.117541],[36.897497,49.11774384859155],[36.897497,49.117744],[36.897608,49.117874],[36.897669,49.117853],[36.897669,49.11785229555237],[36.898305,49.117626]]]}},{"type":"Feature","properties":{"cadnum":"6320482001:00:000:0250"},"geometry":{"type":"Polygon","coordinates":[[[36.90305854237407,49.11830339225151],[36.903162,49.118277],[36.903162,49.118276815175925],[36.905349,49.117715],[36.905184,49.11746],[36.904333,49.117745],[36.903026794521594,49.118081520547676],[36.902833,49.118131],[36.902966,49.118327],[36.90299,49.11832087755102],[36.90299,49.118321],[36.90305854237407,49.11830339225151]]]}},{"type":"Feature","properties":{"cadnum":"6320482001:00:000:0274"},"geometry":{"type":"Polygon","coordinates":[[[36.902796,49.118839],[36.902892,49.118944],[36.902926,49.118982],[36.90299,49.119051],[36.903546,49.119633],[36.904091,49.120217],[36.904201,49.120184],[36.903877,49.119815],[36.903732,49.119651],[36.903363,49.119257],[36.903163,49.119023],[36.903391,49.11892],[36.903306,49.118854],[36.903276,49.118832],[36.903179,49.118756],[36.903114,49.118706],[36.902796,49.118839]]]}},{"type":"Feature","properties":{"cadnum":"6320482001:00:000:0251"},"geometry":{"type":"Polygon","coordinates":[[[36.902428,49.118457],[36.902966,49.118327],[36.902833,49.118131],[36.902273,49.118275],[36.902428,49.118457]]]}},{"type":"Feature","properties":{"cadnum":"6320482001:00:000:0242"},"geometry":{"type":"Polygon","coordinates":[[[36.903468,49.119912],[36.903162,49.119553506276155],[36.903162,49.119553],[36.902899,49.119244],[36.90219,49.119526],[36.90188,49.119224],[36.901751,49.119286],[36.901101,49.119596],[36.902056,49.120386],[36.903162,49.120015],[36.903162,49.12001442677824],[36.903468,49.119912]]]}},{"type":"Feature","properties":{"cadnum":"6320482001:00:000:0206"},"geometry":{"type":"Polygon","coordinates":[[[36.91947,49.115565079051386],[36.91947,49.115566],[36.91956,49.11554],[36.91925,49.115221],[36.919173,49.115245],[36.918984,49.115019],[36.918586,49.115126],[36.919054,49.115681],[36.91947,49.115565079051386]]]}},{"type":"Feature","properties":{"cadnum":"6320482001:01:000:0013"},"geometry":{"type":"Polygon","coordinates":[[[36.89713,49.11314],[36.897386,49.112973],[36.897224,49.112872],[36.897087,49.112786],[36.89626228200972,49.113377],[36.896261,49.113377],[36.896226,49.113403],[36.896513,49.11349],[36.896515442307695,49.11349],[36.896572,49.113507],[36.89675219705888,49.113388088235254],[36.89713,49.11314]]]}},{"type":"Feature","properties":{"cadnum":"6320482001:01:000:0119"},"geometry":{"type":"Polygon","coordinates":[[[36.8964,49.114956],[36.897037,49.114673],[36.896735,49.114427],[36.896088,49.114701],[36.8964,49.114956]]]}},{"type":"Feature","properties":{"cadnum":"6320482001:00:000:0200"},"geometry":{"type":"Polygon","coordinates":[[[36.893038,49.116271],[36.892821,49.116075],[36.892004,49.116422],[36.892004,49.11642246489104],[36.891763,49.116524],[36.891961,49.116728],[36.892176,49.116638],[36.892176,49.11663697485493],[36.893038,49.116271]]]}},{"type":"Feature","properties":{"cadnum":"6320482001:01:000:0058"},"geometry":{"type":"Polygon","coordinates":[[[36.893924,49.116989],[36.89366,49.117085],[36.89366184615383,49.117085],[36.893498,49.117145],[36.893283,49.117234],[36.893464,49.117408],[36.893254,49.117492],[36.893336,49.117569],[36.893379,49.117622],[36.893989,49.117378],[36.894238,49.11726],[36.894033,49.117085],[36.893924,49.116989]]]}},{"type":"Feature","properties":{"cadnum":"6320482001:01:000:0073"},"geometry":{"type":"Polygon","coordinates":[[[36.895156,49.115888],[36.895177,49.115876],[36.895186,49.11587],[36.895217,49.115851],[36.895196,49.11583],[36.895131,49.115868],[36.895156,49.115888]]]}},{"type":"Feature","properties":{"cadnum":"6320482001:00:000:0204"},"geometry":{"type":"Polygon","coordinates":[[[36.893223,49.116848],[36.893538,49.116703],[36.893372,49.116555],[36.893333,49.11653],[36.892994,49.116677],[36.89231409696969,49.116973],[36.892314,49.116973],[36.892236,49.117007],[36.892314,49.117085],[36.892439,49.11721],[36.892952,49.116973],[36.892951375527424,49.116973],[36.893223,49.116848]]]}},{"type":"Feature","properties":{"cadnum":"6320482001:00:000:0277"},"geometry":{"type":"Polygon","coordinates":[[[36.895522,49.116971],[36.89527,49.116715],[36.89470438461537,49.116973],[36.894702,49.116973],[36.8947,49.116975],[36.894458,49.117085],[36.89445855345911,49.117085],[36.894351,49.117134],[36.894561,49.117312],[36.894547,49.117319],[36.894572,49.117342],[36.894588,49.117334],[36.894945,49.117196],[36.895398871794875,49.117018743589746],[36.895522,49.116971]]]}},{"type":"Feature","properties":{"cadnum":"6320482001:00:000:0276"},"geometry":{"type":"Polygon","coordinates":[[[36.895522,49.116971],[36.895892,49.116827],[36.896975,49.116406],[36.897026,49.116324],[36.896764,49.116032],[36.895621,49.116554],[36.89527,49.116715],[36.895522,49.116971]]]}},{"type":"Feature","properties":{"cadnum":"6320482001:01:000:0107"},"geometry":{"type":"Polygon","coordinates":[[[36.89573,49.113405],[36.895366,49.11311],[36.89466126052631,49.113377],[36.894659,49.113377],[36.894006,49.113625],[36.894372,49.113922],[36.895506731141204,49.11349],[36.895508,49.11349],[36.89573,49.113405]]]}},{"type":"Feature","properties":{"cadnum":"6320482001:01:000:0108"},"geometry":{"type":"Polygon","coordinates":[[[36.894533,49.114348],[36.895504,49.113965],[36.895318,49.113815],[36.894399,49.114184],[36.894533,49.114348]]]}},{"type":"Feature","properties":{"cadnum":"6320482001:01:000:0158"},"geometry":{"type":"Polygon","coordinates":[[[36.891972,49.113326],[36.891829262195124,49.113377],[36.891828,49.113377],[36.891059,49.113652],[36.89126,49.113922],[36.892004,49.11364832599119],[36.892004,49.113649],[36.892168,49.113588],[36.892011,49.113377],[36.89200993902439,49.113377],[36.891972,49.113326]]]}},{"type":"Feature","properties":{"cadnum":"6320482001:01:000:0157"},"geometry":{"type":"Polygon","coordinates":[[[36.893334,49.113159],[36.893147,49.112908],[36.89209768852483,49.11328163934418],[36.891972,49.113326],[36.89200993902439,49.113377],[36.892009,49.113377],[36.89208231137734,49.11347428742527],[36.892094,49.11349],[36.89209415165877,49.11349],[36.892168,49.113588],[36.892392,49.113506],[36.89264840716381,49.11341067860481],[36.893302,49.11317],[36.893334,49.113159]]]}},{"type":"Feature","properties":{"cadnum":"6320482001:01:000:0109"},"geometry":{"type":"Polygon","coordinates":[[[36.896839,49.11346],[36.896627,49.113287],[36.89640355172414,49.113377],[36.896401,49.113377],[36.895318,49.113815],[36.895504,49.113965],[36.896427,49.113602],[36.89675195774649,49.11349],[36.896752,49.11349],[36.896839,49.11346]]]}},{"type":"Feature","properties":{"cadnum":"6320482001:01:000:0159"},"geometry":{"type":"Polygon","coordinates":[[[36.892587,49.113713],[36.892392,49.113506],[36.892176,49.113585071428574],[36.892176,49.113585],[36.892168,49.113588],[36.89126,49.113922],[36.891446,49.114119],[36.892176,49.11386],[36.892176,49.11385963464837],[36.892587,49.113713]]]}},{"type":"Feature","properties":{"cadnum":"6320482001:01:000:0160"},"geometry":{"type":"Polygon","coordinates":[[[36.893506,49.113385],[36.893302,49.11317],[36.89273986562499,49.113377],[36.892739,49.113377],[36.89264840716381,49.11341067860481],[36.892433,49.11349],[36.89243503875969,49.11349],[36.892392,49.113506],[36.892587,49.113713],[36.89321180792683,49.11349],[36.893212,49.11349],[36.893506,49.113385]]]}},{"type":"Feature","properties":{"cadnum":"6320482001:00:000:0215"},"geometry":{"type":"Polygon","coordinates":[[[36.892109871594855,49.11442311284063],[36.892176,49.1144],[36.892176,49.11439944816053],[36.892303,49.114354],[36.893039,49.114102],[36.892854,49.113909],[36.89209110743788,49.114177358677736],[36.891936,49.114231],[36.891764,49.114295],[36.89176,49.114296],[36.891702,49.114317],[36.891649,49.114336],[36.891678,49.114371],[36.891816,49.114526],[36.891867,49.114508],[36.892004,49.11446011650486],[36.892004,49.114461],[36.892109871594855,49.11442311284063]]]}},{"type":"Feature","properties":{"cadnum":"6320482001:00:000:0199"},"geometry":{"type":"Polygon","coordinates":[[[36.891717,49.11546],[36.892118,49.115284],[36.891881,49.115018],[36.891048,49.115356],[36.891268,49.115622],[36.891717,49.11546]]]}},{"type":"Feature","properties":{"cadnum":"6320482001:00:000:0227"},"geometry":{"type":"Polygon","coordinates":[[[36.876808,49.116343],[36.877354,49.11609],[36.87822,49.115727],[36.878543,49.115559],[36.877473,49.114608],[36.876858,49.114908],[36.875743,49.1154],[36.876203,49.115818],[36.876258,49.115807],[36.876808,49.116343]]]}},{"type":"Feature","properties":{"cadnum":"6320482001:01:000:0038"},"geometry":{"type":"Polygon","coordinates":[[[36.880445,49.116603],[36.880866,49.116375],[36.880662,49.116207],[36.880595,49.11616],[36.880332,49.115929],[36.879906,49.116138],[36.880134,49.116334],[36.880445,49.116603]]]}},{"type":"Feature","properties":{"cadnum":"6320482001:01:000:0039"},"geometry":{"type":"Polygon","coordinates":[[[36.879906,49.116138],[36.880332,49.115929],[36.879654,49.115337],[36.879479,49.115412],[36.879223,49.115552],[36.879906,49.116138]]]}},{"type":"Feature","properties":{"cadnum":"6320482001:01:000:0150"},"geometry":{"type":"Polygon","coordinates":[[[36.881018,49.11629264705882],[36.881018,49.116293],[36.88110459233473,49.11624573170719],[36.881189,49.1162],[36.881189,49.11619965596331],[36.881236,49.116174],[36.881018,49.115984],[36.881018,49.115984211832064],[36.880665,49.115675],[36.88028,49.115884],[36.880332,49.115929],[36.880539,49.116109],[36.880595,49.11616],[36.880662,49.116207],[36.880866,49.116375],[36.881018,49.11629264705882]]]}},{"type":"Feature","properties":{"cadnum":"6320482001:01:000:0149"},"geometry":{"type":"Polygon","coordinates":[[[36.88028,49.115884],[36.880665,49.115675],[36.880039,49.115128],[36.879654,49.115337],[36.88028,49.115884]]]}},{"type":"Feature","properties":{"cadnum":"6320482001:00:000:0287"},"geometry":{"type":"Polygon","coordinates":[[[36.879528,49.114632],[36.879882,49.114485],[36.879509,49.114115],[36.879419,49.114024],[36.879426,49.114021],[36.879246,49.113845],[36.879077,49.113923],[36.879033,49.113944],[36.878915,49.113996],[36.879077,49.114153],[36.879166,49.114252],[36.879528,49.114632]]]}},{"type":"Feature","properties":{"cadnum":"6320482001:00:000:0180"},"geometry":{"type":"Polygon","coordinates":[[[36.896164,49.112605],[36.896494,49.112401],[36.89686,49.112111],[36.896466,49.111929],[36.896434,49.111953],[36.896051,49.112233],[36.89586,49.112356],[36.896164,49.112605]]]}},{"type":"Feature","properties":{"cadnum":"6320482001:00:000:0181"},"geometry":{"type":"Polygon","coordinates":[[[36.89751013293132,49.11160471601145],[36.897669,49.111481],[36.897669,49.11148031216931],[36.897686,49.111467],[36.897497,49.111396],[36.897497,49.1113962688172],[36.897297,49.111321],[36.896466,49.111929],[36.89686,49.112111],[36.897497,49.11161494313968],[36.897497,49.111615],[36.89751013293132,49.11160471601145]]]}},{"type":"Feature","properties":{"cadnum":"6320482001:01:000:0014"},"geometry":{"type":"Polygon","coordinates":[[[36.897587,49.112838],[36.897669,49.112784],[36.897669,49.11278352857143],[36.897727,49.112745],[36.89787,49.112648],[36.898172,49.112442],[36.89839,49.112293],[36.898707,49.112077],[36.898938,49.111921],[36.89855,49.111675],[36.89766429904853,49.112349579452115],[36.897166,49.112729],[36.897087,49.112786],[36.897386,49.112973],[36.897497,49.1128984477612],[36.897497,49.112899],[36.897587,49.112838]]]}},{"type":"Feature","properties":{"cadnum":"6320482001:01:000:0104"},"geometry":{"type":"Polygon","coordinates":[[[36.894627,49.113156],[36.895884,49.11268],[36.895668,49.112505],[36.894433,49.112998],[36.894627,49.113156]]]}},{"type":"Feature","properties":{"cadnum":"6320482001:01:000:0105"},"geometry":{"type":"Polygon","coordinates":[[[36.893971,49.113405],[36.894627,49.113156],[36.894433,49.112998],[36.893788,49.113255],[36.893971,49.113405]]]}},{"type":"Feature","properties":{"cadnum":"6320482001:01:000:0100"},"geometry":{"type":"Polygon","coordinates":[[[36.893139,49.111793],[36.894195,49.111304],[36.893966,49.111117],[36.893581,49.1113],[36.893003,49.111561],[36.892908,49.111604],[36.893139,49.111793]]]}},{"type":"Feature","properties":{"cadnum":"6320482001:00:000:0224"},"geometry":{"type":"Polygon","coordinates":[[[36.895149,49.111845],[36.895227,49.111728],[36.895625,49.111386],[36.895815,49.111285],[36.896035,49.111202],[36.896462,49.110927],[36.895278,49.110551],[36.894962,49.111059],[36.894544,49.111321],[36.895149,49.111845]]]}},{"type":"Feature","properties":{"cadnum":"6320482001:01:000:0106"},"geometry":{"type":"Polygon","coordinates":[[[36.89573,49.113405],[36.89644,49.113135],[36.896078,49.11284],[36.895366,49.11311],[36.89573,49.113405]]]}},{"type":"Feature","properties":{"cadnum":"6320482001:01:000:0068"},"geometry":{"type":"Polygon","coordinates":[[[36.892999,49.112678],[36.892608,49.112397],[36.892176,49.112581529801325],[36.892176,49.112581],[36.891634,49.112812],[36.891751,49.113131],[36.892176,49.112977],[36.892176,49.1129765959799],[36.892999,49.112678]]]}},{"type":"Feature","properties":{"cadnum":"6320482001:01:000:0101"},"geometry":{"type":"Polygon","coordinates":[[[36.89248,49.112097],[36.893139,49.111793],[36.892908,49.111604],[36.892243,49.111903],[36.89248,49.112097]]]}},{"type":"Feature","properties":{"cadnum":"6320482001:01:000:0098"},"geometry":{"type":"Polygon","coordinates":[[[36.893003,49.111561],[36.893581,49.1113],[36.893966,49.111117],[36.893698,49.110899],[36.893,49.111256],[36.892778,49.111377],[36.893003,49.111561]]]}},{"type":"Feature","properties":{"cadnum":"6320482001:00:000:0177"},"geometry":{"type":"Polygon","coordinates":[[[36.894842,49.112834],[36.895668,49.112505],[36.895346,49.112241],[36.894576,49.112567],[36.894842,49.112834]]]}},{"type":"Feature","properties":{"cadnum":"6320482001:00:000:0239"},"geometry":{"type":"Polygon","coordinates":[[[36.893966,49.112824],[36.894576,49.112567],[36.895346,49.112241],[36.895166,49.112095],[36.894469,49.112394],[36.89378,49.112667],[36.893966,49.112824]]]}},{"type":"Feature","properties":{"cadnum":"6320482001:00:000:0178"},"geometry":{"type":"Polygon","coordinates":[[[36.893788,49.113255],[36.894433,49.112998],[36.894842,49.112834],[36.894576,49.112567],[36.894038,49.112794],[36.893537,49.113006],[36.893788,49.113255]]]}},{"type":"Feature","properties":{"cadnum":"6320482001:01:000:0099"},"geometry":{"type":"Polygon","coordinates":[[[36.892243,49.111903],[36.892908,49.111604],[36.893003,49.111561],[36.892778,49.111377],[36.892618,49.111464],[36.892004,49.111752],[36.892004,49.11175256321839],[36.891828,49.111835],[36.892004,49.111978601990046],[36.892004,49.111979],[36.892029,49.111999],[36.892176,49.111934],[36.892176,49.11193305607476],[36.892243,49.111903]]]}},{"type":"Feature","properties":{"cadnum":"6320482001:01:000:0066"},"geometry":{"type":"Polygon","coordinates":[[[36.89489,49.111043],[36.89491,49.110864],[36.894637,49.110852],[36.894616,49.111031],[36.89489,49.111043]]]}},{"type":"Feature","properties":{"cadnum":"6320482001:00:000:0245"},"geometry":{"type":"Polygon","coordinates":[[[36.903866,49.120544],[36.903807235294124,49.120568],[36.903806,49.120568],[36.90369588915626,49.12061347469895],[36.903533,49.12068],[36.903534807121666,49.12068],[36.90311486832555,49.12085343060575],[36.902689,49.121029],[36.90299,49.121503090909094],[36.90299,49.121505],[36.903497,49.122302],[36.904124,49.12202],[36.904742,49.122481],[36.90484,49.122553],[36.905117,49.122786],[36.905416,49.12261],[36.90482,49.121884],[36.903884,49.120568],[36.903883117647055,49.120568],[36.903866,49.120544]]]}},{"type":"Feature","properties":{"cadnum":"6320482001:01:000:0026"},"geometry":{"type":"Polygon","coordinates":[[[36.908655,49.117811099526065],[36.908732,49.11786],[36.909078,49.117589],[36.90856980000033,49.117296400000185],[36.908442,49.117222],[36.908395,49.117195],[36.908078,49.117445],[36.908521,49.117726],[36.908655,49.117812],[36.908655,49.117811099526065]]]}},{"type":"Feature","properties":{"cadnum":"6320482001:01:000:0080"},"geometry":{"type":"Polygon","coordinates":[[[36.908484,49.118053901554404],[36.908484,49.118054],[36.90850347107443,49.11803876859501],[36.908655,49.117921],[36.908655,49.11792023387097],[36.908732,49.11786],[36.908521,49.117726],[36.908484,49.117702],[36.908484,49.11770253047404],[36.908078,49.117445],[36.907951,49.117363],[36.907664,49.117587],[36.908462,49.118071],[36.908484,49.118053901554404]]]}},{"type":"Feature","properties":{"cadnum":"6320482001:00:000:0289"},"geometry":{"type":"Polygon","coordinates":[[[36.908655,49.11884042774567],[36.908657,49.118842],[36.909078,49.118608],[36.908738,49.118372],[36.908673,49.11833],[36.908655,49.118318095238095],[36.908655,49.118318],[36.90851099999617,49.118222857140324],[36.908484,49.118205],[36.908484,49.11820501785714],[36.908431,49.11817],[36.908288,49.118256],[36.908243,49.118286],[36.9081,49.118378],[36.908404,49.118644],[36.908655,49.118841],[36.908655,49.11884042774567]]]}},{"type":"Feature","properties":{"cadnum":"6320482001:01:000:0024"},"geometry":{"type":"Polygon","coordinates":[[[36.909594,49.119631],[36.909976,49.119422],[36.909631,49.119176],[36.909269,49.119357],[36.909594,49.119631]]]}},{"type":"Feature","properties":{"cadnum":"6320482001:01:000:0088"},"geometry":{"type":"Polygon","coordinates":[[[36.913438,49.12011],[36.913822,49.119759],[36.913267,49.119445],[36.912901,49.119782],[36.913438,49.12011]]]}},{"type":"Feature","properties":{"cadnum":"6320482001:01:000:0012"},"geometry":{"type":"Polygon","coordinates":[[[36.910065,49.119151],[36.910357,49.118972],[36.910098,49.118818],[36.909838,49.119004],[36.910065,49.119151]]]}},{"type":"Feature","properties":{"cadnum":"6320482001:01:000:0089"},"geometry":{"type":"Polygon","coordinates":[[[36.914148,49.12054574358974],[36.914328,49.120656],[36.914741,49.120278],[36.91398890887271,49.119853718225315],[36.913822,49.119759],[36.913438,49.12011],[36.913977,49.120440991549295],[36.913977,49.120441],[36.9139824559581,49.120444341968636],[36.914148,49.120546],[36.914148,49.12054574358974]]]}},{"type":"Feature","properties":{"cadnum":"6320482001:01:000:0139"},"geometry":{"type":"Polygon","coordinates":[[[36.911706,49.118447],[36.912122,49.118134],[36.911568,49.117771],[36.911308,49.117907],[36.911123,49.11811],[36.911706,49.118447]]]}},{"type":"Feature","properties":{"cadnum":"6320482001:00:000:0937"},"geometry":{"type":"Polygon","coordinates":[[[36.915347,49.116774],[36.914799,49.116635],[36.914532,49.117085],[36.91453281818182,49.117085],[36.914261,49.117545],[36.914148,49.11768346478874],[36.914148,49.117683],[36.913836,49.118064],[36.913502,49.118413],[36.912743,49.118874],[36.912505,49.119147],[36.911973,49.119949],[36.912421,49.11998],[36.913877,49.118725],[36.913977,49.11862536900368],[36.913977,49.118627],[36.914502,49.118102],[36.914938,49.117636],[36.91519895625943,49.117085],[36.9152,49.117085],[36.915347,49.116774]]]}},{"type":"Feature","properties":{"cadnum":"6320482001:01:000:0011"},"geometry":{"type":"Polygon","coordinates":[[[36.910826,49.119655],[36.911189,49.119473],[36.910931,49.119315],[36.910357,49.118972],[36.910065,49.119151],[36.910589,49.119493],[36.910826,49.119655]]]}},{"type":"Feature","properties":{"cadnum":"6320482001:00:000:0218"},"geometry":{"type":"Polygon","coordinates":[[[36.911189,49.119473],[36.911653,49.119247],[36.910951,49.118861],[36.910592,49.119112],[36.910931,49.119315],[36.911189,49.119473]]]}},{"type":"Feature","properties":{"cadnum":"6320482001:01:000:0138"},"geometry":{"type":"Polygon","coordinates":[[[36.912286,49.118782],[36.912669,49.118493],[36.912122,49.118134],[36.911706,49.118447],[36.912286,49.118782]]]}},{"type":"Feature","properties":{"cadnum":"6320482001:00:000:0222"},"geometry":{"type":"Polygon","coordinates":[[[36.912295508522725,49.116973],[36.912295,49.116973],[36.912228,49.117062],[36.912221,49.117085],[36.91222155526992,49.117085],[36.912119,49.117451],[36.912023,49.117672],[36.912062,49.117819],[36.911938,49.117938],[36.912772,49.118485],[36.913152,49.118387],[36.913707,49.117636],[36.913977,49.117213983193274],[36.913977,49.117215],[36.914059554744526,49.117085],[36.91406,49.117085],[36.914064,49.117078],[36.91421,49.116877],[36.913977,49.116855],[36.913977,49.11685524137931],[36.912495,49.11671],[36.912295508522725,49.116973]],[[36.913784,49.116983],[36.913809,49.11699],[36.913798,49.117007],[36.913774,49.117],[36.913784,49.116983]],[[36.913397,49.117557],[36.913423,49.117564],[36.913412,49.11758],[36.913387,49.117573],[36.913397,49.117557]],[[36.913071,49.118043],[36.913097,49.11805],[36.913086,49.118067],[36.913061,49.11806],[36.913071,49.118043]]]}},{"type":"Feature","properties":{"cadnum":"6320482001:00:000:0211"},"geometry":{"type":"Polygon","coordinates":[[[36.914148,49.11879892592592],[36.914677,49.119086],[36.915012,49.118768],[36.914388,49.118436],[36.914148,49.118662265060244],[36.914148,49.118662],[36.914056,49.118749],[36.914148,49.118799],[36.914148,49.11879892592592]]]}},{"type":"Feature","properties":{"cadnum":"6320482001:01:000:0023"},"geometry":{"type":"Polygon","coordinates":[[[36.910156,49.120082],[36.910569,49.119866],[36.910334,49.119677],[36.909976,49.119422],[36.909594,49.119631],[36.909906,49.119895],[36.910156,49.120082]]]}},{"type":"Feature","properties":{"cadnum":"6320482001:00:000:0253"},"geometry":{"type":"Polygon","coordinates":[[[36.909909,49.120211],[36.910156,49.120082],[36.909906,49.119895],[36.909594,49.119631],[36.909269,49.119357],[36.909198,49.119296],[36.908958,49.119431],[36.909909,49.120211]]]}},{"type":"Feature","properties":{"cadnum":"6320482001:01:000:0017"},"geometry":{"type":"Polygon","coordinates":[[[36.904946,49.124001],[36.905375,49.123748],[36.905117,49.123464],[36.904905,49.123299],[36.904499,49.123607],[36.904818,49.123865],[36.904946,49.124001]]]}},{"type":"Feature","properties":{"cadnum":"6320482001:00:000:0214"},"geometry":{"type":"Polygon","coordinates":[[[36.90531,49.120542],[36.904876,49.120125],[36.904476,49.120288],[36.904403,49.120318],[36.904688,49.12068],[36.904688193236716,49.12068],[36.904763,49.120775],[36.90500249482399,49.120672571428585],[36.90531,49.120542]]]}},{"type":"Feature","properties":{"cadnum":"6320482001:01:000:0041"},"geometry":{"type":"Polygon","coordinates":[[[36.904183,49.122829],[36.904742,49.122481],[36.904124,49.12202],[36.903497,49.122302],[36.903843,49.12261],[36.904183,49.122829]]]}},{"type":"Feature","properties":{"cadnum":"6320482001:01:000:0043"},"geometry":{"type":"Polygon","coordinates":[[[36.907191,49.120465],[36.90700017054263,49.120568],[36.906999,49.120568],[36.906952,49.120594],[36.907051,49.12068],[36.907051511221944,49.12068],[36.907416,49.120995],[36.907822,49.121346],[36.907865,49.121323],[36.908092,49.121201],[36.907702,49.120888],[36.90745045,49.12068],[36.907451,49.12068],[36.907191,49.120465]]]}},{"type":"Feature","properties":{"cadnum":"6320482001:01:000:0137"},"geometry":{"type":"Polygon","coordinates":[[[36.908242,49.122476],[36.908443,49.122365],[36.907487,49.121688],[36.907281,49.121803],[36.907837,49.122192],[36.90816,49.122419],[36.908242,49.122476]]]}},{"type":"Feature","properties":{"cadnum":"6320482001:01:000:0047"},"geometry":{"type":"Polygon","coordinates":[[[36.90746,49.123069],[36.90794,49.122845],[36.907358,49.122422],[36.906908,49.122678],[36.90746,49.123069]]]}},{"type":"Feature","properties":{"cadnum":"6320482001:00:000:0198"},"geometry":{"type":"Polygon","coordinates":[[[36.906401,49.123513],[36.906673,49.123376],[36.905927,49.122603],[36.90567,49.122752],[36.906401,49.123513]]]}},{"type":"Feature","properties":{"cadnum":"6320482001:01:000:0036"},"geometry":{"type":"Polygon","coordinates":[[[36.905565,49.123959],[36.905911,49.123815],[36.905524,49.123428],[36.905137,49.123131],[36.904905,49.123299],[36.905117,49.123464],[36.905565,49.123959]]]}},{"type":"Feature","properties":{"cadnum":"6320482001:01:000:0021"},"geometry":{"type":"Polygon","coordinates":[[[36.907321,49.120282],[36.907307,49.120271],[36.907117,49.120403],[36.90731595306859,49.120568],[36.907315,49.120568],[36.907702,49.120888],[36.908092,49.121201],[36.908337,49.121069],[36.907923,49.120752],[36.907830652173914,49.12068],[36.907832,49.12068],[36.907321,49.120282]]]}},{"type":"Feature","properties":{"cadnum":"6320482001:01:000:0134"},"geometry":{"type":"Polygon","coordinates":[[[36.907704,49.122673],[36.90816,49.122419],[36.907837,49.122192],[36.907386,49.122442],[36.907704,49.122673]]]}},{"type":"Feature","properties":{"cadnum":"6320482001:01:000:0133"},"geometry":{"type":"Polygon","coordinates":[[[36.907386,49.122442],[36.907837,49.122192],[36.907281,49.121803],[36.906854,49.122039],[36.907168,49.122284],[36.907358,49.122422],[36.907386,49.122442]]]}},{"type":"Feature","properties":{"cadnum":"6320482001:01:000:0046"},"geometry":{"type":"Polygon","coordinates":[[[36.906908,49.122678],[36.907358,49.122422],[36.907168,49.122284],[36.906854,49.122039],[36.906379,49.122303],[36.906646,49.122493],[36.906908,49.122678]]]}},{"type":"Feature","properties":{"cadnum":"6320482001:01:000:0040"},"geometry":{"type":"Polygon","coordinates":[[[36.90471,49.123133],[36.904826,49.123028],[36.905045,49.122844],[36.905117,49.122786],[36.90484,49.122553],[36.904742,49.122481],[36.904183,49.122829],[36.904366,49.122948],[36.90471,49.123133]]]}},{"type":"Feature","properties":{"cadnum":"6320482001:01:000:0034"},"geometry":{"type":"Polygon","coordinates":[[[36.905738,49.123642],[36.906127,49.123464],[36.905746,49.123129],[36.905467,49.122925],[36.905137,49.123131],[36.905522,49.123428],[36.905738,49.123642]]]}},{"type":"Feature","properties":{"cadnum":"6320482001:01:000:0117"},"geometry":{"type":"Polygon","coordinates":[[[36.906028,49.120551],[36.905864,49.120393],[36.90550482969432,49.120568],[36.905504,49.120568],[36.905394,49.120622],[36.905454,49.12068],[36.905454359322036,49.12068],[36.905701,49.120917],[36.906171,49.120689],[36.90616155371901,49.12068],[36.906162,49.12068],[36.906028,49.120551]]]}},{"type":"Feature","properties":{"cadnum":"6320482001:00:000:0209"},"geometry":{"type":"Polygon","coordinates":[[[36.884153,49.112501],[36.884545,49.112357],[36.884104,49.111956],[36.883931,49.111798],[36.883712,49.111881],[36.883538,49.111948],[36.883873,49.112248],[36.884153,49.112501]]]}},{"type":"Feature","properties":{"cadnum":"6320482001:00:000:0146"},"geometry":{"type":"Polygon","coordinates":[[[36.886511,49.11266338983051],[36.886511,49.112664],[36.886601,49.112628],[36.886338,49.11228],[36.886051,49.112416],[36.886306,49.112744],[36.886511,49.11266338983051]]]}},{"type":"Feature","properties":{"cadnum":"6320482001:00:000:0279"},"geometry":{"type":"Polygon","coordinates":[[[36.884884,49.112189],[36.885252,49.112027],[36.884931,49.111702],[36.884863,49.111633],[36.884813,49.111584],[36.884703,49.111461],[36.884317,49.111626],[36.884609,49.111937],[36.884884,49.112189]]]}},{"type":"Feature","properties":{"cadnum":"6320482001:00:000:0269"},"geometry":{"type":"Polygon","coordinates":[[[36.882985,49.113022],[36.88335,49.112857],[36.883123,49.112636],[36.883114,49.112628],[36.882944,49.112464],[36.882792,49.112305],[36.88241,49.112471],[36.882623,49.112711],[36.882985,49.113022]]]}},{"type":"Feature","properties":{"cadnum":"6320482001:00:000:0283"},"geometry":{"type":"Polygon","coordinates":[[[36.884228,49.113114],[36.884635,49.112933],[36.884153,49.112501],[36.88413,49.11248],[36.883739,49.112664],[36.88381,49.112729],[36.884228,49.113114]]]}},{"type":"Feature","properties":{"cadnum":"6320482001:00:000:0262"},"geometry":{"type":"Polygon","coordinates":[[[36.886648743589895,49.1133589743589],[36.8866075068493,49.113377],[36.886605,49.113377],[36.885793,49.113733],[36.886021,49.113965],[36.886511,49.11374738670695],[36.886511,49.113748],[36.886877,49.113585],[36.886933,49.113562],[36.886937,49.113559],[36.886797,49.113377],[36.88679547428571,49.113377],[36.886748,49.113315],[36.886648743589895,49.1133589743589]]]}},{"type":"Feature","properties":{"cadnum":"6320482001:00:000:0210"},"geometry":{"type":"Polygon","coordinates":[[[36.884663,49.112958],[36.885033,49.112801],[36.884545,49.112357],[36.884153,49.112501],[36.884663,49.112958]]]}},{"type":"Feature","properties":{"cadnum":"6320482001:01:000:0145"},"geometry":{"type":"Polygon","coordinates":[[[36.886306,49.112744],[36.886511,49.11300881432361],[36.886511,49.11301],[36.886882,49.11349],[36.88688316483516,49.11349],[36.886937,49.113559],[36.88711134821429,49.11349],[36.887112,49.11349],[36.88722,49.113447],[36.886601,49.112628],[36.886306,49.112744]]]}},{"type":"Feature","properties":{"cadnum":"6320482001:00:000:2024"},"geometry":{"type":"Polygon","coordinates":[[[36.883342,49.112848],[36.883733,49.112658],[36.883362,49.112313],[36.883173,49.112136],[36.882952,49.112235],[36.882902,49.112257],[36.882792,49.112305],[36.882944,49.112464],[36.883114,49.112628],[36.883123,49.112636],[36.883342,49.112848]]]}},{"type":"Feature","properties":{"cadnum":"6320482001:00:000:0284"},"geometry":{"type":"Polygon","coordinates":[[[36.883739,49.112664],[36.88413,49.11248],[36.883873,49.112248],[36.883733,49.112124],[36.883674,49.11207],[36.883538,49.111948],[36.883173,49.112136],[36.883362,49.112313],[36.883733,49.112658],[36.883739,49.112664]]]}},{"type":"Feature","properties":{"cadnum":"6320482001:00:000:0268"},"geometry":{"type":"Polygon","coordinates":[[[36.883905,49.113368],[36.88335,49.112857],[36.882985,49.113022],[36.883527,49.11349],[36.88352858552632,49.11349],[36.883574,49.113529],[36.883653796052634,49.11349],[36.883654,49.11349],[36.883905,49.113368]]]}},{"type":"Feature","properties":{"cadnum":"6320482001:01:000:0141"},"geometry":{"type":"Polygon","coordinates":[[[36.890156,49.112189],[36.89053,49.112046],[36.890035,49.111386],[36.889684,49.111521],[36.890156,49.112189]]]}},{"type":"Feature","properties":{"cadnum":"6320482001:01:000:0050"},"geometry":{"type":"Polygon","coordinates":[[[36.889593,49.11255],[36.889975,49.112418],[36.889755,49.112078],[36.889539,49.11175],[36.889166,49.111844],[36.889375,49.112188],[36.889593,49.11255]]]}},{"type":"Feature","properties":{"cadnum":"6320482001:01:000:0153"},"geometry":{"type":"Polygon","coordinates":[[[36.890419,49.113284],[36.890188,49.113028],[36.88937087466667,49.113377],[36.889369,49.113377],[36.88931,49.113403],[36.889388,49.11349],[36.88938826506024,49.11349],[36.889534,49.113652],[36.88992338909091,49.11349],[36.889924,49.11349],[36.890419,49.113284]]]}},{"type":"Feature","properties":{"cadnum":"6320482001:01:000:0152"},"geometry":{"type":"Polygon","coordinates":[[[36.889177,49.113459],[36.888969,49.113245],[36.88866243673469,49.113377],[36.888661,49.113377],[36.887365,49.113936],[36.887577,49.114141],[36.887703,49.114088],[36.889104354531,49.11349],[36.889105,49.11349],[36.889177,49.113459]]]}},{"type":"Feature","properties":{"cadnum":"6320482001:01:000:0151"},"geometry":{"type":"Polygon","coordinates":[[[36.88931,49.113403],[36.890188,49.113028],[36.889978,49.112811],[36.888969,49.113245],[36.88909729906542,49.113377],[36.889096,49.113377],[36.889177,49.113459],[36.88931,49.113403]]]}},{"type":"Feature","properties":{"cadnum":"6320482001:01:000:0067"},"geometry":{"type":"Polygon","coordinates":[[[36.891213,49.113305],[36.89141,49.113254],[36.891751,49.113131],[36.891634,49.112812],[36.891606,49.112824],[36.891057,49.113059],[36.890645,49.113214],[36.890722,49.113299],[36.890852,49.113444],[36.891213,49.113305]]]}},{"type":"Feature","properties":{"cadnum":"6320482001:01:000:0154"},"geometry":{"type":"Polygon","coordinates":[[[36.889177,49.113459],[36.887703,49.114088],[36.887918,49.114325],[36.889534,49.113652],[36.88931,49.113403],[36.889177,49.113459]]]}},{"type":"Feature","properties":{"cadnum":"6320482001:01:000:0144"},"geometry":{"type":"Polygon","coordinates":[[[36.887232,49.112344],[36.887513,49.112237],[36.887071,49.111688],[36.886802,49.111788],[36.887232,49.112344]]]}},{"type":"Feature","properties":{"cadnum":"6320482001:01:000:0143"},"geometry":{"type":"Polygon","coordinates":[[[36.887832,49.113162],[36.888139,49.113045],[36.887513,49.112237],[36.887232,49.112344],[36.887832,49.113162]]]}},{"type":"Feature","properties":{"cadnum":"6320482001:01:000:0140"},"geometry":{"type":"Polygon","coordinates":[[[36.890902,49.111904],[36.89124,49.111775],[36.890659,49.111055],[36.890344,49.111176],[36.890902,49.111904]]]}},{"type":"Feature","properties":{"cadnum":"6320482001:01:000:0142"},"geometry":{"type":"Polygon","coordinates":[[[36.889684,49.111521],[36.890035,49.111386],[36.889681,49.110914],[36.889542,49.110746],[36.889212,49.110842],[36.889684,49.111521]]]}},{"type":"Feature","properties":{"cadnum":"6320482001:01:000:0051"},"geometry":{"type":"Polygon","coordinates":[[[36.889166,49.111844],[36.889539,49.11175],[36.88922,49.111264],[36.888882,49.111374],[36.889166,49.111844]]]}},{"type":"Feature","properties":{"cadnum":"6320482001:00:000:0208"},"geometry":{"type":"Polygon","coordinates":[[[36.91846,49.116735],[36.919084,49.116549],[36.918286,49.11572],[36.917651,49.115926],[36.91846,49.116735]]]}},{"type":"Feature","properties":{"cadnum":"6320482001:00:000:0202"},"geometry":{"type":"Polygon","coordinates":[[[36.916617,49.116731],[36.916869,49.116543],[36.916097,49.116062],[36.916021,49.116128],[36.915798,49.116344],[36.916617,49.116731]]]}},{"type":"Feature","properties":{"cadnum":"6320482001:01:000:0063"},"geometry":{"type":"Polygon","coordinates":[[[36.915978,49.116851],[36.915839,49.116737],[36.915544,49.116602],[36.915528,49.116616],[36.915522,49.116627],[36.915526,49.116645],[36.915504,49.116667],[36.915491,49.116672],[36.915359,49.116864],[36.91532348868778,49.116973],[36.915323,49.116973],[36.915304130111494,49.11703242007445],[36.915287,49.117085],[36.91528743243243,49.117085],[36.915276,49.117121],[36.915461,49.117184],[36.915412,49.117293],[36.915565,49.117367],[36.915789,49.117182],[36.915908,49.116973],[36.91590761538462,49.116973],[36.915978,49.116851]]]}},{"type":"Feature","properties":{"cadnum":"6320482001:01:000:0064"},"geometry":{"type":"Polygon","coordinates":[[[36.915978,49.116851],[36.915843,49.117085],[36.91584422966507,49.117085],[36.915789,49.117182],[36.915833,49.117205],[36.916314,49.117451],[36.916561,49.11729],[36.916144,49.116987],[36.915978,49.116851]]]}},{"type":"Feature","properties":{"cadnum":"6320482001:00:000:0225"},"geometry":{"type":"Polygon","coordinates":[[[36.913082,49.115848],[36.912507,49.115654],[36.912001,49.11544],[36.911725,49.115699],[36.911682,49.115867],[36.911803,49.115969],[36.911583,49.116159],[36.912495,49.11671],[36.914148,49.116872],[36.914148,49.11687114592275],[36.91421,49.116877],[36.914292,49.116839],[36.914659,49.116291],[36.91456,49.116168],[36.914003,49.116059],[36.913977,49.116053],[36.913977,49.11605304343105],[36.913082,49.115848]],[[36.914148,49.11643933333333],[36.914164,49.116444],[36.914152,49.116461],[36.914128,49.116453],[36.91414,49.116437],[36.914148,49.11644],[36.914148,49.11643933333333]],[[36.913647,49.116062],[36.913648,49.116045],[36.913745,49.116049],[36.913742,49.116066],[36.913647,49.116062]],[[36.913047,49.115876],[36.913058,49.115859],[36.913082,49.115866],[36.913073,49.115883],[36.913047,49.115876]],[[36.912463,49.115697],[36.912488,49.115695],[36.912505,49.115756],[36.912481,49.11576],[36.912463,49.115697]],[[36.914242,49.116187],[36.914262,49.116177],[36.914324,49.116224],[36.914305,49.116235],[36.914242,49.116187]]]}},{"type":"Feature","properties":{"cadnum":"6320482001:00:000:0207"},"geometry":{"type":"Polygon","coordinates":[[[36.917651,49.115926],[36.918286,49.11572],[36.917933,49.115353],[36.917288,49.11556],[36.917651,49.115926]]]}},{"type":"Feature","properties":{"cadnum":"6320482001:00:000:0193"},"geometry":{"type":"Polygon","coordinates":[[[36.900187,49.113003],[36.90058,49.112787],[36.900637,49.112756],[36.90074,49.1127],[36.9002,49.112399],[36.900002,49.112507],[36.899946,49.112538],[36.899722,49.11266],[36.900187,49.113003]]]}},{"type":"Feature","properties":{"cadnum":"6320482001:00:000:0194"},"geometry":{"type":"Polygon","coordinates":[[[36.900576,49.11329],[36.901122,49.112989],[36.901177,49.112959],[36.901204,49.112944],[36.90074,49.1127],[36.900637,49.112756],[36.90058,49.112787],[36.900187,49.113003],[36.900576,49.11329]]]}},{"type":"Feature","properties":{"cadnum":"6320482001:01:000:0025"},"geometry":{"type":"Polygon","coordinates":[[[36.898296,49.113339],[36.898602,49.113163],[36.898354,49.112985],[36.89787,49.112648],[36.897727,49.112745],[36.897587,49.112838],[36.898046,49.113158],[36.898296,49.113339]]]}},{"type":"Feature","properties":{"cadnum":"6320482001:00:000:0237"},"geometry":{"type":"Polygon","coordinates":[[[36.90271,49.113074],[36.902957,49.112678],[36.900761,49.111989],[36.900845,49.112102],[36.901122,49.112315],[36.901951,49.112632],[36.902296,49.112937],[36.90271,49.113074]]]}},{"type":"Feature","properties":{"cadnum":"6320482001:00:000:0188"},"geometry":{"type":"Polygon","coordinates":[[[36.902618,49.111651],[36.902799,49.111333],[36.901165,49.11085],[36.900979,49.111177],[36.902618,49.111651]]]}},{"type":"Feature","properties":{"cadnum":"6320482001:00:000:0263"},"geometry":{"type":"Polygon","coordinates":[[[36.898602,49.113163],[36.898905,49.112987],[36.898154,49.112454],[36.89787,49.112648],[36.898354,49.112985],[36.898602,49.113163]]]}},{"type":"Feature","properties":{"cadnum":"6320482001:00:000:0273"},"geometry":{"type":"Polygon","coordinates":[[[36.902131,49.11242],[36.902336,49.112118],[36.900666,49.111641],[36.900713,49.111881],[36.900875,49.112025],[36.902131,49.11242]]]}},{"type":"Feature","properties":{"cadnum":"6320482001:00:000:0248"},"geometry":{"type":"Polygon","coordinates":[[[36.900094,49.113415],[36.900421,49.113235],[36.899666,49.112691],[36.899352,49.112863],[36.899463,49.112948],[36.900061,49.113391],[36.900094,49.113415]]]}},{"type":"Feature","properties":{"cadnum":"6320482001:01:000:0054"},"geometry":{"type":"Polygon","coordinates":[[[36.88241,49.115526],[36.882797,49.115352],[36.882571,49.11513],[36.882229,49.114799],[36.881857,49.114957],[36.882054,49.115161],[36.882209,49.115326],[36.88241,49.115526]]]}},{"type":"Feature","properties":{"cadnum":"6320482001:00:000:0197"},"geometry":{"type":"Polygon","coordinates":[[[36.883205,49.115215],[36.883602,49.115032],[36.883544,49.114975],[36.883123,49.114547],[36.883079,49.1145],[36.882675,49.114674],[36.883134,49.115141],[36.883135,49.115145],[36.883188,49.115198],[36.883205,49.115215]]]}},{"type":"Feature","properties":{"cadnum":"6320482001:01:000:0148"},"geometry":{"type":"Polygon","coordinates":[[[36.883123,49.114547],[36.883642,49.114313],[36.883157,49.113741],[36.882585,49.113998],[36.883123,49.114547]]]}},{"type":"Feature","properties":{"cadnum":"6320482001:00:000:0190"},"geometry":{"type":"Polygon","coordinates":[[[36.882797,49.115352],[36.883125,49.115211],[36.883134,49.115222],[36.883188,49.115198],[36.883135,49.115145],[36.883134,49.115141],[36.882638,49.114636],[36.882237,49.114807],[36.882571,49.11513],[36.882797,49.115352]]]}},{"type":"Feature","properties":{"cadnum":"6320482001:00:000:0221"},"geometry":{"type":"Polygon","coordinates":[[[36.882237,49.114807],[36.882638,49.114636],[36.882675,49.114674],[36.883079,49.1145],[36.882585,49.113998],[36.883157,49.113741],[36.882984,49.113585],[36.881916,49.114139],[36.881728,49.114315],[36.88179,49.114374],[36.882229,49.114799],[36.882237,49.114807]]]}},{"type":"Feature","properties":{"cadnum":"6320482001:01:000:0147"},"geometry":{"type":"Polygon","coordinates":[[[36.883544,49.114975],[36.884023,49.11476],[36.883642,49.114313],[36.883123,49.114547],[36.883544,49.114975]]]}},{"type":"Feature","properties":{"cadnum":"6320482001:01:000:0055"},"geometry":{"type":"Polygon","coordinates":[[[36.881857,49.114957],[36.882229,49.114799],[36.88179,49.114374],[36.881728,49.114315],[36.881413,49.114497],[36.881857,49.114957]]]}},{"type":"Feature","properties":{"cadnum":"6320482001:01:000:0079"},"geometry":{"type":"Polygon","coordinates":[[[36.909953,49.116017],[36.910311,49.115737],[36.909953,49.115556],[36.909795,49.115679],[36.909689,49.115626],[36.909473,49.115795],[36.909953,49.116017]]]}},{"type":"Feature","properties":{"cadnum":"6320482001:01:000:0103"},"geometry":{"type":"Polygon","coordinates":[[[36.909436,49.116573],[36.909823,49.11627],[36.909399,49.11606],[36.909057,49.116328],[36.909436,49.116573]]]}},{"type":"Feature","properties":{"cadnum":"6320482001:01:000:0078"},"geometry":{"type":"Polygon","coordinates":[[[36.910667,49.116347],[36.911002,49.116085],[36.910311,49.115737],[36.909953,49.116017],[36.910667,49.116347]]]}},{"type":"Feature","properties":{"cadnum":"6320482001:01:000:0102"},"geometry":{"type":"Polygon","coordinates":[[[36.909952,49.116906],[36.9104,49.116555],[36.909823,49.11627],[36.909436,49.116573],[36.909952,49.116906]]]}},{"type":"Feature","properties":{"cadnum":"6320482001:00:000:0179"},"geometry":{"type":"Polygon","coordinates":[[[36.911313,49.116708],[36.911811,49.116358],[36.911347,49.116077],[36.911184,49.116193],[36.91117,49.116184],[36.910837,49.116421],[36.911313,49.116708]]]}},{"type":"Feature","properties":{"cadnum":"6320482001:00:000:0246"},"geometry":{"type":"Polygon","coordinates":[[[36.895158,49.106028],[36.895467,49.105624],[36.894859,49.105462],[36.8945,49.105853],[36.895158,49.106028]]]}},{"type":"Feature","properties":{"cadnum":"6320482001:01:000:0162"},"geometry":{"type":"Polygon","coordinates":[[[36.890542,49.116662],[36.892015,49.11611],[36.891675,49.115762],[36.890224,49.116336],[36.890542,49.116662]]]}},{"type":"Feature","properties":{"cadnum":"6320482001:00:000:0241"},"geometry":{"type":"Polygon","coordinates":[[[36.88748,49.116804],[36.887911,49.116786],[36.888756,49.116486],[36.889276,49.116279],[36.888946,49.115952],[36.888819,49.115764],[36.888453,49.11531],[36.887384,49.115806],[36.886837,49.116056],[36.887199,49.116356],[36.887424,49.116544],[36.88748,49.116804]]]}},{"type":"Feature","properties":{"cadnum":"6320482001:01:000:0156"},"geometry":{"type":"Polygon","coordinates":[[[36.888772,49.115192],[36.890321,49.114617],[36.890092,49.114374],[36.888545,49.114953],[36.888772,49.115192]]]}},{"type":"Feature","properties":{"cadnum":"6320482001:01:000:0155"},"geometry":{"type":"Polygon","coordinates":[[[36.890321,49.114617],[36.891254,49.11427],[36.891022,49.114025],[36.890092,49.114374],[36.890321,49.114617]]]}},{"type":"Feature","properties":{"cadnum":"6320482001:00:000:0182"},"geometry":{"type":"Polygon","coordinates":[[[36.89014,49.114356],[36.891014,49.114028],[36.890789,49.113773],[36.89045,49.113917],[36.890358,49.113901],[36.889898,49.114084],[36.890129,49.114344],[36.89014,49.114356]]]}},{"type":"Feature","properties":{"cadnum":"6320482001:01:000:0167"},"geometry":{"type":"Polygon","coordinates":[[[36.893135,49.118839],[36.894135,49.118547],[36.894202,49.118615],[36.894351,49.118572],[36.894115,49.118375],[36.893006,49.118732],[36.893135,49.118839]]]}},{"type":"Feature","properties":{"cadnum":"6320482001:01:000:0166"},"geometry":{"type":"Polygon","coordinates":[[[36.89612,49.117562],[36.89619,49.117537],[36.896794,49.117319],[36.89656,49.117061],[36.895807,49.117324],[36.89612,49.117562]]]}},{"type":"Feature","properties":{"cadnum":"6320482001:01:000:0169"},"geometry":{"type":"Polygon","coordinates":[[[36.896477,49.117765],[36.897478,49.117412],[36.897268,49.117158],[36.896794,49.117319],[36.89619,49.117537],[36.896477,49.117765]]]}},{"type":"Feature","properties":{"cadnum":"6320482001:01:000:0165"},"geometry":{"type":"Polygon","coordinates":[[[36.895251,49.117871],[36.89612,49.117562],[36.895807,49.117324],[36.894929,49.117626],[36.895251,49.117871]]]}},{"type":"Feature","properties":{"cadnum":"6320482001:01:000:0164"},"geometry":{"type":"Polygon","coordinates":[[[36.893939,49.118166],[36.894836,49.117756],[36.894532,49.117539],[36.893655,49.117963],[36.893939,49.118166]]]}},{"type":"Feature","properties":{"cadnum":"6320482001:01:000:0168"},"geometry":{"type":"Polygon","coordinates":[[[36.894351,49.118572],[36.895441,49.118255],[36.895174,49.118033],[36.894115,49.118375],[36.894351,49.118572]]]}},{"type":"Feature","properties":{"cadnum":"6320482001:01:000:0163"},"geometry":{"type":"Polygon","coordinates":[[[36.892762,49.118704],[36.893939,49.118166],[36.893655,49.117963],[36.892531,49.118505],[36.892762,49.118704]]]}},{"type":"Feature","properties":{"cadnum":"6320482001:00:000:0261"},"geometry":{"type":"Polygon","coordinates":[[[36.895541,49.118093],[36.895634,49.118046],[36.895672,49.118028],[36.895798,49.117979],[36.895852,49.117961],[36.896477,49.117765],[36.89619,49.117537],[36.89612,49.117562],[36.895251,49.117871],[36.895541,49.118093]]]}},{"type":"Feature","properties":{"cadnum":"6320482001:01:000:0086"},"geometry":{"type":"Polygon","coordinates":[[[36.910518,49.113166],[36.910605,49.112874],[36.909206,49.112507],[36.909153,49.112689],[36.910518,49.113166]]]}},{"type":"Feature","properties":{"cadnum":"6320482001:01:000:0087"},"geometry":{"type":"Polygon","coordinates":[[[36.911408,49.11341],[36.91151,49.113073],[36.911455,49.113062],[36.910928,49.112959],[36.910605,49.112874],[36.910518,49.113166],[36.910833,49.113276],[36.911408,49.11341]]]}},{"type":"Feature","properties":{"cadnum":"6320482001:01:000:0048"},"geometry":{"type":"Polygon","coordinates":[[[36.909611,49.112022],[36.909877,49.111834],[36.910321,49.111539],[36.910193,49.111451],[36.91015,49.111432],[36.909868,49.111354],[36.909609,49.11159],[36.909382,49.111793],[36.909288,49.111877],[36.909611,49.112022]]]}},{"type":"Feature","properties":{"cadnum":"6320482001:01:000:0114"},"geometry":{"type":"Polygon","coordinates":[[[36.904297,49.120292],[36.904787,49.120077],[36.904554,49.119853],[36.904321,49.11962],[36.903877,49.119815],[36.904297,49.120292]]]}},{"type":"Feature","properties":{"cadnum":"6320482001:01:000:0028"},"geometry":{"type":"Polygon","coordinates":[[[36.904787,49.120077],[36.905191,49.119899],[36.904649,49.119375],[36.904248,49.119549],[36.904554,49.119853],[36.904787,49.120077]]]}},{"type":"Feature","properties":{"cadnum":"6320482001:01:000:0022"},"geometry":{"type":"Polygon","coordinates":[[[36.907117,49.120403],[36.907307,49.120271],[36.90685,49.119936],[36.906692,49.120049],[36.907117,49.120403]]]}},{"type":"Feature","properties":{"cadnum":"6320482001:01:000:0084"},"geometry":{"type":"Polygon","coordinates":[[[36.905792,49.120325],[36.906375,49.120042],[36.906257,49.119948],[36.905946,49.119698],[36.905412,49.119958],[36.905792,49.120325]]]}},{"type":"Feature","properties":{"cadnum":"6320482001:00:000:0184"},"geometry":{"type":"Polygon","coordinates":[[[36.905875,49.11787],[36.906361,49.117668],[36.905765,49.117096],[36.90529,49.117298],[36.905875,49.11787]]]}},{"type":"Feature","properties":{"cadnum":"6320482001:01:000:0081"},"geometry":{"type":"Polygon","coordinates":[[[36.907664,49.117587],[36.907951,49.117363],[36.907534,49.117098],[36.907447,49.117043],[36.90726,49.117169],[36.907409,49.117318],[36.907334,49.117387],[36.907664,49.117587]]]}},{"type":"Feature","properties":{"cadnum":"6320482001:01:000:0083"},"geometry":{"type":"Polygon","coordinates":[[[36.907653,49.118507],[36.908005,49.118268],[36.90733,49.117841],[36.906987,49.118075],[36.907653,49.118507]]]}},{"type":"Feature","properties":{"cadnum":"6320482001:01:000:0110"},"geometry":{"type":"Polygon","coordinates":[[[36.905675,49.119591],[36.906133,49.119382],[36.905691,49.118928],[36.905211,49.119147],[36.905675,49.119591]]]}},{"type":"Feature","properties":{"cadnum":"6320482001:01:000:0082"},"geometry":{"type":"Polygon","coordinates":[[[36.906987,49.118075],[36.90733,49.117841],[36.906835,49.117528],[36.906497,49.117758],[36.906987,49.118075]]]}},{"type":"Feature","properties":{"cadnum":"6320482001:01:000:0085"},"geometry":{"type":"Polygon","coordinates":[[[36.906028,49.120551],[36.906594,49.120277],[36.906483,49.120176],[36.906515,49.120154],[36.906375,49.120042],[36.905792,49.120325],[36.905864,49.120393],[36.906028,49.120551]]]}},{"type":"Feature","properties":{"cadnum":"6320482001:01:000:0042"},"geometry":{"type":"Polygon","coordinates":[[[36.906952,49.120594],[36.907191,49.120465],[36.906692,49.120049],[36.906515,49.120154],[36.906483,49.120176],[36.906775,49.120439],[36.906812,49.120473],[36.906952,49.120594]]]}},{"type":"Feature","properties":{"cadnum":"6320482001:01:000:0044"},"geometry":{"type":"Polygon","coordinates":[[[36.906257,49.119948],[36.90657,49.119741],[36.907091,49.119477],[36.906839,49.119273],[36.906267,49.11955],[36.905946,49.119698],[36.906257,49.119948]]]}},{"type":"Feature","properties":{"cadnum":"6320482001:01:000:0116"},"geometry":{"type":"Polygon","coordinates":[[[36.905394,49.120622],[36.905864,49.120393],[36.905792,49.120325],[36.905412,49.119958],[36.904942,49.120186],[36.905394,49.120622]]]}},{"type":"Feature","properties":{"cadnum":"6320482001:01:000:0115"},"geometry":{"type":"Polygon","coordinates":[[[36.903877,49.119815],[36.904321,49.11962],[36.904248,49.119549],[36.903774,49.119077],[36.903363,49.119257],[36.903732,49.119651],[36.903877,49.119815]]]}},{"type":"Feature","properties":{"cadnum":"6320482001:00:000:0045"},"geometry":{"type":"Polygon","coordinates":[[[36.907321,49.120282],[36.907514,49.12017],[36.907774,49.120029],[36.907091,49.119477],[36.90657,49.119741],[36.906257,49.119948],[36.906515,49.120155],[36.906692,49.120049],[36.90685,49.119936],[36.907321,49.120282]]]}},{"type":"Feature","properties":{"cadnum":"6320482001:01:000:0029"},"geometry":{"type":"Polygon","coordinates":[[[36.904248,49.119549],[36.904649,49.119375],[36.904078,49.118821],[36.903614,49.118919],[36.904248,49.119549]]]}},{"type":"Feature","properties":{"cadnum":"6320482001:01:000:0111"},"geometry":{"type":"Polygon","coordinates":[[[36.905211,49.119147],[36.905691,49.118928],[36.905107,49.118325],[36.904604,49.118555],[36.904639,49.118602],[36.905211,49.119147]]]}},{"type":"Feature","properties":{"cadnum":"6320482001:00:000:0271"},"geometry":{"type":"Polygon","coordinates":[[[36.903391,49.11892],[36.903547,49.118871],[36.904335,49.118664],[36.904605,49.118593],[36.904456,49.11837],[36.903114,49.118706],[36.903179,49.118756],[36.903276,49.118832],[36.903306,49.118854],[36.903391,49.11892]]]}}]}