{"type":"FeatureCollection","features":[{"type":"Feature","properties":{"cadnum":"6320682501:01:000:0088"},"geometry":{"type":"Polygon","coordinates":[[[36.618341,48.685652],[36.618368,48.685624],[36.618441,48.685642],[36.618808,48.685289],[36.61814,48.685131],[36.61777,48.685489],[36.618341,48.685652]]]}},{"type":"Feature","properties":{"cadnum":"6320682501:01:000:0089"},"geometry":{"type":"Polygon","coordinates":[[[36.618771,48.686544],[36.618852,48.68631],[36.617499,48.686102],[36.617454,48.686304],[36.618771,48.686544]]]}},{"type":"Feature","properties":{"cadnum":"6320682501:01:000:0149"},"geometry":{"type":"Polygon","coordinates":[[[36.617517,48.6869485721519],[36.617741,48.686986],[36.618378,48.687092],[36.618456,48.686889],[36.617819,48.686786],[36.61737978571443,48.686719142857164],[36.617291,48.686705],[36.61722,48.686899],[36.617517,48.686949],[36.617517,48.6869485721519]]]}},{"type":"Feature","properties":{"cadnum":"6320682501:01:000:0092"},"geometry":{"type":"Polygon","coordinates":[[[36.617517,48.68717111851851],[36.61811814953274,48.687277],[36.618118,48.687277],[36.618561,48.687355],[36.618657,48.687138],[36.617517,48.68695539130435],[36.617517,48.686955],[36.617292,48.686919],[36.617186,48.687113],[36.617517,48.687172],[36.617517,48.68717111851851]]]}},{"type":"Feature","properties":{"cadnum":"6320682501:01:000:0080"},"geometry":{"type":"Polygon","coordinates":[[[36.617517,48.68653791098748],[36.618786,48.686755],[36.618836,48.686556],[36.618771,48.686544],[36.617454,48.686304],[36.617348,48.686509],[36.617517,48.686538],[36.617517,48.68653791098748]]]}},{"type":"Feature","properties":{"cadnum":"6320682501:01:000:0122"},"geometry":{"type":"Polygon","coordinates":[[[36.601038,48.69452683146067],[36.60104375510205,48.69453],[36.601042,48.69453],[36.60119355737801,48.694612475410366],[36.601249,48.694643],[36.60124964957264,48.694643],[36.601257,48.694647],[36.601330806451514,48.69456396774205],[36.601418,48.694468],[36.601054,48.694268],[36.600893,48.694447],[36.601038,48.694528],[36.601038,48.69452683146067]]]}},{"type":"Feature","properties":{"cadnum":"6320682501:01:000:0164"},"geometry":{"type":"Polygon","coordinates":[[[36.618916,48.681451],[36.619054,48.681073],[36.619214,48.680764],[36.618614,48.680656],[36.618506,48.680942],[36.618171,48.680972],[36.618169,48.681113],[36.618167,48.681389],[36.618916,48.681451]]]}},{"type":"Feature","properties":{"cadnum":"6320682501:01:000:0159"},"geometry":{"type":"Polygon","coordinates":[[[36.618302,48.680067],[36.618043,48.680056],[36.617987,48.680058],[36.617971,48.680058],[36.617862,48.68006],[36.617712,48.680065],[36.617699,48.680137],[36.617699462686566,48.680137],[36.617677,48.680266],[36.617654,48.680547],[36.618319,48.680539],[36.618309,48.680238],[36.61830486549708,48.680137],[36.618305,48.680137],[36.618302,48.680067]]]}},{"type":"Feature","properties":{"cadnum":"6320682501:01:000:0170"},"geometry":{"type":"Polygon","coordinates":[[[36.618738,48.679985],[36.61853063414633,48.680024],[36.618529,48.680024],[36.618302,48.680067],[36.618309,48.680238],[36.618319,48.680539],[36.617654,48.680547],[36.617622,48.680924],[36.617733,48.680944],[36.618171,48.680972],[36.618506,48.680942],[36.618614,48.680656],[36.619214,48.680764],[36.619608,48.680834],[36.619631,48.680786],[36.619522,48.680763],[36.618682,48.68059],[36.618696,48.680438],[36.61873198617514,48.68004594009189],[36.618738,48.679985]]]}},{"type":"Feature","properties":{"cadnum":"6320682501:01:000:0163"},"geometry":{"type":"Polygon","coordinates":[[[36.618787,48.68189],[36.618798,48.681834],[36.61884,48.681659],[36.618916,48.681451],[36.618167,48.681389],[36.618164,48.681616],[36.618161,48.681836],[36.618509,48.681865],[36.618627,48.681876],[36.618787,48.68189]]]}},{"type":"Feature","properties":{"cadnum":"6320682501:01:000:0068"},"geometry":{"type":"Polygon","coordinates":[[[36.619954,48.681235],[36.620115,48.680924],[36.619214,48.680764],[36.619054,48.681073],[36.619954,48.681235]]]}},{"type":"Feature","properties":{"cadnum":"6320682501:01:000:0129"},"geometry":{"type":"Polygon","coordinates":[[[36.620543,48.681342],[36.620672,48.681022],[36.620115,48.680924],[36.619954,48.681235],[36.620543,48.681342]]]}},{"type":"Feature","properties":{"cadnum":"6320682501:01:000:0117"},"geometry":{"type":"Polygon","coordinates":[[[36.618169,48.681113],[36.618171,48.680972],[36.617733,48.680944],[36.617736,48.68108],[36.618169,48.681113]]]}},{"type":"Feature","properties":{"cadnum":"6320682501:01:000:0065"},"geometry":{"type":"Polygon","coordinates":[[[36.618161,48.681836],[36.618169,48.681113],[36.617736,48.68108],[36.617749,48.681803],[36.618161,48.681836]]]}},{"type":"Feature","properties":{"cadnum":"6320682501:01:000:0141"},"geometry":{"type":"Polygon","coordinates":[[[36.619685,48.679944],[36.619302,48.679947],[36.61929875789473,48.680024],[36.619298,48.680024],[36.619295165354345,48.68010932283419],[36.619294,48.680137],[36.61929424584718,48.680137],[36.619278,48.680626],[36.619699,48.680696],[36.619745,48.680678],[36.619706,48.680199],[36.619700685714285,48.680137],[36.619701,48.680137],[36.619685,48.679944]]]}},{"type":"Feature","properties":{"cadnum":"6320682501:01:000:0215"},"geometry":{"type":"Polygon","coordinates":[[[36.620154,48.68004],[36.620154,48.680024],[36.620154,48.679915],[36.619685,48.679944],[36.61969163212435,48.680024],[36.619691,48.680024],[36.619706,48.680199],[36.619745,48.680678],[36.619993,48.68066],[36.619958,48.680226],[36.620129,48.680116],[36.620154,48.68004]]]}},{"type":"Feature","properties":{"cadnum":"6320682501:01:000:0069"},"geometry":{"type":"Polygon","coordinates":[[[36.61908,48.676269],[36.619331,48.676267],[36.619524,48.676264],[36.619561,48.676265],[36.619606,48.676022],[36.619219,48.675975],[36.618678,48.67591],[36.618602,48.675904],[36.618596,48.675942],[36.61855,48.676241],[36.61908,48.676269]]]}},{"type":"Feature","properties":{"cadnum":"6320682501:01:000:0107"},"geometry":{"type":"Polygon","coordinates":[[[36.620079,48.675151],[36.620267,48.674937],[36.619371,48.674557],[36.619124,48.674839],[36.620079,48.675151]]]}},{"type":"Feature","properties":{"cadnum":"6320682501:01:000:0083"},"geometry":{"type":"Polygon","coordinates":[[[36.621059,48.675062],[36.621258,48.674559],[36.620771,48.674479],[36.620412,48.674969],[36.621059,48.675062]]]}},{"type":"Feature","properties":{"cadnum":"6320682501:01:000:0132"},"geometry":{"type":"Polygon","coordinates":[[[36.61855,48.676241],[36.618596,48.675942],[36.618602,48.675904],[36.618077,48.675864],[36.618022,48.676215],[36.618038,48.676215],[36.61855,48.676241]]]}},{"type":"Feature","properties":{"cadnum":"6320682501:01:000:0188"},"geometry":{"type":"Polygon","coordinates":[[[36.619223,48.676424],[36.619473,48.676397],[36.61947026315788,48.676397],[36.619571,48.676386],[36.619561,48.676265],[36.619524,48.676264],[36.619331,48.676267],[36.61908,48.676269],[36.61855,48.676241],[36.618038,48.676215],[36.618042,48.676478],[36.618574,48.676478],[36.619223,48.676424]]]}},{"type":"Feature","properties":{"cadnum":"6320682501:01:000:0072"},"geometry":{"type":"Polygon","coordinates":[[[36.606665,48.694366],[36.60659851351351,48.69453],[36.606598,48.69453],[36.606575,48.694588],[36.606952,48.694643],[36.60695218137253,48.694643],[36.607974,48.694792],[36.608051,48.694601],[36.606665,48.694366]]]}},{"type":"Feature","properties":{"cadnum":"6320682501:01:000:0091"},"geometry":{"type":"Polygon","coordinates":[[[36.607926,48.69498],[36.60801,48.694798],[36.607974,48.694792],[36.606575,48.694588],[36.606475,48.694804],[36.607926,48.69498]]]}},{"type":"Feature","properties":{"cadnum":"6320682501:01:000:0087"},"geometry":{"type":"Polygon","coordinates":[[[36.606531,48.69502897872341],[36.607819,48.695166],[36.607926,48.69498],[36.606475,48.694804],[36.606362,48.695011],[36.606531,48.69503],[36.606531,48.69502897872341]]]}},{"type":"Feature","properties":{"cadnum":"6320682501:01:000:0005"},"geometry":{"type":"Polygon","coordinates":[[[36.610662,48.69436],[36.610266,48.694313],[36.610261,48.69432],[36.609503,48.694219],[36.609461,48.694489],[36.60980413846157,48.69453],[36.609803,48.69453],[36.610005,48.694554],[36.610171,48.694571],[36.610567,48.69462],[36.610662,48.69436]]]}},{"type":"Feature","properties":{"cadnum":"6320682501:01:000:0095"},"geometry":{"type":"Polygon","coordinates":[[[36.604702,48.694226],[36.604442,48.694161],[36.604359,48.694345],[36.60526227181209,48.69453],[36.605261,48.69453],[36.606126,48.694707],[36.606178,48.694568],[36.604702,48.694226]]]}},{"type":"Feature","properties":{"cadnum":"6320682501:01:000:0050"},"geometry":{"type":"Polygon","coordinates":[[[36.603351,48.695539],[36.603676,48.695193],[36.603223,48.695087],[36.602988,48.695033],[36.602775,48.695241],[36.602626,48.695399],[36.603351,48.695539]]]}},{"type":"Feature","properties":{"cadnum":"6320682501:01:000:0046"},"geometry":{"type":"Polygon","coordinates":[[[36.603487,48.696151],[36.603628,48.695844],[36.603173,48.695787],[36.603139,48.695813],[36.602419,48.695637],[36.602316,48.695812],[36.602535,48.695874],[36.602533,48.695896],[36.603487,48.696151]]]}},{"type":"Feature","properties":{"cadnum":"6320682501:01:000:0047"},"geometry":{"type":"Polygon","coordinates":[[[36.603817,48.69624],[36.603978,48.695889],[36.603802,48.695866],[36.603628,48.695844],[36.603487,48.696151],[36.603817,48.69624]]]}},{"type":"Feature","properties":{"cadnum":"6320682501:01:000:0051"},"geometry":{"type":"Polygon","coordinates":[[[36.603836,48.695632],[36.603916,48.695461],[36.603948,48.695257],[36.603676,48.695193],[36.603351,48.695539],[36.603836,48.695632]]]}},{"type":"Feature","properties":{"cadnum":"6320682501:01:000:0208"},"geometry":{"type":"Polygon","coordinates":[[[36.605202,48.695172],[36.605253,48.694964],[36.604739,48.694879],[36.603921,48.694756],[36.603907,48.694997],[36.604727,48.69511],[36.605202,48.695172]]]}},{"type":"Feature","properties":{"cadnum":"6320682501:01:000:0096"},"geometry":{"type":"Polygon","coordinates":[[[36.601418,48.694468],[36.60136166857143,48.69453],[36.601361,48.69453],[36.601330806451514,48.69456396774205],[36.601259,48.694643],[36.601260555555555,48.694643],[36.601257,48.694647],[36.602394,48.695271],[36.602555,48.695091],[36.60173646167558,48.694643],[36.601737,48.694643],[36.601418,48.694468]]]}},{"type":"Feature","properties":{"cadnum":"6320682501:01:000:0045"},"geometry":{"type":"Polygon","coordinates":[[[36.603545,48.694509],[36.603125,48.694491],[36.603117815789474,48.69453],[36.603117,48.69453],[36.60309989655175,48.69462727586195],[36.603097,48.694643],[36.60309713186813,48.694643],[36.603085,48.694712],[36.603074,48.694911],[36.603905,48.695017],[36.603921,48.694756],[36.60365,48.694736],[36.603578161073685,48.69458184563727],[36.603545,48.694509]]]}},{"type":"Feature","properties":{"cadnum":"6320682501:01:000:0039"},"geometry":{"type":"Polygon","coordinates":[[[36.606462479998925,48.67958704000008],[36.606531,48.679582],[36.606531,48.679581769230765],[36.606541,48.679581],[36.606459,48.679276],[36.605869,48.679278],[36.60596,48.679624],[36.606359,48.67959465148862],[36.606359,48.679595],[36.606462479998925,48.67958704000008]]]}},{"type":"Feature","properties":{"cadnum":"6320682501:01:000:0040"},"geometry":{"type":"Polygon","coordinates":[[[36.606541,48.679581],[36.607667,48.679498],[36.607607,48.679271],[36.606459,48.679276],[36.606541,48.679581]]]}},{"type":"Feature","properties":{"cadnum":"6320682501:01:000:0140"},"geometry":{"type":"Polygon","coordinates":[[[36.6078,48.680029],[36.607776,48.679897],[36.607294,48.679947],[36.606653,48.680001],[36.606658242647065,48.680024],[36.606657,48.680024],[36.606715,48.680272],[36.607375,48.68021],[36.607832,48.680168],[36.607808,48.680061],[36.6078,48.680029]]]}},{"type":"Feature","properties":{"cadnum":"6320682501:01:000:0217"},"geometry":{"type":"Polygon","coordinates":[[[36.606508,48.67983],[36.607431,48.679772],[36.607717,48.67974],[36.607667,48.679498],[36.606541,48.679581],[36.606449,48.679588],[36.606508,48.67983]]]}},{"type":"Feature","properties":{"cadnum":"6320682501:01:000:0145"},"geometry":{"type":"Polygon","coordinates":[[[36.617422,48.688328],[36.616855,48.688193],[36.616711,48.688445],[36.616931,48.688501],[36.617074,48.688539],[36.617304,48.688584],[36.617346,48.68859445070422],[36.617346,48.688595],[36.617716,48.688686],[36.617872,48.688394],[36.617449,48.688296],[36.617422,48.688328]]]}},{"type":"Feature","properties":{"cadnum":"6320682501:01:000:0044"},"geometry":{"type":"Polygon","coordinates":[[[36.617517,48.687611],[36.616994,48.687528],[36.616905,48.687727],[36.617346,48.68779761764706],[36.617346,48.687798],[36.618337,48.687956],[36.618415,48.687753],[36.617517,48.68761103367633],[36.617517,48.687611]]]}},{"type":"Feature","properties":{"cadnum":"6320682501:01:000:0181"},"geometry":{"type":"Polygon","coordinates":[[[36.616917,48.680072],[36.61667,48.680072],[36.616665,48.680137],[36.61666574766355,48.680137],[36.616656,48.680286],[36.616648,48.68033],[36.616634,48.680531],[36.617312,48.680525],[36.617315,48.680279],[36.617342,48.680071],[36.616917,48.680072]]]}},{"type":"Feature","properties":{"cadnum":"6320682501:01:000:0032"},"geometry":{"type":"Polygon","coordinates":[[[36.615062,48.680066],[36.615059,48.680137],[36.61506018151448,48.680137],[36.615039,48.680964],[36.615378,48.680969],[36.615401,48.680069],[36.615062,48.680066]]]}},{"type":"Feature","properties":{"cadnum":"6320682501:01:000:0078"},"geometry":{"type":"Polygon","coordinates":[[[36.614709,48.680083],[36.614711,48.680137],[36.614711322580646,48.680137],[36.614717,48.680269],[36.6147,48.680972],[36.615038,48.680974],[36.615039,48.680964],[36.615057,48.680266],[36.615058,48.680222],[36.615062,48.680071],[36.614709,48.680083]]]}},{"type":"Feature","properties":{"cadnum":"6320682501:01:000:0130"},"geometry":{"type":"Polygon","coordinates":[[[36.60552,48.692823],[36.605409,48.693044],[36.606359,48.69318624598931],[36.606359,48.693187],[36.606771,48.693248],[36.60687,48.693053],[36.606359,48.692966],[36.606359,48.6929665677547],[36.60552,48.692823]]]}},{"type":"Feature","properties":{"cadnum":"6320682501:01:000:0009"},"geometry":{"type":"Polygon","coordinates":[[[36.605335,48.694171],[36.60546,48.693869],[36.604848,48.693746],[36.604739,48.694045],[36.605335,48.694171]]]}},{"type":"Feature","properties":{"cadnum":"6320682501:01:000:0131"},"geometry":{"type":"Polygon","coordinates":[[[36.605409,48.693044],[36.60552,48.692823],[36.605265,48.69278],[36.605122,48.692752],[36.605005,48.692985],[36.605206,48.693014],[36.605409,48.693044]]]}},{"type":"Feature","properties":{"cadnum":"6320682501:01:000:0086"},"geometry":{"type":"Polygon","coordinates":[[[36.606531,48.69341658227848],[36.606675,48.693438],[36.606771,48.693248],[36.606531,48.69321246601942],[36.606531,48.693212],[36.605409,48.693044],[36.605206,48.693014],[36.605242,48.693222],[36.606359,48.693390979829324],[36.606359,48.693391],[36.60636692285491,48.69339217839931],[36.606531,48.693417],[36.606531,48.69341658227848]]]}},{"type":"Feature","properties":{"cadnum":"6320682501:01:000:0102"},"geometry":{"type":"Polygon","coordinates":[[[36.606531,48.692640839650146],[36.607045,48.692733],[36.607124,48.692526],[36.60642190748864,48.692400265785544],[36.606039,48.692331],[36.606022,48.692328],[36.605772,48.692271],[36.605674,48.692486],[36.606359,48.692609891481915],[36.606359,48.69261],[36.60642842110954,48.69262244722518],[36.606531,48.692641],[36.606531,48.692640839650146]]]}},{"type":"Feature","properties":{"cadnum":"6320682501:01:000:0166"},"geometry":{"type":"Polygon","coordinates":[[[36.606531,48.69195153535353],[36.606755,48.69199],[36.607347,48.692112],[36.607426,48.691976],[36.607357,48.691962],[36.607234,48.691931],[36.607097,48.691902],[36.606822,48.691839],[36.606531,48.69178431965443],[36.606531,48.691784],[36.605617,48.691611],[36.605529,48.691778],[36.606531,48.691952],[36.606531,48.69195153535353]]]}},{"type":"Feature","properties":{"cadnum":"6320682501:01:000:0019"},"geometry":{"type":"Polygon","coordinates":[[[36.606531,48.69241980261438],[36.607124,48.692526],[36.607238,48.692271],[36.606531,48.692139091012514],[36.606531,48.692139],[36.606172,48.692071],[36.606148,48.692066],[36.606039,48.692331],[36.606359,48.69238888617886],[36.606359,48.692389],[36.60642190748864,48.692400265785544],[36.606531,48.69242],[36.606531,48.69241980261438]]]}},{"type":"Feature","properties":{"cadnum":"6320682501:01:000:0010"},"geometry":{"type":"Polygon","coordinates":[[[36.606254,48.694366],[36.606382,48.694057],[36.60546,48.693869],[36.605335,48.694171],[36.606254,48.694366]]]}},{"type":"Feature","properties":{"cadnum":"6320682501:01:000:0061"},"geometry":{"type":"Polygon","coordinates":[[[36.606531,48.693637934579435],[36.606573,48.693645],[36.606675,48.693438],[36.60636692285491,48.69339217839931],[36.605242,48.693222],[36.605072,48.693387],[36.606359,48.693608409869775],[36.606359,48.693609],[36.60651383529358,48.693635047058734],[36.606531,48.693638],[36.606531,48.693637934579435]]]}},{"type":"Feature","properties":{"cadnum":"6320682501:01:000:0073"},"geometry":{"type":"Polygon","coordinates":[[[36.606531,48.692995283757334],[36.60687,48.693053],[36.60696,48.692883],[36.606359,48.692781],[36.606359,48.69278144870726],[36.605332,48.692605],[36.605265,48.69278],[36.60552,48.692823],[36.606531,48.692996],[36.606531,48.692995283757334]]]}},{"type":"Feature","properties":{"cadnum":"6320682501:01:000:0052"},"geometry":{"type":"Polygon","coordinates":[[[36.602997,48.694328],[36.603161,48.694121],[36.602063,48.693577],[36.60191,48.69377],[36.602997,48.694328]]]}},{"type":"Feature","properties":{"cadnum":"6320682501:01:000:0053"},"geometry":{"type":"Polygon","coordinates":[[[36.60191,48.69377],[36.602063,48.693577],[36.601857,48.693476],[36.601573,48.693597],[36.60191,48.69377]]]}},{"type":"Feature","properties":{"cadnum":"6320682501:01:000:0018"},"geometry":{"type":"Polygon","coordinates":[[[36.606039,48.692331],[36.606148,48.692066],[36.605717,48.691978],[36.60561,48.69224],[36.605772,48.692271],[36.606022,48.692328],[36.606039,48.692331]]]}},{"type":"Feature","properties":{"cadnum":"6320682501:01:000:0192"},"geometry":{"type":"Polygon","coordinates":[[[36.606531,48.691261],[36.60556,48.690999],[36.605572,48.691294],[36.605551,48.6916],[36.605617,48.691611],[36.606359,48.69175144420131],[36.606359,48.691752],[36.606822,48.691839],[36.607037,48.691397],[36.606531,48.69126117109145],[36.606531,48.691261]]]}},{"type":"Feature","properties":{"cadnum":"6320682501:01:000:0216"},"geometry":{"type":"Polygon","coordinates":[[[36.606495,48.693822],[36.606212,48.693763],[36.605338,48.69359],[36.60521,48.693802],[36.605464,48.693859],[36.606008,48.69398],[36.606359,48.69404017142857],[36.606359,48.694041],[36.606393,48.694046],[36.606495,48.693822]]]}},{"type":"Feature","properties":{"cadnum":"6320682501:01:000:0017"},"geometry":{"type":"Polygon","coordinates":[[[36.612024,48.68711872457627],[36.612089,48.687119],[36.612111,48.686684],[36.611853,48.686682],[36.611853,48.686682171122996],[36.61165,48.68668],[36.61171,48.687116],[36.611853,48.68711736624204],[36.611853,48.687118],[36.6119721979691,48.68711850507614],[36.612024,48.687119],[36.612024,48.68711872457627]]]}},{"type":"Feature","properties":{"cadnum":"6320682501:01:000:0180"},"geometry":{"type":"Polygon","coordinates":[[[36.614264,48.683419],[36.614186,48.68302],[36.613846,48.683043],[36.61386554983923,48.683651],[36.613864,48.683651],[36.613866,48.683665],[36.613882,48.683764],[36.613882499999995,48.683764],[36.61389,48.683809],[36.61398,48.683802],[36.614032,48.683797],[36.614331,48.683766],[36.614316800000026,48.68369500000013],[36.614264,48.683419]]]}},{"type":"Feature","properties":{"cadnum":"6320682501:01:000:0210"},"geometry":{"type":"Polygon","coordinates":[[[36.613402,48.685219],[36.613673,48.685209],[36.613441,48.68428],[36.613082,48.68431],[36.613234,48.684741],[36.613402,48.685219]]]}},{"type":"Feature","properties":{"cadnum":"6320682501:01:000:0148"},"geometry":{"type":"Polygon","coordinates":[[[36.614028,48.68713],[36.61404,48.686635],[36.613915,48.686632],[36.613446,48.686621],[36.613415,48.686879],[36.613388,48.687113],[36.614028,48.68713]]]}},{"type":"Feature","properties":{"cadnum":"6320682501:01:000:0112"},"geometry":{"type":"Polygon","coordinates":[[[36.614444,48.686613],[36.614045,48.686606],[36.61412,48.687391],[36.61412127915194,48.687391],[36.614138,48.68756],[36.614381,48.687564],[36.614399,48.687277],[36.614398766066834,48.687277],[36.614444,48.686613]]]}},{"type":"Feature","properties":{"cadnum":"6320682501:01:000:0026"},"geometry":{"type":"Polygon","coordinates":[[[36.613141,48.686472],[36.613497,48.686471],[36.613495,48.685674],[36.613064,48.685678],[36.613129,48.686165],[36.613143,48.686319],[36.613141,48.686472]]]}},{"type":"Feature","properties":{"cadnum":"6320682501:01:000:0191"},"geometry":{"type":"Polygon","coordinates":[[[36.612742,48.686473],[36.613141,48.686472],[36.613143,48.686319],[36.613129,48.686165],[36.613069,48.685717],[36.612652,48.685721],[36.61274,48.686242],[36.612742,48.686473]]]}},{"type":"Feature","properties":{"cadnum":"6320682501:01:000:0101"},"geometry":{"type":"Polygon","coordinates":[[[36.617229,48.685612],[36.617275,48.685335],[36.616159,48.685175],[36.61619,48.685462],[36.617229,48.685612]]]}},{"type":"Feature","properties":{"cadnum":"6320682501:01:000:0014"},"geometry":{"type":"Polygon","coordinates":[[[36.613847,48.686476],[36.613784,48.685639],[36.613765,48.685539],[36.613495,48.685556],[36.613495,48.685713],[36.613497,48.686471],[36.613847,48.686476]]]}},{"type":"Feature","properties":{"cadnum":"6320682501:01:000:0097"},"geometry":{"type":"Polygon","coordinates":[[[36.616939,48.686601],[36.616906,48.686565],[36.616685,48.686546],[36.616579,48.686545],[36.61627929776675,48.687277],[36.616278,48.687277],[36.616249,48.687351],[36.616631,48.687354],[36.616939,48.686601]]]}},{"type":"Feature","properties":{"cadnum":"6320682501:01:000:0098"},"geometry":{"type":"Polygon","coordinates":[[[36.615193,48.687312],[36.615334,48.686633],[36.614846,48.686623],[36.614784,48.687303],[36.615193,48.687312]]]}},{"type":"Feature","properties":{"cadnum":"6320682501:01:000:0124"},"geometry":{"type":"Polygon","coordinates":[[[36.614784,48.687303],[36.614776,48.687391],[36.61477631067961,48.687391],[36.614739,48.687818],[36.615087,48.687825],[36.615193,48.687312],[36.614784,48.687303]]]}},{"type":"Feature","properties":{"cadnum":"6320682501:01:000:0043"},"geometry":{"type":"Polygon","coordinates":[[[36.6118653574464,48.686481744680854],[36.612024,48.686479],[36.612024,48.68647846694215],[36.612095,48.686477],[36.611983,48.685692],[36.611853,48.685695],[36.611853,48.68569513253012],[36.611568,48.685702],[36.611735,48.686484],[36.611853,48.68648195847751],[36.611853,48.686482],[36.6118653574464,48.686481744680854]]]}},{"type":"Feature","properties":{"cadnum":"6320682501:01:000:0055"},"geometry":{"type":"Polygon","coordinates":[[[36.612402,48.686497],[36.612726,48.686489],[36.612622,48.685544],[36.612299,48.685557],[36.612402,48.686497]]]}},{"type":"Feature","properties":{"cadnum":"6320682501:01:000:0025"},"geometry":{"type":"Polygon","coordinates":[[[36.612534,48.687115],[36.612956,48.687101],[36.612986,48.686667],[36.612563,48.686681],[36.612534,48.687115]]]}},{"type":"Feature","properties":{"cadnum":"6320682501:01:000:0193"},"geometry":{"type":"Polygon","coordinates":[[[36.614945,48.683721],[36.615066,48.683712],[36.61547,48.683681],[36.615459,48.683615],[36.615486,48.683614],[36.615474,48.683541],[36.615459,48.683465],[36.615454,48.683425],[36.615449,48.6834],[36.615417,48.683207],[36.614772,48.683253],[36.614791,48.68336],[36.614859,48.683729],[36.614945,48.683721]]]}},{"type":"Feature","properties":{"cadnum":"6320682501:01:000:0198"},"geometry":{"type":"Polygon","coordinates":[[[36.614461,48.684622],[36.61491,48.684582],[36.614814,48.684174],[36.614778,48.684031],[36.614768,48.683995],[36.614752,48.68393],[36.614292,48.683971],[36.614293,48.683975],[36.614334,48.684141],[36.614354,48.684226],[36.614461,48.684622]]]}},{"type":"Feature","properties":{"cadnum":"6320682501:01:000:0128"},"geometry":{"type":"Polygon","coordinates":[[[36.613053,48.685242],[36.613402,48.685219],[36.613234,48.684741],[36.61282,48.684781],[36.612983,48.685192],[36.613053,48.685242]]]}},{"type":"Feature","properties":{"cadnum":"6320682501:01:000:0105"},"geometry":{"type":"Polygon","coordinates":[[[36.61282,48.684781],[36.613234,48.684741],[36.612991,48.684052],[36.612547,48.684094],[36.61282,48.684781]]]}},{"type":"Feature","properties":{"cadnum":"6320682501:01:000:0142"},"geometry":{"type":"Polygon","coordinates":[[[36.613041,48.683661],[36.613027,48.683597],[36.61297,48.683194],[36.61251,48.683268],[36.61257100201613,48.683651],[36.61257,48.683651],[36.61261,48.683896],[36.61308,48.683866],[36.613049,48.683696],[36.613041,48.683661]]]}},{"type":"Feature","properties":{"cadnum":"6320682501:01:000:0034"},"geometry":{"type":"Polygon","coordinates":[[[36.615722,48.684717],[36.616073,48.684705],[36.615982,48.68386],[36.615614,48.683873],[36.615722,48.684717]]]}},{"type":"Feature","properties":{"cadnum":"6320682501:01:000:0076"},"geometry":{"type":"Polygon","coordinates":[[[36.61737,48.684793],[36.617351,48.684463],[36.616272,48.684469],[36.61618,48.684681],[36.617007,48.684751],[36.617271,48.684782],[36.617324,48.684789],[36.61737,48.684793]]]}},{"type":"Feature","properties":{"cadnum":"6320682501:01:000:0035"},"geometry":{"type":"Polygon","coordinates":[[[36.615769,48.685098],[36.616058,48.685077],[36.616078,48.684744],[36.616073,48.684705],[36.615722,48.684717],[36.615769,48.685098]]]}},{"type":"Feature","properties":{"cadnum":"6320682501:01:000:0154"},"geometry":{"type":"Polygon","coordinates":[[[36.61731,48.68506],[36.61737,48.684793],[36.617324,48.684789],[36.617271,48.684782],[36.617007,48.684751],[36.61618,48.684681],[36.616152,48.684678],[36.616109,48.68491],[36.616933,48.685],[36.61731,48.68506]]]}},{"type":"Feature","properties":{"cadnum":"6320682501:01:000:0179"},"geometry":{"type":"Polygon","coordinates":[[[36.615271,48.684685],[36.61566,48.684645],[36.615542,48.684125],[36.615468,48.684131],[36.615429,48.683966],[36.615405,48.683872],[36.615055,48.683899],[36.615133,48.684166],[36.615271,48.684685]]]}},{"type":"Feature","properties":{"cadnum":"6320682501:01:000:0177"},"geometry":{"type":"Polygon","coordinates":[[[36.611853,48.68489715472779],[36.611853,48.684898],[36.611976,48.684882],[36.611893,48.684572],[36.611853,48.684457],[36.611853,48.68445808695654],[36.611847,48.684441],[36.611833,48.684393],[36.611814,48.684322],[36.611804,48.684288],[36.611768,48.684172],[36.611619,48.684189],[36.611579,48.684195],[36.61134,48.684224],[36.611382,48.684386],[36.611393,48.684424],[36.611397,48.684442],[36.611448,48.684611],[36.611487,48.684661],[36.611627,48.684925],[36.611853,48.68489715472779]]]}},{"type":"Feature","properties":{"cadnum":"6320682501:01:000:0211"},"geometry":{"type":"Polygon","coordinates":[[[36.612024,48.685068275229355],[36.612085,48.685305],[36.61237,48.685286],[36.612158,48.684399],[36.611953453460586,48.68442716706444],[36.611847,48.684441],[36.611893,48.684572],[36.611976,48.684882],[36.612024,48.68507],[36.612024,48.685068275229355]]]}},{"type":"Feature","properties":{"cadnum":"6320682501:01:000:0116"},"geometry":{"type":"Polygon","coordinates":[[[36.61251,48.683268],[36.612026,48.683306],[36.6120840021834,48.683651],[36.612083,48.683651],[36.612133,48.683934],[36.61261,48.683896],[36.61258844897959,48.683764],[36.612589,48.683764],[36.61251,48.683268]]]}},{"type":"Feature","properties":{"cadnum":"6320682501:01:000:0219"},"geometry":{"type":"Polygon","coordinates":[[[36.613858,48.683445],[36.613014,48.683503],[36.613027,48.683597],[36.6130388125,48.683651],[36.613038,48.683651],[36.613041,48.683661],[36.613049,48.683696],[36.613061,48.683764],[36.6130614,48.683764],[36.61308,48.683866],[36.613305,48.683856],[36.613383,48.683854],[36.61389,48.683809],[36.613866,48.683665],[36.613858,48.683445]]]}},{"type":"Feature","properties":{"cadnum":"6320682501:01:000:1221"},"geometry":{"type":"Polygon","coordinates":[[[36.614791,48.68336],[36.614772,48.683253],[36.614755,48.68316],[36.614221,48.683199],[36.614264,48.683419],[36.6143083826087,48.683651],[36.614308,48.683651],[36.614316800000026,48.68369500000013],[36.61433,48.683764],[36.6143306,48.683764],[36.614331,48.683766],[36.614859,48.683729],[36.614845,48.683651],[36.614844626016264,48.683651],[36.614791,48.68336]]]}},{"type":"Feature","properties":{"cadnum":"6320682501:01:000:0119"},"geometry":{"type":"Polygon","coordinates":[[[36.606766,48.681765],[36.606704,48.681571],[36.60640807949877,48.681613029288584],[36.605737,48.681706],[36.605799,48.6819],[36.606531,48.681799],[36.606531,48.68179791154791],[36.606766,48.681765]]]}},{"type":"Feature","properties":{"cadnum":"6320682501:01:000:0143"},"geometry":{"type":"Polygon","coordinates":[[[36.606398,48.680462],[36.606531,48.680449],[36.606531,48.680448713557595],[36.607379,48.680364],[36.607868,48.680299],[36.607832,48.680168],[36.607375,48.68021],[36.606715,48.680272],[36.606359,48.680304],[36.606359,48.680304069486404],[36.605869,48.680347],[36.605909,48.680508],[36.606359,48.680465668711655],[36.606359,48.680466],[36.606398,48.680462]]]}},{"type":"Feature","properties":{"cadnum":"6320682501:01:000:0139"},"geometry":{"type":"Polygon","coordinates":[[[36.607604,48.681444],[36.608178,48.681364],[36.608118,48.681207],[36.607564,48.681276],[36.607604,48.681444]]]}},{"type":"Feature","properties":{"cadnum":"6320682501:01:000:0062"},"geometry":{"type":"Polygon","coordinates":[[[36.608162,48.681202],[36.608112,48.681059],[36.606359,48.681268],[36.606359,48.68126846582278],[36.606136,48.681295],[36.606191,48.681449],[36.606359,48.681427752941175],[36.606359,48.681428],[36.608162,48.681202]]]}},{"type":"Feature","properties":{"cadnum":"6320682501:01:000:0067"},"geometry":{"type":"Polygon","coordinates":[[[36.606766,48.681765],[36.608277,48.681552],[36.608214,48.681358],[36.606704,48.681571],[36.606766,48.681765]]]}},{"type":"Feature","properties":{"cadnum":"6320682501:01:000:0137"},"geometry":{"type":"Polygon","coordinates":[[[36.606704,48.681571],[36.607604,48.681444],[36.607564,48.681276],[36.606531,48.681406303734434],[36.606531,48.681406],[36.606191,48.681449],[36.605444,48.681543],[36.60539,48.68155],[36.606189,48.681644],[36.606531,48.681596],[36.606531,48.68159557101449],[36.606704,48.681571]]]}},{"type":"Feature","properties":{"cadnum":"6320682501:01:000:0189"},"geometry":{"type":"Polygon","coordinates":[[[36.60793,48.680583],[36.607886,48.680438],[36.607836,48.680446],[36.60769,48.680461],[36.607384,48.6805],[36.606427,48.680596],[36.605913,48.680647],[36.60596,48.680809],[36.606046,48.680802],[36.606531,48.680746],[36.606531,48.680745073838324],[36.60793,48.680583]]]}},{"type":"Feature","properties":{"cadnum":"6320682501:01:000:0113"},"geometry":{"type":"Polygon","coordinates":[[[36.606664,48.681108],[36.608076,48.680939],[36.608012,48.680733],[36.606597,48.680896],[36.606664,48.681108]]]}},{"type":"Feature","properties":{"cadnum":"6320682501:01:000:0106"},"geometry":{"type":"Polygon","coordinates":[[[36.606597,48.680896],[36.608012,48.680733],[36.607957,48.680579],[36.606359,48.680765],[36.606359,48.680765859793816],[36.606046,48.680802],[36.606111,48.680953],[36.606359,48.68092406666667],[36.606359,48.680925],[36.606597,48.680896]]]}},{"type":"Feature","properties":{"cadnum":"6320682501:01:000:0199"},"geometry":{"type":"Polygon","coordinates":[[[36.612189,48.682096],[36.612212,48.68208],[36.612219,48.681979],[36.612169,48.681707],[36.611853,48.681712],[36.611853,48.681712120930236],[36.611379,48.681718],[36.611449,48.682106],[36.612024,48.682099],[36.612024,48.68209845535714],[36.612189,48.682096]]]}},{"type":"Feature","properties":{"cadnum":"6320682501:01:000:0028"},"geometry":{"type":"Polygon","coordinates":[[[36.611562,48.683248],[36.611147,48.683252],[36.611214,48.683764],[36.61121523595506,48.683764],[36.611248,48.684007],[36.611653,48.683974],[36.61162569349845,48.683764],[36.611626,48.683764],[36.611562,48.683248]]]}},{"type":"Feature","properties":{"cadnum":"6320682501:01:000:0203"},"geometry":{"type":"Polygon","coordinates":[[[36.611175,48.683461],[36.61065,48.683496],[36.61066792910448,48.683651],[36.610667,48.683651],[36.610691,48.683847],[36.610676,48.683878],[36.610726,48.684087],[36.611248,48.684007],[36.6112,48.683651],[36.61119945544554,48.683651],[36.611175,48.683461]]]}},{"type":"Feature","properties":{"cadnum":"6320682501:01:000:0152"},"geometry":{"type":"Polygon","coordinates":[[[36.610387,48.682665],[36.611067,48.682655],[36.611061,48.682613],[36.611202,48.682611],[36.61119,48.682543],[36.611183,48.682508],[36.611145,48.682298],[36.610966,48.682296],[36.610281,48.68229],[36.610281,48.682491],[36.610305,48.682492],[36.610365,48.682492],[36.610387,48.682665]]]}},{"type":"Feature","properties":{"cadnum":"6320682501:01:000:0048"},"geometry":{"type":"Polygon","coordinates":[[[36.61123,48.682762],[36.611861,48.682726],[36.61185,48.682286],[36.611143,48.682291],[36.611202,48.682611],[36.61123,48.682762]]]}},{"type":"Feature","properties":{"cadnum":"6320682501:01:000:0174"},"geometry":{"type":"Polygon","coordinates":[[[36.610443,48.683173],[36.610782,48.683163],[36.611134,48.683154],[36.611067,48.682655],[36.610387,48.682665],[36.6104,48.682764],[36.610436,48.683048],[36.610443,48.683173]]]}},{"type":"Feature","properties":{"cadnum":"6320682501:01:000:0049"},"geometry":{"type":"Polygon","coordinates":[[[36.611289,48.683082],[36.611869,48.683049],[36.611861,48.682726],[36.61123,48.682762],[36.611289,48.683082]]]}},{"type":"Feature","properties":{"cadnum":"6320682501:01:000:0175"},"geometry":{"type":"Polygon","coordinates":[[[36.607706,48.682896],[36.608324,48.682876],[36.608677,48.682864],[36.608622,48.682622],[36.608504,48.682635],[36.608307,48.682657],[36.607569,48.682684],[36.607706,48.682896]]]}},{"type":"Feature","properties":{"cadnum":"6320682501:01:000:0110"},"geometry":{"type":"Polygon","coordinates":[[[36.607121,48.682256],[36.608472,48.682163],[36.608401,48.681944],[36.60705,48.682037],[36.607121,48.682256]]]}},{"type":"Feature","properties":{"cadnum":"6320682501:01:000:0037"},"geometry":{"type":"Polygon","coordinates":[[[36.607612,48.683221],[36.608477,48.6832],[36.608791,48.68314],[36.608705,48.682909],[36.607579,48.682969],[36.607612,48.683221]]]}},{"type":"Feature","properties":{"cadnum":"6320682501:01:000:0187"},"geometry":{"type":"Polygon","coordinates":[[[36.609069,48.68317],[36.609946,48.683091],[36.609905,48.68278],[36.609248,48.682801],[36.609196,48.682804],[36.60911,48.682811],[36.608983,48.682821],[36.609069,48.68317]]]}},{"type":"Feature","properties":{"cadnum":"6320682501:01:000:0214"},"geometry":{"type":"Polygon","coordinates":[[[36.608979,48.683631],[36.607609,48.683639],[36.607609288,48.683651],[36.607609,48.683651],[36.60761024137931,48.68369072413813],[36.607612,48.683764],[36.60761253125,48.683764],[36.607615,48.683843],[36.608122,48.683851],[36.609027,48.683865],[36.608983,48.683651],[36.60898290977443,48.683651],[36.608979,48.683631]]]}},{"type":"Feature","properties":{"cadnum":"6320682501:01:000:0221"},"geometry":{"type":"Polygon","coordinates":[[[36.609152,48.68348],[36.610449,48.683238],[36.610443,48.683173],[36.610436,48.683048],[36.609946,48.683091],[36.609069,48.68317],[36.609152,48.68348]]]}},{"type":"Feature","properties":{"cadnum":"6320682501:01:000:0125"},"geometry":{"type":"Polygon","coordinates":[[[36.606664,48.681108],[36.606597,48.680896],[36.606531,48.680904042016806],[36.606531,48.680904],[36.606111,48.680953],[36.605717,48.680996],[36.605784,48.681213],[36.606359,48.681144492637216],[36.606359,48.681145],[36.606664,48.681108]]]}},{"type":"Feature","properties":{"cadnum":"6320682501:01:000:0209"},"geometry":{"type":"Polygon","coordinates":[[[36.609943,48.682123],[36.611382,48.682107],[36.61124,48.681324],[36.611055,48.680383],[36.609427,48.680558],[36.609885,48.681462],[36.609943,48.682123]]]}},{"type":"Feature","properties":{"cadnum":"6320682501:01:000:0029"},"geometry":{"type":"Polygon","coordinates":[[[36.611147,48.683252],[36.611562,48.683248],[36.611544,48.683116],[36.611295,48.683108],[36.611202,48.682611],[36.611061,48.682613],[36.611147,48.683252]]]}},{"type":"Feature","properties":{"cadnum":"6320682501:01:000:0038"},"geometry":{"type":"Polygon","coordinates":[[[36.607466,48.683224],[36.607612,48.683221],[36.607579,48.682969],[36.607432,48.682976],[36.607466,48.683224]]]}},{"type":"Feature","properties":{"cadnum":"6320682501:01:000:0036"},"geometry":{"type":"Polygon","coordinates":[[[36.608578,48.683423],[36.608917,48.683376],[36.608791,48.68314],[36.608477,48.6832],[36.607612,48.683221],[36.607466,48.683224],[36.607467,48.683422],[36.608578,48.683423]]]}},{"type":"Feature","properties":{"cadnum":"6320682501:01:000:0077"},"geometry":{"type":"Polygon","coordinates":[[[36.610199,48.683348],[36.609734,48.683423],[36.60975539589443,48.683651],[36.609755,48.683651],[36.609803,48.684153],[36.610139,48.684144],[36.6101667484787,48.683764],[36.610167,48.683764],[36.610199,48.683348]]]}},{"type":"Feature","properties":{"cadnum":"6320682501:01:000:0114"},"geometry":{"type":"Polygon","coordinates":[[[36.607194,48.682476],[36.608544,48.682383],[36.608472,48.682163],[36.607121,48.682256],[36.607194,48.682476]]]}},{"type":"Feature","properties":{"cadnum":"6320682501:01:000:0194"},"geometry":{"type":"Polygon","coordinates":[[[36.608983,48.682821],[36.609248,48.682801],[36.609573,48.68279],[36.609496,48.682293],[36.609441,48.682294],[36.60904,48.682301],[36.608877,48.682309],[36.60892,48.682495],[36.608983,48.682821]]]}},{"type":"Feature","properties":{"cadnum":"6320682501:01:000:0171"},"geometry":{"type":"Polygon","coordinates":[[[36.60997,48.682563],[36.610373,48.682548],[36.610365,48.682492],[36.610305,48.682492],[36.610281,48.682491],[36.610281,48.68229],[36.609956,48.682282],[36.60997,48.682563]]]}},{"type":"Feature","properties":{"cadnum":"6320682501:01:000:0178"},"geometry":{"type":"Polygon","coordinates":[[[36.612024,48.69330936312849],[36.612236,48.693352],[36.612381,48.693015],[36.61198,48.692936],[36.611928,48.692926],[36.611527,48.692847],[36.611421,48.693196],[36.611826,48.69327],[36.611853,48.693274],[36.611878,48.69328],[36.612024,48.69331],[36.612024,48.69330936312849]]]}},{"type":"Feature","properties":{"cadnum":"6320682501:01:000:0169"},"geometry":{"type":"Polygon","coordinates":[[[36.611421,48.693196],[36.611305,48.693417],[36.611824,48.693489],[36.611853,48.6934948],[36.611853,48.693495],[36.612694,48.693666],[36.612767,48.69346],[36.611853,48.693274],[36.611421,48.693196]]]}},{"type":"Feature","properties":{"cadnum":"6320682501:01:000:0138"},"geometry":{"type":"Polygon","coordinates":[[[36.612024,48.693831],[36.612024,48.693830674698795],[36.612052,48.693802],[36.612071,48.693783],[36.611853,48.693738],[36.611853,48.69373803571428],[36.611772,48.693721],[36.611748,48.69382],[36.611588,48.693806],[36.611588,48.693799],[36.611524,48.693791],[36.611531,48.693761],[36.611495,48.693758],[36.611419,48.693745],[36.611422,48.693737],[36.611385,48.693729],[36.611375,48.693737],[36.611214,48.693712],[36.611166,48.693866],[36.611269,48.693878],[36.611367,48.693888],[36.611445,48.693899],[36.61156,48.693912],[36.611615,48.693917],[36.611629,48.693919],[36.611639,48.69387],[36.611736,48.693883],[36.611732,48.693897],[36.611772,48.693945],[36.611886,48.693972],[36.612024,48.693831]]]}},{"type":"Feature","properties":{"cadnum":"6320682501:01:000:0205"},"geometry":{"type":"Polygon","coordinates":[[[36.611787,48.692055],[36.61166,48.692433],[36.611527,48.692847],[36.611853,48.692911281690144],[36.611853,48.692912],[36.612381,48.693015],[36.612826,48.693113],[36.612765,48.692898],[36.612836,48.692884],[36.612856,48.692956],[36.612893,48.693088],[36.613407,48.693163],[36.613622,48.69266],[36.613761,48.692047],[36.61376,48.69201],[36.61227,48.691878],[36.612196,48.692112],[36.61193563479869,48.69207632313568],[36.611787,48.692055]]]}},{"type":"Feature","properties":{"cadnum":"6320682501:01:000:0007"},"geometry":{"type":"Polygon","coordinates":[[[36.612024,48.693529],[36.611824,48.693489],[36.611305,48.693417],[36.611252,48.693606],[36.611737,48.693702],[36.611853,48.693725442508715],[36.611853,48.693726],[36.612586,48.693875],[36.612694,48.693666],[36.612024,48.69352976932223],[36.612024,48.693529]]]}},{"type":"Feature","properties":{"cadnum":"6320682501:01:000:0197"},"geometry":{"type":"Polygon","coordinates":[[[36.611692,48.694139],[36.611635,48.694341],[36.611853,48.69437854755785],[36.611853,48.694379],[36.612339,48.694462],[36.612459,48.6943],[36.611895609373185,48.69418192968712],[36.611692,48.694139]]]}},{"type":"Feature","properties":{"cadnum":"6320682501:01:000:0186"},"geometry":{"type":"Polygon","coordinates":[[[36.620311,48.677003],[36.621,48.676833],[36.621024,48.676822],[36.621062,48.67666],[36.621026,48.676616],[36.620756,48.676537],[36.620522,48.676495],[36.620204,48.676475],[36.620178,48.676479],[36.620172,48.676535],[36.620354,48.67692],[36.620276,48.676943],[36.620311,48.677003]]]}},{"type":"Feature","properties":{"cadnum":"6320682501:01:000:0118"},"geometry":{"type":"Polygon","coordinates":[[[36.618649,48.67734],[36.619058,48.677333],[36.619048,48.676997],[36.618657,48.677004],[36.618649,48.67734]]]}},{"type":"Feature","properties":{"cadnum":"6320682501:01:000:0160"},"geometry":{"type":"Polygon","coordinates":[[[36.619524,48.677894],[36.620378,48.677725],[36.620593,48.677517],[36.620668,48.677413],[36.619533,48.677557],[36.619514,48.677658],[36.619524,48.677894]]]}},{"type":"Feature","properties":{"cadnum":"6320682501:01:000:0066"},"geometry":{"type":"Polygon","coordinates":[[[36.618765,48.678133],[36.619081,48.678056],[36.619058,48.677333],[36.618649,48.67734],[36.618639,48.677746],[36.618765,48.678133]]]}},{"type":"Feature","properties":{"cadnum":"6320682501:01:000:0075"},"geometry":{"type":"Polygon","coordinates":[[[36.617532,48.678433],[36.617941,48.678336],[36.617961,48.677585],[36.617602,48.677585],[36.617532,48.678433]]]}},{"type":"Feature","properties":{"cadnum":"6320682501:01:000:0111"},"geometry":{"type":"Polygon","coordinates":[[[36.617961,48.677585],[36.617976,48.677017],[36.61765,48.677015],[36.617602,48.677585],[36.617961,48.677585]]]}},{"type":"Feature","properties":{"cadnum":"6320682501:01:000:0021"},"geometry":{"type":"Polygon","coordinates":[[[36.610172,48.68512],[36.610478,48.685085],[36.610245,48.684576],[36.610214,48.684501],[36.610203,48.684472],[36.610212,48.684469],[36.610194,48.684415],[36.610159,48.684322],[36.609928,48.684349],[36.609873,48.684354],[36.609779,48.68436],[36.609806,48.684499],[36.609797,48.684502],[36.60981,48.684549],[36.60984,48.684676],[36.610172,48.68512]]]}},{"type":"Feature","properties":{"cadnum":"6320682501:01:000:0121"},"geometry":{"type":"Polygon","coordinates":[[[36.608126,48.684156],[36.608122,48.683851],[36.607507,48.683841],[36.607511,48.684133],[36.608126,48.684156]]]}},{"type":"Feature","properties":{"cadnum":"6320682501:01:000:0071"},"geometry":{"type":"Polygon","coordinates":[[[36.609142,48.684195],[36.609035,48.683865],[36.608122,48.683851],[36.608126,48.684156],[36.609142,48.684195]]]}},{"type":"Feature","properties":{"cadnum":"6320682501:01:000:0060"},"geometry":{"type":"Polygon","coordinates":[[[36.611275,48.68717],[36.611076,48.687166],[36.61108,48.687106],[36.611102,48.68669],[36.61087,48.686683],[36.61083811864407,48.687277],[36.610837,48.687277],[36.610821,48.68761],[36.61125,48.687624],[36.61126208645533,48.687391],[36.611263,48.687391],[36.611275,48.68717]]]}},{"type":"Feature","properties":{"cadnum":"6320682501:01:000:0201"},"geometry":{"type":"Polygon","coordinates":[[[36.611126,48.686487],[36.611155,48.686486],[36.611204,48.686486],[36.611356,48.686482],[36.611414,48.686479],[36.611477,48.686476],[36.611465,48.686421],[36.61141,48.686196],[36.611405,48.686154],[36.611397,48.686102],[36.611284,48.685472],[36.611009,48.685478],[36.61106,48.685806],[36.611071,48.685873],[36.611072,48.685894],[36.611072,48.685913],[36.611083,48.686112],[36.611091,48.686161],[36.611092,48.686173],[36.611098,48.686172],[36.61112,48.686428],[36.611126,48.686487]]]}},{"type":"Feature","properties":{"cadnum":"6320682501:01:000:0218"},"geometry":{"type":"Polygon","coordinates":[[[36.623752,48.677596],[36.62411,48.677445],[36.62403,48.676552],[36.623311,48.676508],[36.623412,48.677596],[36.623752,48.677596]]]}},{"type":"Feature","properties":{"cadnum":"6320682501:01:000:0003"},"geometry":{"type":"Polygon","coordinates":[[[36.611318,48.692345],[36.611419,48.692042],[36.611201,48.69201],[36.611226,48.691932],[36.611048,48.691905],[36.611063,48.691767],[36.610686,48.691714],[36.610533,48.692071],[36.610946,48.692155],[36.610909,48.692275],[36.611318,48.692345]]]}},{"type":"Feature","properties":{"cadnum":"6320682501:01:000:0161"},"geometry":{"type":"Polygon","coordinates":[[[36.611531,48.693761],[36.611555,48.693687],[36.611241,48.693628],[36.611214,48.693712],[36.611375,48.693737],[36.611385,48.693729],[36.611422,48.693737],[36.611419,48.693745],[36.611495,48.693758],[36.611531,48.693761]]]}},{"type":"Feature","properties":{"cadnum":"6320682501:01:000:0004"},"geometry":{"type":"Polygon","coordinates":[[[36.611162,48.692719],[36.611318,48.692345],[36.610909,48.692275],[36.610946,48.692155],[36.610533,48.692071],[36.610344,48.692518],[36.611162,48.692719]]]}},{"type":"Feature","properties":{"cadnum":"6320682501:01:000:0184"},"geometry":{"type":"Polygon","coordinates":[[[36.611674,48.694109],[36.611772,48.693945],[36.611732,48.693897],[36.611736,48.693883],[36.611639,48.69387],[36.611629,48.693919],[36.611615,48.693917],[36.61156,48.693912],[36.611445,48.693899],[36.611367,48.693888],[36.611269,48.693878],[36.611166,48.693866],[36.611119,48.69403],[36.61123,48.694044],[36.611438,48.694069],[36.611515,48.694077],[36.611525,48.694083],[36.611588,48.694092],[36.611633,48.694092],[36.611674,48.694109]]]}},{"type":"Feature","properties":{"cadnum":"6320682501:01:000:0002"},"geometry":{"type":"Polygon","coordinates":[[[36.609526,48.694222],[36.609575,48.693969],[36.608536,48.693863],[36.608613,48.6941],[36.609526,48.694222]]]}},{"type":"Feature","properties":{"cadnum":"6320682501:01:000:0167"},"geometry":{"type":"Polygon","coordinates":[[[36.609323,48.692724],[36.609412,48.69253],[36.608374,48.692307],[36.608374,48.692253],[36.607764,48.692101],[36.607561,48.692464],[36.607773,48.692495],[36.607914,48.692523],[36.608862,48.692668],[36.609323,48.692724]]]}},{"type":"Feature","properties":{"cadnum":"6320682501:01:000:0079"},"geometry":{"type":"Polygon","coordinates":[[[36.60834,48.693682],[36.608421,48.69351],[36.608454,48.693438],[36.607156,48.693321],[36.607058,48.693529],[36.60834,48.693682]]]}},{"type":"Feature","properties":{"cadnum":"6320682501:01:000:0206"},"geometry":{"type":"Polygon","coordinates":[[[36.607921,48.694266],[36.608555,48.694202],[36.60855,48.694087],[36.607363,48.693999],[36.607271,48.694212],[36.607921,48.694266]]]}},{"type":"Feature","properties":{"cadnum":"6320682501:01:000:0054"},"geometry":{"type":"Polygon","coordinates":[[[36.608788,48.693089],[36.608854,48.692841],[36.607941,48.692775],[36.607917,48.692787],[36.607446,48.692716],[36.607364,48.692903],[36.608788,48.693089]]]}},{"type":"Feature","properties":{"cadnum":"6320682501:01:000:0157"},"geometry":{"type":"Polygon","coordinates":[[[36.608799,48.692836],[36.608862,48.692668],[36.607914,48.692523],[36.607773,48.692495],[36.607561,48.692464],[36.607457,48.692693],[36.607446,48.692716],[36.607917,48.692787],[36.607941,48.692775],[36.608799,48.692836]]]}},{"type":"Feature","properties":{"cadnum":"6320682501:01:000:0250"},"geometry":{"type":"Polygon","coordinates":[[[36.606982,48.690786],[36.606909463203465,48.690904],[36.606909,48.690904],[36.606880643109655,48.69095088339204],[36.60684,48.691017],[36.60684065322581,48.691017],[36.606834,48.691028],[36.607483,48.691197],[36.607946,48.691313],[36.607985,48.691239],[36.608047,48.691111],[36.608064,48.691115],[36.608085,48.691082],[36.608081,48.691076],[36.607722439678504,48.690981699731964],[36.606982,48.690786]]]}},{"type":"Feature","properties":{"cadnum":"6320682501:01:000:0006"},"geometry":{"type":"Polygon","coordinates":[[[36.609461,48.694489],[36.609503,48.694219],[36.608613,48.6941],[36.608659,48.694393],[36.609461,48.694489]]]}},{"type":"Feature","properties":{"cadnum":"6320682501:01:000:0185"},"geometry":{"type":"Polygon","coordinates":[[[36.608901,48.693482],[36.608922,48.693353],[36.607752,48.693169],[36.607265,48.693125],[36.607245,48.693164],[36.607223,48.693211],[36.607156,48.693321],[36.608454,48.693438],[36.608901,48.693482]]]}},{"type":"Feature","properties":{"cadnum":"6320682501:01:000:0173"},"geometry":{"type":"Polygon","coordinates":[[[36.611056,48.693024],[36.611112,48.692839],[36.611128,48.692795],[36.611162,48.692719],[36.610892,48.692653],[36.610344,48.692518],[36.610219,48.692892],[36.610643,48.692974],[36.611056,48.693024]]]}},{"type":"Feature","properties":{"cadnum":"6320682501:01:000:0108"},"geometry":{"type":"Polygon","coordinates":[[[36.608209,48.690839],[36.607058,48.690544],[36.606935,48.690774],[36.60742771604939,48.690904],[36.607427,48.690904],[36.60765012941339,48.69096268235337],[36.607856,48.691017],[36.607856662790695,48.691017],[36.608081,48.691076],[36.608174,48.690904],[36.60817357865169,48.690904],[36.608209,48.690839]]]}},{"type":"Feature","properties":{"cadnum":"6320682501:01:000:0001"},"geometry":{"type":"Polygon","coordinates":[[[36.610662,48.69436],[36.610748,48.694123],[36.610297,48.694052],[36.610136,48.694026],[36.609575,48.693969],[36.609526,48.694222],[36.610261,48.69432],[36.610266,48.694313],[36.610662,48.69436]]]}},{"type":"Feature","properties":{"cadnum":"6320682501:01:000:0016"},"geometry":{"type":"Polygon","coordinates":[[[36.610009,48.692419],[36.610242,48.691683],[36.609873,48.691655],[36.609816,48.691878],[36.609655,48.692384],[36.610009,48.692419]]]}},{"type":"Feature","properties":{"cadnum":"6320682501:01:000:0183"},"geometry":{"type":"Polygon","coordinates":[[[36.610817,48.693886],[36.61099,48.693261],[36.610526,48.693189],[36.610349,48.693839],[36.610619,48.693858],[36.610817,48.693886]]]}},{"type":"Feature","properties":{"cadnum":"6320682501:01:000:0015"},"geometry":{"type":"Polygon","coordinates":[[[36.608961,48.692348],[36.609262,48.691585],[36.608842,48.691542],[36.608611,48.692311],[36.608961,48.692348]]]}},{"type":"Feature","properties":{"cadnum":"6320682501:01:000:0136"},"geometry":{"type":"Polygon","coordinates":[[[36.611548,48.694293],[36.611595,48.694166],[36.611599,48.694157],[36.611615,48.694107],[36.611633,48.694092],[36.611588,48.694092],[36.611525,48.694083],[36.611515,48.694077],[36.611438,48.694069],[36.61123,48.694044],[36.611119,48.69403],[36.611087,48.694146],[36.611076,48.694189],[36.611071,48.694203],[36.611065,48.694222],[36.611548,48.694293]]]}},{"type":"Feature","properties":{"cadnum":"6320682501:01:000:0220"},"geometry":{"type":"Polygon","coordinates":[[[36.609606,48.692537],[36.609655,48.692384],[36.609816,48.691878],[36.609873,48.691655],[36.609582,48.691626],[36.609503,48.691899],[36.609314,48.692509],[36.609412,48.69253],[36.609606,48.692537]]]}},{"type":"Feature","properties":{"cadnum":"6320682501:01:000:0027"},"geometry":{"type":"Polygon","coordinates":[[[36.611004,48.688225],[36.611023,48.687932],[36.611234,48.687941],[36.61125,48.687624],[36.610821,48.68761],[36.610792,48.68819],[36.611004,48.688225]]]}},{"type":"Feature","properties":{"cadnum":"6320682501:01:000:0212"},"geometry":{"type":"Polygon","coordinates":[[[36.611686,48.690821],[36.611843,48.690689],[36.611662,48.690594],[36.611505,48.690726],[36.611686,48.690821]]]}},{"type":"Feature","properties":{"cadnum":"6320682501:01:000:0109"},"geometry":{"type":"Polygon","coordinates":[[[36.607977,48.690525],[36.608091,48.690311],[36.607709,48.690218],[36.6066,48.689959],[36.606495,48.690149],[36.607337,48.690334],[36.607738,48.690387],[36.607832,48.690487],[36.607977,48.690525]]]}},{"type":"Feature","properties":{"cadnum":"6320682501:01:000:0082"},"geometry":{"type":"Polygon","coordinates":[[[36.610253,48.688904],[36.610627,48.688159],[36.610241,48.688083],[36.610094,48.688389],[36.609892,48.688813],[36.610253,48.688904]]]}},{"type":"Feature","properties":{"cadnum":"6320682501:01:000:0204"},"geometry":{"type":"Polygon","coordinates":[[[36.610226,48.690729],[36.611446,48.690455],[36.611466,48.690351],[36.611477,48.690271],[36.611161,48.690107],[36.611065,48.690037],[36.61047,48.689932],[36.610226,48.690729]]]}},{"type":"Feature","properties":{"cadnum":"6320682501:01:000:0070"},"geometry":{"type":"Polygon","coordinates":[[[36.609892,48.688813],[36.610094,48.688389],[36.609436,48.688258],[36.609243,48.688662],[36.609279,48.688692],[36.609892,48.688813]]]}},{"type":"Feature","properties":{"cadnum":"6320682501:01:000:0120"},"geometry":{"type":"Polygon","coordinates":[[[36.610094,48.688389],[36.610241,48.688083],[36.609964,48.688028],[36.609609,48.688062],[36.609512,48.688098],[36.609436,48.688258],[36.610094,48.688389]]]}},{"type":"Feature","properties":{"cadnum":"6320682501:01:000:0059"},"geometry":{"type":"Polygon","coordinates":[[[36.608425,48.690386],[36.608676,48.689995],[36.608418,48.689982],[36.608214,48.689903],[36.607946,48.689848],[36.607709,48.690218],[36.608091,48.690311],[36.608425,48.690386]]]}},{"type":"Feature","properties":{"cadnum":"6320682501:01:000:0094"},"geometry":{"type":"Polygon","coordinates":[[[36.612024,48.688454691218126],[36.612559,48.688582],[36.612626,48.6883],[36.611910952711085,48.68812979469449],[36.611596,48.688054],[36.611544,48.68834],[36.612024,48.688455],[36.612024,48.688454691218126]]]}},{"type":"Feature","properties":{"cadnum":"6320682501:01:000:0024"},"geometry":{"type":"Polygon","coordinates":[[[36.612024,48.68777755531915],[36.612793,48.687861],[36.612885,48.687606],[36.612024,48.68751172383721],[36.612024,48.687511],[36.611731,48.687478],[36.611673,48.687739],[36.612024,48.687778],[36.612024,48.68777755531915]]]}},{"type":"Feature","properties":{"cadnum":"6320682501:01:000:0099"},"geometry":{"type":"Polygon","coordinates":[[[36.612201,48.682133],[36.612857,48.682132],[36.613011,48.68212],[36.61303,48.681754],[36.612234,48.681736],[36.612232,48.682105],[36.612207,48.6821],[36.612201,48.682133]]]}},{"type":"Feature","properties":{"cadnum":"6320682501:01:000:0196"},"geometry":{"type":"Polygon","coordinates":[[[36.61547,48.683681],[36.615577,48.683672],[36.615789,48.683656],[36.615753,48.68338],[36.615449,48.6834],[36.615454,48.683425],[36.615459,48.683465],[36.615474,48.683541],[36.615486,48.683614],[36.615459,48.683615],[36.61547,48.683681]]]}},{"type":"Feature","properties":{"cadnum":"6320682501:01:000:0202"},"geometry":{"type":"Polygon","coordinates":[[[36.616194,48.683624],[36.616251,48.683621],[36.616396,48.683608],[36.616618,48.683593],[36.616571,48.683342],[36.616512,48.682881],[36.6161,48.682895],[36.616194,48.683617],[36.616194,48.683624]]]}},{"type":"Feature","properties":{"cadnum":"6320682501:01:000:0104"},"geometry":{"type":"Polygon","coordinates":[[[36.61579,48.683672],[36.616194,48.683617],[36.6161,48.682895],[36.61569,48.682909],[36.61579,48.683672]]]}},{"type":"Feature","properties":{"cadnum":"6320682501:01:000:0200"},"geometry":{"type":"Polygon","coordinates":[[[36.615449,48.6834],[36.615753,48.68338],[36.61569,48.682909],[36.615565,48.68203],[36.615109,48.682058],[36.615201,48.682737],[36.614981,48.682754],[36.614685,48.682777],[36.614772,48.683253],[36.615417,48.683207],[36.615449,48.6834]]]}},{"type":"Feature","properties":{"cadnum":"6320682501:01:000:0162"},"geometry":{"type":"Polygon","coordinates":[[[36.614572,48.682023],[36.615028,48.681965],[36.615,48.681562],[36.614985,48.681153],[36.614576,48.681129],[36.614572,48.682023]]]}},{"type":"Feature","properties":{"cadnum":"6320682501:01:000:0172"},"geometry":{"type":"Polygon","coordinates":[[[36.617307,48.680948],[36.617312,48.680525],[36.616634,48.680531],[36.616603,48.68091],[36.616748,48.680914],[36.617088,48.680927],[36.617307,48.680948]]]}},{"type":"Feature","properties":{"cadnum":"6320682501:01:000:0033"},"geometry":{"type":"Polygon","coordinates":[[[36.615028,48.681965],[36.61536,48.681935],[36.615377,48.681552],[36.615,48.681562],[36.615028,48.681965]]]}},{"type":"Feature","properties":{"cadnum":"6320682501:01:000:0168"},"geometry":{"type":"Polygon","coordinates":[[[36.61569,48.682909],[36.6161,48.682895],[36.616512,48.682881],[36.61636,48.682015],[36.615565,48.68203],[36.61569,48.682909]]]}},{"type":"Feature","properties":{"cadnum":"6320682501:01:000:0100"},"geometry":{"type":"Polygon","coordinates":[[[36.615888,48.681864],[36.616226,48.681845],[36.615974,48.680959],[36.615635,48.680968],[36.615888,48.681864]]]}},{"type":"Feature","properties":{"cadnum":"6320682501:01:000:0165"},"geometry":{"type":"Polygon","coordinates":[[[36.613373,48.682102],[36.613414,48.682101],[36.613817,48.682076],[36.613909,48.68207],[36.613899,48.681725],[36.613933,48.681503],[36.613414,48.68149],[36.61341,48.681552],[36.613388,48.68182],[36.61338,48.681969],[36.613384,48.682016],[36.613373,48.682102]]]}},{"type":"Feature","properties":{"cadnum":"6320682501:01:000:0182"},"geometry":{"type":"Polygon","coordinates":[[[36.613909,48.68207],[36.614312,48.682054],[36.614386,48.68105],[36.614013,48.68101],[36.613933,48.681503],[36.613899,48.681725],[36.613909,48.68207]]]}},{"type":"Feature","properties":{"cadnum":"6320682501:01:000:0158"},"geometry":{"type":"Polygon","coordinates":[[[36.61415,48.682819],[36.614981,48.682754],[36.614869,48.682072],[36.614082,48.68216],[36.61415,48.682819]]]}},{"type":"Feature","properties":{"cadnum":"6320682501:01:000:0213"},"geometry":{"type":"Polygon","coordinates":[[[36.613933,48.681503],[36.614013,48.68101],[36.614094,48.680201],[36.613438,48.68027],[36.613454,48.680959],[36.613414,48.68149],[36.613933,48.681503]]]}},{"type":"Feature","properties":{"cadnum":"6320682501:01:000:0156"},"geometry":{"type":"Polygon","coordinates":[[[36.613718,48.689571],[36.613795,48.689306],[36.613261,48.689238],[36.613184,48.689504],[36.613718,48.689571]]]}},{"type":"Feature","properties":{"cadnum":"6320682501:01:000:0147"},"geometry":{"type":"Polygon","coordinates":[[[36.613648,48.688906],[36.613734,48.688701],[36.613754,48.688644],[36.613778,48.688579],[36.613332,48.688433],[36.613034,48.688377],[36.613005,48.688443],[36.612998,48.688469],[36.61296,48.688602],[36.612913,48.688786],[36.613648,48.688906]]]}},{"type":"Feature","properties":{"cadnum":"6320682501:01:000:0041"},"geometry":{"type":"Polygon","coordinates":[[[36.614756,48.688477],[36.614841,48.688276],[36.613145,48.68804],[36.613088,48.68818],[36.614756,48.688477]]]}},{"type":"Feature","properties":{"cadnum":"6320682501:01:000:0042"},"geometry":{"type":"Polygon","coordinates":[[[36.614885,48.6885],[36.614956,48.688292],[36.614841,48.688276],[36.614756,48.688477],[36.614885,48.6885]]]}},{"type":"Feature","properties":{"cadnum":"6320682501:01:000:0085"},"geometry":{"type":"Polygon","coordinates":[[[36.61525,48.689767],[36.615491,48.689128],[36.615094,48.689079],[36.614808,48.6897],[36.61525,48.689767]]]}},{"type":"Feature","properties":{"cadnum":"6320682501:01:000:0103"},"geometry":{"type":"Polygon","coordinates":[[[36.615651,48.689838],[36.615907,48.689177],[36.615491,48.689128],[36.61525,48.689767],[36.615651,48.689838]]]}},{"type":"Feature","properties":{"cadnum":"6320682501:01:000:0090"},"geometry":{"type":"Polygon","coordinates":[[[36.615907,48.689177],[36.615994,48.688948],[36.61491,48.688798],[36.6148,48.688787],[36.614656,48.689008],[36.614835,48.689038],[36.615094,48.689079],[36.615491,48.689128],[36.615907,48.689177]]]}},{"type":"Feature","properties":{"cadnum":"6320682501:01:000:0084"},"geometry":{"type":"Polygon","coordinates":[[[36.615994,48.688948],[36.616092,48.688682],[36.614995,48.688529],[36.61491,48.688798],[36.615994,48.688948]]]}},{"type":"Feature","properties":{"cadnum":"6320682501:01:000:0176"},"geometry":{"type":"Polygon","coordinates":[[[36.614715,48.688258],[36.614766,48.688079],[36.614595,48.688054],[36.614032,48.687956],[36.613542,48.687902],[36.613481,48.687897],[36.613427,48.687892],[36.613427,48.687887],[36.613348,48.68788],[36.613239,48.687871],[36.613215,48.687866],[36.613199,48.687864],[36.613188,48.687889],[36.613145,48.68804],[36.614715,48.688258]]]}},{"type":"Feature","properties":{"cadnum":"6320682501:01:000:0207"},"geometry":{"type":"Polygon","coordinates":[[[36.614921,48.690603],[36.614967,48.690492],[36.614981,48.690458],[36.615126,48.690107],[36.614453,48.689986],[36.614248,48.690481],[36.614921,48.690603]]]}},{"type":"Feature","properties":{"cadnum":"6320682501:01:000:0195"},"geometry":{"type":"Polygon","coordinates":[[[36.614216,48.689636],[36.614217,48.689632],[36.614285,48.6894],[36.613787,48.689335],[36.613719,48.689568],[36.613718,48.689571],[36.614216,48.689636]]]}},{"type":"Feature","properties":{"cadnum":"6320682501:01:000:0146"},"geometry":{"type":"Polygon","coordinates":[[[36.61415,48.688699],[36.61426,48.688385],[36.613868,48.688319],[36.61309,48.688188],[36.613088,48.688198],[36.613074,48.688245],[36.613034,48.688377],[36.613332,48.688433],[36.613778,48.688579],[36.613754,48.688644],[36.61415,48.688699]]]}},{"type":"Feature","properties":{"cadnum":"6320682501:01:000:0063"},"geometry":{"type":"Polygon","coordinates":[[[36.605444,48.681543],[36.606191,48.681449],[36.606136,48.681295],[36.605386,48.681384],[36.605444,48.681543]]]}},{"type":"Feature","properties":{"cadnum":"6320682501:01:000:0190"},"geometry":{"type":"Polygon","coordinates":[[[36.603912,48.68095],[36.605024,48.680888],[36.605556,48.680846],[36.60596,48.680809],[36.605913,48.680647],[36.605425,48.680694],[36.604133,48.680788],[36.603912,48.68095]]]}}]}