{"type":"FeatureCollection","features":[{"type":"Feature","properties":{"cadnum":"6320680503:03:000:0004"},"geometry":{"type":"Polygon","coordinates":[[[36.677942,48.6843568076923],[36.678005,48.684363],[36.678098,48.683964],[36.677942,48.68394873394495],[36.677942,48.683948],[36.677529,48.683906],[36.677437,48.684305],[36.677771,48.68433939207921],[36.677771,48.68434],[36.67790090596735,48.68435276853525],[36.677942,48.684357],[36.677942,48.6843568076923]]]}},{"type":"Feature","properties":{"cadnum":"6320680503:03:000:0015"},"geometry":{"type":"Polygon","coordinates":[[[36.680037,48.686537],[36.680409,48.685265],[36.680409,48.685167],[36.679595,48.685073],[36.679546,48.685316],[36.679416,48.685987],[36.679667,48.686172],[36.679582,48.686491],[36.680037,48.686537]]]}},{"type":"Feature","properties":{"cadnum":"6320680503:03:000:0013"},"geometry":{"type":"Polygon","coordinates":[[[36.680937,48.685185],[36.680961,48.685069],[36.68146,48.685131],[36.681516,48.684885],[36.680969,48.684841],[36.680529,48.6848],[36.680409,48.685128],[36.680409,48.685167],[36.680937,48.685185]]]}},{"type":"Feature","properties":{"cadnum":"6320680503:03:000:0020"},"geometry":{"type":"Polygon","coordinates":[[[36.681814,48.683764],[36.681815195488724,48.683764],[36.681692,48.684216],[36.683264,48.68441441652323],[36.683264,48.684415],[36.68337326446357,48.6844282077923],[36.683435,48.684436],[36.683435,48.68443567032967],[36.683446,48.684437],[36.683435,48.6845085],[36.683435,48.684507],[36.683394,48.684775],[36.683435,48.684778],[36.683435,48.684777036717065],[36.683857,48.684798],[36.684016,48.683931],[36.683277,48.683834],[36.68260499999998,48.683764],[36.682607,48.683764],[36.681837,48.683684],[36.681814,48.683764]]]}},{"type":"Feature","properties":{"cadnum":"6320680503:03:000:0014"},"geometry":{"type":"Polygon","coordinates":[[[36.680541,48.686589],[36.680777,48.685618],[36.681307,48.685676],[36.68146,48.685131],[36.680961,48.685069],[36.680937,48.685185],[36.680409,48.685167],[36.680409,48.685265],[36.680037,48.686537],[36.680541,48.686589]]]}},{"type":"Feature","properties":{"cadnum":"6320680503:03:000:0019"},"geometry":{"type":"Polygon","coordinates":[[[36.683273,48.685829],[36.683308,48.68551],[36.682007,48.68542],[36.68139,48.685377],[36.681307,48.685676],[36.681504,48.685697],[36.681866,48.685736],[36.682654,48.685803],[36.683273,48.685829]]]}},{"type":"Feature","properties":{"cadnum":"6320680503:03:000:0009"},"geometry":{"type":"Polygon","coordinates":[[[36.677555,48.683191],[36.677468,48.683587],[36.677501,48.683764],[36.67750171372549,48.683764],[36.677529,48.683906],[36.677771,48.68393061016949],[36.677771,48.683932],[36.678098,48.683964],[36.678147,48.683781],[36.679395,48.683925],[36.681692,48.684216],[36.681837,48.683684],[36.681586,48.683652],[36.681266,48.683611],[36.680759,48.683546],[36.680173,48.683472],[36.679479,48.683383],[36.679206,48.683351],[36.678562,48.683288],[36.678024,48.683237],[36.677942,48.68322922134387],[36.677942,48.683229],[36.677555,48.683191]]]}},{"type":"Feature","properties":{"cadnum":"6320680503:03:000:0022"},"geometry":{"type":"Polygon","coordinates":[[[36.675915,48.683033],[36.67531,48.682974],[36.675192,48.682963],[36.67501334332085,48.683651],[36.675012,48.683651],[36.674938,48.68394],[36.675654,48.684033],[36.675754,48.683651],[36.6757535253078,48.683651],[36.675915,48.683033]]]}},{"type":"Feature","properties":{"cadnum":"6320680503:03:000:0016"},"geometry":{"type":"Polygon","coordinates":[[[36.671742,48.682709],[36.6716,48.683445],[36.672367,48.683551],[36.672327,48.683764],[36.672327932203395,48.683764],[36.672327,48.683769],[36.673171,48.683833],[36.673216,48.683651],[36.673215402373245,48.683651],[36.67342,48.682837],[36.672277,48.682727],[36.672277,48.68272726752504],[36.67175,48.682676],[36.671742,48.682709]]]}},{"type":"Feature","properties":{"cadnum":"6320680503:03:000:0018"},"geometry":{"type":"Polygon","coordinates":[[[36.664817,48.683152],[36.664928,48.682759],[36.665324,48.682796],[36.66562,48.682825],[36.665858,48.682073],[36.665953,48.681711],[36.665398,48.681438],[36.66527,48.681799],[36.664604,48.681745],[36.664211,48.683103],[36.664647,48.683118],[36.664817,48.683152]]]}},{"type":"Feature","properties":{"cadnum":"6320680503:03:000:0017"},"geometry":{"type":"Polygon","coordinates":[[[36.665548,48.68325],[36.665557,48.683177],[36.66562,48.682825],[36.664928,48.682759],[36.664817,48.683152],[36.665163,48.683219],[36.665548,48.68325]]]}},{"type":"Feature","properties":{"cadnum":"6320680503:03:000:0008"},"geometry":{"type":"Polygon","coordinates":[[[36.665976,48.683018],[36.666375,48.681453],[36.666048,48.681417],[36.66565,48.682982],[36.665976,48.683018]]]}},{"type":"Feature","properties":{"cadnum":"6320680503:03:000:0021"},"geometry":{"type":"Polygon","coordinates":[[[36.662911,48.683005],[36.662982,48.682744],[36.663008,48.682648],[36.662249,48.682559],[36.662064,48.682933],[36.662911,48.683005]]]}},{"type":"Feature","properties":{"cadnum":"6320680503:03:000:0005"},"geometry":{"type":"Polygon","coordinates":[[[36.663308,48.683111],[36.663397,48.682796],[36.662982,48.682744],[36.662896,48.683059],[36.663308,48.683111]]]}},{"type":"Feature","properties":{"cadnum":"6320680503:03:000:0007"},"geometry":{"type":"Polygon","coordinates":[[[36.665892,48.683345],[36.665976,48.683018],[36.66565,48.682982],[36.665567,48.683309],[36.665892,48.683345]]]}},{"type":"Feature","properties":{"cadnum":"6320680503:03:000:0002"},"geometry":{"type":"Polygon","coordinates":[[[36.67147,48.68343],[36.67101,48.683379],[36.67094143490305,48.683651],[36.67094,48.683651],[36.670919,48.68374],[36.671379,48.683792],[36.67138595035461,48.683764],[36.671386,48.683764],[36.67147,48.68343]]]}},{"type":"Feature","properties":{"cadnum":"6320680503:03:000:0011"},"geometry":{"type":"Polygon","coordinates":[[[36.669991,48.683161],[36.670141,48.682578],[36.669918,48.68252],[36.6695,48.682492],[36.669302,48.683091],[36.669991,48.683161]]]}},{"type":"Feature","properties":{"cadnum":"6320680503:03:000:0012"},"geometry":{"type":"Polygon","coordinates":[[[36.6716,48.683445],[36.671742,48.682709],[36.671105,48.682663],[36.670936,48.683371],[36.67101,48.683379],[36.67147,48.68343],[36.6716,48.683445]]]}},{"type":"Feature","properties":{"cadnum":"6320680503:03:000:0010"},"geometry":{"type":"Polygon","coordinates":[[[36.669853,48.683592],[36.669969,48.683247],[36.669991,48.683161],[36.669302,48.683091],[36.669178,48.683524],[36.669853,48.683592]]]}}]}