{"type":"FeatureCollection","features":[{"type":"Feature","properties":{"cadnum":"6320483705:00:000:0001"},"geometry":{"type":"Polygon","coordinates":[[[37.227259,48.910169],[37.226429,48.910133],[37.226471,48.910673],[37.227087,48.910838725888325],[37.227087,48.910839],[37.227412,48.910926],[37.22749358125,48.911613],[37.227493,48.911613],[37.227606,48.912556],[37.228187,48.912563],[37.228236,48.911776],[37.228244,48.911613],[37.22824371231617,48.911613],[37.228293,48.910638],[37.228317,48.910214],[37.227259,48.91016927154472],[37.227259,48.910169]]]}},{"type":"Feature","properties":{"cadnum":"6320483705:00:000:0003"},"geometry":{"type":"Polygon","coordinates":[[[37.227259,48.909531],[37.226724,48.909496],[37.225787,48.909475],[37.225362,48.909466],[37.224782,48.909459],[37.224681,48.909604],[37.224391,48.909701],[37.224275,48.909856],[37.224229,48.910049],[37.226429,48.910133],[37.227087,48.91016153975904],[37.227087,48.910162],[37.228317,48.910214],[37.228358,48.909604],[37.227259,48.90953223210071],[37.227259,48.909531]]]}},{"type":"Feature","properties":{"cadnum":"6320483705:00:000:0002"},"geometry":{"type":"Polygon","coordinates":[[[37.225581,48.911582],[37.2256,48.911442],[37.225439,48.910816],[37.226429,48.910133],[37.224229,48.910049],[37.224142,48.910387],[37.22422,48.910462],[37.224255,48.910645],[37.223859,48.91127],[37.224028,48.911562],[37.225581,48.911582]]]}}]}