{"type":"FeatureCollection","features":[{"type":"Feature","properties":{"cadnum":"6321884001:00:000:0060"},"geometry":{"type":"Polygon","coordinates":[[[37.692906,49.919024],[37.693016,49.918797],[37.692461,49.918541],[37.691164,49.917966],[37.691045,49.918172],[37.692288,49.918749],[37.692906,49.919024]]]}},{"type":"Feature","properties":{"cadnum":"6321884001:00:000:0055"},"geometry":{"type":"Polygon","coordinates":[[[37.690541,49.919287],[37.690414,49.919297],[37.690665,49.919454],[37.69066542519686,49.919454],[37.690691,49.91947],[37.691392,49.919673],[37.691478,49.920323],[37.691745,49.920963],[37.692575,49.921033],[37.692759,49.921044],[37.693189,49.921065],[37.693256,49.920782],[37.693448,49.920758],[37.693437,49.920587],[37.693213,49.920532],[37.693189,49.92042],[37.692795,49.920361],[37.692633,49.919837],[37.692287,49.919761],[37.691841,49.919628],[37.691514,49.919508],[37.69105,49.919372],[37.690879,49.919343],[37.69087634117645,49.919343],[37.690541,49.919287]]]}},{"type":"Feature","properties":{"cadnum":"6321884001:00:000:0056"},"geometry":{"type":"Polygon","coordinates":[[[37.694483,49.919042],[37.694554,49.919454],[37.69455600581395,49.919454],[37.694567,49.919515],[37.694178,49.91949211764706],[37.694178,49.919492],[37.693928,49.919476],[37.693925,49.919752],[37.69398,49.920053],[37.694006,49.920055232323236],[37.694006,49.920056],[37.694174432431915,49.920069693693655],[37.694178,49.92007],[37.694178,49.920069983739836],[37.694375,49.920086],[37.696103,49.920208],[37.696004,49.92052],[37.694512,49.920507],[37.69451,49.920684],[37.695641,49.920712],[37.695654,49.920888],[37.69707,49.921073],[37.697333,49.920619],[37.696153,49.920494],[37.696251,49.920015],[37.694903,49.919887],[37.69403,49.919854],[37.694017,49.919537],[37.694178,49.919549],[37.694178,49.91954858337981],[37.69581,49.919666],[37.69586447678019,49.919454],[37.695865,49.919454],[37.695952,49.919119],[37.695377,49.919008],[37.694559,49.918854],[37.694128737361424,49.9187847533909],[37.693951,49.918755],[37.6939,49.918924],[37.694178,49.918981],[37.694178,49.918979976939205],[37.694483,49.919042]]]}},{"type":"Feature","properties":{"cadnum":"6321884001:00:000:0037"},"geometry":{"type":"Polygon","coordinates":[[[37.692489,49.919372],[37.692418,49.919343],[37.69241765486725,49.919343],[37.691655,49.919033],[37.690807,49.918578],[37.691393,49.917572],[37.69176,49.91772],[37.691844,49.917559],[37.692123,49.91767],[37.692638,49.917194],[37.692499,49.917078],[37.692568,49.916991],[37.691977,49.916662],[37.691309,49.917549],[37.69071,49.918569],[37.690414,49.919297],[37.690541,49.919287],[37.69105,49.919372],[37.691329,49.919454],[37.691329764705884,49.919454],[37.691514,49.919508],[37.691841,49.919628],[37.692287,49.919761],[37.692633,49.919837],[37.692855,49.919507],[37.69271131111111,49.919454],[37.692712,49.919454],[37.692489,49.919372]]]}},{"type":"Feature","properties":{"cadnum":"6321884001:00:000:0050"},"geometry":{"type":"Polygon","coordinates":[[[37.693668,49.91857],[37.693825,49.918351],[37.693594,49.918189],[37.693216,49.917925],[37.692838,49.91816],[37.693193,49.918427],[37.693322,49.918465],[37.693487,49.918514],[37.693668,49.91857]]]}},{"type":"Feature","properties":{"cadnum":"6321884001:00:000:0012"},"geometry":{"type":"Polygon","coordinates":[[[37.688168,49.933533],[37.688112,49.933599],[37.68811233226837,49.933599],[37.687904,49.933846],[37.6882,49.933969],[37.688684,49.934135],[37.688684,49.93413390476191],[37.688702,49.93414],[37.688953,49.933901],[37.688596,49.933724],[37.688315895287964,49.933599],[37.688316,49.933599],[37.688168,49.933533]]]}},{"type":"Feature","properties":{"cadnum":"6321884001:00:000:0051"},"geometry":{"type":"Polygon","coordinates":[[[37.686076,49.933371],[37.687334,49.933121],[37.687389,49.932809],[37.68755,49.932816],[37.687671,49.932521],[37.68775,49.9321],[37.687359,49.93207],[37.686582,49.93191],[37.686312,49.932224],[37.686269,49.933047],[37.686076,49.933371]]]}},{"type":"Feature","properties":{"cadnum":"6321884001:00:000:0036"},"geometry":{"type":"Polygon","coordinates":[[[37.688684,49.93333179545454],[37.688722,49.933283],[37.688644,49.93325],[37.688513,49.933189],[37.688513,49.93318905652174],[37.688414,49.933143],[37.688312,49.933283],[37.68831,49.933289],[37.688274,49.933333],[37.688247,49.933366],[37.68819,49.933439],[37.688169,49.933464],[37.688131,49.933485],[37.68813408333334,49.933489],[37.688133,49.933489],[37.688168,49.933533],[37.688513,49.933686960280376],[37.688513,49.933687],[37.688596,49.933724],[37.688684,49.933769],[37.688684,49.93376748638132],[37.688853,49.933851],[37.68913,49.933636],[37.688922322580865,49.93353072903237],[37.688776,49.933456],[37.688634,49.933396],[37.688684,49.933332],[37.688684,49.93333179545454]]]}},{"type":"Feature","properties":{"cadnum":"6321884001:00:000:0052"},"geometry":{"type":"Polygon","coordinates":[[[37.686705,49.933456],[37.686541,49.9334],[37.686006,49.933516],[37.685922,49.933543],[37.685975,49.933599],[37.68597602643172,49.933599],[37.686579,49.934224],[37.687271,49.933946],[37.687508,49.934248],[37.686788,49.934555],[37.68661,49.934351],[37.686549,49.934374],[37.686969,49.934854],[37.687127,49.934862],[37.687577,49.934732],[37.687524,49.934647],[37.687684,49.934409],[37.687571,49.934228],[37.687333,49.933926],[37.686985,49.933674],[37.68688851351351,49.933599],[37.686889,49.933599],[37.686705,49.933456]]]}},{"type":"Feature","properties":{"cadnum":"6321884001:00:000:0041"},"geometry":{"type":"Polygon","coordinates":[[[37.68891,49.929671],[37.688684,49.929834380352645],[37.688684,49.929834],[37.688456,49.929999],[37.688684,49.930093],[37.688684,49.930092103448274],[37.689296,49.930343],[37.689539,49.930039],[37.68891,49.929671]]]}},{"type":"Feature","properties":{"cadnum":"6321884001:00:000:0046"},"geometry":{"type":"Polygon","coordinates":[[[37.688752,49.931478],[37.68864,49.931294],[37.688684,49.931267],[37.688684,49.93126625904762],[37.689165,49.930963],[37.688839,49.930732],[37.689147,49.930524],[37.689303,49.930367],[37.688684,49.93011313164557],[37.688684,49.930113],[37.688442,49.930013],[37.687844,49.930441],[37.687401,49.930904],[37.68711,49.931502],[37.686663,49.931824],[37.687487,49.931838],[37.687723,49.931584],[37.68827,49.931538],[37.688513,49.93157942748092],[37.688513,49.93158],[37.688663,49.931605],[37.688752,49.931478]]]}},{"type":"Feature","properties":{"cadnum":"6321884001:00:000:0058"},"geometry":{"type":"Polygon","coordinates":[[[37.692841,49.929652],[37.692619,49.929845],[37.692840449541286,49.929953],[37.692839,49.929953],[37.693311,49.930183],[37.693535,49.930289],[37.693782,49.930072],[37.69376180672268,49.930063],[37.693762,49.930063],[37.692841,49.929652]]]}},{"type":"Feature","properties":{"cadnum":"6321884001:00:000:0038"},"geometry":{"type":"Polygon","coordinates":[[[37.692579,49.929824],[37.692407,49.929734],[37.692322,49.929689],[37.6923,49.929677],[37.692233,49.92973],[37.692198,49.929759],[37.692068,49.929851],[37.692187,49.929919],[37.692285,49.929982],[37.692382,49.930031],[37.693074,49.930382],[37.693311,49.930183],[37.69306630434782,49.930063],[37.693067,49.930063],[37.692579,49.929824]]]}},{"type":"Feature","properties":{"cadnum":"6321884001:00:000:0064"},"geometry":{"type":"Polygon","coordinates":[[[37.689792,49.929785],[37.690005,49.929513],[37.68943,49.929248],[37.689076,49.92953],[37.68891,49.929671],[37.68939200543478,49.929953],[37.689391,49.929953],[37.689539,49.930039],[37.689519,49.930063],[37.68951981578948,49.930063],[37.689296,49.930343],[37.689303,49.930367],[37.689147,49.930524],[37.688839,49.930732],[37.689165,49.930963],[37.688872,49.931148],[37.689092,49.931426],[37.689368,49.931092],[37.689512,49.931012],[37.6896,49.930993],[37.689921,49.93114],[37.69006,49.931033],[37.689787,49.93087],[37.689258,49.930561],[37.689485,49.930157],[37.68965144444409,49.92995488888932],[37.689792,49.929785]]]}},{"type":"Feature","properties":{"cadnum":"6321884001:00:000:0040"},"geometry":{"type":"Polygon","coordinates":[[[37.692732,49.93103],[37.692934,49.930827],[37.69166,49.930131],[37.691477,49.930254],[37.691748,49.930444],[37.691816,49.930524],[37.692732,49.93103]]]}},{"type":"Feature","properties":{"cadnum":"6321884001:00:000:0065"},"geometry":{"type":"Polygon","coordinates":[[[37.691345,49.932794],[37.692339,49.931626],[37.692592,49.931368],[37.692401,49.931287],[37.69176,49.930973],[37.691501,49.931235],[37.690912,49.930941],[37.690877,49.930923],[37.690684,49.930817],[37.690455,49.930982],[37.690457,49.930992],[37.690624,49.931077],[37.69081,49.93116],[37.691176,49.931334],[37.692057,49.93174],[37.691587,49.932218],[37.691364,49.932102],[37.69103,49.93227],[37.689999,49.931698],[37.689686,49.931962],[37.690577,49.93241],[37.691345,49.932794]]]}},{"type":"Feature","properties":{"cadnum":"6321884001:00:000:0062"},"geometry":{"type":"Polygon","coordinates":[[[37.688738,49.931756],[37.688989,49.931703],[37.688847,49.931524],[37.689092,49.931426],[37.688872,49.931148],[37.68864,49.931294],[37.688752,49.931478],[37.688663,49.931605],[37.688738,49.931756]]]}},{"type":"Feature","properties":{"cadnum":"6321884001:00:000:0045"},"geometry":{"type":"Polygon","coordinates":[[[37.6905,49.93319],[37.690708,49.932997],[37.688985,49.932203],[37.688821,49.932435],[37.689191,49.932596],[37.6905,49.93319]]]}},{"type":"Feature","properties":{"cadnum":"6321884001:00:000:0057"},"geometry":{"type":"Polygon","coordinates":[[[37.694037,49.92983],[37.69337,49.929499],[37.692906,49.929287],[37.692598,49.929519],[37.692841,49.929652],[37.693515503649635,49.929953],[37.693515,49.929953],[37.693782,49.930072],[37.693907,49.929953],[37.69390660944206,49.929953],[37.694037,49.92983]]]}},{"type":"Feature","properties":{"cadnum":"6321884001:00:000:0033"},"geometry":{"type":"Polygon","coordinates":[[[37.691501,49.931235],[37.69176,49.930973],[37.691678,49.930932],[37.691015,49.930587],[37.690687,49.930818],[37.690877,49.930923],[37.690912,49.930941],[37.691501,49.931235]]]}},{"type":"Feature","properties":{"cadnum":"6321884001:00:000:0007"},"geometry":{"type":"Polygon","coordinates":[[[37.691161,49.929843],[37.690805,49.92966],[37.690488,49.929955],[37.690821,49.930113],[37.691125,49.93026],[37.691164,49.93023],[37.691237,49.930268],[37.691537,49.930051],[37.691161,49.929843]]]}},{"type":"Feature","properties":{"cadnum":"6321884001:00:000:0039"},"geometry":{"type":"Polygon","coordinates":[[[37.686788,49.934555],[37.687508,49.934248],[37.687271,49.933946],[37.686519,49.934248],[37.686788,49.934555]]]}},{"type":"Feature","properties":{"cadnum":"6321884001:00:000:0048"},"geometry":{"type":"Polygon","coordinates":[[[37.69087,49.92769],[37.691006,49.927687],[37.691112,49.927576],[37.691133,49.92755],[37.689922,49.927274],[37.689576,49.927203],[37.6895,49.92739],[37.689948,49.92749],[37.690408,49.927599],[37.69087,49.92769]]]}},{"type":"Feature","properties":{"cadnum":"6321884001:00:000:0035"},"geometry":{"type":"Polygon","coordinates":[[[37.691607,49.92704],[37.69176,49.926845],[37.691789,49.926807],[37.691803,49.926789],[37.691769,49.926777],[37.691654,49.926748],[37.691518,49.926714],[37.691486,49.926705],[37.69143,49.926691],[37.691431,49.926689],[37.691415,49.926684],[37.691412,49.926687],[37.691277,49.926653],[37.690655,49.926499],[37.690518,49.926732],[37.690884,49.926827],[37.691296,49.926934],[37.691359,49.926955],[37.691607,49.92704]]]}},{"type":"Feature","properties":{"cadnum":"6321884001:00:000:0054"},"geometry":{"type":"Polygon","coordinates":[[[37.692259,49.927504],[37.692277,49.92748],[37.692279,49.927479],[37.692328,49.927495],[37.692509,49.927241],[37.692419,49.927214],[37.692261,49.927169],[37.692233,49.927205],[37.692228,49.927211],[37.692123,49.92717],[37.692028,49.927132],[37.692008,49.927048],[37.691876,49.927],[37.691801,49.927087],[37.691756,49.927137],[37.691652,49.927256],[37.691671,49.927261],[37.691663,49.927272],[37.691639,49.927302],[37.691617,49.92733],[37.691874,49.927408],[37.691887,49.927412],[37.692099,49.927495],[37.692107,49.927479],[37.692171,49.927489],[37.692259,49.927504]]]}},{"type":"Feature","properties":{"cadnum":"6321884001:00:000:0003"},"geometry":{"type":"Polygon","coordinates":[[[37.694178,49.926515],[37.694178,49.926514],[37.693648,49.926409],[37.693574,49.926527],[37.69357541525424,49.926527],[37.693498,49.926653],[37.694006,49.92674269502408],[37.694006,49.926743],[37.694121,49.926763],[37.694178,49.926621],[37.694178,49.926620500000006],[37.694217,49.926523],[37.694178,49.92651523696683],[37.694178,49.926515]]]}},{"type":"Feature","properties":{"cadnum":"6321884001:00:000:0042"},"geometry":{"type":"Polygon","coordinates":[[[37.691467,49.928488],[37.691707,49.928281],[37.691676,49.928266],[37.691908,49.928003],[37.691849,49.927976],[37.691757,49.927936],[37.691766,49.927927],[37.691752,49.927921],[37.691463,49.927814],[37.691317,49.927757],[37.691298,49.927776],[37.691265,49.927812],[37.691255,49.927825],[37.691157,49.927923],[37.69109,49.927998],[37.691282,49.928075],[37.691375,49.928112],[37.691149,49.928325],[37.691467,49.928488]]]}},{"type":"Feature","properties":{"cadnum":"6321884001:00:000:0063"},"geometry":{"type":"Polygon","coordinates":[[[37.690933,49.929447],[37.691407,49.929071],[37.690215,49.928386],[37.690189,49.928404],[37.690027,49.928361],[37.689881,49.928589],[37.689771,49.928818],[37.689729,49.928882],[37.690933,49.929447]]]}},{"type":"Feature","properties":{"cadnum":"6321884001:00:000:0059"},"geometry":{"type":"Polygon","coordinates":[[[37.694178,49.91982352784504],[37.69491,49.919851],[37.696313,49.919984],[37.697589,49.920144],[37.697724,49.919924],[37.695855,49.919706],[37.694074,49.919577],[37.694084,49.91982],[37.694178,49.919824],[37.694178,49.91982352784504]]]}},{"type":"Feature","properties":{"cadnum":"6321884001:00:000:0044"},"geometry":{"type":"Polygon","coordinates":[[[37.696495,49.922562],[37.696628,49.922248],[37.696344,49.922201],[37.696313,49.922195],[37.696211,49.922178],[37.695698,49.922098],[37.69557,49.922423],[37.696067,49.92249],[37.696495,49.922562]]]}},{"type":"Feature","properties":{"cadnum":"6321884001:00:000:0066"},"geometry":{"type":"Polygon","coordinates":[[[37.697333,49.920619],[37.697571,49.920178],[37.696251,49.920015],[37.696153,49.920494],[37.697333,49.920619]]]}},{"type":"Feature","properties":{"cadnum":"6321884001:00:000:0034"},"geometry":{"type":"Polygon","coordinates":[[[37.69522,49.922879],[37.69521965178571,49.92288],[37.695218,49.92288],[37.695149,49.923084],[37.695672,49.92316],[37.695929,49.923191],[37.696224,49.923236],[37.696294,49.923066],[37.69631,49.923026],[37.696313,49.92302],[37.696187,49.923002],[37.695782,49.922949],[37.69522,49.922879]]]}},{"type":"Feature","properties":{"cadnum":"6321884001:00:000:0061"},"geometry":{"type":"Polygon","coordinates":[[[37.695236,49.922708],[37.695335,49.922394],[37.694753,49.922305],[37.69473,49.922388],[37.694191,49.922398],[37.694164,49.922548],[37.694769,49.922661],[37.695236,49.922708]]]}},{"type":"Feature","properties":{"cadnum":"6321884001:00:000:0002"},"geometry":{"type":"Polygon","coordinates":[[[37.694407,49.926466],[37.694392,49.926527],[37.69439225274725,49.926527],[37.694385,49.926557],[37.69423676470587,49.926527],[37.694238,49.926527],[37.694217,49.926523],[37.694214,49.926527],[37.694215400000004,49.926527],[37.694121,49.926763],[37.694494,49.926829],[37.695043,49.926928],[37.695141,49.926683],[37.695158,49.926639],[37.695178,49.926585],[37.69480221848739,49.926527],[37.694803,49.926527],[37.694407,49.926466]]]}},{"type":"Feature","properties":{"cadnum":"6321884001:00:000:0049"},"geometry":{"type":"Polygon","coordinates":[[[37.6937,49.922834],[37.693331,49.922741],[37.693337,49.922437],[37.692937,49.922391],[37.692131,49.922264],[37.691403,49.922151],[37.691517,49.921756],[37.692578,49.921906],[37.692772,49.921419],[37.6926,49.921398],[37.692575,49.921033],[37.691745,49.920963],[37.691628,49.921272],[37.691422,49.921647],[37.691124,49.922363],[37.691084,49.922859],[37.691666,49.922991],[37.69166746987953,49.922991],[37.69191,49.923046],[37.691945,49.922971],[37.691845,49.92283],[37.6922526923077,49.92288],[37.692252,49.92288],[37.693117,49.922986],[37.693146,49.922991],[37.69315179166668,49.922991],[37.693618,49.923058],[37.693655,49.92302],[37.693677354838734,49.92292516129023],[37.6937,49.922834]]]}},{"type":"Feature","properties":{"cadnum":"6321884001:00:000:0047"},"geometry":{"type":"Polygon","coordinates":[[[37.691845,49.92283],[37.691880460992905,49.92288],[37.69188,49.92288],[37.691945,49.922971],[37.691935,49.922991],[37.69193566666666,49.922991],[37.69191,49.923046],[37.693122,49.923284],[37.693069,49.923213],[37.693117,49.922986],[37.691845,49.92283]]]}},{"type":"Feature","properties":{"cadnum":"6321884001:00:000:0043"},"geometry":{"type":"Polygon","coordinates":[[[37.692937,49.922391],[37.692989,49.922227],[37.693058,49.922011],[37.692264,49.921898],[37.692131,49.922264],[37.692937,49.922391]]]}},{"type":"Feature","properties":{"cadnum":"6321884001:00:000:0053"},"geometry":{"type":"Polygon","coordinates":[[[37.69612,49.923442],[37.696224,49.923236],[37.695929,49.923191],[37.695672,49.92316],[37.695149,49.923084],[37.695137,49.923081],[37.695134,49.923089],[37.695069,49.923272],[37.695055,49.923316],[37.695592,49.923372],[37.69612,49.923442]]]}}]}