{"type":"FeatureCollection","features":[{"type":"Feature","properties":{"cadnum":"6321082004:01:001:0262"},"geometry":{"type":"Polygon","coordinates":[[[37.85894767806181,49.26512653846173],[37.858973,49.265121],[37.858973,49.26512093442623],[37.859045,49.265105],[37.859262,49.265006],[37.859348,49.264824],[37.859311,49.264756],[37.858801,49.264736],[37.858801,49.26473616053019],[37.858294,49.264716],[37.858228,49.265086],[37.857944,49.265114],[37.857858,49.265105],[37.857862,49.265364],[37.858801,49.26515862016202],[37.858801,49.265159],[37.85894767806181,49.26512653846173]]]}},{"type":"Feature","properties":{"cadnum":"6321082004:01:001:0292"},"geometry":{"type":"Polygon","coordinates":[[[37.858967,49.264316],[37.858075,49.264266],[37.857542,49.264243],[37.857517,49.264466],[37.858043,49.264478],[37.858801,49.26452348],[37.858801,49.264524],[37.858943,49.264532],[37.858967,49.264316]]]}},{"type":"Feature","properties":{"cadnum":"6321082004:01:001:0280"},"geometry":{"type":"Polygon","coordinates":[[[37.838538,49.256599],[37.83785,49.256664],[37.837695,49.256848],[37.83774479844961,49.256994],[37.837744,49.256994],[37.837909,49.257471],[37.837164,49.257617],[37.838493,49.258199],[37.838749,49.258556],[37.839037,49.258847],[37.839773,49.258714],[37.83883250697674,49.257106],[37.838833,49.257106],[37.838538,49.256599]]]}},{"type":"Feature","properties":{"cadnum":"6321082004:01:001:0283"},"geometry":{"type":"Polygon","coordinates":[[[37.839626,49.256983],[37.840117,49.256996],[37.840068,49.256456],[37.838538,49.256599],[37.83876783234714,49.256994],[37.838767,49.256994],[37.839773,49.258714],[37.84065,49.258469],[37.840987,49.258418],[37.839637,49.256994],[37.839636373983744,49.256994],[37.839626,49.256983]]]}},{"type":"Feature","properties":{"cadnum":"6321082004:01:001:0271"},"geometry":{"type":"Polygon","coordinates":[[[37.839626,49.256983],[37.839742,49.257106],[37.83974317977528,49.257106],[37.840987,49.258418],[37.842147,49.258556],[37.842296,49.258631],[37.841794,49.257041],[37.840046,49.256994],[37.8400371724138,49.256994],[37.839626,49.256983]]]}},{"type":"Feature","properties":{"cadnum":"6321082004:01:001:0272"},"geometry":{"type":"Polygon","coordinates":[[[37.841794,49.257041],[37.841814,49.257106],[37.84181452201258,49.257106],[37.842296,49.258631],[37.842321,49.2586464822335],[37.842321,49.258647],[37.84247840740751,49.258743962963024],[37.842493,49.258753],[37.842493,49.258752952],[37.842571,49.258801],[37.843519,49.258872],[37.843842,49.25886],[37.843299,49.257135],[37.842975,49.25727],[37.842493,49.25715429051987],[37.842493,49.257154],[37.842056,49.257048],[37.841794,49.257041]]]}},{"type":"Feature","properties":{"cadnum":"6321082004:01:001:0060"},"geometry":{"type":"Polygon","coordinates":[[[37.84756,49.25669],[37.847222,49.256696],[37.84727723902439,49.256994],[37.847277,49.256994],[37.84728823853227,49.25705333945041],[37.847298,49.257106],[37.84729821212121,49.257106],[37.847627,49.258842],[37.847815,49.258831591695504],[37.847815,49.258832],[37.847916,49.258826],[37.847815,49.258255],[37.847815,49.25825780116956],[37.847745,49.257864],[37.847607,49.256994],[37.84760676923077,49.256994],[37.84756,49.25669]]]}},{"type":"Feature","properties":{"cadnum":"6321082004:01:001:0287"},"geometry":{"type":"Polygon","coordinates":[[[37.846992,49.256619],[37.846664,49.256638],[37.846697470085466,49.256994],[37.846697,49.256994],[37.846869,49.258784],[37.8471014934452,49.260579],[37.847101,49.260579],[37.847159,49.261022],[37.847506,49.260943],[37.847499,49.260899],[37.84746585,49.260691],[37.847466,49.260691],[37.847113,49.258441],[37.84702443054596,49.257106],[37.847025,49.257106],[37.846992,49.256619]]]}},{"type":"Feature","properties":{"cadnum":"6321082004:01:001:0308"},"geometry":{"type":"Polygon","coordinates":[[[37.846664,49.256638],[37.846338,49.256656],[37.84637630666667,49.256994],[37.846376,49.256994],[37.846746,49.260243],[37.846795,49.260691],[37.84679588888889,49.260691],[37.846841,49.261083],[37.847159,49.261022],[37.847115663656886,49.260691],[37.847116,49.260691],[37.846927,49.25923],[37.846869,49.258784],[37.846836,49.258432],[37.84670782614743,49.257106],[37.846708,49.257106],[37.846664,49.256638]]]}},{"type":"Feature","properties":{"cadnum":"6321082004:01:001:0264"},"geometry":{"type":"Polygon","coordinates":[[[37.844589,49.25681],[37.844222,49.25683],[37.843822,49.256893],[37.843668,49.256928],[37.84353668041237,49.256994],[37.843535,49.256994],[37.843475,49.257025],[37.843345,49.257106],[37.8433454,49.257106],[37.843299,49.257135],[37.843842,49.25886],[37.844603,49.258857],[37.844994,49.258854],[37.84462939285715,49.25701614285719],[37.844589,49.25681]]]}},{"type":"Feature","properties":{"cadnum":"6321082004:01:001:0053"},"geometry":{"type":"Polygon","coordinates":[[[37.845893,49.256746],[37.845372,49.256795],[37.84541103215434,49.256994],[37.845411,49.256994],[37.84542508396983,49.25706564122324],[37.845433,49.257106],[37.84543301811401,49.257106],[37.84578,49.258871],[37.84626,49.258883],[37.84595332874537,49.257106],[37.845954,49.257106],[37.845893,49.256746]]]}},{"type":"Feature","properties":{"cadnum":"6321082004:01:001:0321"},"geometry":{"type":"Polygon","coordinates":[[[37.845372,49.256795],[37.844955,49.256835],[37.845006,49.257106],[37.84500643135135,49.257106],[37.845339,49.258844],[37.84578,49.258871],[37.84542508396983,49.25706564122324],[37.845372,49.256795]]]}},{"type":"Feature","properties":{"cadnum":"6321082004:01:001:0327"},"geometry":{"type":"Polygon","coordinates":[[[37.85088,49.256643],[37.8506,49.25666],[37.85064,49.257106],[37.85064136660617,49.257106],[37.850784,49.258647],[37.851107,49.258633],[37.851063,49.25814],[37.85093578010471,49.257106],[37.850937,49.257106],[37.85088,49.256643]]]}},{"type":"Feature","properties":{"cadnum":"6321082004:01:001:0304"},"geometry":{"type":"Polygon","coordinates":[[[37.851381,49.256144],[37.851077,49.256185],[37.851134,49.256633],[37.851191,49.257106],[37.85119187610619,49.257106],[37.851248,49.257559],[37.851383,49.258659],[37.851472,49.259566],[37.851761,49.259567],[37.851572,49.257868],[37.851486558352406,49.257106],[37.851487,49.257106],[37.851381,49.256144]]]}},{"type":"Feature","properties":{"cadnum":"6321082004:01:001:0080"},"geometry":{"type":"Polygon","coordinates":[[[37.848866,49.256544],[37.848511,49.256661],[37.84856413033708,49.256994],[37.848564,49.256994],[37.848570231756376,49.25703224128998],[37.848582,49.257106],[37.84858225139044,49.257106],[37.848857,49.258792],[37.849174,49.258779],[37.848928,49.256994],[37.848926854092525,49.256994],[37.848866,49.256544]]]}},{"type":"Feature","properties":{"cadnum":"6321082004:01:001:0054"},"geometry":{"type":"Polygon","coordinates":[[[37.848511,49.256661],[37.848191,49.256689],[37.848246,49.257106],[37.848246933333336,49.257106],[37.848472,49.258794],[37.848857,49.258792],[37.848570231756376,49.25703224128998],[37.848511,49.256661]]]}},{"type":"Feature","properties":{"cadnum":"6321082004:01:001:0051"},"geometry":{"type":"Polygon","coordinates":[[[37.85014,49.256584],[37.849785,49.25661],[37.849857,49.257106],[37.84985771152721,49.257106],[37.850096,49.258703],[37.850422,49.25867],[37.850195,49.256994],[37.85019498084291,49.256994],[37.85014,49.256584]]]}},{"type":"Feature","properties":{"cadnum":"6321082004:01:001:0057"},"geometry":{"type":"Polygon","coordinates":[[[37.849435,49.256631],[37.849091,49.256639],[37.849176,49.257106],[37.84917636363637,49.257106],[37.849474,49.258743],[37.849795,49.258725],[37.84951534604275,49.257106],[37.849516,49.257106],[37.849435,49.256631]]]}},{"type":"Feature","properties":{"cadnum":"6321082004:04:001:0026"},"geometry":{"type":"Polygon","coordinates":[[[37.849751,49.256387],[37.8494,49.256433],[37.849515,49.257106],[37.84951534604275,49.257106],[37.849795,49.258725],[37.850096,49.258703],[37.849841,49.256994],[37.849840488178025,49.256994],[37.849751,49.256387]]]}},{"type":"Feature","properties":{"cadnum":"6321082004:01:001:0047"},"geometry":{"type":"Polygon","coordinates":[[[37.852581,49.25591],[37.852236,49.255924],[37.852427,49.257106],[37.85242713765182,49.257106],[37.852689,49.258723],[37.852994,49.258724],[37.852739,49.256994],[37.85273870568562,49.256994],[37.852581,49.25591]]]}},{"type":"Feature","properties":{"cadnum":"6321082004:01:001:0293"},"geometry":{"type":"Polygon","coordinates":[[[37.851134,49.256633],[37.85088,49.256643],[37.850923211663066,49.256994],[37.850922,49.256994],[37.851063,49.25814],[37.85111,49.258669],[37.851186,49.259627],[37.851476,49.259609],[37.851383,49.258659],[37.851178,49.256994],[37.85117750317125,49.256994],[37.851134,49.256633]]]}},{"type":"Feature","properties":{"cadnum":"6321082004:01:001:0310"},"geometry":{"type":"Polygon","coordinates":[[[37.851613,49.256118],[37.851381,49.256144],[37.85147465904366,49.256994],[37.851474,49.256994],[37.851761,49.259567],[37.851763,49.259574],[37.852079,49.259572],[37.852001,49.258682],[37.851745,49.256994],[37.85174422267207,49.256994],[37.851613,49.256118]]]}},{"type":"Feature","properties":{"cadnum":"6321082004:01:001:0296"},"geometry":{"type":"Polygon","coordinates":[[[37.85297,49.255865],[37.852739,49.255882],[37.852622,49.255643],[37.852535,49.255651],[37.852581,49.25591],[37.852755,49.257106],[37.852755470588235,49.257106],[37.852979,49.258626],[37.853335,49.258618],[37.853119,49.256994],[37.85311828928283,49.256994],[37.85297,49.255865]]]}},{"type":"Feature","properties":{"cadnum":"6321082004:01:001:0299"},"geometry":{"type":"Polygon","coordinates":[[[37.850388,49.256305],[37.850104,49.256319],[37.85014,49.256584],[37.85021,49.257106],[37.850210169451074,49.257106],[37.850422,49.25867],[37.85041,49.258731],[37.850532,49.25962],[37.850836,49.259602],[37.85049624539877,49.257106],[37.850497,49.257106],[37.850388,49.256305]]]}},{"type":"Feature","properties":{"cadnum":"6321082004:01:001:0325"},"geometry":{"type":"Polygon","coordinates":[[[37.847986,49.26131315625],[37.848036,49.261428],[37.848551,49.261403],[37.848634,49.261398],[37.848613,49.261298],[37.848544,49.260951],[37.84821,49.260966],[37.847844,49.260987],[37.847986,49.261314],[37.847986,49.26131315625]]]}},{"type":"Feature","properties":{"cadnum":"6321082004:01:001:0028"},"geometry":{"type":"Polygon","coordinates":[[[37.846131,49.262586],[37.846653,49.262529],[37.846554,49.26209],[37.846534,49.261999],[37.845934,49.262043],[37.846131,49.262586]]]}},{"type":"Feature","properties":{"cadnum":"6321082004:01:001:0260"},"geometry":{"type":"Polygon","coordinates":[[[37.846653,49.262529],[37.846829,49.262508],[37.847026,49.262477],[37.847009,49.262419],[37.847403,49.262372],[37.847312,49.262044],[37.8473,49.262015],[37.846554,49.26209],[37.846653,49.262529]]]}},{"type":"Feature","properties":{"cadnum":"6321082004:01:001:0329"},"geometry":{"type":"Polygon","coordinates":[[[37.844772,49.262824],[37.845521,49.262652],[37.846131,49.262586],[37.845934,49.262043],[37.84593,49.262028],[37.845834,49.261351],[37.845091,49.261545],[37.844671,49.261769],[37.844772,49.262824]]]}},{"type":"Feature","properties":{"cadnum":"6321082004:01:001:0331"},"geometry":{"type":"Polygon","coordinates":[[[37.84626,49.258883],[37.845756,49.258888],[37.846118022185244,49.260579],[37.846118,49.260579],[37.84612276868392,49.26060117082151],[37.846142,49.260691],[37.846142089887636,49.260691],[37.846252,49.261202],[37.846716,49.261109],[37.846608,49.260579],[37.84660707964601,49.260579],[37.84626,49.258883]]]}},{"type":"Feature","properties":{"cadnum":"6321082004:01:001:0282"},"geometry":{"type":"Polygon","coordinates":[[[37.84734,49.258423],[37.847113,49.258441],[37.847448428444444,49.260579],[37.847448,49.260579],[37.847499,49.260899],[37.847746,49.260843],[37.84772066666667,49.260691],[37.847721,49.260691],[37.84734,49.258423]]]}},{"type":"Feature","properties":{"cadnum":"6321082004:01:001:0029"},"geometry":{"type":"Polygon","coordinates":[[[37.845934,49.262043],[37.846534,49.261999],[37.846531,49.26199],[37.846372,49.261244],[37.845834,49.261351],[37.84593,49.262028],[37.845934,49.262043]]]}},{"type":"Feature","properties":{"cadnum":"6321082004:01:001:0261"},"geometry":{"type":"Polygon","coordinates":[[[37.846554,49.26209],[37.8473,49.262015],[37.847015,49.261113],[37.846372,49.261244],[37.846531,49.26199],[37.846534,49.261999],[37.846554,49.26209]]]}},{"type":"Feature","properties":{"cadnum":"6321082004:01:001:0285"},"geometry":{"type":"Polygon","coordinates":[[[37.8472,49.261699],[37.847644,49.261671],[37.847416,49.261023],[37.847015,49.261113],[37.8472,49.261699]]]}},{"type":"Feature","properties":{"cadnum":"6321082004:01:001:0265"},"geometry":{"type":"Polygon","coordinates":[[[37.844878,49.25887],[37.844344,49.258867],[37.844801,49.260691],[37.84480118543047,49.260691],[37.845001,49.261485],[37.845387,49.261324],[37.84525530201343,49.260691],[37.845256,49.260691],[37.844878,49.25887]]]}},{"type":"Feature","properties":{"cadnum":"6321082004:01:001:0298"},"geometry":{"type":"Polygon","coordinates":[[[37.842493,49.258851],[37.842088,49.258744],[37.842321,49.25966449382717],[37.842321,49.259665],[37.842506,49.260396],[37.84258,49.260691],[37.842580475866754,49.260691],[37.842926,49.26205],[37.843428,49.261903],[37.84341,49.261832],[37.843117,49.260579],[37.8431161875,49.260579],[37.843083,49.260435],[37.842757,49.259038],[37.842716,49.25886],[37.84258,49.258874],[37.842493,49.258851158301155],[37.842493,49.258851]]]}},{"type":"Feature","properties":{"cadnum":"6321082004:01:001:0307"},"geometry":{"type":"Polygon","coordinates":[[[37.845592,49.259485],[37.845462,49.258891],[37.844878,49.25887],[37.845017,49.259542],[37.845254,49.260691],[37.84525530201343,49.260691],[37.845387,49.261324],[37.845983,49.261265],[37.84585581632653,49.260691],[37.845857,49.260691],[37.845592,49.259485]]]}},{"type":"Feature","properties":{"cadnum":"6321082004:01:001:0031"},"geometry":{"type":"Polygon","coordinates":[[[37.845756,49.258888],[37.845462,49.258891],[37.84583242222222,49.260579],[37.845831,49.260579],[37.845983,49.261265],[37.846252,49.261202],[37.84612276868392,49.26060117082151],[37.845756,49.258888]]]}},{"type":"Feature","properties":{"cadnum":"6321082004:01:001:0274"},"geometry":{"type":"Polygon","coordinates":[[[37.843834,49.258925],[37.843227,49.258998],[37.84359586887183,49.260579],[37.843595,49.260579],[37.843877,49.26178],[37.844565,49.261626],[37.84431138013372,49.260691],[37.844312,49.260691],[37.843834,49.258925]]]}},{"type":"Feature","properties":{"cadnum":"6321082004:01:001:0046"},"geometry":{"type":"Polygon","coordinates":[[[37.840243,49.258965],[37.839815,49.25915],[37.8409296385464,49.260579],[37.840928,49.260579],[37.842252,49.262275],[37.842321,49.262256962655606],[37.842321,49.262257],[37.84233462857019,49.262253400000326],[37.842493,49.262212],[37.842493,49.262211566037735],[37.842692,49.262159],[37.84237468027918,49.2617467409557],[37.84156490620272,49.260691],[37.841565,49.260691],[37.840243,49.258965]]]}},{"type":"Feature","properties":{"cadnum":"6321082004:01:001:0268"},"geometry":{"type":"Polygon","coordinates":[[[37.843103,49.259012],[37.842757,49.259038],[37.843143,49.260691],[37.843143189944136,49.260691],[37.84341,49.261832],[37.843758,49.261806],[37.8434953797881,49.260691],[37.843496,49.260691],[37.843103,49.259012]]]}},{"type":"Feature","properties":{"cadnum":"6321082004:01:001:0263"},"geometry":{"type":"Polygon","coordinates":[[[37.844344,49.258867],[37.843834,49.258925],[37.84428168516421,49.260579],[37.844281,49.260579],[37.844565,49.261626],[37.845001,49.261485],[37.844773,49.260579],[37.844772938596485,49.260579],[37.844344,49.258867]]]}},{"type":"Feature","properties":{"cadnum":"6321082004:01:001:0295"},"geometry":{"type":"Polygon","coordinates":[[[37.84794999999939,49.26168533333341],[37.847986,49.261681],[37.847986,49.26168088888889],[37.848139,49.261662],[37.84784,49.260977],[37.847416,49.261023],[37.847644,49.261671],[37.847662,49.26172],[37.847815,49.261701583333334],[37.847815,49.261702],[37.84794999999939,49.26168533333341]]]}},{"type":"Feature","properties":{"cadnum":"6321082004:01:001:0328"},"geometry":{"type":"Polygon","coordinates":[[[37.847627,49.258842],[37.847549,49.258432],[37.84744,49.258425],[37.847853499558695,49.260579],[37.847853,49.260579],[37.84786543956048,49.26064119780241],[37.847875,49.260691],[37.8478754,49.260691],[37.847902,49.260824],[37.847986,49.260818],[37.847986,49.260817],[37.84801,49.260815],[37.847987707865165,49.260691],[37.847988,49.260691],[37.847978,49.260637],[37.847815,49.259802],[37.847815,49.25980352034883],[37.847634,49.258878],[37.847627,49.258842]]]}},{"type":"Feature","properties":{"cadnum":"6321082004:01:001:0322"},"geometry":{"type":"Polygon","coordinates":[[[37.843175741935475,49.264164],[37.843174,49.264164],[37.843198,49.264169],[37.843233,49.264094],[37.843256,49.264045],[37.843929,49.263514],[37.844031,49.263202],[37.843869,49.263244],[37.842388,49.263337],[37.842321,49.263341],[37.842321,49.263341276595746],[37.842059,49.263358],[37.84026,49.263462],[37.840216,49.263465],[37.840092,49.263613],[37.840101,49.263617],[37.840409,49.2638],[37.841299,49.26408],[37.841827,49.264155],[37.8419028076923,49.264164],[37.8419,49.264164],[37.842321,49.264213741438354],[37.842321,49.264215],[37.842484,49.264233],[37.842493,49.264233],[37.842493,49.264232482014386],[37.842901,49.264209],[37.843192,49.264192],[37.84291,49.264128],[37.842444999998996,49.26403089473663],[37.842018,49.263941],[37.841055,49.263738],[37.841066,49.263717],[37.842029,49.263919],[37.842321,49.263980672413794],[37.842321,49.263981],[37.842922,49.264107],[37.843175741935475,49.264164]]]}},{"type":"Feature","properties":{"cadnum":"6321082004:04:001:0021"},"geometry":{"type":"Polygon","coordinates":[[[37.843869,49.263244],[37.84411,49.263183],[37.844283,49.263108],[37.844438,49.262983],[37.844446,49.262765],[37.844275,49.262176],[37.844249,49.261818],[37.844061,49.261788],[37.843355,49.261979],[37.842795,49.262185],[37.842378,49.262302],[37.842388,49.263337],[37.842493,49.263331],[37.842493,49.263330406482105],[37.843869,49.263244]]]}},{"type":"Feature","properties":{"cadnum":"6321082004:01:001:0284"},"geometry":{"type":"Polygon","coordinates":[[[37.847403,49.262372],[37.847874,49.262314],[37.847768,49.262014],[37.847644,49.261671],[37.8472,49.261699],[37.8473,49.262015],[37.847312,49.262044],[37.847403,49.262372]]]}},{"type":"Feature","properties":{"cadnum":"6321082004:01:001:0318"},"geometry":{"type":"Polygon","coordinates":[[[37.843256,49.264045],[37.846004,49.264006],[37.847738,49.263983],[37.847756,49.263826],[37.847667,49.262957],[37.845867,49.263484],[37.845413,49.263767],[37.844698,49.263508],[37.843929,49.263514],[37.843256,49.264045]]]}},{"type":"Feature","properties":{"cadnum":"6321082004:01:001:0040"},"geometry":{"type":"Polygon","coordinates":[[[37.84782251119305,49.2638248432836],[37.847986,49.263822],[37.847986,49.26382143219076],[37.848486,49.263811],[37.84843,49.262861],[37.848299,49.262834],[37.847986,49.26289543595041],[37.847986,49.262895],[37.847667,49.262957],[37.847756,49.263826],[37.847815,49.263824973913046],[37.847815,49.263825],[37.84782251119305,49.2638248432836]]]}},{"type":"Feature","properties":{"cadnum":"6321082004:01:001:0294"},"geometry":{"type":"Polygon","coordinates":[[[37.848071,49.262309],[37.848135,49.262297],[37.848132,49.262285],[37.848362,49.262246],[37.848264,49.261949],[37.848139,49.261662],[37.84794999999939,49.26168533333341],[37.847662,49.26172],[37.847768,49.262014],[37.847815,49.262147462264146],[37.847815,49.262148],[37.847874,49.262315],[37.847882,49.262338],[37.847986,49.262323],[37.847986,49.262322042328044],[37.848071,49.262309]]]}},{"type":"Feature","properties":{"cadnum":"6321082004:04:001:0024"},"geometry":{"type":"Polygon","coordinates":[[[37.858973,49.26006462192014],[37.859978,49.260115],[37.860003,49.259909],[37.859749,49.259896],[37.859753,49.25986],[37.860007,49.259873],[37.860021,49.259748],[37.859762,49.259512],[37.859195,49.25961],[37.858973,49.25956605076142],[37.858973,49.259566],[37.85889949999743,49.25955149999949],[37.858801,49.259532],[37.858801,49.259532068027205],[37.858679,49.259508],[37.857948,49.25949],[37.857937,49.259583],[37.85866,49.259604],[37.858576,49.260044],[37.858801,49.260055901763224],[37.858801,49.260056],[37.85883647372498,49.26005777820711],[37.858973,49.260065],[37.858973,49.26006462192014]]]}},{"type":"Feature","properties":{"cadnum":"6321082004:01:004:0017"},"geometry":{"type":"Polygon","coordinates":[[[37.858793,49.260378],[37.858801,49.260379772455096],[37.858801,49.26038],[37.85896,49.260415],[37.859942,49.260418],[37.859978,49.260115],[37.858821,49.260056],[37.858793,49.260378]]]}},{"type":"Feature","properties":{"cadnum":"6321082004:01:001:0291"},"geometry":{"type":"Polygon","coordinates":[[[37.858841,49.264039],[37.858113,49.263998],[37.858106,49.264061],[37.857564,49.264035],[37.857550355769234,49.264164],[37.85755,49.264164],[37.857542,49.264243],[37.858075,49.264266],[37.858812,49.264308],[37.858821578947364,49.26420947368426],[37.858841,49.264039]]]}},{"type":"Feature","properties":{"cadnum":"6321082004:01:001:0315"},"geometry":{"type":"Polygon","coordinates":[[[37.854921,49.263852],[37.855208,49.263841],[37.855208,49.263589],[37.85522,49.263266],[37.854889,49.263286],[37.854898,49.263411],[37.854913,49.2636],[37.854921,49.263852]]]}},{"type":"Feature","properties":{"cadnum":"6321082004:01:001:0267"},"geometry":{"type":"Polygon","coordinates":[[[37.854449,49.263434],[37.854544,49.263428],[37.854898,49.263411],[37.854885,49.263232],[37.854448,49.263271],[37.854449,49.263434]]]}},{"type":"Feature","properties":{"cadnum":"6321082004:01:001:0278"},"geometry":{"type":"Polygon","coordinates":[[[37.858637,49.2627],[37.858627,49.262982],[37.858801,49.26299960115607],[37.858801,49.263],[37.859651,49.263087],[37.859701,49.262803],[37.858801,49.262716],[37.858801,49.26271610714286],[37.858637,49.2627]]]}},{"type":"Feature","properties":{"cadnum":"6321082004:01:001:0273"},"geometry":{"type":"Polygon","coordinates":[[[37.858082,49.26374],[37.858144,49.2632],[37.858061,49.263193],[37.857564,49.263151],[37.857544,49.26353],[37.857535,49.263698],[37.858082,49.26374]]]}},{"type":"Feature","properties":{"cadnum":"6321082004:01:001:0300"},"geometry":{"type":"Polygon","coordinates":[[[37.854259,49.263868],[37.854252,49.263506],[37.854241,49.263288],[37.854118,49.263299],[37.854143,49.263029],[37.85391,49.263025],[37.853899,49.263314],[37.854005,49.26331],[37.854016,49.26358],[37.854028,49.263868],[37.854259,49.263868]]]}},{"type":"Feature","properties":{"cadnum":"6321082004:01:001:0317"},"geometry":{"type":"Polygon","coordinates":[[[37.858973,49.263809013157896],[37.859105,49.263819],[37.859446,49.263825],[37.859543,49.263319],[37.858801,49.263256],[37.858801,49.26325614545455],[37.858753,49.263252],[37.858364,49.263219],[37.858144,49.2632],[37.858082,49.26374],[37.858973,49.26381],[37.858973,49.263809013157896]]]}},{"type":"Feature","properties":{"cadnum":"6321082004:01:001:0324"},"geometry":{"type":"Polygon","coordinates":[[[37.853477,49.263179],[37.853905,49.263171],[37.85391,49.263025],[37.853923,49.263025],[37.853931,49.26275],[37.853938,49.262485],[37.853471,49.262498],[37.853473,49.262769],[37.853474,49.263034],[37.853477,49.263179]]]}},{"type":"Feature","properties":{"cadnum":"6321082004:01:001:0066"},"geometry":{"type":"Polygon","coordinates":[[[37.854281,49.260627],[37.853919,49.260648],[37.853958,49.260954],[37.854027,49.261533],[37.854358,49.261517],[37.854308,49.260934],[37.8542866286645,49.260691],[37.854287,49.260691],[37.854281,49.260627]]]}},{"type":"Feature","properties":{"cadnum":"6321082004:04:001:0018"},"geometry":{"type":"Polygon","coordinates":[[[37.854709,49.260611],[37.854712,49.260691],[37.85471278378378,49.260691],[37.854723,49.260907],[37.854731,49.26128],[37.855116,49.261269],[37.855094,49.260924],[37.855077,49.260593],[37.854709,49.260611]]]}},{"type":"Feature","properties":{"cadnum":"6321082004:01:001:0266"},"geometry":{"type":"Polygon","coordinates":[[[37.854448,49.263271],[37.854885,49.263232],[37.854854,49.262839],[37.854803,49.262507],[37.854366,49.262546],[37.854445,49.262841],[37.854448,49.263271]]]}},{"type":"Feature","properties":{"cadnum":"6321082004:01:001:0270"},"geometry":{"type":"Polygon","coordinates":[[[37.853958,49.262318],[37.854563,49.26229],[37.854579,49.262],[37.854582,49.261929],[37.854629,49.26179],[37.853986,49.261803],[37.85398,49.261909],[37.853958,49.262318]]]}},{"type":"Feature","properties":{"cadnum":"6321082004:01:001:0012"},"geometry":{"type":"Polygon","coordinates":[[[37.854563,49.26229],[37.855042,49.262273],[37.855057,49.261986],[37.855077,49.261605],[37.854692,49.261602],[37.854582,49.261929],[37.854579,49.262],[37.854563,49.26229]]]}},{"type":"Feature","properties":{"cadnum":"6321082004:01:001:0269"},"geometry":{"type":"Polygon","coordinates":[[[37.858637,49.2627],[37.858708,49.2624],[37.858232,49.262353],[37.857631,49.262328],[37.857595,49.262603],[37.858184,49.262643],[37.858637,49.2627]]]}},{"type":"Feature","properties":{"cadnum":"6321082004:01:001:0010"},"geometry":{"type":"Polygon","coordinates":[[[37.85639,49.260583],[37.856167,49.260579],[37.85613133333349,49.260579],[37.856002,49.260577],[37.855813,49.260573],[37.85581274576271,49.260579],[37.855812,49.260579],[37.855805,49.260773],[37.855801,49.26089],[37.856803,49.260885],[37.856829,49.260591],[37.85639,49.260583]]]}},{"type":"Feature","properties":{"cadnum":"6321082004:04:001:0030"},"geometry":{"type":"Polygon","coordinates":[[[37.857098,49.262421],[37.857276,49.262415],[37.857269,49.262344],[37.857194,49.262346],[37.857188,49.262283],[37.857161,49.262284],[37.857166,49.262347],[37.857091,49.26235],[37.857098,49.262421]]]}},{"type":"Feature","properties":{"cadnum":"6321082004:01:001:0279"},"geometry":{"type":"Polygon","coordinates":[[[37.858753,49.263252],[37.858783,49.262998],[37.858631,49.262982],[37.85842,49.262961],[37.858213,49.26294],[37.857578,49.262907],[37.857564,49.263151],[37.858364,49.263219],[37.858753,49.263252]]]}},{"type":"Feature","properties":{"cadnum":"6321082004:01:001:0256"},"geometry":{"type":"Polygon","coordinates":[[[37.85862,49.261094],[37.85855,49.261383],[37.858538,49.261425],[37.858801,49.261447974712645],[37.858801,49.261448],[37.859257,49.261488],[37.859323,49.261288],[37.859518,49.261308],[37.859534,49.261244],[37.859344,49.261224],[37.859357,49.261162],[37.85884612463677,49.261115139130354],[37.85862,49.261094]]]}},{"type":"Feature","properties":{"cadnum":"6321082004:01:001:0277"},"geometry":{"type":"Polygon","coordinates":[[[37.858627,49.262982],[37.858637,49.2627],[37.858184,49.262643],[37.857595,49.262603],[37.857578,49.262907],[37.858213,49.26294],[37.858627,49.262982]]]}},{"type":"Feature","properties":{"cadnum":"6321082004:01:001:0056"},"geometry":{"type":"Polygon","coordinates":[[[37.856663,49.262491],[37.85696,49.262484],[37.85696,49.262302],[37.856642,49.262317],[37.856663,49.262491]]]}},{"type":"Feature","properties":{"cadnum":"6321082004:01:001:0330"},"geometry":{"type":"Polygon","coordinates":[[[37.858973,49.26273262666666],[37.859701,49.262803],[37.859804,49.262813],[37.859927,49.262506],[37.85893161258442,49.26242025170576],[37.858708,49.2624],[37.858637,49.2627],[37.858973,49.262733],[37.858973,49.26273262666666]]]}},{"type":"Feature","properties":{"cadnum":"6321082004:01:001:0011"},"geometry":{"type":"Polygon","coordinates":[[[37.85579,49.261139],[37.856159,49.261114],[37.856785,49.26107],[37.856803,49.260885],[37.855801,49.26089],[37.85579,49.261139]]]}},{"type":"Feature","properties":{"cadnum":"6321082004:01:001:0316"},"geometry":{"type":"Polygon","coordinates":[[[37.851095,49.262105],[37.85167,49.262057],[37.851669,49.262039],[37.851668,49.262003],[37.851657,49.261812],[37.851645,49.261612],[37.851637,49.261544],[37.851047,49.26156],[37.851059,49.261633],[37.85108,49.26191],[37.851091,49.26205],[37.851094,49.262086],[37.851095,49.262105]]]}},{"type":"Feature","properties":{"cadnum":"6321082004:01:001:0041"},"geometry":{"type":"Polygon","coordinates":[[[37.849323,49.263106],[37.850202,49.263024],[37.849982,49.26264],[37.848802,49.262709],[37.849323,49.263106]]]}},{"type":"Feature","properties":{"cadnum":"6321082004:01:001:0042"},"geometry":{"type":"Polygon","coordinates":[[[37.850363,49.260671],[37.850356,49.260626],[37.850345,49.260549],[37.85028,49.260085],[37.850218,49.2596],[37.849938,49.259621],[37.849994,49.260101],[37.850052113013696,49.260579],[37.850052,49.260579],[37.850065,49.260685],[37.850363,49.260671]]]}},{"type":"Feature","properties":{"cadnum":"6321082004:01:001:0059"},"geometry":{"type":"Polygon","coordinates":[[[37.847634,49.258878],[37.847966657191584,49.260579],[37.847966,49.260579],[37.847978,49.260637],[37.848237,49.260618],[37.848069,49.259681],[37.847923,49.258862],[37.847634,49.258878]]]}},{"type":"Feature","properties":{"cadnum":"6321082004:01:001:0032"},"geometry":{"type":"Polygon","coordinates":[[[37.849994,49.260101],[37.849944,49.259683],[37.84963,49.25969],[37.849685,49.260118],[37.84975579930192,49.260579],[37.849755,49.260579],[37.849774,49.260699],[37.850065,49.260685],[37.849994,49.260101]]]}},{"type":"Feature","properties":{"cadnum":"6321082004:01:001:0055"},"geometry":{"type":"Polygon","coordinates":[[[37.848873,49.258806],[37.848484,49.258805],[37.84882450265111,49.260579],[37.848824,49.260579],[37.8488385778192,49.2606523308481],[37.848846,49.260691],[37.848846265060246,49.260691],[37.848857,49.260745],[37.849162,49.260717],[37.849151294117796,49.26064664705981],[37.848873,49.258806]]]}},{"type":"Feature","properties":{"cadnum":"6321082004:01:001:0048"},"geometry":{"type":"Polygon","coordinates":[[[37.849428,49.260689],[37.849546,49.260679],[37.849522,49.260544],[37.849351,49.260556],[37.849374,49.260691],[37.849375814159295,49.260691],[37.849376,49.260692],[37.849412,49.260691],[37.849428,49.260689]]]}},{"type":"Feature","properties":{"cadnum":"6321082004:01:001:0063"},"geometry":{"type":"Polygon","coordinates":[[[37.849374,49.260579],[37.849374,49.260542],[37.849437,49.260535],[37.849187,49.258808],[37.848873,49.258806],[37.849141066313,49.260579],[37.849141,49.260579],[37.849151294117796,49.26064664705981],[37.849158,49.260691],[37.84915804347826,49.260691],[37.849162,49.260717],[37.849374,49.260696],[37.849374,49.260691],[37.849374,49.260579]]]}},{"type":"Feature","properties":{"cadnum":"6321082004:04:001:0025"},"geometry":{"type":"Polygon","coordinates":[[[37.850965,49.26064],[37.850957,49.260579],[37.850956995475116,49.260579],[37.850907,49.260198],[37.850836,49.259602],[37.850532,49.25962],[37.850601,49.260131],[37.85066414666667,49.260579],[37.850663,49.260579],[37.850675,49.260656],[37.850965,49.26064]]]}},{"type":"Feature","properties":{"cadnum":"6321082004:01:001:0326"},"geometry":{"type":"Polygon","coordinates":[[[37.851264,49.260629],[37.851213,49.26024],[37.851216,49.26],[37.851189,49.259658],[37.850844,49.259672],[37.850907,49.260198],[37.850965,49.26064],[37.851264,49.260629]]]}},{"type":"Feature","properties":{"cadnum":"6321082004:01:001:0038"},"geometry":{"type":"Polygon","coordinates":[[[37.849557,49.263502],[37.85033,49.263318],[37.850202,49.263024],[37.849323,49.263106],[37.849557,49.263502]]]}},{"type":"Feature","properties":{"cadnum":"6321082004:01:001:0039"},"geometry":{"type":"Polygon","coordinates":[[[37.849736,49.263808],[37.850541,49.263801],[37.85033,49.263318],[37.849557,49.263502],[37.849736,49.263808]]]}},{"type":"Feature","properties":{"cadnum":"6321082004:01:001:0044"},"geometry":{"type":"Polygon","coordinates":[[[37.848824,49.263861],[37.849256,49.263836],[37.849736,49.263808],[37.84953,49.263456],[37.848803,49.263467],[37.848806,49.263508],[37.848822,49.263808],[37.848824,49.263861]]]}},{"type":"Feature","properties":{"cadnum":"6321082004:01:001:0027"},"geometry":{"type":"Polygon","coordinates":[[[37.848803,49.263467],[37.84953,49.263456],[37.849323,49.263106],[37.848775,49.262929],[37.848803,49.263467]]]}},{"type":"Feature","properties":{"cadnum":"6321082004:01:001:0045"},"geometry":{"type":"Polygon","coordinates":[[[37.848486,49.263811],[37.848536,49.26381],[37.848822,49.263808],[37.848804,49.263475],[37.848775,49.262929],[37.84843,49.262861],[37.848486,49.263811]]]}},{"type":"Feature","properties":{"cadnum":"6321082004:01:001:0286"},"geometry":{"type":"Polygon","coordinates":[[[37.850003,49.262195],[37.849905,49.261727],[37.849903,49.261714],[37.84922,49.261738],[37.849256,49.261854],[37.849337,49.262182],[37.849687,49.262183],[37.850003,49.262195]]]}},{"type":"Feature","properties":{"cadnum":"6321082004:01:001:0014"},"geometry":{"type":"Polygon","coordinates":[[[37.852926,49.263352],[37.852935,49.263097],[37.852411,49.263102],[37.852394,49.263349],[37.852547,49.26335],[37.852813,49.263351],[37.852926,49.263352]]]}},{"type":"Feature","properties":{"cadnum":"6321082004:01:001:0058"},"geometry":{"type":"Polygon","coordinates":[[[37.85126,49.261218],[37.851588,49.261195],[37.851576,49.261125],[37.851528,49.260787],[37.851185,49.260808],[37.851242,49.261137],[37.85126,49.261218]]]}},{"type":"Feature","properties":{"cadnum":"6321082004:01:001:0259"},"geometry":{"type":"Polygon","coordinates":[[[37.852353,49.261153],[37.852614,49.261136],[37.852604,49.261035],[37.852578,49.260752],[37.852266,49.260764],[37.852321,49.261061],[37.852353,49.261153]]]}},{"type":"Feature","properties":{"cadnum":"6321082004:01:001:0312"},"geometry":{"type":"Polygon","coordinates":[[[37.851645,49.261211],[37.851957,49.261186],[37.851957,49.26118],[37.851941,49.261096],[37.851912,49.260777],[37.851605,49.260788],[37.851635,49.261127],[37.851645,49.261211]]]}},{"type":"Feature","properties":{"cadnum":"6321082004:01:001:0062"},"geometry":{"type":"Polygon","coordinates":[[[37.851957,49.26118],[37.852353,49.261153],[37.852321,49.261061],[37.852266,49.260764],[37.851912,49.260777],[37.851941,49.261096],[37.851957,49.26118]]]}},{"type":"Feature","properties":{"cadnum":"6321082004:01:001:0281"},"geometry":{"type":"Polygon","coordinates":[[[37.852614,49.261145],[37.852978,49.261134],[37.852964,49.260999],[37.852955,49.260876],[37.852938,49.260728],[37.852578,49.260752],[37.852604,49.261035],[37.852614,49.261136],[37.852614,49.261145]]]}},{"type":"Feature","properties":{"cadnum":"6321082004:01:001:0314"},"geometry":{"type":"Polygon","coordinates":[[[37.850892,49.262013],[37.851072,49.262003],[37.850953,49.261203],[37.850913,49.260813],[37.850565,49.260826],[37.850627,49.261216],[37.850695,49.261214],[37.850892,49.262013]]]}},{"type":"Feature","properties":{"cadnum":"6321082004:01:001:0013"},"geometry":{"type":"Polygon","coordinates":[[[37.852411,49.263102],[37.852935,49.263097],[37.852946,49.262836],[37.852935,49.262484],[37.852441,49.262506],[37.852439,49.26268],[37.852411,49.263102]]]}},{"type":"Feature","properties":{"cadnum":"6321082004:01:001:0313"},"geometry":{"type":"Polygon","coordinates":[[[37.850777,49.26206],[37.8509,49.262046],[37.850892,49.262013],[37.850695,49.261214],[37.850627,49.261216],[37.850565,49.260826],[37.850216,49.260843],[37.850289,49.261239],[37.850558,49.261221],[37.850777,49.26206]]]}},{"type":"Feature","properties":{"cadnum":"6321082004:01:001:0049"},"geometry":{"type":"Polygon","coordinates":[[[37.850675,49.260656],[37.850601,49.260131],[37.85054,49.25968],[37.850229,49.259684],[37.85028,49.260084],[37.850345,49.260549],[37.85034928571428,49.260579],[37.850349,49.260579],[37.850356,49.260626],[37.850363,49.260671],[37.850675,49.260656]]]}},{"type":"Feature","properties":{"cadnum":"6321082004:01:001:0323"},"geometry":{"type":"Polygon","coordinates":[[[37.841816,49.26419],[37.841281,49.264115],[37.840378,49.26383],[37.840047,49.263634],[37.840028,49.263601],[37.839977,49.263514],[37.839713,49.263344],[37.839335,49.2631],[37.839337,49.263262],[37.839339,49.263357],[37.839313,49.263446],[37.839146,49.264036],[37.83916093333333,49.264164],[37.83916,49.264164],[37.839172819277096,49.264265879517936],[37.839174,49.264276],[37.83917409271523,49.264276],[37.839198,49.264466],[37.842296,49.264248],[37.841816,49.26419]]]}},{"type":"Feature","properties":{"cadnum":"6321082004:01:001:0061"},"geometry":{"type":"Polygon","coordinates":[[[37.839815,49.25915],[37.840629,49.260691],[37.840629311667556,49.260691],[37.841564,49.262456],[37.842252,49.262275],[37.84101543396226,49.260691],[37.841017,49.260691],[37.839815,49.25915]]]}},{"type":"Feature","properties":{"cadnum":"6321082004:01:001:0276"},"geometry":{"type":"Polygon","coordinates":[[[37.855829,49.25673],[37.85628,49.256732],[37.856323,49.255722],[37.855574,49.255733],[37.854767,49.255775],[37.854743,49.256724],[37.855097,49.256723],[37.855488,49.256721],[37.855468,49.257106],[37.85546824450891,49.257106],[37.85535,49.259407],[37.855663,49.259412],[37.8558078446216,49.257061434261516],[37.855829,49.25673]]]}},{"type":"Feature","properties":{"cadnum":"6321082004:01:001:0075"},"geometry":{"type":"Polygon","coordinates":[[[37.854332,49.259468],[37.854623,49.259467],[37.854588,49.258604],[37.854283,49.25861],[37.854332,49.259468]]]}},{"type":"Feature","properties":{"cadnum":"6321082004:01:001:0320"},"geometry":{"type":"Polygon","coordinates":[[[37.855828,49.256749],[37.855829,49.25673],[37.855488,49.256721],[37.855468,49.257106],[37.85546824450891,49.257106],[37.85535,49.259407],[37.855663,49.259412],[37.855671,49.259293],[37.85572,49.258474],[37.855806076923166,49.25708928427955],[37.855828,49.256749]]]}},{"type":"Feature","properties":{"cadnum":"6321082004:01:001:0076"},"geometry":{"type":"Polygon","coordinates":[[[37.854566,49.256858],[37.854265,49.256865],[37.85426607053942,49.256994],[37.854265,49.256994],[37.85428,49.258574],[37.854587,49.258568],[37.85456726490066,49.25701484768141],[37.854566,49.256858]]]}},{"type":"Feature","properties":{"cadnum":"6321082004:01:001:0067"},"geometry":{"type":"Polygon","coordinates":[[[37.854265,49.256865],[37.853859,49.256843],[37.853837,49.25586],[37.853628,49.255868],[37.853671,49.256858],[37.853852,49.256844],[37.85386058778626,49.256994],[37.85386,49.256994],[37.853955,49.258584],[37.85428,49.258574],[37.854266063291135,49.257106],[37.854267,49.257106],[37.854265,49.256865]]]}},{"type":"Feature","properties":{"cadnum":"6321082004:01:001:0289"},"geometry":{"type":"Polygon","coordinates":[[[37.855185,49.256722],[37.855097,49.256723],[37.854743,49.256724],[37.85473734554974,49.256994],[37.854737,49.256994],[37.854735022299664,49.25710493519096],[37.854735,49.257106],[37.85473500331675,49.257106],[37.854694,49.259406],[37.854998,49.259441],[37.855032,49.258591],[37.85515288290545,49.257106],[37.855153,49.257106],[37.855185,49.256722]]]}},{"type":"Feature","properties":{"cadnum":"6321082004:01:001:0068"},"geometry":{"type":"Polygon","coordinates":[[[37.854044,49.259467],[37.854331,49.259446],[37.854283,49.25861],[37.853958,49.25862],[37.854044,49.259467]]]}},{"type":"Feature","properties":{"cadnum":"6321082004:01:001:0309"},"geometry":{"type":"Polygon","coordinates":[[[37.853852,49.256844],[37.853671,49.256858],[37.85349,49.256866],[37.85351,49.257106],[37.85351078847372,49.257106],[37.853639,49.258573],[37.853727,49.259539],[37.854049,49.259523],[37.854044,49.259467],[37.853958,49.25862],[37.853955,49.258584],[37.853866691823896,49.257106],[37.853867,49.257106],[37.853852,49.256844]]]}},{"type":"Feature","properties":{"cadnum":"6321082004:01:001:0306"},"geometry":{"type":"Polygon","coordinates":[[[37.856144,49.256758],[37.856011,49.256754],[37.855828,49.256749],[37.85581221568627,49.256994],[37.855812,49.256994],[37.855806076923166,49.25708928427955],[37.855805,49.257106],[37.85580503783784,49.257106],[37.85572,49.258474],[37.855671,49.259293],[37.855966,49.259297],[37.856125334841664,49.257017819004076],[37.856144,49.256758]]]}},{"type":"Feature","properties":{"cadnum":"6321082004:01:001:0302"},"geometry":{"type":"Polygon","coordinates":[[[37.856754,49.25682],[37.857225,49.256833],[37.85798,49.256855],[37.858118,49.255691],[37.856431,49.255756],[37.856368,49.256809],[37.85652,49.256816],[37.856493,49.257106],[37.85649387189149,49.257106],[37.856264,49.259648],[37.856482,49.259651],[37.856737,49.256994],[37.85673696503497,49.256994],[37.856754,49.25682]]]}},{"type":"Feature","properties":{"cadnum":"6321082004:01:001:0311"},"geometry":{"type":"Polygon","coordinates":[[[37.85652,49.256816],[37.856368,49.256809],[37.856372,49.256732],[37.85628,49.256732],[37.856192,49.256731],[37.856174466666666,49.256994],[37.856174,49.256994],[37.856076,49.258475],[37.856002,49.259331],[37.856292,49.259342],[37.856403,49.2581],[37.85649197468354,49.257106],[37.856493,49.257106],[37.85652,49.256816]]]}},{"type":"Feature","properties":{"cadnum":"6321082004:01:001:0305"},"geometry":{"type":"Polygon","coordinates":[[[37.855636,49.260399],[37.855911,49.260394],[37.855904,49.259892],[37.855966,49.259297],[37.855671,49.259293],[37.855663,49.259412],[37.855645,49.259697],[37.855628,49.259889],[37.855636,49.260399]]]}},{"type":"Feature","properties":{"cadnum":"6321082004:01:001:0257"},"geometry":{"type":"Polygon","coordinates":[[[37.857218,49.260522],[37.857306,49.260028],[37.857374,49.259542],[37.857059,49.259547],[37.856982,49.260023],[37.856915,49.260519],[37.857218,49.260522]]]}},{"type":"Feature","properties":{"cadnum":"6321082004:04:001:0023"},"geometry":{"type":"Polygon","coordinates":[[[37.858576,49.260044],[37.85866,49.259604],[37.857937,49.259583],[37.857893,49.26002],[37.858576,49.260044]]]}},{"type":"Feature","properties":{"cadnum":"6321082004:01:001:0288"},"geometry":{"type":"Polygon","coordinates":[[[37.854792,49.260451],[37.855082,49.260441],[37.855002,49.259833],[37.854998,49.259441],[37.854694,49.259406],[37.854689,49.259786],[37.854792,49.260451]]]}},{"type":"Feature","properties":{"cadnum":"6321082004:01:001:0275"},"geometry":{"type":"Polygon","coordinates":[[[37.855315,49.260404],[37.855636,49.260399],[37.855628,49.259889],[37.855645,49.259697],[37.855663,49.259412],[37.85535,49.259407],[37.855334,49.259704],[37.855325,49.259854],[37.855315,49.260404]]]}},{"type":"Feature","properties":{"cadnum":"6321082004:01:001:0074"},"geometry":{"type":"Polygon","coordinates":[[[37.854444,49.260545],[37.854729,49.26053],[37.854638,49.259816],[37.854623,49.259467],[37.854332,49.259468],[37.854359,49.259911],[37.854444,49.260545]]]}},{"type":"Feature","properties":{"cadnum":"6321082004:01:001:0301"},"geometry":{"type":"Polygon","coordinates":[[[37.853829,49.260506],[37.854145,49.260488],[37.854088,49.259913],[37.854049,49.259523],[37.853727,49.259539],[37.853774,49.259966],[37.853829,49.260506]]]}},{"type":"Feature","properties":{"cadnum":"6321082004:01:001:0069"},"geometry":{"type":"Polygon","coordinates":[[[37.854153,49.260563],[37.854444,49.260545],[37.854359,49.259911],[37.854331,49.259446],[37.854044,49.259467],[37.85409,49.259928],[37.854153,49.260563]]]}},{"type":"Feature","properties":{"cadnum":"6321082004:01:004:0016"},"geometry":{"type":"Polygon","coordinates":[[[37.857855,49.260388],[37.858251,49.260381],[37.858519,49.260336],[37.858585,49.260331],[37.858793,49.260378],[37.858821,49.260056],[37.858576,49.260044],[37.857893,49.26002],[37.857869,49.260254],[37.857855,49.260388]]]}},{"type":"Feature","properties":{"cadnum":"6321082004:04:001:0022"},"geometry":{"type":"Polygon","coordinates":[[[37.840216,49.263465],[37.842059,49.263358],[37.842388,49.263337],[37.842378,49.262302],[37.841625,49.262512],[37.84127,49.262595],[37.841053,49.262605],[37.840905,49.262583],[37.84079,49.262547],[37.840296,49.262573],[37.840216,49.263465]]]}},{"type":"Feature","properties":{"cadnum":"6321082004:01:001:0037"},"geometry":{"type":"Polygon","coordinates":[[[37.852836,49.259606],[37.853132,49.259604],[37.853005,49.258765],[37.85272,49.258757],[37.852836,49.259606]]]}},{"type":"Feature","properties":{"cadnum":"6321082004:01:001:0033"},"geometry":{"type":"Polygon","coordinates":[[[37.84963,49.25969],[37.849944,49.259683],[37.849834,49.258751],[37.849512,49.258767],[37.84963,49.25969]]]}},{"type":"Feature","properties":{"cadnum":"6321082004:01:001:0050"},"geometry":{"type":"Polygon","coordinates":[[[37.850229,49.259684],[37.85054,49.25968],[37.85041,49.258731],[37.850109,49.258737],[37.850229,49.259684]]]}},{"type":"Feature","properties":{"cadnum":"6321082004:01:001:0043"},"geometry":{"type":"Polygon","coordinates":[[[37.849938,49.259621],[37.850218,49.2596],[37.850108,49.258737],[37.849834,49.258751],[37.849938,49.259621]]]}},{"type":"Feature","properties":{"cadnum":"6321082004:01:001:0303"},"geometry":{"type":"Polygon","coordinates":[[[37.851578,49.26061],[37.851877,49.260597],[37.851875,49.260594],[37.851841,49.260251],[37.851761,49.259567],[37.851472,49.259566],[37.851476,49.259609],[37.851513,49.259996],[37.851578,49.260604],[37.851578,49.26061]]]}},{"type":"Feature","properties":{"cadnum":"6321082004:01:001:0036"},"geometry":{"type":"Polygon","coordinates":[[[37.852963,49.260632],[37.853269,49.260616],[37.853243,49.260342],[37.853132,49.259604],[37.852836,49.259606],[37.852939,49.260358],[37.852963,49.260632]]]}},{"type":"Feature","properties":{"cadnum":"6321082004:01:001:0290"},"geometry":{"type":"Polygon","coordinates":[[[37.851264,49.260629],[37.851578,49.26061],[37.851513,49.259996],[37.851476,49.259609],[37.851186,49.259627],[37.851216,49.26],[37.851213,49.26024],[37.851264,49.260629]]]}},{"type":"Feature","properties":{"cadnum":"6321082004:01:001:6000"},"geometry":{"type":"Polygon","coordinates":[[[37.851877,49.260597],[37.852168,49.260584],[37.852079,49.259572],[37.851763,49.259574],[37.851841,49.260251],[37.851877,49.260597]]]}},{"type":"Feature","properties":{"cadnum":"6321082004:01:001:0297"},"geometry":{"type":"Polygon","coordinates":[[[37.854265,49.256865],[37.854323,49.256864],[37.854328,49.255812],[37.853839,49.255831],[37.853837,49.25586],[37.853859,49.256843],[37.854265,49.256865]]]}},{"type":"Feature","properties":{"cadnum":"6321082004:01:001:0319"},"geometry":{"type":"Polygon","coordinates":[[[37.85628,49.256732],[37.856323,49.255721],[37.855574,49.255733],[37.854767,49.255775],[37.854743,49.256724],[37.855185,49.256722],[37.855488,49.256721],[37.855829,49.25673],[37.85628,49.256732]]]}},{"type":"Feature","properties":{"cadnum":"6321082004:01:001:0258"},"geometry":{"type":"Polygon","coordinates":[[[37.857944,49.265114],[37.858228,49.265086],[37.858294,49.264716],[37.858008,49.264707],[37.857493,49.26469],[37.857453,49.265048],[37.857599,49.265051],[37.857611,49.265105],[37.857858,49.265105],[37.857944,49.265114]]]}}]}