{"type":"FeatureCollection","features":[{"type":"Feature","properties":{"cadnum":"6321881507:00:000:0003"},"geometry":{"type":"Polygon","coordinates":[[[37.856886,50.006084],[37.857264,50.005902],[37.857122,50.005685],[37.857078,50.005557],[37.857035,50.00543],[37.857043,50.005326],[37.857052,50.005222],[37.857141,50.005145],[37.85723,50.005067],[37.857208,50.004984],[37.857032,50.004898],[37.856789,50.004864],[37.856605,50.004834],[37.856422,50.004831],[37.856255,50.004822],[37.856049,50.005066],[37.855614,50.004896],[37.855614,50.004927],[37.855643,50.005008],[37.855648,50.005064],[37.855686,50.005117],[37.855625,50.005184],[37.855533,50.005241],[37.855411,50.005264],[37.855352,50.005298],[37.85524,50.00537],[37.85515,50.005442],[37.855036,50.005532],[37.854944,50.005609],[37.85487,50.005608],[37.854779,50.005576],[37.854761,50.005542],[37.854676,50.005489],[37.854727,50.005438],[37.854792,50.005394],[37.854737,50.005339],[37.854652,50.005346],[37.854513,50.005326],[37.854378,50.005333],[37.854276,50.005341],[37.854094,50.005228],[37.85389,50.005316],[37.853984,50.005397],[37.854001,50.005513],[37.853949,50.005595],[37.853871,50.005648],[37.853876,50.005719],[37.853882,50.005774],[37.853917,50.005845],[37.853986,50.005863],[37.854079,50.005873],[37.854165,50.005835],[37.854255,50.00583],[37.854322,50.005869],[37.854411,50.005861],[37.854365,50.005795],[37.854271,50.005743],[37.854214,50.005684],[37.854169,50.005605],[37.854252,50.00555],[37.85434,50.005557],[37.854414,50.005658],[37.854401,50.005719],[37.854415,50.005751],[37.854489,50.005744],[37.854597,50.005738],[37.854708,50.00577],[37.854755,50.00582],[37.854731,50.005884],[37.854658,50.005944],[37.854753,50.005954],[37.854866,50.005974],[37.854961,50.005922],[37.854951,50.005835],[37.855043,50.005814],[37.855179,50.005835],[37.855267,50.00588],[37.855392,50.005884],[37.855522,50.005904],[37.855559,50.005941],[37.85573,50.005906],[37.85597,50.005851],[37.85615,50.005781],[37.85636,50.005747],[37.856534,50.005769],[37.856717,50.005832],[37.856864,50.005915],[37.856914,50.006],[37.856886,50.006084]]]}},{"type":"Feature","properties":{"cadnum":"6321881507:00:000:0002"},"geometry":{"type":"Polygon","coordinates":[[[37.853422,50.007131],[37.85336,50.00708],[37.853328,50.007022],[37.853246,50.007003],[37.853143,50.007014],[37.853042,50.007045],[37.852975,50.007025],[37.852865,50.006995],[37.852777,50.006963],[37.852649,50.006989],[37.852516,50.006933],[37.85244,50.006916],[37.852357,50.006949],[37.852272,50.006958],[37.852203,50.006893],[37.852169,50.006864],[37.852091,50.006878],[37.852054,50.006955],[37.852059,50.007071],[37.85205,50.007187],[37.852027,50.007247],[37.851794,50.007301],[37.851586,50.007293],[37.851496,50.007297],[37.85186472961373,50.007684],[37.851863,50.007684],[37.85194,50.007763],[37.851959,50.007707],[37.852082,50.007638],[37.852264,50.007581],[37.852464,50.007522],[37.852558,50.007505],[37.852628,50.00748],[37.852707,50.007403],[37.852696,50.007335],[37.852798,50.00728],[37.852932,50.007235],[37.853125,50.007205],[37.853289,50.007167],[37.853308,50.00716185714286],[37.853308,50.007162],[37.853422,50.007131]]]}},{"type":"Feature","properties":{"cadnum":"6321881507:00:000:0006"},"geometry":{"type":"Polygon","coordinates":[[[37.853635,50.007263],[37.853508,50.007383],[37.85331472268802,50.00738589915968],[37.853133,50.007388],[37.852993,50.007361],[37.85277,50.007432],[37.85271,50.007502],[37.852872,50.00758],[37.853033,50.007658],[37.8530505882353,50.007684],[37.85305,50.007684],[37.85309117647054,50.00774399999993],[37.853125,50.007794],[37.85312549019608,50.007794],[37.85319,50.007888],[37.853479,50.008151],[37.853479,50.00814923529411],[37.853512,50.008179],[37.853605,50.008345],[37.853757,50.008444],[37.853852,50.008497],[37.853803,50.008567],[37.853644,50.00855],[37.853396,50.008529],[37.853178,50.008513],[37.853078,50.008457],[37.852997,50.008447],[37.852989,50.008491],[37.852875,50.00849],[37.852812,50.008459],[37.852779,50.008417],[37.852679,50.008402],[37.852598,50.008378],[37.852529,50.008382],[37.853308,50.00920856],[37.853308,50.009209],[37.853666,50.009588],[37.854496,50.009182],[37.855158,50.009038],[37.855787,50.008882],[37.854585477462436,50.007794],[37.854586,50.007794],[37.853914,50.007186],[37.853635,50.007263]]]}},{"type":"Feature","properties":{"cadnum":"6321881507:00:000:0007"},"geometry":{"type":"Polygon","coordinates":[[[37.855063,50.006959],[37.856019,50.0065],[37.855974,50.006469],[37.855909,50.006391],[37.855782,50.006413],[37.855628,50.0064],[37.855475,50.006318],[37.855227,50.006215],[37.855008,50.006175],[37.854845,50.006244],[37.854626,50.006395],[37.854322,50.006649],[37.855063,50.006959]]]}},{"type":"Feature","properties":{"cadnum":"6321881507:00:000:0004"},"geometry":{"type":"Polygon","coordinates":[[[37.855063,50.006959],[37.854322,50.006649],[37.854213,50.006739],[37.854098,50.006903],[37.853921,50.00704],[37.853812,50.007071],[37.853903,50.007139],[37.853914,50.007186],[37.85446442105263,50.007684],[37.854464,50.007684],[37.855787,50.008882],[37.855816,50.008876],[37.856451,50.008779],[37.856783,50.00864],[37.857112,50.008499],[37.857334,50.008279],[37.857179,50.008163],[37.857284,50.008033],[37.857319,50.007968],[37.857395,50.007935],[37.857057948207164,50.007794],[37.857059,50.007794],[37.855063,50.006959]]]}},{"type":"Feature","properties":{"cadnum":"6321881507:00:000:0001"},"geometry":{"type":"Polygon","coordinates":[[[37.857682,50.007664],[37.857817,50.007594],[37.858027,50.007579],[37.857863,50.00745],[37.857699,50.007322],[37.85761,50.006941],[37.85752,50.00656],[37.857453,50.006189],[37.857287,50.005937],[37.857264,50.005902],[37.856886,50.006084],[37.856871,50.006128],[37.856745,50.006224],[37.856631,50.006314],[37.856529,50.00641],[37.856445,50.006475],[37.856296,50.006562],[37.85618,50.006569],[37.856065,50.006531],[37.856019,50.0065],[37.855063,50.006959],[37.85679605389222,50.007684],[37.856795,50.007684],[37.857395,50.007935],[37.857426,50.00792],[37.857505,50.007866],[37.857614,50.007772],[37.857682,50.007664]]]}},{"type":"Feature","properties":{"cadnum":"6321881507:00:000:0005"},"geometry":{"type":"Polygon","coordinates":[[[37.851496,50.007297],[37.851356,50.007304],[37.851293,50.007243],[37.850829,50.007794],[37.85082969990128,50.007794],[37.850072,50.008697],[37.851159,50.009681],[37.852048,50.010363],[37.853278,50.009769],[37.853308,50.00975511940299],[37.853308,50.009756],[37.85344168354461,50.00969326582264],[37.853479,50.009676],[37.853479,50.00967575418994],[37.853666,50.009588],[37.853479,50.00939003072626],[37.853479,50.00939],[37.852529,50.008382],[37.852504,50.008384],[37.852401,50.008384],[37.852305,50.008368],[37.852272,50.008329],[37.852133,50.008325],[37.852018,50.00821],[37.851945,50.008117],[37.851925,50.008002],[37.851925,50.007924],[37.85192,50.007823],[37.85194,50.007763],[37.851496,50.007297]]]}}]}