{"type":"FeatureCollection","features":[{"type":"Feature","properties":{"cadnum":"6321884004:00:000:0026"},"geometry":{"type":"Polygon","coordinates":[[[37.738756,49.887258],[37.738592,49.887131],[37.738496,49.887034],[37.738177,49.887117],[37.738123,49.88713109734513],[37.738123,49.887131],[37.737585,49.887271],[37.737532,49.887284],[37.73755484210526,49.887501],[37.737554,49.887501],[37.737562,49.887569],[37.737951,49.88746776292335],[37.737951,49.887468],[37.738756,49.887258]]]}},{"type":"Feature","properties":{"cadnum":"6321884004:00:000:0027"},"geometry":{"type":"Polygon","coordinates":[[[37.738775,49.887273],[37.738756,49.887258],[37.738123,49.88742313043478],[37.738123,49.887423],[37.737823287671226,49.887501],[37.73782,49.887501],[37.737562,49.887569],[37.737566,49.887603],[37.737573,49.887612],[37.73757380991736,49.887612],[37.737671,49.887724],[37.737753,49.887776],[37.737951,49.887724627027026],[37.737951,49.887725],[37.73843432671088,49.88759866956448],[37.738949,49.887465],[37.738775,49.887273]]]}},{"type":"Feature","properties":{"cadnum":"6321884004:00:000:0084"},"geometry":{"type":"Polygon","coordinates":[[[37.732954,49.879174],[37.733392,49.879022],[37.733666,49.878895],[37.733365,49.87853],[37.732992,49.878658],[37.733021,49.878703],[37.732923,49.878735],[37.73263,49.8788263655914],[37.73263,49.878826],[37.732419,49.878891],[37.732458,49.87893472727273],[37.732458,49.878935],[37.732551,49.879039],[37.732607,49.879114],[37.73263,49.879107],[37.73263,49.87910640566038],[37.732713,49.879079],[37.732687,49.879047],[37.732788,49.879014],[37.732844,49.879084],[37.732634,49.879155],[37.732701,49.879247],[37.732954,49.879174]]]}},{"type":"Feature","properties":{"cadnum":"6321884004:00:000:0058"},"geometry":{"type":"Polygon","coordinates":[[[37.73285,49.877863],[37.732655,49.877626],[37.73259229979414,49.87765050718706],[37.732222,49.877793],[37.731891,49.877922],[37.732037,49.878116],[37.732071,49.878107],[37.732189,49.878072],[37.732285,49.878041],[37.732337,49.878027],[37.732341,49.878026],[37.732458,49.877988625],[37.732458,49.877989],[37.73285,49.877863]]]}},{"type":"Feature","properties":{"cadnum":"6321884004:00:000:0064"},"geometry":{"type":"Polygon","coordinates":[[[37.732548,49.879276],[37.732398,49.879098],[37.731757,49.879314],[37.731868,49.879504],[37.732458,49.879306176470585],[37.732458,49.879307],[37.732548,49.879276]]]}},{"type":"Feature","properties":{"cadnum":"6321884004:00:000:0069"},"geometry":{"type":"Polygon","coordinates":[[[37.732569,49.879479],[37.73263,49.87946],[37.73263,49.87945964423077],[37.732673,49.879446],[37.732548,49.879276],[37.731868,49.879504],[37.732008,49.879741],[37.732422,49.879559],[37.732458,49.87953940816327],[37.732458,49.87954],[37.732569,49.879479]]]}},{"type":"Feature","properties":{"cadnum":"6321884004:00:000:0091"},"geometry":{"type":"Polygon","coordinates":[[[37.732814,49.879407],[37.73291,49.879374],[37.733583,49.879146],[37.733603,49.879139],[37.733495,49.878974],[37.733392,49.879022],[37.732954,49.879174],[37.732701,49.879247],[37.732814,49.879407]]]}},{"type":"Feature","properties":{"cadnum":"6321884004:00:000:0005"},"geometry":{"type":"Polygon","coordinates":[[[37.732536,49.878253],[37.73263,49.878231],[37.73263,49.87822999578059],[37.733247,49.878079],[37.733243,49.877914],[37.733125,49.877806],[37.732789,49.877958],[37.73263,49.878012280966765],[37.73263,49.878012],[37.732088,49.878196],[37.731997,49.878223],[37.732046,49.87839],[37.732458,49.87827480816327],[37.732458,49.878276],[37.732536,49.878253]]]}},{"type":"Feature","properties":{"cadnum":"6321884004:00:000:0071"},"geometry":{"type":"Polygon","coordinates":[[[37.732923,49.878735],[37.733021,49.878703],[37.732898,49.878516],[37.732776,49.878546],[37.73253854148541,49.87860723144087],[37.732256,49.878679],[37.732419,49.878891],[37.732458,49.878878985781995],[37.732458,49.87888],[37.732923,49.878735]]]}},{"type":"Feature","properties":{"cadnum":"6321884004:00:000:0003"},"geometry":{"type":"Polygon","coordinates":[[[37.73302,49.88022],[37.733265,49.880148],[37.733213,49.880051],[37.733177,49.88001],[37.733164,49.880013],[37.732934,49.879738],[37.732736,49.879813],[37.73275,49.879836],[37.732717,49.879848],[37.73302,49.88022]]]}},{"type":"Feature","properties":{"cadnum":"6321884004:00:000:0004"},"geometry":{"type":"Polygon","coordinates":[[[37.732995,49.880324],[37.733084,49.8803],[37.73333,49.880236],[37.733265,49.880148],[37.73302,49.88022],[37.732717,49.879848],[37.732581,49.879901],[37.732323,49.879998],[37.732328,49.88003],[37.732233,49.880079],[37.732347,49.880227],[37.732458,49.88032879262673],[37.732458,49.880329],[37.732564,49.880426],[37.732995,49.880324]]]}},{"type":"Feature","properties":{"cadnum":"6321884004:00:000:0024"},"geometry":{"type":"Polygon","coordinates":[[[37.732997,49.879624],[37.733083,49.879594],[37.733752,49.879358],[37.7339,49.879307],[37.733732,49.879096],[37.733583,49.879146],[37.73291,49.879374],[37.732814,49.879407],[37.732997,49.879624]]]}},{"type":"Feature","properties":{"cadnum":"6321884004:00:000:0093"},"geometry":{"type":"Polygon","coordinates":[[[37.733046,49.879676],[37.733113,49.879652],[37.73377,49.879419],[37.733944,49.879358],[37.7339,49.879307],[37.733752,49.879358],[37.733083,49.879594],[37.732997,49.879624],[37.733046,49.879676]]]}},{"type":"Feature","properties":{"cadnum":"6321884004:00:000:0022"},"geometry":{"type":"Polygon","coordinates":[[[37.733252,49.8798],[37.733901,49.879588],[37.73377,49.879419],[37.733113,49.879652],[37.733252,49.8798]]]}},{"type":"Feature","properties":{"cadnum":"6321884004:00:000:0066"},"geometry":{"type":"Polygon","coordinates":[[[37.733284,49.87996],[37.733334,49.879944],[37.734018,49.879713],[37.734167,49.879663],[37.73405,49.87954],[37.733901,49.879588],[37.733252,49.8798],[37.733177,49.879824],[37.733284,49.87996]]]}},{"type":"Feature","properties":{"cadnum":"6321884004:00:000:0007"},"geometry":{"type":"Polygon","coordinates":[[[37.734599,49.880336],[37.734499,49.880251],[37.734596,49.880208],[37.734467,49.880022],[37.734286,49.880084],[37.733877,49.880208],[37.733534,49.880293],[37.7336226875,49.880422],[37.733622,49.880422],[37.733744,49.880599],[37.73418,49.880456],[37.734599,49.880336]]]}},{"type":"Feature","properties":{"cadnum":"6321884004:00:000:0054"},"geometry":{"type":"Polygon","coordinates":[[[37.734648,49.880326],[37.734599,49.880336],[37.734298716666665,49.880422],[37.734297,49.880422],[37.73418,49.880456],[37.733944,49.880533],[37.73394523076923,49.880533],[37.733744,49.880599],[37.733976,49.880881],[37.734662,49.880629],[37.734833,49.880567],[37.734785,49.88048],[37.734648,49.880326]]]}},{"type":"Feature","properties":{"cadnum":"6321884004:00:000:0043"},"geometry":{"type":"Polygon","coordinates":[[[37.733578,49.880272],[37.733884,49.880184],[37.734214,49.88009],[37.734137,49.879986],[37.733788,49.880091],[37.733501,49.880176],[37.733578,49.880272]]]}},{"type":"Feature","properties":{"cadnum":"6321884004:00:000:0010"},"geometry":{"type":"Polygon","coordinates":[[[37.733416,49.880367],[37.7333,49.880401],[37.733316625,49.880422],[37.733316,49.880422],[37.733319,49.880425],[37.733501,49.880665],[37.733615,49.880629],[37.73354172463768,49.880533],[37.733542,49.880533],[37.733416,49.880367]]]}},{"type":"Feature","properties":{"cadnum":"6321884004:00:000:0009"},"geometry":{"type":"Polygon","coordinates":[[[37.734596,49.880208],[37.73478,49.880126],[37.73457,49.879987],[37.734467,49.880022],[37.734596,49.880208]]]}},{"type":"Feature","properties":{"cadnum":"6321884004:00:000:0017"},"geometry":{"type":"Polygon","coordinates":[[[37.737621,49.885334],[37.737855,49.885291],[37.737852,49.88511],[37.737514,49.885187],[37.737621,49.885334]]]}},{"type":"Feature","properties":{"cadnum":"6321884004:00:000:0036"},"geometry":{"type":"Polygon","coordinates":[[[37.73797001538394,49.88442812307721],[37.738123,49.884365],[37.738123,49.88436475080906],[37.73826,49.884308],[37.73826,49.884283],[37.738241,49.884101],[37.738123,49.88415552413793],[37.738123,49.884155],[37.737118,49.884618],[37.737219,49.884738],[37.737951,49.88443596902655],[37.737951,49.884436],[37.73797001538394,49.88442812307721]]]}},{"type":"Feature","properties":{"cadnum":"6321884004:00:000:0051"},"geometry":{"type":"Polygon","coordinates":[[[37.736983,49.885947],[37.737254,49.88588],[37.737239,49.885858],[37.737232,49.885846],[37.737533,49.885774],[37.737502,49.885543],[37.736837,49.885734],[37.736983,49.885947]]]}},{"type":"Feature","properties":{"cadnum":"6321884004:00:000:0056"},"geometry":{"type":"Polygon","coordinates":[[[37.736996,49.88601],[37.737385,49.885916],[37.737533,49.885774],[37.737232,49.885846],[37.737239,49.885858],[37.737254,49.88588],[37.736983,49.885947],[37.736837,49.885734],[37.736795,49.885748],[37.736996,49.88601]]]}},{"type":"Feature","properties":{"cadnum":"6321884004:00:000:0019"},"geometry":{"type":"Polygon","coordinates":[[[37.736574,49.884896],[37.736974,49.884752],[37.736833,49.884563],[37.73664,49.884341],[37.736467,49.884134],[37.736283,49.884229],[37.736099,49.884318],[37.736574,49.884896]]]}},{"type":"Feature","properties":{"cadnum":"6321884004:00:000:0016"},"geometry":{"type":"Polygon","coordinates":[[[37.736813,49.885678],[37.736837,49.885673],[37.737073,49.885594],[37.737418,49.885497],[37.737478,49.885478],[37.737377,49.885273],[37.737015,49.885384],[37.736712,49.88551],[37.736813,49.885678]]]}},{"type":"Feature","properties":{"cadnum":"6321884004:00:000:0074"},"geometry":{"type":"Polygon","coordinates":[[[37.736359,49.883996],[37.736111,49.883679],[37.735346,49.883952],[37.735489,49.884073],[37.735490641509436,49.884073],[37.735738,49.88428],[37.73619063028169,49.884073],[37.736192,49.884073],[37.736359,49.883996]]]}},{"type":"Feature","properties":{"cadnum":"6321884004:00:000:0020"},"geometry":{"type":"Polygon","coordinates":[[[37.736287,49.885001],[37.736574,49.884896],[37.736099,49.884318],[37.735899,49.884415],[37.736038,49.88462],[37.736145,49.88481],[37.736287,49.885001]]]}},{"type":"Feature","properties":{"cadnum":"6321884004:00:000:0018"},"geometry":{"type":"Polygon","coordinates":[[[37.736381,49.885382],[37.737249,49.885039],[37.737069,49.884821],[37.736177,49.885217],[37.736381,49.885382]]]}},{"type":"Feature","properties":{"cadnum":"6321884004:00:000:0037"},"geometry":{"type":"Polygon","coordinates":[[[37.738194,49.883934],[37.737951,49.88405],[37.737951,49.884051],[37.737951,49.88405143317972],[37.737906,49.884073],[37.737906366037734,49.884073],[37.737019,49.884499],[37.737118,49.884618],[37.737951,49.884234239800996],[37.737951,49.884235],[37.738241,49.884101],[37.738234,49.884034],[37.738194,49.883934]]]}},{"type":"Feature","properties":{"cadnum":"6321884004:00:000:0015"},"geometry":{"type":"Polygon","coordinates":[[[37.736712,49.88551],[37.737015,49.885384],[37.737377,49.885273],[37.737249,49.885039],[37.736381,49.885382],[37.736712,49.88551]]]}},{"type":"Feature","properties":{"cadnum":"6321884004:00:000:0030"},"geometry":{"type":"Polygon","coordinates":[[[37.737829,49.88357],[37.737709,49.883482],[37.73753,49.883413],[37.737077,49.883599],[37.73707,49.883723],[37.736987,49.883751],[37.737015,49.883782],[37.737026,49.883793],[37.737054,49.883825],[37.737007,49.883843],[37.736978,49.883812],[37.736966,49.883799],[37.736846,49.883844],[37.736766,49.883866],[37.736524,49.883926],[37.736508,49.883947],[37.73652014285714,49.883962],[37.73652,49.883962],[37.73652816279066,49.8839719069767],[37.73661,49.884073],[37.736611457746484,49.884073],[37.736637,49.884104],[37.736658,49.884129],[37.736786188957765,49.88406766029814],[37.737829,49.88357]]]}},{"type":"Feature","properties":{"cadnum":"6321884004:00:000:0094"},"geometry":{"type":"Polygon","coordinates":[[[37.737899,49.88363],[37.737829,49.88357],[37.73700759244534,49.883962],[37.737007,49.883962],[37.736786188957765,49.88406766029814],[37.736775,49.884073],[37.73677502994012,49.884073],[37.736658,49.884129],[37.736727,49.884162],[37.7369228,49.884073],[37.736923,49.884073],[37.737899,49.88363]]]}},{"type":"Feature","properties":{"cadnum":"6321884004:00:000:0092"},"geometry":{"type":"Polygon","coordinates":[[[37.738088,49.883751],[37.738008,49.8837],[37.73744466487936,49.883962],[37.737443,49.883962],[37.736811,49.884256],[37.7369,49.884357],[37.737486,49.884076],[37.73757278082148,49.884028890411194],[37.737951,49.883824892797314],[37.737951,49.883825],[37.738088,49.883751]]]}},{"type":"Feature","properties":{"cadnum":"6321884004:00:000:0090"},"geometry":{"type":"Polygon","coordinates":[[[37.738008,49.8837],[37.737899,49.88363],[37.73716755079007,49.883962],[37.737167,49.883962],[37.736727,49.884162],[37.736811,49.884256],[37.7372043877551,49.884073],[37.737206,49.884073],[37.738008,49.8837]]]}},{"type":"Feature","properties":{"cadnum":"6321884004:00:000:0025"},"geometry":{"type":"Polygon","coordinates":[[[37.738194,49.883934],[37.738114,49.883737],[37.73769681250001,49.883962],[37.737696,49.883962],[37.73757190909011,49.8840293636368],[37.737491,49.884073],[37.737491526315786,49.884073],[37.737486,49.884076],[37.7369,49.884357],[37.737019,49.884499],[37.738123,49.883969],[37.738123,49.88396789300412],[37.738194,49.883934]]]}},{"type":"Feature","properties":{"cadnum":"6321884004:00:000:0035"},"geometry":{"type":"Polygon","coordinates":[[[37.738244,49.884582],[37.738268,49.88453],[37.73826,49.884308],[37.73797001538394,49.88442812307721],[37.737219,49.884738],[37.73732,49.884858],[37.737562,49.884774],[37.737778,49.884713],[37.738123,49.884617],[37.738123,49.88461586348123],[37.738244,49.884582]]]}},{"type":"Feature","properties":{"cadnum":"6321884004:00:000:0021"},"geometry":{"type":"Polygon","coordinates":[[[37.730607,49.877711],[37.730974,49.877576],[37.731318,49.877456],[37.73114,49.877213],[37.73092,49.877319],[37.730397,49.877465],[37.730607,49.877711]]]}},{"type":"Feature","properties":{"cadnum":"6321884004:00:000:0083"},"geometry":{"type":"Polygon","coordinates":[[[37.731994,49.876845],[37.731763,49.876586],[37.731012,49.876821],[37.731116,49.876973],[37.73113,49.876993],[37.73113198253275,49.876993],[37.731299,49.877202],[37.731368,49.87718],[37.7314,49.877169],[37.731576,49.877102],[37.731581,49.877106],[37.731629,49.877083],[37.731607,49.877064],[37.7316,49.877067],[37.731569,49.877039],[37.73166949681529,49.876993],[37.73167,49.876993],[37.731994,49.876845]]]}},{"type":"Feature","properties":{"cadnum":"6321884004:00:000:0077"},"geometry":{"type":"Polygon","coordinates":[[[37.731271,49.878518],[37.731889,49.878343],[37.731633,49.877978],[37.730999,49.878187],[37.731271,49.878518]]]}},{"type":"Feature","properties":{"cadnum":"6321884004:00:000:0075"},"geometry":{"type":"Polygon","coordinates":[[[37.731891,49.877922],[37.732222,49.877793],[37.732492,49.877689],[37.732345,49.877505],[37.731998,49.877633],[37.731722,49.877735],[37.731891,49.877922]]]}},{"type":"Feature","properties":{"cadnum":"6321884004:00:000:0086"},"geometry":{"type":"Polygon","coordinates":[[[37.730794,49.87794],[37.731493,49.877702],[37.731396,49.877563],[37.731328,49.877587],[37.730692,49.877811],[37.730794,49.87794]]]}},{"type":"Feature","properties":{"cadnum":"6321884004:00:000:0044"},"geometry":{"type":"Polygon","coordinates":[[[37.730692,49.877811],[37.731328,49.877587],[37.731396,49.877563],[37.731318,49.877456],[37.730974,49.877576],[37.730607,49.877711],[37.730692,49.877811]]]}},{"type":"Feature","properties":{"cadnum":"6321884004:00:000:0046"},"geometry":{"type":"Polygon","coordinates":[[[37.732081,49.876806],[37.73191314973262,49.876882],[37.731912,49.876882],[37.73180665000063,49.87693022142829],[37.731668,49.876993],[37.73166949681529,49.876993],[37.731569,49.877039],[37.7316,49.877067],[37.731607,49.877064],[37.731629,49.877083],[37.731581,49.877106],[37.731576,49.877102],[37.7314,49.877169],[37.731368,49.87718],[37.731299,49.877202],[37.731451,49.877419],[37.731617,49.877344],[37.73166,49.877324],[37.732187,49.877068],[37.732309,49.87701],[37.732166,49.876882],[37.73216553475936,49.876882],[37.732081,49.876806]]]}},{"type":"Feature","properties":{"cadnum":"6321884004:00:000:0070"},"geometry":{"type":"Polygon","coordinates":[[[37.730778,49.876758],[37.73065,49.876588],[37.73026,49.876714],[37.730021,49.876771],[37.73008405325444,49.876882],[37.730083,49.876882],[37.730117,49.87694],[37.730778,49.876758]]]}},{"type":"Feature","properties":{"cadnum":"6321884004:00:000:0034"},"geometry":{"type":"Polygon","coordinates":[[[37.73497,49.882051],[37.735819,49.881723],[37.735608,49.881506],[37.734774,49.88183],[37.73497,49.882051]]]}},{"type":"Feature","properties":{"cadnum":"6321884004:00:000:0011"},"geometry":{"type":"Polygon","coordinates":[[[37.736504,49.883894],[37.736746,49.883833],[37.73707,49.883723],[37.737077,49.883599],[37.73753,49.883413],[37.7374,49.883256],[37.736484,49.883573],[37.73632,49.883634],[37.736441,49.88378],[37.736426,49.883799],[37.736504,49.883894]]]}},{"type":"Feature","properties":{"cadnum":"6321884004:00:000:0053"},"geometry":{"type":"Polygon","coordinates":[[[37.734687,49.883268],[37.735175,49.883101],[37.735323,49.883047],[37.735399,49.883019],[37.735569,49.882958],[37.735425,49.882803],[37.735388,49.882766],[37.735264,49.882813],[37.735123,49.882869],[37.73455,49.883097],[37.734687,49.883268]]]}},{"type":"Feature","properties":{"cadnum":"6321884004:00:000:0001"},"geometry":{"type":"Polygon","coordinates":[[[37.735363,49.883642],[37.735405,49.883633],[37.735505,49.883587],[37.735567,49.883542],[37.735682,49.883494],[37.735748,49.883536],[37.735934,49.883472],[37.735897,49.883427],[37.735779,49.88329],[37.735811,49.883279],[37.735737,49.883193],[37.735572,49.883011],[37.73556,49.883016],[37.735244,49.883146],[37.735,49.883233],[37.735363,49.883642]]]}},{"type":"Feature","properties":{"cadnum":"6321884004:00:000:0055"},"geometry":{"type":"Polygon","coordinates":[[[37.734455,49.883133],[37.73455,49.883097],[37.735123,49.882869],[37.735264,49.882813],[37.735388,49.882766],[37.735395,49.882763],[37.735203,49.88255],[37.735059,49.882599],[37.734448,49.88282],[37.734381,49.882951],[37.734384,49.88305],[37.734455,49.883133]]]}},{"type":"Feature","properties":{"cadnum":"6321884004:00:000:0023"},"geometry":{"type":"Polygon","coordinates":[[[37.736489,49.883131],[37.737147,49.882865],[37.736732,49.882497],[37.736119,49.882746],[37.736351,49.882998],[37.736394,49.883043],[37.736489,49.883131]]]}},{"type":"Feature","properties":{"cadnum":"6321884004:00:000:0047"},"geometry":{"type":"Polygon","coordinates":[[[37.733636,49.882011],[37.734173,49.881804],[37.734352,49.881736],[37.734474,49.881684],[37.73445,49.881659],[37.734399,49.881601],[37.734372,49.881571],[37.734324,49.881509],[37.734255,49.881432],[37.733963,49.881547],[37.733491,49.881734],[37.733527,49.881802],[37.733581,49.881906],[37.733636,49.882011]]]}},{"type":"Feature","properties":{"cadnum":"6321884004:00:000:0060"},"geometry":{"type":"Polygon","coordinates":[[[37.735604,49.882798],[37.736586,49.882355],[37.736375,49.882189],[37.735482,49.882651],[37.735604,49.882798]]]}},{"type":"Feature","properties":{"cadnum":"6321884004:00:000:0061"},"geometry":{"type":"Polygon","coordinates":[[[37.733491,49.881734],[37.733963,49.881547],[37.734255,49.881432],[37.734006,49.881138],[37.733283,49.881411],[37.733491,49.881734]]]}},{"type":"Feature","properties":{"cadnum":"6321884004:00:000:0006"},"geometry":{"type":"Polygon","coordinates":[[[37.734097,49.881022],[37.734566,49.880906],[37.734844,49.880828],[37.734733,49.880671],[37.734238,49.880835],[37.733983,49.88089],[37.734097,49.881022]]]}},{"type":"Feature","properties":{"cadnum":"6321884004:00:000:0032"},"geometry":{"type":"Polygon","coordinates":[[[37.736042,49.883353],[37.736532,49.883174],[37.736489,49.883131],[37.736394,49.883043],[37.736351,49.882998],[37.736119,49.882746],[37.735675,49.882936],[37.735909,49.883214],[37.73593,49.883239],[37.736042,49.883353]]]}},{"type":"Feature","properties":{"cadnum":"6321884004:00:000:0080"},"geometry":{"type":"Polygon","coordinates":[[[37.735034,49.883221],[37.735244,49.883146],[37.73556,49.883016],[37.735572,49.883011],[37.735598,49.883],[37.735569,49.882958],[37.735399,49.883019],[37.735323,49.883047],[37.735175,49.883101],[37.734986,49.883166],[37.735034,49.883221]]]}},{"type":"Feature","properties":{"cadnum":"6321884004:00:000:0031"},"geometry":{"type":"Polygon","coordinates":[[[37.736288,49.883637],[37.736668,49.883486],[37.737428,49.883232],[37.737122,49.882883],[37.736726,49.88307],[37.736488,49.883203],[37.736675,49.88342],[37.736629,49.883437],[37.736248,49.88359],[37.736288,49.883637]]]}},{"type":"Feature","properties":{"cadnum":"6321884004:00:000:0059"},"geometry":{"type":"Polygon","coordinates":[[[37.735346,49.883952],[37.736111,49.883679],[37.735934,49.883472],[37.735748,49.883536],[37.735682,49.883494],[37.735567,49.883542],[37.735505,49.883587],[37.735405,49.883633],[37.735363,49.883642],[37.735024,49.883716],[37.735346,49.883952]]]}},{"type":"Feature","properties":{"cadnum":"6321884004:00:000:0002"},"geometry":{"type":"Polygon","coordinates":[[[37.735024,49.883716],[37.735363,49.883642],[37.735,49.883233],[37.734894,49.883271],[37.734745,49.883331],[37.734805,49.883479],[37.735024,49.883716]]]}},{"type":"Feature","properties":{"cadnum":"6321884004:00:000:0057"},"geometry":{"type":"Polygon","coordinates":[[[37.734401,49.881414],[37.735081,49.881145],[37.734844,49.880828],[37.734566,49.880906],[37.734097,49.881022],[37.734401,49.881414]]]}},{"type":"Feature","properties":{"cadnum":"6321884004:00:000:0050"},"geometry":{"type":"Polygon","coordinates":[[[37.734774,49.88183],[37.735608,49.881506],[37.73521,49.881095],[37.734401,49.881414],[37.734774,49.88183]]]}},{"type":"Feature","properties":{"cadnum":"6321884004:00:000:0082"},"geometry":{"type":"Polygon","coordinates":[[[37.735666,49.882919],[37.736717,49.882482],[37.736598,49.882368],[37.735602,49.88282],[37.735666,49.882919]]]}},{"type":"Feature","properties":{"cadnum":"6321884004:00:000:0078"},"geometry":{"type":"Polygon","coordinates":[[[37.735409,49.882553],[37.736286,49.882213],[37.736176,49.882082],[37.735311,49.882421],[37.735409,49.882553]]]}},{"type":"Feature","properties":{"cadnum":"6321884004:00:000:0008"},"geometry":{"type":"Polygon","coordinates":[[[37.733283,49.881411],[37.734006,49.881138],[37.7339,49.881],[37.733181,49.881267],[37.733283,49.881411]]]}},{"type":"Feature","properties":{"cadnum":"6321884004:00:000:0049"},"geometry":{"type":"Polygon","coordinates":[[[37.735281,49.882393],[37.735426,49.882358],[37.736154,49.88207],[37.736025,49.881936],[37.735988,49.88195],[37.735331,49.882203],[37.735163,49.882269],[37.735281,49.882393]]]}},{"type":"Feature","properties":{"cadnum":"6321884004:00:000:0033"},"geometry":{"type":"Polygon","coordinates":[[[37.735163,49.882269],[37.735331,49.882203],[37.735988,49.88195],[37.736025,49.881936],[37.735819,49.881723],[37.73497,49.882051],[37.735163,49.882269]]]}},{"type":"Feature","properties":{"cadnum":"6321884004:00:000:0014"},"geometry":{"type":"Polygon","coordinates":[[[37.727403,49.874254],[37.72845,49.87388],[37.728405,49.873769],[37.728317,49.873671],[37.727413,49.873993],[37.727436,49.874039],[37.727408,49.87424],[37.727403,49.874254]]]}},{"type":"Feature","properties":{"cadnum":"6321884004:00:000:0013"},"geometry":{"type":"Polygon","coordinates":[[[37.727413,49.873993],[37.728317,49.873671],[37.728173,49.873509],[37.728113,49.873456],[37.727288,49.87375],[37.727413,49.873993]]]}},{"type":"Feature","properties":{"cadnum":"6321884004:00:000:0012"},"geometry":{"type":"Polygon","coordinates":[[[37.727377,49.874484],[37.72856,49.874062],[37.728491,49.873979],[37.72845,49.87388],[37.727403,49.874254],[37.727383,49.874323],[37.727326,49.874441],[37.727377,49.874484]]]}},{"type":"Feature","properties":{"cadnum":"6321884004:00:000:0065"},"geometry":{"type":"Polygon","coordinates":[[[37.730626,49.876367],[37.731246,49.876159],[37.731058,49.876004],[37.730492,49.876209],[37.730626,49.876367]]]}},{"type":"Feature","properties":{"cadnum":"6321884004:00:000:0089"},"geometry":{"type":"Polygon","coordinates":[[[37.730039,49.875598],[37.73041,49.875474],[37.730161,49.875153],[37.729789,49.875277],[37.730039,49.875598]]]}},{"type":"Feature","properties":{"cadnum":"6321884004:00:000:0081"},"geometry":{"type":"Polygon","coordinates":[[[37.728647,49.874836],[37.729127,49.874678],[37.728986,49.874489],[37.728369,49.874654],[37.728496,49.874663],[37.728647,49.874836]]]}},{"type":"Feature","properties":{"cadnum":"6321884004:00:000:0073"},"geometry":{"type":"Polygon","coordinates":[[[37.728903,49.875104],[37.72932,49.874979],[37.729104,49.874725],[37.728684,49.874864],[37.728903,49.875104]]]}},{"type":"Feature","properties":{"cadnum":"6321884004:00:000:0085"},"geometry":{"type":"Polygon","coordinates":[[[37.729915,49.876442],[37.729986,49.876421],[37.730425,49.87629],[37.730146,49.87595],[37.729997,49.875999],[37.729795,49.876067],[37.729915,49.876442]]]}},{"type":"Feature","properties":{"cadnum":"6321884004:00:000:0063"},"geometry":{"type":"Polygon","coordinates":[[[37.731012,49.876821],[37.731763,49.876586],[37.731584,49.876437],[37.730874,49.876659],[37.731012,49.876821]]]}},{"type":"Feature","properties":{"cadnum":"6321884004:00:000:0087"},"geometry":{"type":"Polygon","coordinates":[[[37.730492,49.876209],[37.731058,49.876004],[37.73099,49.875946],[37.730438,49.876146],[37.730492,49.876209]]]}},{"type":"Feature","properties":{"cadnum":"6321884004:00:000:0088"},"geometry":{"type":"Polygon","coordinates":[[[37.730003,49.876775],[37.730021,49.876771],[37.73026,49.876714],[37.73065,49.876588],[37.730621,49.876537],[37.730559,49.876463],[37.730425,49.87629],[37.730232,49.876348],[37.729986,49.876421],[37.729915,49.876442],[37.729898,49.876447],[37.730003,49.876775]]]}},{"type":"Feature","properties":{"cadnum":"6321884004:00:000:0062"},"geometry":{"type":"Polygon","coordinates":[[[37.729552,49.875737],[37.72987,49.875648],[37.729691,49.875421],[37.729348,49.87552],[37.729552,49.875737]]]}},{"type":"Feature","properties":{"cadnum":"6321884004:00:000:0076"},"geometry":{"type":"Polygon","coordinates":[[[37.729795,49.876067],[37.729997,49.875999],[37.730146,49.87595],[37.729882,49.875666],[37.72956,49.875772],[37.729795,49.876067]]]}},{"type":"Feature","properties":{"cadnum":"6321884004:00:000:0052"},"geometry":{"type":"Polygon","coordinates":[[[37.728189,49.874662],[37.728906,49.874472],[37.728758,49.874284],[37.728467,49.874346],[37.728306,49.874387],[37.728091,49.874462],[37.728189,49.874662]]]}},{"type":"Feature","properties":{"cadnum":"6321884004:00:000:0028"},"geometry":{"type":"Polygon","coordinates":[[[37.729339,49.874804],[37.730275,49.874565],[37.730019,49.87425],[37.729142,49.874571],[37.729339,49.874804]]]}},{"type":"Feature","properties":{"cadnum":"6321884004:00:000:0072"},"geometry":{"type":"Polygon","coordinates":[[[37.730874,49.876659],[37.731584,49.876437],[37.731421,49.876305],[37.730755,49.876516],[37.730874,49.876659]]]}},{"type":"Feature","properties":{"cadnum":"6321884004:00:000:0068"},"geometry":{"type":"Polygon","coordinates":[[[37.730755,49.876516],[37.731421,49.876305],[37.731246,49.876159],[37.730626,49.876367],[37.730755,49.876516]]]}},{"type":"Feature","properties":{"cadnum":"6321884004:00:000:0067"},"geometry":{"type":"Polygon","coordinates":[[[37.730146,49.875825],[37.730409,49.875721],[37.730719,49.875571],[37.730664,49.875501],[37.730645,49.875395],[37.729965,49.875623],[37.730146,49.875825]]]}},{"type":"Feature","properties":{"cadnum":"6321884004:00:000:0079"},"geometry":{"type":"Polygon","coordinates":[[[37.730438,49.876146],[37.73099,49.875946],[37.7309,49.875849],[37.730547,49.875954],[37.730351,49.876037],[37.730438,49.876146]]]}},{"type":"Feature","properties":{"cadnum":"6321884004:00:000:0029"},"geometry":{"type":"Polygon","coordinates":[[[37.730351,49.876037],[37.730547,49.875954],[37.7309,49.875849],[37.730819,49.875696],[37.730719,49.875571],[37.730409,49.875721],[37.730146,49.875825],[37.730351,49.876037]]]}}]}