{"type":"FeatureCollection","features":[{"type":"Feature","properties":{"cadnum":"6321082009:01:001:0279"},"geometry":{"type":"Polygon","coordinates":[[[37.853634,49.246126],[37.853308,49.246186],[37.853308,49.24618609090909],[37.853149,49.246215],[37.85302731249998,49.246237],[37.853025,49.246237],[37.852972,49.246247],[37.852998,49.246349],[37.8529982886598,49.246349],[37.853022,49.246441],[37.853308,49.24639732934131],[37.853308,49.246398],[37.853356,49.24639],[37.853479,49.246665],[37.853479,49.2466635131579],[37.853584,49.246897],[37.854041,49.246827],[37.854035,49.246783],[37.853821,49.246815],[37.853693731092434,49.246349],[37.853694,49.246349],[37.853691,49.246339],[37.853634,49.246126]]]}},{"type":"Feature","properties":{"cadnum":"6321082009:01:001:0009"},"geometry":{"type":"Polygon","coordinates":[[[37.855504,49.246315],[37.85548,49.24624],[37.854924,49.24631],[37.854932,49.246349],[37.85493309202454,49.246349],[37.855,49.246636],[37.856251,49.246446],[37.856209,49.246245],[37.855504,49.246315]]]}},{"type":"Feature","properties":{"cadnum":"6321082009:01:001:0270"},"geometry":{"type":"Polygon","coordinates":[[[37.8547,49.245933],[37.853634,49.246127],[37.853663729729725,49.246237],[37.853663,49.246237],[37.853821,49.246815],[37.85487,49.246656],[37.85479746300716,49.246349],[37.854798,49.246349],[37.8547,49.245933]]]}},{"type":"Feature","properties":{"cadnum":"6321082009:01:001:0267"},"geometry":{"type":"Polygon","coordinates":[[[37.857739,49.245859],[37.857638,49.245849],[37.85761,49.245328],[37.856013,49.245673],[37.856037,49.245779],[37.856207,49.246237],[37.856209,49.246245],[37.85623,49.246349],[37.85623073134328,49.246349],[37.856251,49.246446],[37.857756,49.246252],[37.857739,49.245859]]]}},{"type":"Feature","properties":{"cadnum":"6321082009:01:001:0007"},"geometry":{"type":"Polygon","coordinates":[[[37.856209,49.246245],[37.856207,49.246237],[37.856037,49.245779],[37.855373,49.245927],[37.85548,49.24624],[37.855504,49.246315],[37.856209,49.246245]]]}},{"type":"Feature","properties":{"cadnum":"6321082009:01:001:0253"},"geometry":{"type":"Polygon","coordinates":[[[37.842493,49.245483],[37.842493,49.24548284659746],[37.844096,49.245224],[37.844283,49.244672],[37.843591,49.244706],[37.842321,49.245119],[37.842321,49.245119897824985],[37.838539,49.246349],[37.838540310447755,49.246349],[37.83693747816706,49.24687132374906],[37.835871,49.247218],[37.835998,49.247318],[37.837,49.247026],[37.837,49.24702575457875],[37.83792,49.246757],[37.83912,49.246389],[37.83940983050842,49.24629625423731],[37.840467,49.24596],[37.842321,49.245513865963055],[37.842321,49.245514],[37.842362,49.245504],[37.842493,49.245483]]]}},{"type":"Feature","properties":{"cadnum":"6321082009:01:001:0266"},"geometry":{"type":"Polygon","coordinates":[[[37.837779,49.247586],[37.838706,49.247505],[37.839937,49.247781],[37.840201,49.24758],[37.839473,49.246862],[37.836944,49.247486],[37.834433,49.248104],[37.831926,49.248721],[37.832609,49.248783],[37.833249,49.248511],[37.83521,49.248163],[37.836298,49.247928],[37.837,49.247767],[37.837,49.24776621030494],[37.837779,49.247586]]]}},{"type":"Feature","properties":{"cadnum":"6321082009:01:001:0265"},"geometry":{"type":"Polygon","coordinates":[[[37.836944,49.247486],[37.837,49.247473],[37.837,49.2474721826809],[37.839473,49.246862],[37.839261,49.246654],[37.837,49.247210653925194],[37.837,49.24721],[37.83675,49.247271],[37.835998,49.247318],[37.835871,49.247218],[37.831468,49.24868],[37.831926,49.248721],[37.834433,49.248104],[37.836828,49.247514549581844],[37.836828,49.247515],[37.836944,49.247486]]]}},{"type":"Feature","properties":{"cadnum":"6321082009:01:001:0012"},"geometry":{"type":"Polygon","coordinates":[[[37.85349129411763,49.242651],[37.85349,49.242651],[37.853308,49.242689],[37.853308,49.242689034146345],[37.853069,49.242738],[37.852947,49.242763],[37.8529496818182,49.242763],[37.852754,49.242804],[37.852938,49.243152],[37.853247,49.243089],[37.853308,49.243076905172416],[37.853308,49.243078],[37.853729,49.242992],[37.85361550733138,49.242763],[37.853616,49.242763],[37.853554,49.242638],[37.85349129411763,49.242651]]]}},{"type":"Feature","properties":{"cadnum":"6321082009:01:001:0268"},"geometry":{"type":"Polygon","coordinates":[[[37.855058,49.242127],[37.854662,49.241296],[37.853308,49.241602],[37.853308,49.24160252413793],[37.853044,49.241662],[37.853109,49.241786],[37.853479,49.242494],[37.855058,49.242127]]]}},{"type":"Feature","properties":{"cadnum":"6321082009:01:001:0280"},"geometry":{"type":"Polygon","coordinates":[[[37.848258,49.242763],[37.84825964615387,49.242763],[37.848013,49.242811],[37.848358,49.243623],[37.849077,49.243535],[37.848681,49.242681],[37.848258,49.242763]]]}},{"type":"Feature","properties":{"cadnum":"6321082009:01:001:0257"},"geometry":{"type":"Polygon","coordinates":[[[37.851929,49.2425],[37.851716,49.242036],[37.851689,49.241988],[37.849471,49.242417],[37.849013668693004,49.242651],[37.849012,49.242651],[37.848828,49.242746],[37.848835,49.242763],[37.84883538257016,49.242763],[37.849122,49.243423],[37.85093,49.243095],[37.850749,49.242677],[37.850874,49.242651],[37.850873333333325,49.242651],[37.851495,49.242521],[37.851629,49.242763],[37.85162943006263,49.242763],[37.851834,49.24313],[37.852208,49.243047],[37.852073,49.24281],[37.851999,49.242651],[37.851998471482894,49.242651],[37.851929,49.2425]]]}},{"type":"Feature","properties":{"cadnum":"6321082009:01:001:0013"},"geometry":{"type":"Polygon","coordinates":[[[37.853479,49.242654],[37.853479,49.24265354878049],[37.853554,49.242638],[37.853479,49.24249409756097],[37.853479,49.242494],[37.853460186441296,49.24245800000118],[37.853308,49.242166],[37.853308,49.242166789189184],[37.853109,49.241786],[37.851924,49.242127],[37.852146,49.242589],[37.852229,49.242763],[37.852229506072874,49.242763],[37.852294,49.242898],[37.852498,49.243241],[37.852813,49.243177],[37.852938,49.243152],[37.852754,49.242804],[37.853069,49.242738],[37.853479,49.242654]]]}},{"type":"Feature","properties":{"cadnum":"6321082009:01:001:0273"},"geometry":{"type":"Polygon","coordinates":[[[37.852818,49.245551],[37.852742,49.245393],[37.853308,49.24532695386703],[37.853308,49.245327],[37.85332253587283,49.24532525768648],[37.853479,49.245307],[37.853479,49.24530650342466],[37.8536,49.245292],[37.853785,49.24596],[37.855145,49.245707],[37.854831,49.244923],[37.854314,49.244827],[37.853671,49.244849],[37.853479,49.244871214876035],[37.853479,49.244871],[37.852731,49.244956],[37.852038,49.245086],[37.852286,49.245642],[37.852818,49.245551]]]}},{"type":"Feature","properties":{"cadnum":"6321082009:01:001:0256"},"geometry":{"type":"Polygon","coordinates":[[[37.859298,49.246018],[37.859399,49.246025],[37.859426,49.245165],[37.858973,49.2451816704],[37.858973,49.245181],[37.858534,49.245196],[37.858511,49.245863],[37.857739,49.245859],[37.857756,49.246252],[37.858801,49.246093146261295],[37.858801,49.246094],[37.859298,49.246018]]]}},{"type":"Feature","properties":{"cadnum":"6321082009:01:001:0259"},"geometry":{"type":"Polygon","coordinates":[[[37.858801,49.241783],[37.858801,49.24178348395061],[37.858163,49.241993],[37.857019,49.242358],[37.856357,49.242577],[37.85598898924729,49.242651],[37.855987,49.242651],[37.855124,49.242825],[37.85522,49.24293],[37.85544,49.242877],[37.856371,49.242847],[37.85661357142858,49.242763],[37.856614,49.242763],[37.858002,49.242283],[37.858356,49.242179],[37.858927,49.242763],[37.85892787341771,49.242763],[37.858973,49.242809],[37.858973,49.24280746851385],[37.859217,49.243057],[37.859804,49.243111],[37.85983577391304,49.242763],[37.859836,49.242763],[37.859962,49.241403],[37.858801,49.241783]]]}},{"type":"Feature","properties":{"cadnum":"6321082009:01:001:0274"},"geometry":{"type":"Polygon","coordinates":[[[37.858002,49.242283],[37.857461,49.242471],[37.85761627472528,49.242651],[37.857615,49.242651],[37.857618,49.242653],[37.858142,49.242597],[37.858214229299364,49.242651],[37.858213,49.242651],[37.858352,49.242754],[37.858349,49.242763],[37.858350451162785,49.242763],[37.858315,49.242969],[37.85799,49.243132],[37.858514,49.243725],[37.858973,49.243729],[37.858973,49.24372798623853],[37.859673,49.243732],[37.859804,49.243111],[37.859217,49.243057],[37.85882,49.242651],[37.858818,49.242651],[37.85881749315069,49.242651],[37.858356,49.242179],[37.858002,49.242283]]]}},{"type":"Feature","properties":{"cadnum":"6321082009:01:001:0261"},"geometry":{"type":"Polygon","coordinates":[[[37.858374,49.244742],[37.858973,49.244678],[37.858973,49.24467739767055],[37.859402,49.244631],[37.859555,49.244614],[37.859537,49.244528],[37.859489,49.244449],[37.859579,49.244426],[37.85958,49.244426],[37.859673,49.243732],[37.858801,49.243727],[37.858801,49.243727501089325],[37.858514,49.243725],[37.85799,49.243132],[37.857539,49.243286],[37.857135,49.243526],[37.857837,49.244588],[37.857953,49.244766],[37.857984,49.244812],[37.858374,49.244742]],[[37.858877,49.244564],[37.85891,49.244562],[37.858914,49.244583],[37.858881,49.244585],[37.858877,49.244564]],[[37.858268,49.244622],[37.858301,49.244618],[37.858306,49.244639],[37.858274,49.244643],[37.858268,49.244622]]]}},{"type":"Feature","properties":{"cadnum":"6321082009:01:001:0262"},"geometry":{"type":"Polygon","coordinates":[[[37.856454,49.245448],[37.856516,49.245428],[37.856599,49.245401],[37.856801,49.245117],[37.857059,49.244926],[37.857617,49.244878],[37.857984,49.244812],[37.857953,49.244766],[37.857837,49.244588],[37.857135,49.243526],[37.856788,49.243723],[37.856341,49.243828],[37.856269,49.243845],[37.85617,49.243869],[37.8559,49.244009],[37.855972,49.244182],[37.855389,49.244625],[37.8557,49.24479],[37.855962,49.245015],[37.856033,49.24495],[37.85614,49.244853],[37.856162,49.244834],[37.856246,49.244873],[37.856349,49.244907],[37.856364,49.244914],[37.856411,49.244983],[37.85638,49.244991],[37.856335,49.244923],[37.856227,49.244891],[37.856222,49.244896],[37.856167,49.244946],[37.856136,49.244973],[37.856027,49.245071],[37.856454,49.245448]],[[37.85756,49.244727],[37.857554,49.244706],[37.857586,49.244702],[37.857593,49.244724],[37.85756,49.244727]],[[37.856929,49.244817],[37.856921,49.244796],[37.856953,49.24479],[37.856961,49.244811],[37.856929,49.244817]]]}},{"type":"Feature","properties":{"cadnum":"6321082009:01:001:0258"},"geometry":{"type":"Polygon","coordinates":[[[37.847082,49.246087],[37.84614764885497,49.246237],[37.846146,49.246237],[37.8458597460742,49.24628321968662],[37.84545,49.246349],[37.84545234666665,49.246349],[37.845217,49.246387],[37.843343,49.246689],[37.842793,49.246843],[37.842321,49.246902],[37.842321,49.246902006427916],[37.841404,49.247014],[37.84112,49.247262],[37.842321,49.24704594246176],[37.842321,49.247046],[37.84236340706857,49.24703831351352],[37.842493,49.247015],[37.842493,49.24701482416731],[37.843612,49.246812],[37.845767,49.246422],[37.845865,49.246665],[37.847214,49.246507],[37.847129,49.246237],[37.84712894656489,49.246237],[37.847082,49.246087]]]}},{"type":"Feature","properties":{"cadnum":"6321082009:01:001:0276"},"geometry":{"type":"Polygon","coordinates":[[[37.848639,49.244691],[37.848313,49.243902],[37.847986,49.243958469879516],[37.847986,49.243958],[37.846876,49.244147],[37.847218,49.244965],[37.847815,49.244849953125],[37.847815,49.24485],[37.848639,49.244691]]]}},{"type":"Feature","properties":{"cadnum":"6321082009:01:001:0278"},"geometry":{"type":"Polygon","coordinates":[[[37.844659,49.244407],[37.844945,49.244346],[37.84482,49.244034],[37.84571,49.243856],[37.84534,49.243335],[37.845325,49.243314],[37.844301,49.243515],[37.844659,49.244407]]]}},{"type":"Feature","properties":{"cadnum":"6321082009:01:001:0254"},"geometry":{"type":"Polygon","coordinates":[[[37.847951,49.243771],[37.847986,49.243759],[37.847986,49.24375827272728],[37.848358,49.243623],[37.848013,49.242811],[37.847815,49.242851],[37.847815,49.24285141156463],[37.84534,49.243335],[37.84571,49.243856],[37.846388,49.243593],[37.846614,49.243962],[37.847194,49.24377],[37.847094,49.24355],[37.847502,49.243451],[37.847745,49.243793],[37.847815,49.24378552427184],[37.847815,49.243786],[37.847951,49.243771]]]}},{"type":"Feature","properties":{"cadnum":"6321082009:01:001:0260"},"geometry":{"type":"Polygon","coordinates":[[[37.847132,49.245891],[37.846983,49.245239],[37.845802,49.245485],[37.843555,49.245562],[37.84368622617535,49.246237],[37.843685,49.246237],[37.843728,49.246451],[37.84464327424594,49.24629998327785],[37.847132,49.245891]]]}},{"type":"Feature","properties":{"cadnum":"6321082009:01:001:0277"},"geometry":{"type":"Polygon","coordinates":[[[37.844945,49.244346],[37.845076,49.244318],[37.845912,49.244141],[37.84571,49.243856],[37.845123,49.243973],[37.84482,49.244034],[37.844945,49.244346]]]}},{"type":"Feature","properties":{"cadnum":"6321082009:01:001:0275"},"geometry":{"type":"Polygon","coordinates":[[[37.843551,49.244649],[37.844659,49.244407],[37.844301,49.243515],[37.843236,49.243725],[37.843551,49.244649]]]}},{"type":"Feature","properties":{"cadnum":"6321082009:01:001:0271"},"geometry":{"type":"Polygon","coordinates":[[[37.847046,49.245516],[37.847132,49.245891],[37.847815,49.245790229508195],[37.847815,49.245791],[37.848768,49.245651],[37.848866,49.245861],[37.8485,49.245918],[37.84811,49.246059],[37.848186,49.246081],[37.848147,49.246132],[37.847931,49.246203],[37.847946602739725,49.246237],[37.847946,49.246237],[37.848094,49.246557],[37.848151,49.246622],[37.848674,49.246403],[37.84882,49.246305],[37.849693,49.246109],[37.849581,49.245769],[37.84972,49.24551],[37.849675,49.245294],[37.847986,49.24543747419355],[37.847986,49.245437],[37.847046,49.245516]]]}},{"type":"Feature","properties":{"cadnum":"6321082009:01:001:0251"},"geometry":{"type":"Polygon","coordinates":[[[37.844452,49.247699],[37.843612,49.246812],[37.84236340706857,49.24703831351352],[37.84112,49.247262],[37.842067,49.248092],[37.842321,49.248050262910795],[37.842321,49.248051],[37.844452,49.247699]]]}},{"type":"Feature","properties":{"cadnum":"6321082009:01:001:0264"},"geometry":{"type":"Polygon","coordinates":[[[37.848859,49.246986],[37.848702,49.246447],[37.847986,49.24674728410372],[37.847986,49.246747],[37.847721,49.246857],[37.847439,49.246584],[37.847309,49.246487],[37.846349,49.246622],[37.846408,49.246881],[37.846798,49.246849],[37.847144,49.247255],[37.847815,49.247149807600955],[37.847815,49.24715],[37.848859,49.246986]]]}},{"type":"Feature","properties":{"cadnum":"6321082009:01:001:0281"},"geometry":{"type":"Polygon","coordinates":[[[37.850082,49.246142],[37.849716,49.246154],[37.849746326923075,49.246237],[37.849746,49.246237],[37.849773,49.24631],[37.849542,49.246349],[37.84954487096773,49.246349],[37.849229,49.246403],[37.84921181818182,49.246349],[37.849212,49.246349],[37.849187,49.246271],[37.848858,49.246344],[37.84885,49.246349],[37.848850427184466,49.246349],[37.848702,49.246447],[37.848859,49.246986],[37.849655,49.246855],[37.849711,49.246966],[37.85036,49.2468],[37.850123,49.246237],[37.85012238647343,49.246237],[37.850082,49.246142]]]}},{"type":"Feature","properties":{"cadnum":"6321082009:01:001:0252"},"geometry":{"type":"Polygon","coordinates":[[[37.844452,49.247699],[37.847144,49.247255],[37.846798,49.246849],[37.845967,49.246918],[37.845767,49.246422],[37.843612,49.246812],[37.844452,49.247699]]]}},{"type":"Feature","properties":{"cadnum":"6321082009:01:001:0001"},"geometry":{"type":"Polygon","coordinates":[[[37.856682,49.242392],[37.857225,49.242183],[37.857521,49.242079],[37.857319,49.241714],[37.857016,49.24191],[37.85687,49.242004],[37.856478,49.242104],[37.856682,49.242392]]]}},{"type":"Feature","properties":{"cadnum":"6321082009:01:001:0272"},"geometry":{"type":"Polygon","coordinates":[[[37.855058,49.242127],[37.856305,49.241803],[37.855947,49.241178],[37.85585,49.24102],[37.854662,49.241296],[37.855058,49.242127]]]}},{"type":"Feature","properties":{"cadnum":"6321082009:01:001:0006"},"geometry":{"type":"Polygon","coordinates":[[[37.856478,49.242104],[37.85687,49.242004],[37.857319,49.241714],[37.856922,49.240963],[37.855947,49.241178],[37.856478,49.242104]]]}},{"type":"Feature","properties":{"cadnum":"6321082009:01:001:0255"},"geometry":{"type":"Polygon","coordinates":[[[37.857479,49.241691],[37.858224,49.241524],[37.857528,49.240696],[37.856942,49.240831],[37.857479,49.241691]]]}},{"type":"Feature","properties":{"cadnum":"6321082009:01:001:0263"},"geometry":{"type":"Polygon","coordinates":[[[37.85229,49.244277],[37.85242,49.244243],[37.852334,49.243823],[37.852411,49.243753],[37.852325,49.243381],[37.85179,49.243539],[37.851965,49.244113],[37.85229,49.244277]]]}},{"type":"Feature","properties":{"cadnum":"6321082009:01:001:0005"},"geometry":{"type":"Polygon","coordinates":[[[37.850227,49.244404],[37.850561,49.244355],[37.850675,49.244288],[37.850931,49.244236],[37.851323,49.244371],[37.851071,49.243448],[37.851016,49.243456],[37.850583,49.243474],[37.850615,49.243806],[37.850363,49.243881],[37.84984,49.243985],[37.849763,49.243729],[37.84975,49.243597],[37.849339,49.243709],[37.849278,49.243869],[37.849291,49.243967],[37.849364,49.244052],[37.849874,49.244359],[37.849948,49.244352],[37.850227,49.244404]]]}},{"type":"Feature","properties":{"cadnum":"6321082009:01:001:0004"},"geometry":{"type":"Polygon","coordinates":[[[37.848906,49.244731],[37.84906,49.244699],[37.84922,49.244552],[37.849296,49.244328],[37.849514,49.244322],[37.849445,49.244134],[37.849354,49.244058],[37.849279,49.243971],[37.849264,49.24387],[37.849326,49.243707],[37.849221,49.243813],[37.848682,49.243891],[37.848717,49.244253],[37.849215,49.24432],[37.849166,49.244419],[37.848857,49.244466],[37.848895,49.244676],[37.848906,49.244731]]]}},{"type":"Feature","properties":{"cadnum":"6321082009:01:001:0269"},"geometry":{"type":"Polygon","coordinates":[[[37.851245,49.246072],[37.852456,49.246025],[37.852453,49.246021],[37.852038,49.245086],[37.850693,49.245468],[37.850951,49.246052],[37.851228,49.246071],[37.851245,49.246072]]]}},{"type":"Feature","properties":{"cadnum":"6321082009:01:001:0011"},"geometry":{"type":"Polygon","coordinates":[[[37.849398,49.244923],[37.849995,49.244858],[37.850054,49.244659],[37.849943,49.244262],[37.849205,49.244383],[37.849398,49.244923]]]}},{"type":"Feature","properties":{"cadnum":"6321082009:01:001:0010"},"geometry":{"type":"Polygon","coordinates":[[[37.849205,49.244383],[37.849943,49.244262],[37.849893,49.244083],[37.849803,49.243874],[37.84906,49.243989],[37.84918,49.244313],[37.849205,49.244383]]]}},{"type":"Feature","properties":{"cadnum":"6321082009:01:001:0003"},"geometry":{"type":"Polygon","coordinates":[[[37.850064,49.244742],[37.851104,49.24461],[37.851053,49.244439],[37.849942,49.244533],[37.850064,49.244742]]]}},{"type":"Feature","properties":{"cadnum":"6321082009:01:001:0002"},"geometry":{"type":"Polygon","coordinates":[[[37.84984,49.243985],[37.850363,49.243881],[37.850615,49.243806],[37.850583,49.243474],[37.84975,49.243597],[37.849763,49.243729],[37.84984,49.243985]]]}}]}