{"type":"FeatureCollection","features":[{"type":"Feature","properties":{"cadnum":"6321881001:00:000:0184"},"geometry":{"type":"Polygon","coordinates":[[[37.842486,49.883164],[37.842423,49.883104],[37.842362,49.883045],[37.841974,49.882949],[37.841451,49.883204],[37.841788,49.883514],[37.842059,49.883398],[37.842321,49.88325442154567],[37.842321,49.883255],[37.842486,49.883164]]]}},{"type":"Feature","properties":{"cadnum":"6321881001:00:000:0013"},"geometry":{"type":"Polygon","coordinates":[[[37.832255,49.885702],[37.832462,49.885586],[37.832207,49.885367],[37.831983,49.885478],[37.832255,49.885702]]]}},{"type":"Feature","properties":{"cadnum":"6321881001:00:000:0177"},"geometry":{"type":"Polygon","coordinates":[[[37.833997,49.887459],[37.833903,49.887271],[37.833832,49.887206],[37.833209,49.887368],[37.83340361926606,49.887501],[37.833403,49.887501],[37.833528,49.887586],[37.833561,49.887612],[37.833561714285715,49.887612],[37.833764,49.887768],[37.833876,49.887851],[37.83406,49.887735],[37.834102,49.887708],[37.834259,49.887605],[37.833997,49.887459]]]}},{"type":"Feature","properties":{"cadnum":"6321881001:00:000:0103"},"geometry":{"type":"Polygon","coordinates":[[[37.831507,49.884469],[37.831484,49.88445],[37.831453,49.884422],[37.831217,49.884547],[37.83149351162439,49.884755813950825],[37.831548,49.884797],[37.832207,49.885367],[37.832247,49.885401],[37.832483,49.885287],[37.8318,49.884713],[37.831507,49.88446914240507],[37.831507,49.884469]]]}},{"type":"Feature","properties":{"cadnum":"6321881001:00:000:0012"},"geometry":{"type":"Polygon","coordinates":[[[37.831507,49.88508867901235],[37.831983,49.885478],[37.832207,49.885367],[37.831548,49.884797],[37.831507,49.88476600938967],[37.831507,49.884766],[37.83149351162439,49.884755813950825],[37.831335,49.884636],[37.831335,49.88463611034483],[37.831217,49.884547],[37.830977,49.884666],[37.831328,49.884942],[37.831335,49.88494774860336],[37.831335,49.884948],[37.83141054404079,49.88500978756423],[37.831507,49.885089],[37.831507,49.88508867901235]]]}},{"type":"Feature","properties":{"cadnum":"6321881001:00:000:0138"},"geometry":{"type":"Polygon","coordinates":[[[37.832943,49.883735],[37.832589,49.883896],[37.83266029927007,49.883962],[37.832659,49.883962],[37.832737,49.884033],[37.832783,49.884073],[37.832784446300714,49.884073],[37.833234,49.884452],[37.833599,49.884278],[37.833229,49.883963],[37.832943,49.883735]]]}},{"type":"Feature","properties":{"cadnum":"6321881001:00:000:0219"},"geometry":{"type":"Polygon","coordinates":[[[37.837,49.88524650170649],[37.837149,49.885455],[37.837268,49.885592],[37.837331,49.885664],[37.837469,49.885797],[37.837703,49.885662],[37.837508,49.88535],[37.837477,49.885301],[37.837351,49.884984],[37.836856,49.885045],[37.837,49.885247],[37.837,49.88524650170649]]]}},{"type":"Feature","properties":{"cadnum":"6321881001:00:000:0119"},"geometry":{"type":"Polygon","coordinates":[[[37.832613,49.884874],[37.832919,49.884715],[37.832372,49.884281],[37.832342,49.884258],[37.832246,49.884168],[37.832126,49.884054],[37.832069,49.884079],[37.832062,49.884073],[37.832028,49.884091],[37.832031,49.884097],[37.831981,49.884121],[37.831971,49.884119],[37.831847,49.884183],[37.831853,49.884187],[37.831981,49.884322],[37.832173,49.884503],[37.832613,49.884874]]]}},{"type":"Feature","properties":{"cadnum":"6321881001:00:000:0014"},"geometry":{"type":"Polygon","coordinates":[[[37.832624,49.885407],[37.832779,49.885343],[37.8319,49.884578],[37.831614,49.884346],[37.831453,49.884422],[37.831484,49.88445],[37.8318,49.884713],[37.832624,49.885407]]]}},{"type":"Feature","properties":{"cadnum":"6321881001:00:000:0131"},"geometry":{"type":"Polygon","coordinates":[[[37.832463,49.884066],[37.832384,49.883991],[37.832342,49.883958],[37.832333043478265,49.883962],[37.832332,49.883962],[37.832136,49.88405],[37.832126,49.884054],[37.832145,49.884073],[37.832146,49.884073],[37.832246,49.884168],[37.832342,49.884258],[37.832372,49.884281],[37.832919,49.884715],[37.833407,49.885101],[37.833577,49.885045],[37.832694,49.884276],[37.832549,49.88415],[37.832483,49.88409],[37.832458,49.884071],[37.832463,49.884066]]]}},{"type":"Feature","properties":{"cadnum":"6321881001:00:000:0114"},"geometry":{"type":"Polygon","coordinates":[[[37.831507,49.885622],[37.831507,49.88562074820144],[37.831727,49.885506],[37.831507,49.885346612244895],[37.831507,49.885346],[37.83123,49.885145],[37.831123,49.885058],[37.831094,49.885042],[37.831078,49.885048],[37.830993,49.884982],[37.830962,49.884959],[37.830749,49.884785],[37.830517,49.884915],[37.830524,49.884923],[37.830933,49.885243],[37.831267,49.885508],[37.831335,49.885561428571435],[37.831335,49.885562],[37.831449,49.885651],[37.831507,49.885622]]]}},{"type":"Feature","properties":{"cadnum":"6321881001:00:000:0015"},"geometry":{"type":"Polygon","coordinates":[[[37.83443,49.884063],[37.833846,49.883615],[37.8336,49.883444],[37.833306,49.883574],[37.833638,49.883854],[37.833942,49.884073],[37.833943306722695,49.884073],[37.834121,49.8842],[37.834407445255465,49.884073],[37.834408,49.884073],[37.83443,49.884063]]]}},{"type":"Feature","properties":{"cadnum":"6321881001:00:000:0170"},"geometry":{"type":"Polygon","coordinates":[[[37.831507,49.884015655999995],[37.83152,49.884009],[37.831477379747106,49.88397213924074],[37.831247,49.883771],[37.830787,49.883339],[37.830467,49.883479],[37.830978,49.883945],[37.8309981875,49.883962],[37.830997,49.883962],[37.83106957377038,49.884022114753996],[37.83113,49.884073],[37.83113100518135,49.884073],[37.83123,49.884155],[37.831335,49.8841025],[37.831335,49.884103],[37.831342,49.884099],[37.83139,49.884075],[37.8313939661017,49.884073],[37.831394,49.884073],[37.831395,49.884073],[37.83146158878454,49.884038906542315],[37.831507,49.884016],[37.831507,49.884015655999995]]]}},{"type":"Feature","properties":{"cadnum":"6321881001:00:000:0110"},"geometry":{"type":"Polygon","coordinates":[[[37.833638,49.883854],[37.833306,49.883574],[37.832943,49.883735],[37.83322774561403,49.883962],[37.833227,49.883962],[37.833229,49.883963],[37.833356,49.884073],[37.83335785714286,49.884073],[37.833639,49.884313],[37.833984,49.884102],[37.833788,49.883962],[37.833787917808216,49.883962],[37.833638,49.883854]]]}},{"type":"Feature","properties":{"cadnum":"6321881001:00:000:0205"},"geometry":{"type":"Polygon","coordinates":[[[37.841848,49.883678],[37.841801,49.883705],[37.841915,49.883851],[37.841787000000004,49.883962],[37.841786,49.883962],[37.841426,49.884276],[37.841061,49.884197],[37.840375,49.88468],[37.841448,49.885105],[37.84205,49.884817],[37.842317,49.885064],[37.842321,49.885062340909094],[37.842321,49.885064],[37.842965,49.884792],[37.842504,49.884247],[37.842342,49.884191],[37.84212,49.883962],[37.84211977721518,49.883962],[37.841848,49.883678]]]}},{"type":"Feature","properties":{"cadnum":"6321881001:00:000:0233"},"geometry":{"type":"Polygon","coordinates":[[[37.840715,49.883888],[37.841055,49.883857],[37.841176,49.8838],[37.841185,49.883794],[37.841285,49.883748],[37.841155,49.883633],[37.841147,49.883625],[37.841124,49.883606],[37.841057,49.883548],[37.841037,49.883556],[37.84089,49.883622],[37.840827,49.883649],[37.840306,49.883761],[37.839867,49.883885],[37.839946867021276,49.883962],[37.839946,49.883962],[37.839995951613034,49.884009322580766],[37.840062,49.884073],[37.84006316666667,49.884073],[37.840098,49.884106],[37.840191041666664,49.884073],[37.840192,49.884073],[37.840715,49.883888]]]}},{"type":"Feature","properties":{"cadnum":"6321881001:00:000:0244"},"geometry":{"type":"Polygon","coordinates":[[[37.793637,49.890531],[37.793465,49.890183],[37.793010650558045,49.89036021189575],[37.791862,49.890806],[37.79126345994066,49.89104],[37.791263,49.89104],[37.791,49.891143],[37.791284,49.890559],[37.790675,49.890521],[37.790388314285714,49.89104],[37.790388,49.89104],[37.790340464285755,49.89112662499993],[37.790327,49.891151],[37.79032708843537,49.891151],[37.790146,49.891481],[37.791331,49.891582],[37.791703,49.891521],[37.792341461538456,49.891151],[37.792342,49.891151],[37.792824,49.890873],[37.793055,49.890776],[37.793055,49.89077568700265],[37.793637,49.890531]]]}},{"type":"Feature","properties":{"cadnum":"6321881001:00:000:0231"},"geometry":{"type":"Polygon","coordinates":[[[37.794883,49.892763],[37.794854,49.892471],[37.794791,49.892375],[37.794734,49.892108],[37.794683,49.891442],[37.792927,49.891511],[37.792927,49.892188],[37.792886,49.892828],[37.793055,49.892829],[37.793055,49.8928281791203],[37.794773,49.89283],[37.794883,49.892763]]]}},{"type":"Feature","properties":{"cadnum":"6321881001:00:000:0226"},"geometry":{"type":"Polygon","coordinates":[[[37.793010650558045,49.89036021189575],[37.793055,49.890343],[37.793055,49.89034291408935],[37.793465,49.890183],[37.793564,49.889784],[37.79301555627286,49.88970507564572],[37.792802,49.889673],[37.792179,49.889387],[37.791267,49.88914],[37.791134,49.88911],[37.791323,49.889634],[37.791418,49.890073],[37.791284,49.890559],[37.79105008904109,49.89104],[37.79105,49.89104],[37.791,49.891143],[37.791862,49.890806],[37.792883,49.890409752724224],[37.792883,49.89041],[37.793010650558045,49.89036021189575]]]}},{"type":"Feature","properties":{"cadnum":"6321881001:00:000:0200"},"geometry":{"type":"Polygon","coordinates":[[[37.800165,49.89045],[37.800165,49.890365],[37.799295,49.890357],[37.799221,49.890423],[37.799013,49.890447],[37.79903826988636,49.89104],[37.799037,49.89104],[37.799083,49.892088],[37.799153,49.892545],[37.799995,49.89247],[37.80001,49.892347],[37.80010608263198,49.891151],[37.800107,49.891151],[37.800165,49.89045]]]}},{"type":"Feature","properties":{"cadnum":"6321881001:00:000:0208"},"geometry":{"type":"Polygon","coordinates":[[[37.802221,49.892379],[37.803869,49.89228663956044],[37.803869,49.892287],[37.804301,49.892262],[37.804253,49.891904],[37.803869,49.891858],[37.803869,49.89185811714508],[37.801463,49.891566],[37.800917,49.891578],[37.800723,49.891747],[37.80053,49.891778],[37.800459,49.892144],[37.800468,49.892477],[37.802221,49.892379]]]}},{"type":"Feature","properties":{"cadnum":"6321881001:00:000:0122"},"geometry":{"type":"Polygon","coordinates":[[[37.81849,49.890931],[37.818246,49.890896],[37.818242,49.890909],[37.818172,49.890922],[37.81816,49.890906],[37.817778,49.890917],[37.817862,49.891042],[37.817913,49.891151],[37.81791428455284,49.891151],[37.818039,49.891411],[37.818675,49.891332],[37.81854584134569,49.891052634614375],[37.81849,49.890931]]]}},{"type":"Feature","properties":{"cadnum":"6321881001:00:000:0142"},"geometry":{"type":"Polygon","coordinates":[[[37.816797,49.89102],[37.816637952380994,49.89104],[37.816637,49.89104],[37.81663,49.891041],[37.816571,49.891047],[37.816482,49.891058],[37.816496,49.891151],[37.81649690207715,49.891151],[37.816536,49.891395],[37.816685,49.892005],[37.816977,49.89199],[37.816866,49.891306],[37.81685,49.891227],[37.81680405128198,49.89104799145268],[37.816797,49.89102]]]}},{"type":"Feature","properties":{"cadnum":"6321881001:00:000:0176"},"geometry":{"type":"Polygon","coordinates":[[[37.815628,49.891039],[37.815812,49.891012],[37.815654,49.890581],[37.815106,49.890632],[37.815102,49.890911],[37.815126,49.891151],[37.8151276519337,49.891151],[37.815135,49.891221],[37.815517,49.891053],[37.815628,49.891039]]]}},{"type":"Feature","properties":{"cadnum":"6321881001:00:000:0150"},"geometry":{"type":"Polygon","coordinates":[[[37.819482,49.891121],[37.819482,49.891102],[37.819366,49.89108],[37.819167,49.891043],[37.819166,49.891134],[37.819163,49.891151],[37.81916365517242,49.891151],[37.819162,49.891163],[37.819198,49.89127],[37.819064,49.891304],[37.8195,49.89187],[37.819908,49.891755],[37.819693,49.891528],[37.819575,49.891384],[37.819524,49.891287],[37.819489,49.891271],[37.819486,49.891231],[37.81948,49.891135],[37.819482,49.891121]]]}},{"type":"Feature","properties":{"cadnum":"6321881001:00:000:0214"},"geometry":{"type":"Polygon","coordinates":[[[37.817284,49.893546],[37.817778,49.893416],[37.817653,49.893269],[37.817701,49.893252],[37.817831,49.893229],[37.81794,49.893373],[37.818672,49.893181],[37.818552,49.892823],[37.818294,49.892164],[37.817872,49.892207],[37.818063,49.892772],[37.817409,49.892909],[37.817355,49.89292],[37.816879,49.892283],[37.816645,49.892379],[37.816984,49.893008],[37.817284,49.893546]]]}},{"type":"Feature","properties":{"cadnum":"6321881001:00:000:0158"},"geometry":{"type":"Polygon","coordinates":[[[37.794685,49.889371],[37.794624,49.888941],[37.794612,49.888876],[37.794274,49.888867],[37.794232,49.888529],[37.793839,49.88853],[37.793853,49.888945],[37.793857,49.889192],[37.793996,49.889204],[37.794176,49.889292],[37.79437,49.889295],[37.794685,49.889371]]]}},{"type":"Feature","properties":{"cadnum":"6321881001:00:000:0144"},"geometry":{"type":"Polygon","coordinates":[[[37.797406,49.887557],[37.797427,49.887501],[37.79742632258065,49.887501],[37.797496,49.887309],[37.797296,49.88729],[37.797102,49.887274],[37.79703954142012,49.887501],[37.797039,49.887501],[37.79702756249992,49.88754453629062],[37.797009,49.887612],[37.79700983898305,49.887612],[37.797008,49.887619],[37.796849,49.887599],[37.796845,49.887612],[37.79684578494624,49.887612],[37.796757,49.887971],[37.797126,49.888053],[37.79737495161291,49.887612],[37.797376,49.887612],[37.797406,49.887557]]]}},{"type":"Feature","properties":{"cadnum":"6321881001:00:000:0160"},"geometry":{"type":"Polygon","coordinates":[[[37.79899,49.88807],[37.799139,49.887888],[37.799226,49.887684],[37.799232,49.887671],[37.798868,49.887601],[37.798785,49.887738],[37.798695,49.887869],[37.798608,49.887981],[37.798426926828895,49.88820656097607],[37.798361,49.888288],[37.798376,49.88829305347594],[37.798376,49.888294],[37.798518911110996,49.888341199999964],[37.798548,49.888351],[37.798548,49.88835080733945],[37.798703,49.888402],[37.79899,49.88807]]]}},{"type":"Feature","properties":{"cadnum":"6321881001:00:000:0147"},"geometry":{"type":"Polygon","coordinates":[[[37.798284,49.887486],[37.79827495238096,49.887501],[37.798274,49.887501],[37.798240264150834,49.88755850943414],[37.798208,49.887612],[37.798208885826774,49.887612],[37.798125,49.887755],[37.797987,49.88792],[37.797543,49.888542],[37.797771,49.888624],[37.79821,49.888038],[37.798298,49.887907],[37.798383,49.887783],[37.798398,49.887751],[37.79854,49.887537],[37.798361,49.887501],[37.79835929411764,49.887501],[37.798284,49.887486]]]}},{"type":"Feature","properties":{"cadnum":"6321881001:00:000:0112"},"geometry":{"type":"Polygon","coordinates":[[[37.795469,49.887205],[37.795247,49.887196],[37.795178,49.887194],[37.795164,49.887194],[37.795163,49.887278],[37.79516,49.887385],[37.795165,49.887473],[37.795174,49.887612],[37.79517457929515,49.887612],[37.795198,49.887955],[37.795211,49.888426],[37.795408,49.888421],[37.795434,49.887964],[37.795458,49.887555],[37.795469,49.887205]]]}},{"type":"Feature","properties":{"cadnum":"6321881001:00:000:0198"},"geometry":{"type":"Polygon","coordinates":[[[37.845473,49.878582],[37.846189,49.878234],[37.845464,49.877601],[37.844675,49.877956],[37.845473,49.878582]]]}},{"type":"Feature","properties":{"cadnum":"6321881001:00:000:0029"},"geometry":{"type":"Polygon","coordinates":[[[37.844163,49.87894],[37.844438,49.878805],[37.844102,49.878535],[37.843945,49.878412],[37.843794,49.878486],[37.843359,49.87813],[37.843157,49.878228],[37.8432,49.878268],[37.843331,49.878386],[37.843626,49.878595],[37.844163,49.87894]]]}},{"type":"Feature","properties":{"cadnum":"6321881001:00:000:0139"},"geometry":{"type":"Polygon","coordinates":[[[37.8449,49.878938],[37.845048,49.87888],[37.844234,49.878173],[37.844113,49.878066],[37.844096,49.878051],[37.844062,49.878022],[37.844013,49.877981],[37.843964,49.877939],[37.843857,49.877844],[37.843558,49.877991],[37.843633,49.878049],[37.843693,49.878103],[37.84386,49.878255],[37.843907,49.878303],[37.844057,49.878238],[37.8449,49.878938]]]}},{"type":"Feature","properties":{"cadnum":"6321881001:00:000:0030"},"geometry":{"type":"Polygon","coordinates":[[[37.844998,49.879602],[37.845073,49.879544],[37.845099,49.879454],[37.845107,49.879346],[37.844438,49.878805],[37.844163,49.87894],[37.844414,49.8791],[37.844998,49.879602]]]}},{"type":"Feature","properties":{"cadnum":"6321881001:00:000:0224"},"geometry":{"type":"Polygon","coordinates":[[[37.844392,49.87831],[37.844837,49.878083],[37.844675,49.877956],[37.844581,49.877881],[37.844452,49.877793],[37.844379,49.877747],[37.844259,49.877642],[37.844136,49.877697],[37.844081,49.877725],[37.844029,49.877754],[37.843978,49.877782],[37.843857,49.877844],[37.843964,49.877939],[37.844013,49.877981],[37.844062,49.878022],[37.844096,49.878051],[37.844113,49.878066],[37.844234,49.878173],[37.844392,49.87831]]]}},{"type":"Feature","properties":{"cadnum":"6321881001:00:000:0178"},"geometry":{"type":"Polygon","coordinates":[[[37.847815,49.87647],[37.847815,49.87647008778626],[37.8472,49.876679],[37.84729,49.876812],[37.84706917127071,49.876882],[37.847069,49.876882],[37.84703969863067,49.87689134246558],[37.846719,49.876993],[37.84672086363637,49.876993],[37.846655,49.877014],[37.846354,49.877073],[37.845831,49.877329],[37.846275,49.877742],[37.846791,49.877576],[37.847167,49.877754],[37.847305,49.87788],[37.847815,49.87770026431718],[37.847815,49.877701],[37.849026,49.877275],[37.84877844274809,49.876993],[37.848779,49.876993],[37.848205,49.876337],[37.847815,49.87647]]]}},{"type":"Feature","properties":{"cadnum":"6321881001:00:000:0183"},"geometry":{"type":"Polygon","coordinates":[[[37.792902,49.887326],[37.792918,49.886926],[37.792672,49.886872],[37.792636,49.887023],[37.792624,49.887163],[37.792615,49.887162],[37.792623,49.887475],[37.79262812408759,49.887501],[37.792627,49.887501],[37.79264957591625,49.887609848167635],[37.79265,49.887612],[37.792650022222226,49.887612],[37.792711,49.887906],[37.792725,49.888019],[37.792966,49.888071],[37.792934,49.887616],[37.79292883371295,49.88757356264206],[37.792902,49.887326]]]}},{"type":"Feature","properties":{"cadnum":"6321881001:00:000:0133"},"geometry":{"type":"Polygon","coordinates":[[[37.791496,49.887157],[37.791496,49.887099],[37.791528,49.886866],[37.791589,49.886871],[37.791605,49.886791],[37.791614,49.886739],[37.791628,49.886738],[37.791648,49.886655],[37.791366,49.886597],[37.791244,49.886921],[37.791162,49.887147],[37.79105742857143,49.887501],[37.791056,49.887501],[37.79104,49.88756],[37.791374,49.887632],[37.791408,49.887501],[37.79140678681319,49.887501],[37.791496,49.887157]]]}},{"type":"Feature","properties":{"cadnum":"6321881001:00:000:0022"},"geometry":{"type":"Polygon","coordinates":[[[37.837,49.88178214587332],[37.837497,49.882365],[37.837687,49.88226],[37.837209,49.881617],[37.836836,49.881287],[37.836632,49.881401],[37.836828,49.88160212790697],[37.836828,49.881603],[37.836976,49.881754],[37.837,49.881783],[37.837,49.88178214587332]]]}},{"type":"Feature","properties":{"cadnum":"6321881001:00:000:0182"},"geometry":{"type":"Polygon","coordinates":[[[37.831507,49.883707489361704],[37.831739,49.8839],[37.831782,49.88388],[37.831831,49.883854],[37.831957,49.883788],[37.831819,49.88366],[37.831767,49.883615],[37.83174,49.883591],[37.83169,49.88355],[37.831507,49.883372154929575],[37.831507,49.883372],[37.831393652177475,49.883262000003455],[37.831335,49.883205],[37.831335,49.88320508016878],[37.831033,49.882912],[37.830789,49.883017],[37.831335,49.883548342281884],[37.831335,49.88355],[37.831385,49.883597],[37.831457,49.883666],[37.831507,49.883708],[37.831507,49.883707489361704]]]}},{"type":"Feature","properties":{"cadnum":"6321881001:00:000:0239"},"geometry":{"type":"Polygon","coordinates":[[[37.831507,49.883106],[37.831188,49.882809],[37.831131,49.882757],[37.830978,49.882616],[37.830808,49.882697],[37.831033,49.882912],[37.831393652177475,49.883262000003455],[37.83169,49.88355],[37.83174,49.883591],[37.831767,49.883615],[37.831819,49.88366],[37.831957,49.883788],[37.832187,49.883672],[37.831969,49.883506],[37.831876,49.883433],[37.831638,49.883228],[37.831507,49.88310651155116],[37.831507,49.883106]]]}},{"type":"Feature","properties":{"cadnum":"6321881001:00:000:0227"},"geometry":{"type":"Polygon","coordinates":[[[37.835164,49.883513],[37.835488,49.88339],[37.835265,49.88312],[37.835208,49.883066],[37.835159,49.883024],[37.835039,49.8829],[37.834973,49.882826],[37.834927,49.882776],[37.834892,49.882738],[37.834803,49.882638],[37.834637,49.882718],[37.834653,49.882755],[37.834611,49.882776],[37.834585,49.882787],[37.834633,49.88291],[37.834674,49.882961],[37.834705,49.882993],[37.834935,49.883259],[37.835146,49.883493],[37.835164,49.883513]]]}},{"type":"Feature","properties":{"cadnum":"6321881001:00:000:0223"},"geometry":{"type":"Polygon","coordinates":[[[37.831507,49.882796],[37.831418,49.882714],[37.831354,49.882656],[37.831131,49.882757],[37.831188,49.882809],[37.831335,49.88294586206897],[37.831335,49.882947],[37.831638,49.883228],[37.831876,49.883433],[37.831969,49.883506],[37.832187,49.883672],[37.832216,49.883653],[37.832278,49.883622],[37.832399,49.883558],[37.832085,49.883313],[37.831835,49.883101],[37.831672,49.882949],[37.831507,49.88279634251969],[37.831507,49.882796]]]}},{"type":"Feature","properties":{"cadnum":"6321881001:00:000:0215"},"geometry":{"type":"Polygon","coordinates":[[[37.832602,49.883449],[37.832686,49.883406],[37.832833,49.883329],[37.832478,49.882997],[37.831937,49.882544],[37.831692,49.882641],[37.832188,49.88311],[37.832315,49.883227],[37.832333,49.883241],[37.832441,49.883323],[37.832602,49.883449]]]}},{"type":"Feature","properties":{"cadnum":"6321881001:00:000:0203"},"geometry":{"type":"Polygon","coordinates":[[[37.831507,49.883997756756756],[37.83152,49.884009],[37.83156,49.883989],[37.831613,49.883964],[37.831739,49.8839],[37.831457,49.883666],[37.831385,49.883597],[37.830789,49.883017],[37.830738,49.882973],[37.830497,49.883068],[37.830787,49.883339],[37.831237,49.883763],[37.831247,49.883771],[37.831285,49.883805],[37.831335,49.88384846846847],[37.831335,49.883849],[37.83145300000028,49.8839510540543],[37.831507,49.883998],[37.831507,49.883997756756756]]]}},{"type":"Feature","properties":{"cadnum":"6321881001:00:000:0020"},"geometry":{"type":"Polygon","coordinates":[[[37.836025,49.882916],[37.836249,49.882804],[37.836009,49.882552],[37.835763,49.882323],[37.835719,49.882258],[37.835515,49.882075],[37.835281,49.882193],[37.835829,49.882707],[37.836025,49.882916]]]}},{"type":"Feature","properties":{"cadnum":"6321881001:00:000:0197"},"geometry":{"type":"Polygon","coordinates":[[[37.835743,49.883698],[37.836358,49.883464],[37.835871,49.882879],[37.835265,49.88312],[37.835743,49.883698]]]}},{"type":"Feature","properties":{"cadnum":"6321881001:00:000:0152"},"geometry":{"type":"Polygon","coordinates":[[[37.836532,49.882782],[37.83671,49.882687],[37.836408,49.882407],[37.836154,49.882037],[37.835942,49.881719],[37.835737,49.881828],[37.835665,49.881866],[37.835741,49.881951],[37.835876,49.882073],[37.836014,49.882198],[37.836003,49.882216],[37.835987,49.882244],[37.836077,49.882318],[37.836532,49.882782]]]}},{"type":"Feature","properties":{"cadnum":"6321881001:00:000:0021"},"geometry":{"type":"Polygon","coordinates":[[[37.836387,49.882949],[37.83641,49.882936],[37.836588,49.882839],[37.836077,49.882318],[37.835987,49.882244],[37.836003,49.882216],[37.836014,49.882198],[37.835971,49.882159],[37.835741,49.881951],[37.835515,49.882075],[37.835719,49.882258],[37.835763,49.882323],[37.836009,49.882552],[37.836249,49.882804],[37.836387,49.882949]]]}},{"type":"Feature","properties":{"cadnum":"6321881001:00:000:0240"},"geometry":{"type":"Polygon","coordinates":[[[37.832833,49.883329],[37.833061,49.883211],[37.83295,49.883089],[37.832612,49.88281],[37.832251,49.882518],[37.832028,49.88262],[37.832478,49.882997],[37.832833,49.883329]]]}},{"type":"Feature","properties":{"cadnum":"6321881001:00:000:0126"},"geometry":{"type":"Polygon","coordinates":[[[37.812865,49.890979],[37.812863,49.890899],[37.812435,49.890904],[37.812035,49.890917],[37.812044069124426,49.89104],[37.812043,49.89104],[37.812051,49.891134],[37.812058,49.891151],[37.812058504184094,49.891151],[37.812262,49.891612],[37.812277,49.891644],[37.812978,49.8916],[37.812943,49.891287],[37.81289260000003,49.89108940000012],[37.812865,49.890979]]]}},{"type":"Feature","properties":{"cadnum":"6321881001:00:000:0042"},"geometry":{"type":"Polygon","coordinates":[[[37.814743,49.887494],[37.814748,49.887371],[37.814672,49.887132],[37.814434,49.887157],[37.814497392953925,49.887501],[37.814496,49.887501],[37.814502,49.887526],[37.814488,49.887612],[37.81448920661157,49.887612],[37.814484,49.887647],[37.814422,49.887951],[37.814275,49.888535],[37.814481,49.888513],[37.81464,49.887949],[37.814715223214286,49.887612],[37.814716,49.887612],[37.814743,49.887494]]]}},{"type":"Feature","properties":{"cadnum":"6321881001:00:000:0229"},"geometry":{"type":"Polygon","coordinates":[[[37.809954,49.888829],[37.810062,49.888599],[37.810103,49.888512],[37.809762,49.88843],[37.809739,49.888474],[37.809538,49.888851],[37.809438,49.889027],[37.809834,49.889069],[37.809954,49.888829]]]}},{"type":"Feature","properties":{"cadnum":"6321881001:00:000:0043"},"geometry":{"type":"Polygon","coordinates":[[[37.814339,49.889022],[37.814481,49.888513],[37.814275,49.888535],[37.814153,49.889019],[37.814339,49.889022]]]}},{"type":"Feature","properties":{"cadnum":"6321881001:00:000:0217"},"geometry":{"type":"Polygon","coordinates":[[[37.812841,49.889075],[37.813128,49.888103],[37.813223,49.887744],[37.812908,49.887723],[37.812869,49.888095],[37.812774,49.888502],[37.812485,49.889054],[37.812841,49.889075]]]}},{"type":"Feature","properties":{"cadnum":"6321881001:00:000:0235"},"geometry":{"type":"Polygon","coordinates":[[[37.810103,49.888512],[37.810134,49.888446],[37.810209,49.888247],[37.810284,49.888027],[37.810328,49.887922],[37.810343,49.887864],[37.810351,49.88762],[37.810333,49.887572],[37.810187,49.887589],[37.81013,49.887594],[37.809978,49.887609],[37.809966,49.88761],[37.809958,49.887612],[37.809985,49.887798],[37.809997,49.887823],[37.809991,49.887906],[37.809987,49.887925],[37.809981,49.887959],[37.809951,49.888042],[37.809888,49.88818],[37.809792,49.88837],[37.809762,49.88843],[37.810103,49.888512]]]}},{"type":"Feature","properties":{"cadnum":"6321881001:00:000:0044"},"geometry":{"type":"Polygon","coordinates":[[[37.814833,49.88837],[37.814625,49.888958],[37.814856,49.888968919999996],[37.814856,49.888969],[37.8149,49.888971],[37.815109,49.888237],[37.814896,49.888211],[37.814833,49.88837]]]}},{"type":"Feature","properties":{"cadnum":"6321881001:00:000:0188"},"geometry":{"type":"Polygon","coordinates":[[[37.813253,49.887446],[37.813203,49.887263],[37.813163,49.887267],[37.813111,49.887272],[37.812902,49.887295],[37.812938,49.88745],[37.812932018518524,49.887501],[37.812931,49.887501],[37.81292328658535,49.887575451219625],[37.812919,49.887612],[37.8129195,49.887612],[37.812908,49.887723],[37.813223,49.887744],[37.813268,49.887576],[37.813253,49.887446]]]}},{"type":"Feature","properties":{"cadnum":"6321881001:00:000:0035"},"geometry":{"type":"Polygon","coordinates":[[[37.821798,49.888228],[37.821997,49.888188],[37.822072,49.888074],[37.821871,49.888078],[37.821798,49.888228]]]}},{"type":"Feature","properties":{"cadnum":"6321881001:00:000:0146"},"geometry":{"type":"Polygon","coordinates":[[[37.822304,49.887191],[37.822346,49.8871],[37.822403,49.886789],[37.822178,49.886783],[37.822177,49.886798],[37.822166,49.887081],[37.822134,49.887114],[37.82193584245076,49.887501],[37.821935,49.887501],[37.8219,49.887571],[37.821863,49.887659],[37.821852,49.887684],[37.82206,49.887685],[37.82209570652174,49.887612],[37.822096,49.887612],[37.822304,49.887191]]]}},{"type":"Feature","properties":{"cadnum":"6321881001:00:000:0006"},"geometry":{"type":"Polygon","coordinates":[[[37.825697,49.886825],[37.825355,49.886877],[37.82546,49.887182],[37.82561801627907,49.887501],[37.825618,49.887501],[37.82561975000038,49.887504500000766],[37.825673,49.887612],[37.82567349999999,49.887612],[37.825736,49.887737],[37.826014,49.887683],[37.826014,49.88768195833333],[37.826034,49.887678],[37.826014,49.887627428571435],[37.826014,49.887627],[37.825964,49.887501],[37.82596366987952,49.887501],[37.825845,49.887197],[37.825697,49.886825]]]}},{"type":"Feature","properties":{"cadnum":"6321881001:00:000:0036"},"geometry":{"type":"Polygon","coordinates":[[[37.8219,49.887571],[37.822134,49.887114],[37.822166,49.887081],[37.822177,49.886798],[37.821855,49.886794],[37.821824,49.886961],[37.821793,49.887052],[37.82156763653846,49.887501],[37.821566,49.887501],[37.821532,49.887572],[37.821514,49.887612],[37.821514168674696,49.887612],[37.821495,49.887655],[37.821863,49.887659],[37.82188276136364,49.887612],[37.821883,49.887612],[37.8219,49.887571]]]}},{"type":"Feature","properties":{"cadnum":"6321881001:00:000:0033"},"geometry":{"type":"Polygon","coordinates":[[[37.822759,49.887201],[37.822819,49.886785],[37.822638,49.886785],[37.822611,49.887096],[37.822537,49.887226],[37.82234,49.887612],[37.82234056460674,49.887612],[37.822216,49.887857],[37.822108,49.888021],[37.822397,49.88802],[37.822441,49.887886],[37.822619,49.887501],[37.82261885401459,49.887501],[37.822759,49.887201]]]}},{"type":"Feature","properties":{"cadnum":"6321881001:00:000:0032"},"geometry":{"type":"Polygon","coordinates":[[[37.82346,49.887172],[37.823515,49.886984],[37.823541,49.886781],[37.823247,49.886785],[37.823199,49.887145],[37.823041201284795,49.887501],[37.82304,49.887501],[37.822861,49.887912],[37.823134,49.887908],[37.823314,49.887501],[37.823313445454545,49.887501],[37.82346,49.887172]]]}},{"type":"Feature","properties":{"cadnum":"6321881001:00:000:0007"},"geometry":{"type":"Polygon","coordinates":[[[37.824849,49.887257],[37.824524,49.887304],[37.82456045779221,49.887501],[37.82456,49.887501],[37.82456876271191,49.88754587570647],[37.824581,49.887612],[37.824581674556214,49.887612],[37.824626,49.887839],[37.824729,49.887824],[37.824937,49.887862],[37.825287,49.887847],[37.825031,49.887501],[37.82502976619718,49.887501],[37.824849,49.887257]]]}},{"type":"Feature","properties":{"cadnum":"6321881001:00:000:0031"},"geometry":{"type":"Polygon","coordinates":[[[37.823716,49.887174],[37.823742,49.886843],[37.82372,49.886778],[37.823541,49.886781],[37.823515,49.886984],[37.82346,49.887172],[37.823264,49.887612],[37.823264909090916,49.887612],[37.823134,49.887908],[37.823097,49.887993],[37.823397,49.887979],[37.823565646153305,49.88755247692444],[37.823716,49.887174]]]}},{"type":"Feature","properties":{"cadnum":"6321881001:00:000:0037"},"geometry":{"type":"Polygon","coordinates":[[[37.821619,49.888075],[37.821707,49.887837],[37.821785,49.887836],[37.821863,49.887659],[37.821495,49.887655],[37.821415,49.887839],[37.821308,49.888071],[37.821619,49.888075]]]}},{"type":"Feature","properties":{"cadnum":"6321881001:00:000:0034"},"geometry":{"type":"Polygon","coordinates":[[[37.822537,49.887226],[37.822611,49.887096],[37.822638,49.886785],[37.822403,49.886789],[37.822346,49.8871],[37.822304,49.887191],[37.82215084085511,49.887501],[37.82215,49.887501],[37.821992,49.887824],[37.821871,49.888078],[37.822072,49.888074],[37.822108,49.888021],[37.822216,49.887857],[37.822397,49.887501],[37.822396650259066,49.887501],[37.822537,49.887226]]]}},{"type":"Feature","properties":{"cadnum":"6321881001:00:000:0211"},"geometry":{"type":"Polygon","coordinates":[[[37.824347,49.89036],[37.824006,49.890389],[37.824064,49.890649],[37.824081,49.890728],[37.824119,49.890721],[37.82420208837209,49.89104],[37.824202,49.89104],[37.82420969268272,49.89106919512117],[37.824231,49.891151],[37.824231247619046,49.891151],[37.824285,49.891355],[37.824579,49.891331],[37.824509,49.89104],[37.8245077585335,49.89104],[37.824347,49.89036]]]}},{"type":"Feature","properties":{"cadnum":"6321881001:00:000:0140"},"geometry":{"type":"Polygon","coordinates":[[[37.824752,49.890782],[37.824719,49.890573],[37.824672,49.890333],[37.824347,49.89036],[37.824509477876106,49.89104],[37.824509,49.89104],[37.824593,49.891388],[37.824864,49.891372],[37.824848,49.891287],[37.824806457398985,49.89107322869891],[37.824752,49.890782]]]}},{"type":"Feature","properties":{"cadnum":"6321881001:00:000:0230"},"geometry":{"type":"Polygon","coordinates":[[[37.82052,49.89097940789474],[37.820579,49.891078],[37.820754,49.891043],[37.820809,49.891033],[37.820896,49.891017],[37.820806,49.890867],[37.820782,49.89083],[37.820771,49.890815],[37.820349,49.890234],[37.820349,49.890234875],[37.820304,49.890173],[37.820085,49.890229],[37.820503,49.890951],[37.82052,49.890981],[37.82052,49.89097940789474]]]}},{"type":"Feature","properties":{"cadnum":"6321881001:00:000:0201"},"geometry":{"type":"Polygon","coordinates":[[[37.823833,49.890778],[37.824054,49.890734],[37.82403,49.890645],[37.823974,49.890392],[37.823605,49.890421],[37.823633,49.890554],[37.82364,49.890577],[37.823653,49.890642],[37.823642,49.890644],[37.823653,49.890674],[37.823598,49.89079],[37.823665174515234,49.89104],[37.823665,49.89104],[37.823815,49.891599],[37.823999,49.891547],[37.823905851063486,49.8911176680835],[37.823833,49.890778]]]}},{"type":"Feature","properties":{"cadnum":"6321881001:00:000:0115"},"geometry":{"type":"Polygon","coordinates":[[[37.825084,49.890755],[37.825029,49.89054],[37.82502,49.890493],[37.824984,49.890316],[37.824672,49.890333],[37.824719,49.890573],[37.824752,49.890782],[37.82480024390244,49.89104],[37.8248,49.89104],[37.824806457398985,49.89107322869891],[37.824821,49.891151],[37.824821570850204,49.891151],[37.824848,49.891287],[37.825181,49.891262],[37.825138,49.89104],[37.825137977272725,49.89104],[37.825084,49.890755]]]}},{"type":"Feature","properties":{"cadnum":"6321881001:00:000:0236"},"geometry":{"type":"Polygon","coordinates":[[[37.821619,49.890992],[37.821545,49.891007],[37.821393553571454,49.89104],[37.821389,49.89104],[37.821288,49.891063],[37.821286,49.891088],[37.82131,49.891151],[37.82131023076923,49.891151],[37.821416,49.891426],[37.821733,49.892255],[37.821782,49.892336],[37.821962,49.892291],[37.821782,49.891791],[37.821682,49.89149],[37.821674,49.891326],[37.821634,49.891192],[37.821654,49.89119],[37.82164,49.891153],[37.82163329577462,49.89110565140824],[37.821619,49.890992]]]}},{"type":"Feature","properties":{"cadnum":"6321881001:00:000:0118"},"geometry":{"type":"Polygon","coordinates":[[[37.821992,49.891075],[37.822002,49.891071],[37.821963,49.890966],[37.821934,49.890906],[37.821619,49.890992],[37.82162503773585,49.89104],[37.821624,49.89104],[37.82163329577462,49.89110565140824],[37.821639,49.891151],[37.82163971681416,49.891151],[37.82164,49.891153],[37.821654,49.89119],[37.821634,49.891192],[37.821674,49.891326],[37.821682,49.89149],[37.821782,49.891791],[37.822165,49.891742],[37.82203,49.891312],[37.822022,49.891179],[37.821994,49.89109],[37.821992,49.891075]]]}},{"type":"Feature","properties":{"cadnum":"6321881001:00:000:0136"},"geometry":{"type":"Polygon","coordinates":[[[37.820959,49.891151],[37.82096017187499,49.891151],[37.820955,49.891152],[37.82111,49.891414],[37.821546,49.892286],[37.821733,49.892255],[37.821416,49.891426],[37.821286,49.891088],[37.820959,49.891151]]]}},{"type":"Feature","properties":{"cadnum":"6321881001:00:000:0199"},"geometry":{"type":"Polygon","coordinates":[[[37.824119,49.890721],[37.823833,49.890778],[37.82388919302949,49.89104],[37.823889,49.89104],[37.823904557788616,49.89111163818945],[37.823913,49.891151],[37.82391310606061,49.891151],[37.824061,49.891832],[37.824388,49.891747],[37.82421087939678,49.89107375125551],[37.824119,49.890721]],[[37.824247,49.891544],[37.824259,49.891522],[37.824293,49.891531],[37.82428,49.891552],[37.824247,49.891544]]]}},{"type":"Feature","properties":{"cadnum":"6321881001:00:000:0225"},"geometry":{"type":"Polygon","coordinates":[[[37.825905922536094,49.89067578873225],[37.826014,49.890659],[37.826014,49.89065852396166],[37.826468,49.890586],[37.826412,49.890385],[37.826362,49.890279],[37.826291,49.890121],[37.826069,49.890162],[37.826023,49.890171],[37.825949524752986,49.89018399009892],[37.825838,49.890203],[37.825755,49.890218],[37.825704,49.890229],[37.825686,49.890232],[37.825799,49.890655],[37.825808,49.890691],[37.825842,49.8906857184466],[37.825842,49.890686],[37.825905922536094,49.89067578873225]]]}},{"type":"Feature","properties":{"cadnum":"6321881001:00:000:0210"},"geometry":{"type":"Polygon","coordinates":[[[37.825081,49.890746],[37.825799,49.890655],[37.825686,49.890232],[37.824984,49.890316],[37.82502,49.890493],[37.825029,49.89054],[37.825081,49.890746]]]}},{"type":"Feature","properties":{"cadnum":"6321881001:00:000:0206"},"geometry":{"type":"Polygon","coordinates":[[[37.82372,49.890268],[37.824101,49.890194],[37.824548,49.890127],[37.824426,49.889813],[37.823983,49.889883],[37.823954,49.889803],[37.823545,49.889886],[37.82372,49.890268]]]}},{"type":"Feature","properties":{"cadnum":"6321881001:00:000:0137"},"geometry":{"type":"Polygon","coordinates":[[[37.823055,49.890352],[37.823123,49.890344],[37.823215,49.890334],[37.823291,49.890324],[37.823585,49.890287],[37.82372,49.890268],[37.823512,49.889817],[37.822866,49.889886],[37.822941,49.890037],[37.822961,49.890079],[37.823055,49.890352]]]}},{"type":"Feature","properties":{"cadnum":"6321881001:00:000:0124"},"geometry":{"type":"Polygon","coordinates":[[[37.823343,49.891038],[37.82324,49.890713],[37.823172,49.890452],[37.822701,49.890541],[37.82259,49.890603],[37.822727,49.890924],[37.822732,49.891026],[37.823343,49.891038]]]}},{"type":"Feature","properties":{"cadnum":"6321881001:00:000:0116"},"geometry":{"type":"Polygon","coordinates":[[[37.822521,49.891056],[37.822732,49.891026],[37.822727,49.890924],[37.82259,49.890603],[37.822348,49.890688],[37.822423,49.890854],[37.822481,49.890971],[37.822521,49.891056]]]}},{"type":"Feature","properties":{"cadnum":"6321881001:00:000:0222"},"geometry":{"type":"Polygon","coordinates":[[[37.822182,49.890578],[37.822199,49.890575],[37.822399,49.890503],[37.822378,49.89046],[37.822324,49.890355],[37.822191,49.89009],[37.822104,49.889928],[37.821883,49.88999],[37.822005,49.890221],[37.822124,49.890485],[37.822182,49.890578]]]}},{"type":"Feature","properties":{"cadnum":"6321881001:00:000:0220"},"geometry":{"type":"Polygon","coordinates":[[[37.821672,49.890849],[37.82195,49.890736],[37.821878,49.890634],[37.821871,49.890607],[37.821777,49.890489],[37.821765,49.890434],[37.821583,49.890124],[37.821446,49.889858],[37.82119,49.889917],[37.821443,49.890389],[37.821526,49.890599],[37.821572,49.890679],[37.821672,49.890849]]]}},{"type":"Feature","properties":{"cadnum":"6321881001:00:000:0193"},"geometry":{"type":"Polygon","coordinates":[[[37.840676,49.882952],[37.840907,49.882788],[37.840858,49.882756],[37.841271,49.882538],[37.841936,49.88294],[37.841974,49.882949],[37.842394,49.882726],[37.842406,49.882446],[37.841833,49.881938],[37.841041,49.882311],[37.840388,49.882737],[37.840582,49.882883],[37.840676,49.882952]]]}},{"type":"Feature","properties":{"cadnum":"6321881001:00:000:0028"},"geometry":{"type":"Polygon","coordinates":[[[37.840178,49.880529],[37.840241,49.880516],[37.840424,49.880585],[37.840551,49.880616],[37.840677,49.880611],[37.840382,49.880442],[37.840178,49.880529]]]}},{"type":"Feature","properties":{"cadnum":"6321881001:00:000:0024"},"geometry":{"type":"Polygon","coordinates":[[[37.838651,49.881604],[37.838835,49.88152],[37.838821,49.881504],[37.838328,49.880944],[37.838026,49.880656],[37.837807,49.880756],[37.838195,49.881058],[37.838651,49.881604]]]}},{"type":"Feature","properties":{"cadnum":"6321881001:00:000:0243"},"geometry":{"type":"Polygon","coordinates":[[[37.841525,49.883642],[37.841671,49.883566],[37.841726,49.883539],[37.841788,49.883514],[37.841451,49.883204],[37.841202,49.882974],[37.840924,49.882799],[37.840689,49.882962],[37.840712,49.882979],[37.840944,49.883147],[37.841017,49.883208],[37.841278,49.883438],[37.84142,49.883555],[37.841443,49.883579],[37.841525,49.883642]]]}},{"type":"Feature","properties":{"cadnum":"6321881001:00:000:0026"},"geometry":{"type":"Polygon","coordinates":[[[37.838998,49.881704],[37.839093,49.881506],[37.839025,49.881412],[37.838821,49.881504],[37.838835,49.88152],[37.838998,49.881704]]]}},{"type":"Feature","properties":{"cadnum":"6321881001:00:000:0023"},"geometry":{"type":"Polygon","coordinates":[[[37.837677,49.882576],[37.837866,49.882502],[37.837687,49.88226],[37.837497,49.882365],[37.837677,49.882576]]]}},{"type":"Feature","properties":{"cadnum":"6321881001:00:000:0105"},"geometry":{"type":"Polygon","coordinates":[[[37.83858,49.882247],[37.838737,49.882171],[37.838627,49.881865],[37.838322,49.88121],[37.838195,49.881058],[37.837807,49.880756],[37.837642,49.880835],[37.837666,49.880854],[37.837676,49.88085],[37.837748,49.880919],[37.837795,49.880949],[37.837814,49.880962],[37.837845,49.880994],[37.837947,49.881089],[37.838192,49.881359],[37.838424,49.881859],[37.83858,49.882247]]]}},{"type":"Feature","properties":{"cadnum":"6321881001:00:000:0025"},"geometry":{"type":"Polygon","coordinates":[[[37.838821,49.881504],[37.839025,49.881412],[37.838597,49.88082],[37.838349,49.880509],[37.838026,49.880656],[37.838328,49.880944],[37.838821,49.881504]]]}},{"type":"Feature","properties":{"cadnum":"6321881001:00:000:0027"},"geometry":{"type":"Polygon","coordinates":[[[37.840382,49.880442],[37.840083,49.880271],[37.839844,49.880129],[37.83961,49.879973],[37.839219,49.880139],[37.839465,49.880307],[37.839647168141596,49.880422],[37.839647,49.880422],[37.83966702489674,49.88043453527001],[37.839823,49.880533],[37.839824320754715,49.880533],[37.839901,49.880581],[37.840178,49.880529],[37.840382,49.880442]]]}},{"type":"Feature","properties":{"cadnum":"6321881001:00:000:0234"},"geometry":{"type":"Polygon","coordinates":[[[37.841285,49.883748],[37.841408,49.88369],[37.841419,49.883685],[37.841464,49.883663],[37.841472,49.88367],[37.841525,49.883642],[37.841443,49.883579],[37.84142,49.883555],[37.841278,49.883438],[37.841017,49.883208],[37.840944,49.883147],[37.840712,49.882979],[37.840475,49.883237],[37.840485,49.883258],[37.840762,49.883407],[37.84083,49.883366],[37.840866,49.883395],[37.841037,49.883556],[37.841057,49.883548],[37.841124,49.883606],[37.841147,49.883625],[37.841155,49.883633],[37.841285,49.883748]]]}},{"type":"Feature","properties":{"cadnum":"6321881001:00:000:0196"},"geometry":{"type":"Polygon","coordinates":[[[37.841451,49.883204],[37.841974,49.882949],[37.841936,49.88294],[37.841271,49.882538],[37.840858,49.882756],[37.840907,49.882788],[37.841202,49.882974],[37.841451,49.883204]]]}},{"type":"Feature","properties":{"cadnum":"6321881001:00:000:0151"},"geometry":{"type":"Polygon","coordinates":[[[37.799449,49.889768],[37.800142,49.888602],[37.799732,49.888508],[37.799013,49.889658],[37.799449,49.889768]]]}},{"type":"Feature","properties":{"cadnum":"6321881001:00:000:0125"},"geometry":{"type":"Polygon","coordinates":[[[37.800203,49.889431],[37.800696,49.888574],[37.800234,49.888462],[37.799743,49.889336],[37.800203,49.889431]]]}},{"type":"Feature","properties":{"cadnum":"6321881001:00:000:0135"},"geometry":{"type":"Polygon","coordinates":[[[37.800169,49.888573],[37.800234,49.888462],[37.800342,49.888268],[37.800401,49.888181],[37.800535,49.887867],[37.80011,49.887811],[37.8,49.888067],[37.799933,49.888232],[37.799748,49.888499],[37.800169,49.888573]]]}},{"type":"Feature","properties":{"cadnum":"6321881001:00:000:0111"},"geometry":{"type":"Polygon","coordinates":[[[37.800696,49.888574],[37.800829,49.888342],[37.800869,49.888258],[37.800999,49.887948],[37.800535,49.887867],[37.800401,49.888181],[37.800342,49.888268],[37.800234,49.888462],[37.800696,49.888574]]]}},{"type":"Feature","properties":{"cadnum":"6321881001:00:000:0109"},"geometry":{"type":"Polygon","coordinates":[[[37.804041,49.88873],[37.804041,49.8887282962963],[37.804058,49.888671],[37.804041,49.888535708333315],[37.804041,49.888534],[37.804034,49.88848],[37.804027,49.888209],[37.803703,49.888233],[37.803694,49.888242],[37.803706,49.888516],[37.80359,49.889095],[37.803869,49.88912097297297],[37.803869,49.889122],[37.803923,49.889126],[37.804041,49.88873]]]}},{"type":"Feature","properties":{"cadnum":"6321881001:00:000:0191"},"geometry":{"type":"Polygon","coordinates":[[[37.825688,49.886786],[37.825697,49.886825],[37.825842,49.887189459459464],[37.825842,49.887191],[37.825845,49.887197],[37.825993,49.887576],[37.826392,49.887514],[37.826258,49.887221],[37.826106,49.886896],[37.826079,49.886814],[37.826051,49.886772],[37.826001,49.886739],[37.825688,49.886786]]]}},{"type":"Feature","properties":{"cadnum":"6321881001:00:000:0165"},"geometry":{"type":"Polygon","coordinates":[[[37.824227,49.886209],[37.824595,49.885586],[37.824097,49.885463],[37.824026,49.885584],[37.823789,49.886003],[37.823875,49.886044],[37.823976,49.886088],[37.824064,49.88613],[37.824166,49.88618],[37.824227,49.886209]]]}},{"type":"Feature","properties":{"cadnum":"6321881001:00:000:0106"},"geometry":{"type":"Polygon","coordinates":[[[37.824931,49.885965],[37.824988,49.885891],[37.825057,49.885852],[37.825102,49.885775],[37.825081,49.88577],[37.825185,49.885455],[37.825204,49.885456],[37.825208,49.885425],[37.825142,49.885422],[37.825139,49.885453],[37.825158,49.885454],[37.825056,49.885764],[37.824774,49.885696],[37.82474,49.885757],[37.824719,49.885827],[37.824674,49.8859],[37.824931,49.885965]]]}},{"type":"Feature","properties":{"cadnum":"6321881001:00:000:0096"},"geometry":{"type":"Polygon","coordinates":[[[37.82235,49.886496],[37.822548,49.886489],[37.822543,49.886425],[37.822344,49.886433],[37.82235,49.886496]]]}},{"type":"Feature","properties":{"cadnum":"6321881001:00:000:0128"},"geometry":{"type":"Polygon","coordinates":[[[37.822938,49.886463],[37.823095,49.88646],[37.823263,49.886455],[37.823294,49.886367],[37.823327,49.886266],[37.823372,49.886138],[37.822948,49.885927],[37.822938,49.886463]]]}},{"type":"Feature","properties":{"cadnum":"6321881001:00:000:0107"},"geometry":{"type":"Polygon","coordinates":[[[37.828234,49.883815],[37.827859093023264,49.883962],[37.827859,49.883962],[37.826687,49.884421],[37.826681,49.884401],[37.826688,49.8844],[37.826671,49.884333],[37.826551,49.884345],[37.826518,49.884349],[37.826435,49.884358],[37.826429,49.884338],[37.826385,49.884343],[37.82639,49.884363],[37.826228,49.884381],[37.825842,49.884436],[37.825842,49.884436320699706],[37.825328,49.884509],[37.826014,49.885329],[37.826014,49.8853287254902],[37.826148,49.885489],[37.826179,49.885527],[37.826386,49.885777],[37.826441,49.885842],[37.827422,49.885495],[37.827628,49.885355],[37.827671,49.885393],[37.827903,49.885284],[37.82786,49.885246],[37.827946,49.885178],[37.828028,49.885141],[37.828131,49.885108],[37.828552,49.884892],[37.829044,49.884634],[37.829293,49.884505],[37.829628,49.884281],[37.829554,49.884225],[37.828707,49.883962],[37.82870633720929,49.883962],[37.828234,49.883815]],[[37.825971,49.884674],[37.825976,49.884691],[37.825949,49.884696],[37.825942,49.884677],[37.825971,49.884674]],[[37.827115,49.884608],[37.827151,49.884646],[37.827092,49.88467],[37.827056,49.884632],[37.827115,49.884608]],[[37.827056,49.884529],[37.827077,49.884588],[37.82705,49.884593],[37.827029,49.884533],[37.827056,49.884529]],[[37.826138,49.885077],[37.826207,49.885084],[37.826197,49.885128],[37.826128,49.885122],[37.826138,49.885077]],[[37.82609,49.885009],[37.826114,49.88506],[37.826087,49.885065],[37.826063,49.885014],[37.82609,49.885009]]]}},{"type":"Feature","properties":{"cadnum":"6321881001:00:000:0186"},"geometry":{"type":"Polygon","coordinates":[[[37.7732,49.890781],[37.772347,49.890978],[37.77205742774567,49.89104],[37.772056,49.89104],[37.77184123368565,49.89108628907473],[37.771539,49.891151],[37.7715409959514,49.891151],[37.771082,49.89124992844677],[37.771082,49.891249],[37.770814,49.891306],[37.77091,49.89149409756097],[37.77091,49.891496],[37.77106,49.891788],[37.771082,49.89181],[37.771082,49.891809603603605],[37.771282,49.892006],[37.771746,49.891839],[37.772139,49.8921],[37.772321,49.891963],[37.773082,49.891629],[37.773653,49.891413],[37.773385,49.89104],[37.773384799999995,49.89104],[37.7732,49.890781]]]}},{"type":"Feature","properties":{"cadnum":"6321881001:00:000:0218"},"geometry":{"type":"Polygon","coordinates":[[[37.76943,49.892474],[37.76947,49.892468],[37.769522,49.892449],[37.769553,49.892434],[37.769634,49.892394],[37.769625,49.892384],[37.769648,49.892376],[37.769666,49.89238],[37.769782,49.892337],[37.769794,49.892288],[37.769768,49.892192],[37.769757,49.892155],[37.769738,49.892132],[37.769705,49.892121],[37.769667,49.892127],[37.769635,49.892144],[37.769525,49.892208],[37.769326,49.89229],[37.769234,49.892328],[37.769317,49.892421],[37.769365,49.892456],[37.76943,49.892474]]]}},{"type":"Feature","properties":{"cadnum":"6321881001:00:000:0209"},"geometry":{"type":"Polygon","coordinates":[[[37.794883,49.892763],[37.795214,49.892738],[37.795161,49.892542],[37.795623,49.892436],[37.795855,49.892413],[37.796212,49.892621],[37.796745,49.892588],[37.796743,49.892466],[37.796987,49.892473],[37.79706,49.892264],[37.79706,49.891991],[37.796879,49.891995],[37.796875,49.892155],[37.796497,49.892144],[37.796165,49.892074],[37.795729,49.891924],[37.795281,49.89191],[37.794734,49.892108],[37.794791,49.892375],[37.794854,49.892471],[37.794883,49.892763]]]}},{"type":"Feature","properties":{"cadnum":"6321881001:00:000:0019"},"geometry":{"type":"Polygon","coordinates":[[[37.830097,49.883491],[37.830343,49.883366],[37.830119,49.883162],[37.830086,49.883132],[37.830036,49.883087],[37.829759,49.883191],[37.829808,49.883233],[37.82984,49.883263],[37.830097,49.883491]]]}},{"type":"Feature","properties":{"cadnum":"6321881001:00:000:0180"},"geometry":{"type":"Polygon","coordinates":[[[37.830467,49.883479],[37.830787,49.883339],[37.83049,49.883061],[37.830396,49.882972],[37.830062,49.88311],[37.830146,49.883186],[37.830343,49.883366],[37.830467,49.883479]]]}},{"type":"Feature","properties":{"cadnum":"6321881001:00:000:0018"},"geometry":{"type":"Polygon","coordinates":[[[37.830978,49.883945],[37.830343,49.883366],[37.830097,49.883491],[37.830628837499994,49.883962],[37.830628,49.883962],[37.830639,49.883971],[37.830748,49.884073],[37.83074893659942,49.884073],[37.831013,49.884318],[37.831269,49.884187],[37.83106411688293,49.88401751948036],[37.830978,49.883945]]]}},{"type":"Feature","properties":{"cadnum":"6321881001:00:000:0016"},"geometry":{"type":"Polygon","coordinates":[[[37.829849,49.883573],[37.829598,49.883704],[37.830005,49.884073],[37.83000566304348,49.884073],[37.830188,49.884238],[37.830571,49.884544],[37.830787,49.884431],[37.83038,49.884088],[37.83032094262297,49.884031196721324],[37.829849,49.883573]]]}},{"type":"Feature","properties":{"cadnum":"6321881001:00:000:0017"},"geometry":{"type":"Polygon","coordinates":[[[37.829598,49.883704],[37.829849,49.883573],[37.829613,49.883345],[37.829582,49.883316],[37.829545,49.883278],[37.829495,49.883298],[37.829523,49.883336],[37.829541,49.88336],[37.829433,49.883391],[37.829413,49.883377],[37.82937,49.883348],[37.829258,49.883394],[37.829289,49.883422],[37.829321,49.883451],[37.829598,49.883704]]]}},{"type":"Feature","properties":{"cadnum":"6321881001:00:000:0143"},"geometry":{"type":"Polygon","coordinates":[[[37.830097,49.883491],[37.83007,49.883468],[37.829849,49.883573],[37.83024967,49.883962],[37.830249,49.883962],[37.83032094262297,49.884031196721324],[37.830364,49.884073],[37.83036440476191,49.884073],[37.83038,49.884088],[37.830701,49.884359],[37.830742,49.884394],[37.830787,49.884431],[37.831013,49.884318],[37.830824,49.884143],[37.830803,49.884122],[37.830639,49.883971],[37.830097,49.883491]]]}},{"type":"Feature","properties":{"cadnum":"6321881001:00:000:0213"},"geometry":{"type":"Polygon","coordinates":[[[37.812183,49.893611],[37.812047,49.892793],[37.811606,49.892779],[37.811543,49.893568],[37.812183,49.893611]]]}},{"type":"Feature","properties":{"cadnum":"6321881001:00:000:0113"},"geometry":{"type":"Polygon","coordinates":[[[37.813048,49.893885],[37.813159,49.893876],[37.813147,49.8938],[37.813067,49.893299],[37.812922,49.893304],[37.812782,49.893311],[37.812468,49.893323],[37.812482,49.893539],[37.812494,49.893615],[37.812506,49.893663],[37.812511,49.893716],[37.812533,49.893813],[37.812674,49.893807],[37.81297,49.893783],[37.812993,49.893813],[37.813048,49.893885]]]}},{"type":"Feature","properties":{"cadnum":"6321881001:00:000:0123"},"geometry":{"type":"Polygon","coordinates":[[[37.812922,49.893304],[37.813067,49.893299],[37.813142,49.893295],[37.813135,49.893268],[37.812962,49.892589],[37.812863,49.892318],[37.812843,49.892265],[37.812788,49.892276],[37.812565,49.892315],[37.812703,49.892637],[37.812892,49.893192],[37.812922,49.893304]]]}},{"type":"Feature","properties":{"cadnum":"6321881001:00:000:0121"},"geometry":{"type":"Polygon","coordinates":[[[37.812468,49.892147],[37.8127,49.892103],[37.812761,49.892093],[37.813097,49.892029],[37.812989,49.891705],[37.812978,49.8916],[37.812277,49.891644],[37.812375,49.891842],[37.812405,49.891933],[37.812468,49.892147]]]}},{"type":"Feature","properties":{"cadnum":"6321881001:00:000:0129"},"geometry":{"type":"Polygon","coordinates":[[[37.812206,49.892936],[37.812774,49.892845],[37.812703,49.892637],[37.812621,49.892446],[37.812566,49.892315],[37.812025,49.892416],[37.812206,49.892936]]]}},{"type":"Feature","properties":{"cadnum":"6321881001:00:000:0167"},"geometry":{"type":"Polygon","coordinates":[[[37.811169,49.89295],[37.811177,49.892696],[37.811186,49.892411],[37.811054,49.892405],[37.811039,49.892405],[37.810942,49.892399],[37.810899,49.892397],[37.810877,49.892396],[37.810807,49.892393],[37.810646,49.892385],[37.810611,49.89266],[37.810596,49.892725],[37.810588,49.892729],[37.810588,49.892778],[37.81058,49.892778],[37.810571,49.89294],[37.811169,49.89295]]]}},{"type":"Feature","properties":{"cadnum":"6321881001:00:000:0154"},"geometry":{"type":"Polygon","coordinates":[[[37.814362,49.892888],[37.814661,49.892833],[37.814397,49.892259],[37.814349,49.892182],[37.814111,49.891911],[37.813985,49.891959],[37.813929,49.89198],[37.813882,49.891998],[37.814099,49.892337],[37.814362,49.892888]]]}},{"type":"Feature","properties":{"cadnum":"6321881001:00:000:0175"},"geometry":{"type":"Polygon","coordinates":[[[37.812915,49.886828],[37.813256,49.886813],[37.813177,49.886484],[37.81306,49.885996],[37.812995,49.885821],[37.812704,49.885844],[37.812875,49.886516],[37.812899,49.886686],[37.812915,49.886828]]]}},{"type":"Feature","properties":{"cadnum":"6321881001:00:000:0120"},"geometry":{"type":"Polygon","coordinates":[[[37.815027,49.88632178070177],[37.815034,49.886355],[37.815093,49.886762],[37.815417,49.886745],[37.815358,49.88638],[37.815263,49.885796],[37.815027,49.88580838483965],[37.815027,49.885808],[37.81492,49.885814],[37.815027,49.886324],[37.815027,49.88632178070177]]]}},{"type":"Feature","properties":{"cadnum":"6321881001:00:000:0046"},"geometry":{"type":"Polygon","coordinates":[[[37.814526,49.886787],[37.814809,49.886774],[37.814748,49.886352],[37.814591,49.885723],[37.81428,49.885738],[37.814295,49.885792],[37.814464,49.886385],[37.814526,49.886787]]]}},{"type":"Feature","properties":{"cadnum":"6321881001:00:000:0159"},"geometry":{"type":"Polygon","coordinates":[[[37.813256,49.886813],[37.813343,49.886809],[37.813409,49.886806],[37.813616,49.886795],[37.81354,49.886403],[37.813434,49.885959],[37.81306,49.885996],[37.813177,49.886484],[37.813256,49.886813]]]}},{"type":"Feature","properties":{"cadnum":"6321881001:00:000:0141"},"geometry":{"type":"Polygon","coordinates":[[[37.812601,49.886843],[37.812751,49.886836],[37.812821,49.886832],[37.812915,49.886828],[37.812899,49.886686],[37.812875,49.886516],[37.8127,49.885832],[37.812396,49.885855],[37.812566,49.886561],[37.812585,49.886705],[37.812601,49.886843]]]}},{"type":"Feature","properties":{"cadnum":"6321881001:00:000:0048"},"geometry":{"type":"Polygon","coordinates":[[[37.814257,49.8868],[37.814473,49.88679],[37.814526,49.886787],[37.814464,49.886385],[37.814295,49.885792],[37.814027,49.885802],[37.814186,49.886407],[37.814257,49.8868]]]}},{"type":"Feature","properties":{"cadnum":"6321881001:00:000:0169"},"geometry":{"type":"Polygon","coordinates":[[[37.813616,49.886795],[37.813679,49.886792],[37.813741,49.886788],[37.813938,49.88678],[37.81391,49.88656],[37.813887,49.886456],[37.813761,49.885853],[37.813417,49.885883],[37.813434,49.885959],[37.81354,49.886403],[37.813616,49.886795]]]}},{"type":"Feature","properties":{"cadnum":"6321881001:00:000:0179"},"geometry":{"type":"Polygon","coordinates":[[[37.81306,49.885996],[37.813434,49.885959],[37.813417,49.885883],[37.813257,49.885215],[37.812847,49.885283],[37.81306,49.885996]]]}},{"type":"Feature","properties":{"cadnum":"6321881001:00:000:0045"},"geometry":{"type":"Polygon","coordinates":[[[37.815093,49.886762],[37.815034,49.886355],[37.814894,49.885694],[37.814856,49.885695],[37.814856,49.885695609120525],[37.814587,49.885707],[37.814748,49.886352],[37.814809,49.886774],[37.815027,49.886765],[37.815027,49.886764784810126],[37.815093,49.886762]]]}},{"type":"Feature","properties":{"cadnum":"6321881001:00:000:0104"},"geometry":{"type":"Polygon","coordinates":[[[37.807534,49.892427],[37.807988,49.892378],[37.807879,49.892176],[37.807406,49.892093],[37.807446,49.892199],[37.807475,49.892325],[37.807478,49.892332],[37.807484,49.892345],[37.807505,49.892392],[37.807534,49.892427]]]}},{"type":"Feature","properties":{"cadnum":"6321881001:00:000:0168"},"geometry":{"type":"Polygon","coordinates":[[[37.828643,49.886817],[37.828998,49.886709],[37.828995,49.886705],[37.82863,49.886219],[37.828395,49.885987],[37.828269,49.886052],[37.828257,49.886057],[37.828212,49.886081],[37.828173,49.886099],[37.828091,49.886137],[37.828123,49.886174],[37.828375,49.886462],[37.828643,49.886817]]]}},{"type":"Feature","properties":{"cadnum":"6321881001:00:000:0010"},"geometry":{"type":"Polygon","coordinates":[[[37.830583,49.886753],[37.830913,49.886541],[37.830741,49.886328],[37.830386,49.886003],[37.830046,49.886183],[37.830386,49.886522],[37.830583,49.886753]]]}},{"type":"Feature","properties":{"cadnum":"6321881001:00:000:0095"},"geometry":{"type":"Polygon","coordinates":[[[37.829423,49.886669],[37.829704,49.886524],[37.829223,49.886059],[37.828984,49.885868],[37.82885,49.885762],[37.828619,49.88588],[37.828959,49.886189],[37.829423,49.886669]]]}},{"type":"Feature","properties":{"cadnum":"6321881001:00:000:0008"},"geometry":{"type":"Polygon","coordinates":[[[37.826563,49.887169],[37.826337,49.88673],[37.826051,49.886772],[37.826079,49.886814],[37.826106,49.886896],[37.826258,49.887221],[37.82638546803069,49.887501],[37.826385,49.887501],[37.82640300686505,49.88753952631591],[37.826436,49.887612],[37.826436880434784,49.887612],[37.826471,49.887685],[37.826838,49.887678],[37.82676375999988,49.887541119999774],[37.826563,49.887169]]]}},{"type":"Feature","properties":{"cadnum":"6321881001:00:000:0216"},"geometry":{"type":"Polygon","coordinates":[[[37.829802,49.887062],[37.830211,49.886857],[37.829889,49.886473],[37.829478,49.886018],[37.829263,49.885861],[37.829047,49.885643],[37.82885,49.885762],[37.828984,49.885868],[37.829223,49.886059],[37.829704,49.886524],[37.829423,49.886669],[37.829802,49.887062]]]}},{"type":"Feature","properties":{"cadnum":"6321881001:00:000:0009"},"geometry":{"type":"Polygon","coordinates":[[[37.830046,49.886183],[37.830386,49.886003],[37.830137,49.885776],[37.829702,49.885381],[37.829424,49.885521],[37.829412,49.885535],[37.829806,49.885942],[37.830046,49.886183]]]}},{"type":"Feature","properties":{"cadnum":"6321881001:00:000:0005"},"geometry":{"type":"Polygon","coordinates":[[[37.828556,49.887126],[37.828798,49.887005],[37.828685,49.886873],[37.828375,49.886462],[37.828123,49.886174],[37.8278,49.886336],[37.828023,49.886538],[37.828218,49.886711],[37.828556,49.887126]]]}},{"type":"Feature","properties":{"cadnum":"6321881001:00:000:0098"},"geometry":{"type":"Polygon","coordinates":[[[37.827145,49.887592],[37.826946,49.887242],[37.826719,49.886881],[37.826592,49.886643],[37.826416,49.886675],[37.826329,49.886689],[37.826314,49.886692],[37.826337,49.88673],[37.826563,49.887169],[37.826742115124155,49.887501],[37.826742,49.887501],[37.826822,49.887649],[37.827031666666684,49.887612],[37.827033,49.887612],[37.827145,49.887592]]]}},{"type":"Feature","properties":{"cadnum":"6321881001:00:000:0237"},"geometry":{"type":"Polygon","coordinates":[[[37.827479,49.887534],[37.827006,49.886813],[37.82693,49.886728],[37.82683,49.886603],[37.826762,49.886616],[37.826699,49.886629],[37.826596,49.886649],[37.826719,49.886881],[37.826946,49.887242],[37.827093260000005,49.887501],[37.827093,49.887501],[37.827145,49.887592],[37.827479,49.887534]]]}},{"type":"Feature","properties":{"cadnum":"6321881001:00:000:0155"},"geometry":{"type":"Polygon","coordinates":[[[37.828586,49.885498],[37.828748,49.885421],[37.828745,49.885418],[37.828795,49.885393],[37.828798,49.885397],[37.828846,49.885376],[37.82898,49.885309],[37.82898,49.885306],[37.82893,49.885263],[37.828788,49.885141],[37.828794,49.885139],[37.828764,49.885114],[37.828547,49.884942],[37.828535,49.884932],[37.828142,49.885215],[37.828377,49.88533],[37.828586,49.885498]]]}},{"type":"Feature","properties":{"cadnum":"6321881001:00:000:0134"},"geometry":{"type":"Polygon","coordinates":[[[37.82898,49.885306],[37.829019,49.885287],[37.82902,49.88529],[37.829205,49.885196],[37.829079,49.885079],[37.828969,49.88499],[37.828778,49.884834],[37.828547,49.884942],[37.828764,49.885114],[37.828794,49.885139],[37.828788,49.885141],[37.82893,49.885263],[37.82898,49.885306]]]}},{"type":"Feature","properties":{"cadnum":"6321881001:00:000:0011"},"geometry":{"type":"Polygon","coordinates":[[[37.830958,49.88568],[37.831267,49.885508],[37.830933,49.885243],[37.830524,49.884923],[37.830225,49.885089],[37.830622,49.885399],[37.830958,49.88568]]]}},{"type":"Feature","properties":{"cadnum":"6321881001:00:000:0038"},"geometry":{"type":"Polygon","coordinates":[[[37.817201,49.88744],[37.817252,49.887307],[37.817272,49.886946],[37.817046,49.886953],[37.817017,49.887309],[37.81694602970297,49.887501],[37.816945,49.887501],[37.816816,49.887851],[37.816713,49.888132],[37.816662,49.88827],[37.816914,49.888262],[37.81718,49.887501],[37.81717972093023,49.887501],[37.817201,49.88744]]]}},{"type":"Feature","properties":{"cadnum":"6321881001:00:000:0102"},"geometry":{"type":"Polygon","coordinates":[[[37.815935,49.887329],[37.815993,49.887245],[37.815994,49.887184],[37.815998,49.887115],[37.815993,49.886959],[37.815666,49.886985],[37.815683,49.887124],[37.81569,49.887187],[37.815692,49.887209],[37.815687,49.887324],[37.81566057291666,49.887501],[37.81566,49.887501],[37.81565071875003,49.887566999999784],[37.815644,49.887612],[37.815644390625,49.887612],[37.815633,49.887693],[37.815588,49.8879],[37.815446,49.888081],[37.815411,49.888193],[37.815715,49.888164],[37.815849,49.887718],[37.81587195852535,49.887612],[37.815872,49.887612],[37.815935,49.887329]]]}},{"type":"Feature","properties":{"cadnum":"6321881001:00:000:0185"},"geometry":{"type":"Polygon","coordinates":[[[37.818114,49.887281],[37.818133,49.887235],[37.81816,49.887144],[37.818172,49.88706],[37.818176,49.887012],[37.818188,49.886903],[37.818171,49.886882],[37.818002,49.886889],[37.817944,49.886891],[37.817896,49.886894],[37.817838,49.88724],[37.81774047580645,49.887501],[37.81774,49.887501],[37.817574,49.887949],[37.817831,49.887995],[37.81798218421053,49.887612],[37.817983,49.887612],[37.818114,49.887281]]]}},{"type":"Feature","properties":{"cadnum":"6321881001:00:000:0172"},"geometry":{"type":"Polygon","coordinates":[[[37.818871,49.887284],[37.81889,49.887232],[37.818941,49.88697],[37.818929,49.886851],[37.818844,49.886855],[37.818789,49.886857],[37.818585,49.886866],[37.818515,49.88687],[37.818464,49.88687],[37.81845,49.88687],[37.818287,49.886876],[37.818241,49.886878],[37.818171,49.886882],[37.818188,49.886903],[37.818176,49.887012],[37.818172,49.88706],[37.81816,49.887144],[37.818133,49.887235],[37.818114,49.887281],[37.818871,49.887284]]]}},{"type":"Feature","properties":{"cadnum":"6321881001:00:000:0040"},"geometry":{"type":"Polygon","coordinates":[[[37.817017,49.887309],[37.817046,49.886953],[37.816724,49.886965],[37.816638,49.887423],[37.81660044444444,49.887501],[37.816599,49.887501],[37.816524,49.887661],[37.816453,49.887865],[37.816816,49.887851],[37.81690408857143,49.887612],[37.816905,49.887612],[37.817017,49.887309]]]}},{"type":"Feature","properties":{"cadnum":"6321881001:00:000:0127"},"geometry":{"type":"Polygon","coordinates":[[[37.815721,49.886722],[37.816041,49.886708],[37.815986,49.886271],[37.815898,49.885705],[37.815604,49.88572],[37.815672,49.886281],[37.815721,49.886722]]]}},{"type":"Feature","properties":{"cadnum":"6321881001:00:000:0202"},"geometry":{"type":"Polygon","coordinates":[[[37.819419,49.886092],[37.819468,49.886089],[37.819536,49.886086],[37.820158,49.88604],[37.820094,49.885784],[37.820117,49.885762],[37.820097,49.885619],[37.819368,49.885658],[37.819419,49.886092]]]}},{"type":"Feature","properties":{"cadnum":"6321881001:00:000:0164"},"geometry":{"type":"Polygon","coordinates":[[[37.818137,49.886374],[37.818254,49.886365],[37.818627,49.886334],[37.818616,49.886291],[37.818525,49.885926],[37.818502,49.885846],[37.817976,49.885917],[37.818022,49.886201],[37.818042,49.88626],[37.818114,49.886253],[37.818137,49.886374]]]}},{"type":"Feature","properties":{"cadnum":"6321881001:00:000:0101"},"geometry":{"type":"Polygon","coordinates":[[[37.817915,49.886557],[37.818168,49.886541],[37.818114,49.886253],[37.818042,49.88626],[37.818022,49.886201],[37.817976,49.885917],[37.818161,49.88585],[37.818341,49.885808],[37.818313,49.885569],[37.817763,49.885604],[37.817809,49.886034],[37.81783,49.886239],[37.81783,49.886266],[37.817831,49.886293],[37.817836,49.88633],[37.81785,49.886527],[37.817912,49.886523],[37.817915,49.886557]]]}},{"type":"Feature","properties":{"cadnum":"6321881001:00:000:0163"},"geometry":{"type":"Polygon","coordinates":[[[37.815604,49.88572],[37.815898,49.885705],[37.815802,49.885125],[37.81553,49.885118],[37.815604,49.88572]]]}},{"type":"Feature","properties":{"cadnum":"6321881001:00:000:0232"},"geometry":{"type":"Polygon","coordinates":[[[37.816878,49.88562],[37.817186,49.885607],[37.817145,49.885095],[37.816828,49.885096],[37.816878,49.88562]]]}},{"type":"Feature","properties":{"cadnum":"6321881001:00:000:0171"},"geometry":{"type":"Polygon","coordinates":[[[37.816637,49.887262],[37.816642,49.887229],[37.816667,49.887114],[37.816667,49.887095],[37.816698,49.886928],[37.816587,49.886934],[37.816529,49.886935],[37.816257,49.886948],[37.816248,49.88706],[37.81624,49.887074],[37.81623,49.887132],[37.816221,49.887289],[37.81615930340557,49.887501],[37.816159,49.887501],[37.816096,49.887719],[37.816442,49.887726],[37.816536,49.887501],[37.81653593714285,49.887501],[37.816637,49.887262]]]}},{"type":"Feature","properties":{"cadnum":"6321881001:00:000:0192"},"geometry":{"type":"Polygon","coordinates":[[[37.815687,49.887324],[37.815692,49.887209],[37.81569,49.887187],[37.815683,49.887124],[37.815666,49.886985],[37.81533,49.887029],[37.815342,49.887254],[37.815317,49.887341],[37.815239,49.887612],[37.81523972755418,49.887612],[37.81518,49.887824],[37.815601,49.887836],[37.815633,49.887693],[37.81565071875003,49.887566999999784],[37.815687,49.887324]]]}},{"type":"Feature","properties":{"cadnum":"6321881001:00:000:0181"},"geometry":{"type":"Polygon","coordinates":[[[37.818871,49.887284],[37.818114,49.887281],[37.8180269305136,49.887501],[37.818026,49.887501],[37.817573,49.888647],[37.818391,49.888638],[37.818422,49.88855],[37.81875374261201,49.887612],[37.818754,49.887612],[37.818871,49.887284]]]}},{"type":"Feature","properties":{"cadnum":"6321881001:00:000:0161"},"geometry":{"type":"Polygon","coordinates":[[[37.815317,49.887341],[37.815342,49.887254],[37.81533,49.887029],[37.815143,49.887048],[37.815129,49.887048],[37.815017,49.88706],[37.815004,49.887065],[37.815018,49.887181],[37.815031,49.887272],[37.814987,49.887612],[37.81498769747899,49.887612],[37.814956,49.887858],[37.815164,49.887879],[37.815271,49.887501],[37.81527094833948,49.887501],[37.815317,49.887341]]]}},{"type":"Feature","properties":{"cadnum":"6321881001:00:000:0187"},"geometry":{"type":"Polygon","coordinates":[[[37.815417,49.886745],[37.815721,49.886722],[37.815672,49.886281],[37.815609,49.885772],[37.815263,49.885796],[37.815358,49.88638],[37.815417,49.886745]]]}},{"type":"Feature","properties":{"cadnum":"6321881001:00:000:0162"},"geometry":{"type":"Polygon","coordinates":[[[37.816038,49.886679],[37.81627,49.886666],[37.816335,49.886662],[37.816308,49.886497],[37.816295,49.886423],[37.816292,49.886404],[37.816288,49.886361],[37.816278,49.88626],[37.816264,49.8862],[37.81619,49.885656],[37.815892,49.885668],[37.815898,49.885705],[37.815986,49.886271],[37.816038,49.886679]]]}},{"type":"Feature","properties":{"cadnum":"6321881001:00:000:0148"},"geometry":{"type":"Polygon","coordinates":[[[37.81757,49.886609],[37.817857,49.886603],[37.81785,49.886527],[37.817836,49.88633],[37.817831,49.886293],[37.81783,49.886266],[37.81783,49.886239],[37.817809,49.886034],[37.817763,49.885604],[37.817759,49.88556],[37.817451,49.885573],[37.81752,49.886174],[37.81754,49.886336],[37.81757,49.886609]]]}},{"type":"Feature","properties":{"cadnum":"6321881001:00:000:0157"},"geometry":{"type":"Polygon","coordinates":[[[37.816983,49.886633],[37.817017,49.886632],[37.817221,49.886623],[37.817282,49.886621],[37.81729,49.88662],[37.81726,49.886361],[37.817256,49.886321],[37.817252,49.8863],[37.817248,49.886168],[37.817239,49.886079],[37.817186,49.885607],[37.816878,49.88562],[37.816925,49.886063],[37.816937,49.886181],[37.816958,49.886357],[37.816961,49.886387],[37.816983,49.886633]]]}},{"type":"Feature","properties":{"cadnum":"6321881001:00:000:0156"},"geometry":{"type":"Polygon","coordinates":[[[37.816335,49.886662],[37.816649,49.886648],[37.816571,49.886197],[37.816504,49.885643],[37.81619,49.885656],[37.816264,49.8862],[37.816278,49.88626],[37.816288,49.886361],[37.816292,49.886404],[37.816295,49.886423],[37.816308,49.886497],[37.816335,49.886662]]]}},{"type":"Feature","properties":{"cadnum":"6321881001:00:000:0221"},"geometry":{"type":"Polygon","coordinates":[[[37.808928,49.888838],[37.809244,49.888059],[37.80923,49.887673],[37.808972,49.887695],[37.808991,49.888007],[37.808652,49.888786],[37.808928,49.888838]]]}},{"type":"Feature","properties":{"cadnum":"6321881001:00:000:0108"},"geometry":{"type":"Polygon","coordinates":[[[37.807083,49.888822],[37.807429,49.888097],[37.807431,49.887851],[37.807011,49.887899],[37.807041,49.888229],[37.806818,49.888795],[37.807083,49.888822]]]}},{"type":"Feature","properties":{"cadnum":"6321881001:00:000:0132"},"geometry":{"type":"Polygon","coordinates":[[[37.80511,49.889208],[37.80524,49.888838],[37.805326,49.888581],[37.805429,49.888289],[37.805424,49.888253],[37.805453,49.888081],[37.805107,49.888118],[37.805103,49.888181],[37.805079,49.888417],[37.805072,49.888508],[37.804871,49.889181],[37.80511,49.889208]]]}},{"type":"Feature","properties":{"cadnum":"6321881001:00:000:0190"},"geometry":{"type":"Polygon","coordinates":[[[37.804606,49.888927],[37.804947,49.888923],[37.805072,49.88851],[37.805079,49.888417],[37.805103,49.888181],[37.805106,49.888138],[37.805094,49.888137],[37.805015,49.888135],[37.805015,49.888122],[37.804665,49.888153],[37.804666,49.88851],[37.804606,49.888927]]]}},{"type":"Feature","properties":{"cadnum":"6321881001:00:000:0149"},"geometry":{"type":"Polygon","coordinates":[[[37.80751,49.888753],[37.807748,49.888134],[37.807762,49.888022],[37.807758,49.887992],[37.807756,49.887951],[37.807742,49.887818],[37.807577,49.887836],[37.807524,49.887842],[37.807431,49.887851],[37.807429,49.888097],[37.807387,49.888186],[37.807142,49.888699],[37.80751,49.888753]]]}},{"type":"Feature","properties":{"cadnum":"6321881001:00:000:0053"},"geometry":{"type":"Polygon","coordinates":[[[37.807878,49.888665],[37.808232,49.888635],[37.808527,49.888058],[37.808551,49.887774],[37.808143,49.887809],[37.808149,49.888091],[37.807878,49.888665]]]}},{"type":"Feature","properties":{"cadnum":"6321881001:00:000:0039"},"geometry":{"type":"Polygon","coordinates":[[[37.81657,49.888519],[37.816827,49.888511],[37.816914,49.888262],[37.816662,49.88827],[37.81657,49.888519]]]}},{"type":"Feature","properties":{"cadnum":"6321881001:00:000:0041"},"geometry":{"type":"Polygon","coordinates":[[[37.816355,49.888146],[37.816713,49.888132],[37.816816,49.887851],[37.816453,49.887865],[37.816355,49.888146]]]}},{"type":"Feature","properties":{"cadnum":"6321881001:00:000:0189"},"geometry":{"type":"Polygon","coordinates":[[[37.817279,49.888734],[37.817573,49.888647],[37.817831,49.887995],[37.817574,49.887946],[37.817279,49.888734]]]}},{"type":"Feature","properties":{"cadnum":"6321881001:00:000:0174"},"geometry":{"type":"Polygon","coordinates":[[[37.817204,49.890899],[37.817522,49.890866],[37.817523,49.890858],[37.817589,49.890849],[37.817813,49.89082],[37.817634,49.89057],[37.817445,49.890301],[37.817107,49.890338],[37.817135,49.890529],[37.817204,49.890899]]]}},{"type":"Feature","properties":{"cadnum":"6321881001:00:000:0117"},"geometry":{"type":"Polygon","coordinates":[[[37.816382,49.890937],[37.816839,49.890919],[37.816883,49.89081],[37.817083,49.890658],[37.817107,49.890568],[37.817075,49.890395],[37.816513,49.890409],[37.816434,49.890617],[37.816371,49.890797],[37.816382,49.890937]]]}},{"type":"Feature","properties":{"cadnum":"6321881001:00:000:0173"},"geometry":{"type":"Polygon","coordinates":[[[37.815812,49.891012],[37.816033,49.890984],[37.816128,49.89097],[37.816261,49.890956],[37.816254,49.890887],[37.816154,49.890345],[37.815597,49.890427],[37.815812,49.891012]]]}},{"type":"Feature","properties":{"cadnum":"6321881001:00:000:0166"},"geometry":{"type":"Polygon","coordinates":[[[37.819614,49.89105],[37.819583,49.890712],[37.819453,49.890238],[37.819108,49.890253],[37.81914,49.890619],[37.819152,49.890736],[37.81913,49.890949],[37.819319,49.890985],[37.819382,49.890999],[37.819409,49.891007],[37.819614,49.89105]]]}},{"type":"Feature","properties":{"cadnum":"6321881001:00:000:0238"},"geometry":{"type":"Polygon","coordinates":[[[37.81913,49.890949],[37.819152,49.890736],[37.81914,49.890619],[37.819122,49.890403],[37.818328,49.890454],[37.818467,49.890637],[37.818596,49.890853],[37.818664,49.89086],[37.818694,49.890865],[37.818756,49.890877],[37.818957,49.890916],[37.81913,49.890949]]]}},{"type":"Feature","properties":{"cadnum":"6321881001:00:000:0153"},"geometry":{"type":"Polygon","coordinates":[[[37.849605,49.880278],[37.849113,49.87981],[37.849054,49.879747],[37.848749,49.87987],[37.848853,49.879981],[37.849121,49.880216],[37.849232,49.880321],[37.849342336134455,49.880422],[37.849342,49.880422],[37.849362,49.88044],[37.849369,49.88044],[37.84946,49.880533],[37.849461261904764,49.880533],[37.849494,49.880566],[37.849533,49.880611],[37.849821,49.8805],[37.849605,49.880278]]]}},{"type":"Feature","properties":{"cadnum":"6321881001:00:000:0241"},"geometry":{"type":"Polygon","coordinates":[[[37.852398,49.87955],[37.852471,49.87953],[37.85252,49.879513],[37.852547,49.879505],[37.852573,49.879497],[37.852664,49.879465],[37.852761,49.879435],[37.852888,49.879397],[37.852771,49.879187],[37.852668,49.878819],[37.852668,49.878805],[37.85217,49.878964],[37.852217,49.879091],[37.852262,49.879178],[37.852263,49.879212],[37.852288,49.879264],[37.852323,49.879347],[37.852398,49.87955]]]}},{"type":"Feature","properties":{"cadnum":"6321881001:00:000:0195"},"geometry":{"type":"Polygon","coordinates":[[[37.790478,49.887433],[37.790717,49.886786],[37.790764,49.88668],[37.790761,49.886648],[37.79082,49.886476],[37.790559,49.88643],[37.790519,49.886445],[37.790421,49.886647],[37.790315,49.886986],[37.790191,49.887383],[37.790478,49.887433]]]}},{"type":"Feature","properties":{"cadnum":"6321881001:00:000:0130"},"geometry":{"type":"Polygon","coordinates":[[[37.783636,49.890677],[37.784132,49.890581],[37.783902,49.890216],[37.78346,49.890332],[37.783636,49.890677]]]}},{"type":"Feature","properties":{"cadnum":"6321881001:00:000:0204"},"geometry":{"type":"Polygon","coordinates":[[[37.848995,49.876791],[37.850544,49.876264],[37.849983,49.876062],[37.848933,49.875411],[37.848737,49.875493],[37.848999,49.875825],[37.848665,49.875956],[37.848794,49.876168],[37.848525,49.876248],[37.848743,49.876489],[37.848995,49.876791]]]}},{"type":"Feature","properties":{"cadnum":"6321881001:00:000:0207"},"geometry":{"type":"Polygon","coordinates":[[[37.820896,49.891888],[37.821241,49.891797],[37.821057,49.89149],[37.82114,49.891473],[37.82111,49.891414],[37.820955,49.891152],[37.820841,49.891172],[37.820443,49.891225],[37.820515,49.891358],[37.820685,49.891577],[37.820896,49.891888]]]}},{"type":"Feature","properties":{"cadnum":"6321881001:00:000:0145"},"geometry":{"type":"Polygon","coordinates":[[[37.829378,49.890145],[37.829726,49.890049],[37.82953,49.889723],[37.829419,49.889218],[37.829142,49.889295],[37.829146,49.889361],[37.829152,49.889829],[37.829378,49.890145]]]}},{"type":"Feature","properties":{"cadnum":"6321881001:00:000:0228"},"geometry":{"type":"Polygon","coordinates":[[[37.828395,49.89078],[37.829385,49.890356],[37.82926,49.890224],[37.829091,49.890263],[37.829002,49.890212],[37.828983,49.890201],[37.828971,49.890181],[37.828865,49.890003],[37.828943,49.889893],[37.829126,49.889843],[37.829105,49.889703],[37.82912,49.889306],[37.828257,49.88959],[37.827997,49.889673],[37.828204,49.889798],[37.828006,49.890062],[37.828071,49.890327],[37.828079,49.890362],[37.828086,49.890389],[37.828053,49.890508],[37.828395,49.89078]]]}},{"type":"Feature","properties":{"cadnum":"6321881001:00:000:0194"},"geometry":{"type":"Polygon","coordinates":[[[37.827002,49.890667],[37.827483,49.890567],[37.827253,49.890157],[37.827152,49.889996],[37.827116,49.88999],[37.827103,49.890008],[37.827042,49.890016],[37.827014,49.889978],[37.826692,49.890035],[37.82681,49.890281],[37.827002,49.890667]]]}},{"type":"Feature","properties":{"cadnum":"6321881001:00:000:0212"},"geometry":{"type":"Polygon","coordinates":[[[37.827137,49.890939],[37.827525,49.890827],[37.82763,49.890797],[37.827525,49.890638],[37.827483,49.890566],[37.827002,49.890667],[37.827019,49.890701],[37.827105,49.890873],[37.827137,49.890939]],[[37.827395,49.890714],[37.827353,49.890713],[37.827355,49.890686],[37.827396,49.890687],[37.827395,49.890714]]]}}]}