{"type":"FeatureCollection","features":[{"type":"Feature","properties":{"cadnum":"6321083003:00:000:0001"},"geometry":{"type":"Polygon","coordinates":[[[37.678988,49.255173],[37.681617,49.254405],[37.680972,49.253604],[37.678535,49.254352],[37.678988,49.255173]]]}},{"type":"Feature","properties":{"cadnum":"6321083003:00:000:0007"},"geometry":{"type":"Polygon","coordinates":[[[37.681248,49.253169],[37.681453,49.253521],[37.68145369349504,49.253521],[37.68192,49.254316],[37.681617,49.254405],[37.679145,49.255128],[37.679226,49.255221],[37.681351,49.25463],[37.681956,49.254385],[37.682313,49.254251],[37.682786,49.254106],[37.683191,49.254023],[37.683191,49.254022923076924],[37.68341,49.253978],[37.683292,49.253695],[37.683191,49.25352407692307],[37.683191,49.253524],[37.68315951006668,49.2534707449657],[37.68302,49.253233],[37.68302,49.253233415966385],[37.682713,49.252711],[37.681248,49.253169]],[[37.681484,49.253337],[37.681495,49.253356],[37.681465,49.253362],[37.681456,49.253344],[37.681484,49.253337]],[[37.681795,49.253884],[37.681806,49.253902],[37.681778,49.253909],[37.681767,49.253891],[37.681795,49.253884]]]}},{"type":"Feature","properties":{"cadnum":"6321083003:00:000:0006"},"geometry":{"type":"Polygon","coordinates":[[[37.681248,49.253169],[37.680379,49.253338],[37.68001313661203,49.253409],[37.680013,49.253409],[37.677745,49.253849],[37.678347,49.254409],[37.678535,49.254352],[37.680972,49.253604],[37.681617,49.254405],[37.68192,49.254316],[37.681388,49.253409],[37.68138777272727,49.253409],[37.681248,49.253169]]]}},{"type":"Feature","properties":{"cadnum":"6321083003:00:000:0005"},"geometry":{"type":"Polygon","coordinates":[[[37.684532,49.252604],[37.684354,49.252275],[37.683191,49.252584494003],[37.683191,49.252584],[37.682713,49.252711],[37.683123182716045,49.253409],[37.683123,49.253409],[37.68315617241315,49.253465137929936],[37.683189,49.253521],[37.683189181818186,49.253521],[37.683292,49.253695],[37.683708,49.253598],[37.683886,49.253912],[37.684746,49.253832],[37.685243,49.253755],[37.685029,49.253409],[37.68502799236641,49.253409],[37.684532,49.252604]]]}},{"type":"Feature","properties":{"cadnum":"6321083003:00:000:0003"},"geometry":{"type":"Polygon","coordinates":[[[37.677698,49.25137204922516],[37.678685,49.252521],[37.679637,49.252268],[37.678535,49.250999],[37.677588,49.251244],[37.677698,49.251373],[37.677698,49.25137204922516]]]}},{"type":"Feature","properties":{"cadnum":"6321083003:00:000:0004"},"geometry":{"type":"Polygon","coordinates":[[[37.680748,49.251994],[37.681605,49.251673],[37.682558,49.251486],[37.681829,49.25033],[37.680083,49.25059],[37.680748,49.251994]]]}},{"type":"Feature","properties":{"cadnum":"6321083003:00:000:0002"},"geometry":{"type":"Polygon","coordinates":[[[37.677698,49.252762],[37.677698,49.25276140186916],[37.678168,49.252645],[37.678308,49.252523],[37.678031,49.251998],[37.677698,49.251776439603965],[37.677698,49.251776],[37.67745,49.251611],[37.676723,49.251341],[37.675788,49.251693],[37.676447,49.252673],[37.676769,49.252927],[37.677013,49.25293],[37.677698,49.252762]]]}}]}