{"type":"FeatureCollection","features":[{"type":"Feature","properties":{"cadnum":"6321881501:00:000:0118"},"geometry":{"type":"Polygon","coordinates":[[[37.842606,49.978657],[37.842784,49.978529],[37.843027,49.978343],[37.843236,49.97816],[37.843264,49.978133],[37.8433,49.978079],[37.843307,49.978051],[37.842757,49.977778],[37.842493,49.977836128440366],[37.842493,49.977836],[37.842093,49.977924],[37.842059,49.977939],[37.841451,49.978233],[37.841144,49.978527],[37.841287,49.978612],[37.841105,49.978806],[37.840834,49.979006],[37.841163,49.97918],[37.841615,49.978779],[37.842112,49.979006],[37.842242,49.978938],[37.842321,49.97887694023904],[37.842321,49.978877],[37.842606,49.978657]]]}},{"type":"Feature","properties":{"cadnum":"6321881501:00:000:0058"},"geometry":{"type":"Polygon","coordinates":[[[37.825358,49.980671],[37.825541,49.980562],[37.823978,49.979625],[37.823822,49.979698],[37.825358,49.980671]]]}},{"type":"Feature","properties":{"cadnum":"6321881501:00:000:0153"},"geometry":{"type":"Polygon","coordinates":[[[37.825383,49.978629],[37.825001,49.97886],[37.82578709224012,49.979433],[37.825787,49.979433],[37.82581980046027,49.97945684174425],[37.825938,49.979543],[37.82593818705036,49.979543],[37.826224,49.979751],[37.825977,49.979906],[37.82536947306572,49.97946728207646],[37.824781,49.979041],[37.82409,49.979543],[37.824090749999996,49.979543],[37.823978,49.979625],[37.825541,49.980562],[37.825842,49.980348],[37.826014,49.980234],[37.826014,49.980232784688994],[37.826051,49.980208],[37.826128,49.980063],[37.826126,49.979936],[37.826298,49.979812],[37.826519,49.979535],[37.826577,49.979458],[37.826541,49.979433],[37.82654097058823,49.979433],[37.826014,49.97906734693878],[37.826014,49.979067],[37.825383,49.978629]]]}},{"type":"Feature","properties":{"cadnum":"6321881501:00:000:0141"},"geometry":{"type":"Polygon","coordinates":[[[37.825617,49.982866],[37.825513,49.982842],[37.824989,49.983075],[37.824990013333334,49.983075],[37.824395,49.98334],[37.824581,49.983584],[37.825811,49.983002],[37.825617,49.982866]]]}},{"type":"Feature","properties":{"cadnum":"6321881501:00:000:0150"},"geometry":{"type":"Polygon","coordinates":[[[37.826014,49.98268318032787],[37.826208,49.982777],[37.826195,49.982905],[37.826395999988314,49.983074999990116],[37.826409,49.983086],[37.826633,49.983185],[37.826856,49.982965],[37.82685465,49.982965],[37.827149,49.982675],[37.827518,49.982807],[37.827505,49.98248],[37.827508,49.982324],[37.826719,49.982176],[37.826247,49.981987],[37.826475,49.981673],[37.826482,49.981442],[37.826014,49.9814200625],[37.826014,49.981419],[37.824854,49.981363],[37.824828,49.982004],[37.825017,49.982202],[37.826014,49.982684],[37.826014,49.98268318032787]]]}},{"type":"Feature","properties":{"cadnum":"6321881501:00:000:0069"},"geometry":{"type":"Polygon","coordinates":[[[37.826529,49.981347],[37.826661,49.980118],[37.826807,49.980143],[37.826689,49.981175],[37.826805,49.981085],[37.826981,49.981058],[37.827056,49.980086],[37.827196,49.980139],[37.827331,49.980013],[37.826799,49.97974],[37.826616,49.979911],[37.826412,49.98011],[37.826364,49.980264],[37.826251,49.980833],[37.826298,49.980837],[37.826287,49.980943],[37.82585068292547,49.981028302439285],[37.825414,49.981112],[37.825132,49.981181],[37.824856,49.981314],[37.825842,49.98136764248705],[37.825842,49.981368],[37.826499,49.981403],[37.826529,49.981347]]]}},{"type":"Feature","properties":{"cadnum":"6321881501:00:000:0068"},"geometry":{"type":"Polygon","coordinates":[[[37.826166,49.994882],[37.826169,49.994657],[37.827021,49.994474],[37.827174,49.994653],[37.828047,49.994417],[37.827929,49.994287],[37.827394,49.994406],[37.827383,49.994336],[37.827481,49.994169],[37.827416,49.993895],[37.827286,49.993847],[37.826293,49.994064],[37.826251,49.994143],[37.826512,49.994418],[37.82602,49.994555],[37.826014,49.99448425],[37.826014,49.994477],[37.825996,49.994272],[37.824415,49.994422],[37.824462,49.99476],[37.82487,49.99488],[37.825098,49.994861],[37.825378,49.995064],[37.825842,49.99495675471698],[37.825842,49.994957],[37.826166,49.994882]]]}},{"type":"Feature","properties":{"cadnum":"6321881501:00:000:0071"},"geometry":{"type":"Polygon","coordinates":[[[37.825629,49.996989],[37.825706,49.996849],[37.825487,49.996734],[37.825413,49.996253],[37.825359,49.996152],[37.824226,49.996464],[37.824281,49.996551],[37.823683,49.99678],[37.823956554502374,49.997092],[37.823956,49.997092],[37.824369,49.997561],[37.824998,49.997397],[37.825035,49.997433],[37.824848,49.997575],[37.824946,49.997775],[37.825149,49.997789],[37.826014,49.997579],[37.826014,49.99757807077326],[37.826605,49.997434],[37.826908,49.997229],[37.826538,49.997099],[37.82597843181717,49.997066840909035],[37.825701,49.99705],[37.825629,49.996989]]]}},{"type":"Feature","properties":{"cadnum":"6321881501:00:000:0088"},"geometry":{"type":"Polygon","coordinates":[[[37.826323,49.995891],[37.826174,49.99553],[37.825877,49.995449],[37.824992,49.995559],[37.825069,49.995279],[37.824483,49.995103],[37.822898,49.995588],[37.823692,49.995541],[37.823767,49.995729],[37.82289,49.995849],[37.823031,49.996035],[37.823586,49.995979],[37.823655,49.99606],[37.823579,49.996104],[37.823805,49.996392],[37.824226,49.996464],[37.825359,49.996152],[37.825842,49.99602147938931],[37.825842,49.996022],[37.826323,49.995891]]]}},{"type":"Feature","properties":{"cadnum":"6321881501:00:000:0084"},"geometry":{"type":"Polygon","coordinates":[[[37.825996,49.994272],[37.826014,49.994209],[37.826014,49.9942084],[37.826026,49.994166],[37.826114,49.994072],[37.826188,49.994053],[37.826132,49.993818],[37.82596572282525,49.993819146739135],[37.824369,49.993824],[37.824355,49.993766],[37.82423,49.993767],[37.822744,49.993726],[37.822704,49.993847],[37.822826,49.993986],[37.824309,49.994026],[37.824265,49.994437],[37.824415,49.994422],[37.825842,49.9942866110057],[37.825842,49.994287],[37.825996,49.994272]]]}},{"type":"Feature","properties":{"cadnum":"6321881501:00:000:0089"},"geometry":{"type":"Polygon","coordinates":[[[37.826014,49.993444],[37.826014,49.99344343786982],[37.82618,49.99344],[37.826196623376624,49.99356],[37.826196,49.99356],[37.82620587725627,49.99362680144371],[37.826212,49.993671],[37.82621241245136,49.993671],[37.826234,49.993817],[37.826397,49.993807],[37.82638543213298,49.99356889473708],[37.826356,49.992911],[37.826581,49.992907],[37.826594,49.992727],[37.825842,49.99271],[37.825842,49.99271004597701],[37.825492,49.992702],[37.825635,49.992228],[37.824782,49.992158],[37.824738,49.992359],[37.824774,49.992583],[37.824854,49.992878],[37.824723,49.993163],[37.824725,49.993467],[37.826014,49.993444]]]}},{"type":"Feature","properties":{"cadnum":"6321881501:00:000:0082"},"geometry":{"type":"Polygon","coordinates":[[[37.825842,49.993447],[37.825842,49.993447107619794],[37.824741,49.993467],[37.824565485294116,49.99356],[37.824564,49.99356],[37.824333,49.993683],[37.824369,49.993824],[37.825842,49.99381952279636],[37.825842,49.99382],[37.826187,49.993818],[37.82618297948718,49.99366981538472],[37.826179,49.99344],[37.825842,49.993447]]]}},{"type":"Feature","properties":{"cadnum":"6321881501:00:000:0086"},"geometry":{"type":"Polygon","coordinates":[[[37.827569,49.996784],[37.827749,49.996604],[37.827927,49.99649],[37.828161,49.996341],[37.828422,49.996115],[37.828668,49.995818],[37.828803,49.995601],[37.828772,49.995469],[37.828587,49.995197],[37.828259,49.995329],[37.828166,49.995614],[37.827799,49.99579],[37.827546,49.995573],[37.827045,49.995831],[37.827127,49.996035],[37.827152,49.996051],[37.827258,49.996216],[37.827313,49.996354],[37.827447,49.996454],[37.827569,49.996784]]]}},{"type":"Feature","properties":{"cadnum":"6321881501:00:000:0083"},"geometry":{"type":"Polygon","coordinates":[[[37.842268,49.979113],[37.842048,49.979033],[37.841698116009276,49.979433],[37.841698,49.979433],[37.841671,49.979464],[37.841891,49.979543],[37.84189121250001,49.979543],[37.841894,49.979544],[37.84199,49.979433],[37.841989674418606,49.979433],[37.842268,49.979113]]]}},{"type":"Feature","properties":{"cadnum":"6321881501:00:000:0166"},"geometry":{"type":"Polygon","coordinates":[[[37.841974,49.980154],[37.841238,49.979684],[37.841021,49.979934],[37.840463,49.980571],[37.840514,49.980648],[37.840414,49.980764],[37.841879,49.981142],[37.842321,49.981255739413676],[37.842321,49.981257],[37.843315,49.981512],[37.843567,49.981169],[37.84287,49.980724],[37.842321,49.980375],[37.842321,49.9803753044316],[37.841974,49.980154]]]}},{"type":"Feature","properties":{"cadnum":"6321881501:00:000:0120"},"geometry":{"type":"Polygon","coordinates":[[[37.838356,49.982719],[37.83897,49.98194],[37.83788,49.981568],[37.837519,49.981589],[37.837204,49.981965],[37.837225,49.982339],[37.838356,49.982719]]]}},{"type":"Feature","properties":{"cadnum":"6321881501:00:000:0098"},"geometry":{"type":"Polygon","coordinates":[[[37.83924,49.98202],[37.84042,49.980617],[37.83986,49.980448],[37.839299,49.981091],[37.838231,49.980761],[37.837606,49.98147],[37.83924,49.98202]]]}},{"type":"Feature","properties":{"cadnum":"6321881501:00:000:0121"},"geometry":{"type":"Polygon","coordinates":[[[37.839299,49.981091],[37.83986,49.980448],[37.840333,49.98059],[37.840447,49.980472],[37.839057,49.979993],[37.838855,49.980224],[37.839175,49.98034],[37.83905,49.980478],[37.838708,49.980348],[37.838231,49.980761],[37.839299,49.981091]]]}},{"type":"Feature","properties":{"cadnum":"6321881501:00:000:0165"},"geometry":{"type":"Polygon","coordinates":[[[37.842493,49.98215429184549],[37.842787,49.98223],[37.843315,49.981512],[37.842493,49.98130112474849],[37.842493,49.9813],[37.841879,49.981142],[37.840414,49.980764],[37.839816,49.981463],[37.841266,49.981838],[37.842493,49.982155],[37.842493,49.98215429184549]]]}},{"type":"Feature","properties":{"cadnum":"6321881501:00:000:0119"},"geometry":{"type":"Polygon","coordinates":[[[37.839842,49.979197],[37.8396087283237,49.979433],[37.839608,49.979433],[37.839057,49.979993],[37.840447,49.980472],[37.840963,49.979902],[37.840263,49.97944],[37.839842,49.979197]]]}},{"type":"Feature","properties":{"cadnum":"6321881501:00:000:0169"},"geometry":{"type":"Polygon","coordinates":[[[37.842493,49.982629],[37.842493,49.98262872961374],[37.842787,49.98223],[37.842321,49.98211],[37.842321,49.98211056316218],[37.841266,49.981838],[37.839816,49.981463],[37.83928,49.98209],[37.839001,49.982021],[37.838961,49.982072],[37.840311,49.982421],[37.841422,49.982707],[37.84206,49.982872],[37.842288,49.982907],[37.842493,49.982629]]]}},{"type":"Feature","properties":{"cadnum":"6321881501:00:000:0167"},"geometry":{"type":"Polygon","coordinates":[[[37.841422,49.982707],[37.840311,49.982421],[37.838961,49.982072],[37.838329,49.982857],[37.83876694495412,49.982965],[37.838765,49.982965],[37.839419,49.983126],[37.840614,49.98342],[37.840998,49.983081],[37.841129,49.982965],[37.84112894565217,49.982965],[37.841422,49.982707]]]}},{"type":"Feature","properties":{"cadnum":"6321881501:00:000:0092"},"geometry":{"type":"Polygon","coordinates":[[[37.829263,50.003901],[37.829036,50.003435],[37.828859,50.003042],[37.828749,50.002859],[37.826667,50.003157],[37.826911,50.003832],[37.826978618055556,50.004153],[37.826978,50.004153],[37.82699878066047,50.00424871698157],[37.827002,50.004264],[37.82700209868421,50.004264],[37.827011,50.004305],[37.8272389276316,50.004264],[37.827241,50.004264],[37.829263,50.003901]]]}},{"type":"Feature","properties":{"cadnum":"6321881501:00:000:0043"},"geometry":{"type":"Polygon","coordinates":[[[37.828615,50.00069],[37.828598,50.000604],[37.82753917646975,50.00073047058833],[37.826498,50.000854],[37.82666,50.000876],[37.826659,50.001012],[37.826428,50.001229],[37.825941981043954,50.001280421800814],[37.825752,50.0013],[37.825842,50.001503015267176],[37.825842,50.001504],[37.82603,50.001928],[37.828398,50.00161],[37.828669,50.001579],[37.828672,50.001542],[37.828677,50.001267],[37.828668,50.001079],[37.82862085861183,50.000733],[37.828621,50.000733],[37.828615,50.00069]]]}},{"type":"Feature","properties":{"cadnum":"6321881501:00:000:0045"},"geometry":{"type":"Polygon","coordinates":[[[37.82753917646975,50.00073047058833],[37.828445,50.000623],[37.82843893023259,50.000623],[37.828598,50.000604],[37.828454,49.999909],[37.828433,49.999541],[37.826373,49.999632],[37.826408,49.99971],[37.826559,49.999896],[37.826492,49.999981],[37.826184,50.000064],[37.826098,50.000349],[37.826097,50.000436],[37.826258,50.000471],[37.8264156,50.000623],[37.826415,50.000623],[37.826455,50.000661],[37.82647,50.000733],[37.82647104145078,50.000733],[37.826498,50.000854],[37.82751785714286,50.000733],[37.827518,50.000733],[37.82753917646975,50.00073047058833]]]}},{"type":"Feature","properties":{"cadnum":"6321881501:00:000:0042"},"geometry":{"type":"Polygon","coordinates":[[[37.830416,50.000513],[37.828656,50.000609],[37.828658545454545,50.000623],[37.828657,50.000623],[37.82867,50.000686],[37.828676,50.000733],[37.8286764910486,50.000733],[37.828724,50.001077],[37.828733,50.001267],[37.828727,50.001543],[37.828709,50.001777],[37.828711,50.001893],[37.830721,50.001818],[37.830706,50.001178],[37.83051116216216,50.000733],[37.830512,50.000733],[37.830416,50.000513]]]}},{"type":"Feature","properties":{"cadnum":"6321881501:00:000:0044"},"geometry":{"type":"Polygon","coordinates":[[[37.828656,50.000609],[37.830416,50.000513],[37.830269,50.000174],[37.830078,49.999928],[37.829873,49.998962],[37.828469,49.998978],[37.828465,49.999142],[37.828509,49.999905],[37.828656,50.000609]]]}},{"type":"Feature","properties":{"cadnum":"6321881501:00:000:0046"},"geometry":{"type":"Polygon","coordinates":[[[37.828469,49.998978],[37.829873,49.998962],[37.829893,49.998322],[37.829897,49.99821],[37.829985,49.998136],[37.830006,49.997792],[37.829824,49.997459],[37.829577,49.997438],[37.82951,49.997278],[37.827955,49.997359],[37.827961,49.997394],[37.828004,49.997483],[37.828115,49.997554],[37.828373,49.997705],[37.828453,49.997802],[37.828454,49.997981],[37.828449,49.998321],[37.828473,49.998608],[37.82847,49.998941],[37.828469,49.998978]]]}},{"type":"Feature","properties":{"cadnum":"6321881501:00:000:0160"},"geometry":{"type":"Polygon","coordinates":[[[37.812299,49.989893],[37.81179,49.98998],[37.811267,49.989882],[37.81137453307393,49.990029],[37.811374,49.990029],[37.81143252899432,49.99010828165712],[37.811455,49.990139],[37.81145520654397,49.990139],[37.811735,49.990518],[37.811027,49.990774],[37.810881,49.990587],[37.810569,49.990708],[37.809936,49.991278],[37.810252,49.991533],[37.810784,49.991275],[37.811538,49.991031],[37.811296,49.990723],[37.812291,49.990468],[37.812419,49.99015],[37.812363500000025,49.990032184210584],[37.812299,49.989893]]]}},{"type":"Feature","properties":{"cadnum":"6321881501:00:000:0087"},"geometry":{"type":"Polygon","coordinates":[[[37.822898,49.995588],[37.824483,49.995103],[37.824461,49.995092],[37.824308,49.994978],[37.824317,49.99485],[37.824057,49.994518],[37.824265,49.994437],[37.824309,49.994026],[37.824159,49.994022],[37.822826,49.993986],[37.822303,49.994781],[37.822406,49.995504],[37.822916,49.995334],[37.822952,49.995387],[37.822768,49.995463],[37.822898,49.995588]]]}},{"type":"Feature","properties":{"cadnum":"6321881501:00:000:0056"},"geometry":{"type":"Polygon","coordinates":[[[37.824343,49.993446],[37.824623,49.99322],[37.824757,49.992979],[37.824799,49.992826],[37.824769,49.992707],[37.824717,49.992551],[37.82317,49.992197],[37.823044,49.992302],[37.822816,49.992912],[37.82253575720789,49.99356],[37.822535,49.99356],[37.822531,49.993571],[37.822668,49.993671],[37.822668419354834,49.993671],[37.822744,49.993726],[37.82423,49.993767],[37.824174,49.993674],[37.824186,49.993583],[37.824343,49.993446]]]}},{"type":"Feature","properties":{"cadnum":"6321881501:00:000:0012"},"geometry":{"type":"Polygon","coordinates":[[[37.840308,49.974962],[37.840587,49.974862],[37.840574,49.974851],[37.840629,49.974828],[37.840708,49.974793],[37.840444,49.974608],[37.840208,49.97443],[37.840035,49.974267],[37.839682,49.974392],[37.839984,49.974639],[37.84004,49.974723],[37.840308,49.974962]]]}},{"type":"Feature","properties":{"cadnum":"6321881501:00:000:0016"},"geometry":{"type":"Polygon","coordinates":[[[37.839919,49.975266],[37.840169,49.975219],[37.840261,49.975163],[37.83967,49.974703],[37.839407,49.974459],[37.839113,49.974557],[37.839374,49.974811],[37.839919,49.975266]]]}},{"type":"Feature","properties":{"cadnum":"6321881501:00:000:0034"},"geometry":{"type":"Polygon","coordinates":[[[37.841448,49.973806],[37.841722,49.973767],[37.841727,49.973779],[37.842001,49.973732],[37.842067,49.973721],[37.842265,49.973689],[37.842248,49.973369],[37.841316,49.973432],[37.841367,49.973571],[37.841448,49.973806]]]}},{"type":"Feature","properties":{"cadnum":"6321881501:00:000:0117"},"geometry":{"type":"Polygon","coordinates":[[[37.838024,49.974263],[37.838066,49.974257],[37.838084,49.974232],[37.838179,49.974183],[37.838435,49.974025],[37.838045,49.973764],[37.837851,49.973637],[37.837488,49.973917],[37.837701,49.974036],[37.837947,49.974229],[37.838024,49.974263]]]}},{"type":"Feature","properties":{"cadnum":"6321881501:00:000:0021"},"geometry":{"type":"Polygon","coordinates":[[[37.838265,49.974382],[37.838424,49.974293],[37.838649,49.974171],[37.838435,49.974025],[37.838179,49.974183],[37.838084,49.974232],[37.838066,49.974257],[37.838101,49.974279],[37.838096,49.974285],[37.838151,49.974316],[37.838265,49.974382]]]}},{"type":"Feature","properties":{"cadnum":"6321881501:00:000:0151"},"geometry":{"type":"Polygon","coordinates":[[[37.840303,49.975202],[37.840487,49.975108],[37.840308,49.974962],[37.84004,49.974723],[37.839984,49.974639],[37.839795,49.974484],[37.839568,49.974609],[37.83967,49.974703],[37.840261,49.975163],[37.840303,49.975202]]]}},{"type":"Feature","properties":{"cadnum":"6321881501:00:000:0064"},"geometry":{"type":"Polygon","coordinates":[[[37.839159,49.975753],[37.839281,49.975676],[37.838989,49.975328],[37.838809,49.975189],[37.838991,49.975095],[37.83858,49.97481],[37.838444,49.974891],[37.838302,49.974989],[37.838263,49.975014],[37.838258,49.975022],[37.838385,49.975123],[37.83843,49.975159],[37.838423,49.975162],[37.838467,49.975199],[37.838715,49.975376],[37.838769,49.975429],[37.838797,49.975458],[37.838895,49.975538],[37.838906,49.975533],[37.839083,49.975685],[37.839159,49.975753]]]}},{"type":"Feature","properties":{"cadnum":"6321881501:00:000:0104"},"geometry":{"type":"Polygon","coordinates":[[[37.836732,49.975843],[37.836636,49.975898],[37.836632385964904,49.9759],[37.836632,49.9759],[37.836533,49.975955],[37.836803,49.976139],[37.836828,49.97615135632184],[37.836828,49.976152],[37.83689,49.976182],[37.837,49.976242],[37.837,49.976241673202615],[37.837043,49.976265],[37.837059,49.976273],[37.837072,49.97626],[37.837096,49.976237],[37.837169,49.976173],[37.837288,49.976065],[37.837276,49.976058],[37.837162,49.975994],[37.83709,49.975951],[37.83687252287575,49.975830640522844],[37.836816,49.975799],[37.836732,49.975843]]]}},{"type":"Feature","properties":{"cadnum":"6321881501:00:000:0041"},"geometry":{"type":"Polygon","coordinates":[[[37.826574,50.00302],[37.828646,50.002674],[37.828398,50.00161],[37.82603,50.001928],[37.826258,50.002323],[37.826574,50.00302]]]}},{"type":"Feature","properties":{"cadnum":"6321881501:00:000:0115"},"geometry":{"type":"Polygon","coordinates":[[[37.838121,49.977433],[37.838191,49.97737],[37.838208,49.977379],[37.838202,49.977384],[37.83824,49.977404],[37.838273,49.977378],[37.838247,49.977364],[37.838285,49.977332],[37.838252,49.977317],[37.83832,49.977257],[37.838232,49.977217],[37.838204,49.977242],[37.838185,49.977233],[37.838163,49.977253],[37.838181,49.977262],[37.838033,49.977393],[37.838121,49.977433]]]}},{"type":"Feature","properties":{"cadnum":"6321881501:00:000:0009"},"geometry":{"type":"Polygon","coordinates":[[[37.840767,49.979035],[37.841092,49.9788],[37.840727,49.978591],[37.840402,49.978826],[37.840767,49.979035]]]}},{"type":"Feature","properties":{"cadnum":"6321881501:00:000:0164"},"geometry":{"type":"Polygon","coordinates":[[[37.83154,49.974809],[37.831597,49.974802],[37.831851,49.974768],[37.831791,49.974539],[37.83178,49.974515],[37.831749,49.97452],[37.831741,49.974473],[37.831685,49.974485],[37.83154,49.974525],[37.831335,49.974579],[37.831335,49.97457922857143],[37.831157,49.974625],[37.831179,49.974674],[37.831188,49.974681],[37.83121,49.974714],[37.831302,49.974841],[37.831335,49.974837],[37.831507,49.974814],[37.831507,49.97481350731707],[37.83154,49.974809]]]}},{"type":"Feature","properties":{"cadnum":"6321881501:00:000:0159"},"geometry":{"type":"Polygon","coordinates":[[[37.83034,49.974709],[37.830852,49.97459],[37.830636,49.974313],[37.830387,49.974319],[37.829997,49.974259],[37.829628,49.974125],[37.829441,49.974026],[37.82928,49.974096],[37.83034,49.974709]]]}},{"type":"Feature","properties":{"cadnum":"6321881501:00:000:0144"},"geometry":{"type":"Polygon","coordinates":[[[37.831507,49.975922],[37.831507,49.975920767527676],[37.831609,49.975882],[37.831826,49.975803],[37.831601,49.975534],[37.831369,49.97561],[37.831233,49.975514],[37.830646,49.975696],[37.83096,49.975857],[37.83108698437501,49.9759],[37.831086,49.9759],[37.831335,49.97598398809524],[37.831335,49.975984],[37.831338,49.975985],[37.831507,49.975922]]]}},{"type":"Feature","properties":{"cadnum":"6321881501:00:000:0124"},"geometry":{"type":"Polygon","coordinates":[[[37.831858,49.974415],[37.831749,49.974265],[37.831814,49.974243],[37.83178,49.974192],[37.831649,49.973994],[37.831634,49.973971],[37.831622,49.973958],[37.831552,49.973882],[37.83140117040389,49.973943860986424],[37.831307,49.973982],[37.831177,49.974084],[37.831196,49.974129],[37.83121,49.974165],[37.831122,49.974202],[37.830994,49.974255],[37.831027,49.974297],[37.831051,49.974328],[37.831196,49.974293],[37.831316,49.974325],[37.831335,49.97434528220859],[37.831335,49.974346],[37.831479,49.974499],[37.831507,49.974493],[37.831507,49.97449279419525],[37.831858,49.974415]]]}},{"type":"Feature","properties":{"cadnum":"6321881501:00:000:0161"},"geometry":{"type":"Polygon","coordinates":[[[37.830651,49.975786],[37.830536,49.975727],[37.830215,49.97601],[37.830215914634145,49.97601],[37.829785,49.976392],[37.829915,49.97666],[37.830023,49.97668],[37.830227,49.976651],[37.830361,49.976684],[37.831118,49.975977],[37.830984,49.975932],[37.830901,49.97601],[37.83090158698727,49.97601],[37.830237,49.976639],[37.830023,49.976666],[37.829931,49.976649],[37.829845,49.97647],[37.83048901608683,49.97592292225114],[37.830651,49.975786]]]}},{"type":"Feature","properties":{"cadnum":"6321881501:00:000:0157"},"geometry":{"type":"Polygon","coordinates":[[[37.828277,49.97593],[37.828647,49.975708],[37.827601,49.97529],[37.827497,49.975544],[37.828277,49.97593]]]}},{"type":"Feature","properties":{"cadnum":"6321881501:00:000:0162"},"geometry":{"type":"Polygon","coordinates":[[[37.830441,49.97567],[37.83016770588235,49.9759],[37.830167,49.9759],[37.829696,49.976298],[37.829841,49.976635],[37.82992,49.976703],[37.830359,49.976712],[37.830548,49.976805],[37.83064,49.976863],[37.830973,49.97656],[37.831335,49.976212415929204],[37.831335,49.976213],[37.831425,49.976126],[37.83118599328859,49.97601],[37.831186,49.97601],[37.831118,49.975977],[37.831082,49.97601],[37.83108266619519,49.97601],[37.830361,49.976684],[37.830227,49.976651],[37.830023,49.97668],[37.829915,49.97666],[37.829785,49.976392],[37.83034,49.9759],[37.83033977031802,49.9759],[37.830536,49.975727],[37.830441,49.97567]]]}},{"type":"Feature","properties":{"cadnum":"6321881501:00:000:0168"},"geometry":{"type":"Polygon","coordinates":[[[37.829338,49.975062],[37.830309,49.97471],[37.829228,49.974086],[37.829416,49.974002],[37.829628,49.973913],[37.829429,49.973788],[37.828464,49.974095],[37.828697,49.974404],[37.829118,49.974905],[37.829338,49.975062]]]}},{"type":"Feature","properties":{"cadnum":"6321881501:00:000:0094"},"geometry":{"type":"Polygon","coordinates":[[[37.83096,49.974861],[37.831013,49.974855],[37.831066,49.97484],[37.831155,49.974829],[37.831149,49.974815],[37.831112,49.974738],[37.831098,49.974743],[37.831091,49.974726],[37.831071,49.974692],[37.830997,49.974585],[37.83098,49.974556],[37.830852,49.97459],[37.83029,49.97472],[37.830449,49.974846],[37.830833,49.974843],[37.830856,49.974847],[37.83096,49.974861]]]}},{"type":"Feature","properties":{"cadnum":"6321881501:00:000:0070"},"geometry":{"type":"Polygon","coordinates":[[[37.826014,49.987423699011686],[37.826955,49.987526],[37.826903,49.987834],[37.826197,49.987788],[37.826201,49.98795],[37.826651,49.988009],[37.827288,49.988008],[37.827545,49.987974],[37.827954,49.987566],[37.828775,49.987676],[37.829107,49.987277],[37.828602,49.987303],[37.827714,49.987226],[37.826982,49.987204],[37.8259,49.987092],[37.825842,49.987166],[37.825842,49.98716613913043],[37.82567,49.987386],[37.825842,49.987405],[37.825842000002034,49.98740500000022],[37.826014,49.987424],[37.826014,49.987423699011686]]]}},{"type":"Feature","properties":{"cadnum":"6321881501:00:000:0080"},"geometry":{"type":"Polygon","coordinates":[[[37.828534,49.986349],[37.828658,49.986208],[37.828656,49.986074],[37.82742,49.985806],[37.8266,49.985525],[37.826425,49.985809],[37.826188,49.986318],[37.82608698755187,49.986497],[37.826086,49.986497],[37.826052,49.986559],[37.827666,49.986855],[37.827627,49.986989],[37.825948,49.986676],[37.825906,49.986767],[37.826348,49.986882],[37.827066,49.98702],[37.827609,49.987045],[37.827955,49.986975],[37.828124,49.986878],[37.828281,49.986718],[37.828432,49.986497],[37.82843189147287,49.986497],[37.828534,49.986349]]]}},{"type":"Feature","properties":{"cadnum":"6321881501:00:000:0175"},"geometry":{"type":"Polygon","coordinates":[[[37.829909,49.988598],[37.82995,49.988437],[37.830078,49.988121],[37.830168,49.98795],[37.830272,49.98783],[37.830486,49.987634],[37.829857,49.987024],[37.829559,49.987115],[37.829293,49.987197],[37.829158,49.987294],[37.82898,49.987506],[37.828807,49.987714],[37.8283,49.987869],[37.828076,49.987989],[37.828061,49.988058],[37.828591,49.988091],[37.828877,49.988118],[37.82879,49.988436],[37.829069,49.98846],[37.829909,49.988598]]]}},{"type":"Feature","properties":{"cadnum":"6321881501:00:000:0079"},"geometry":{"type":"Polygon","coordinates":[[[37.826014,49.987773566197184],[37.826197,49.987788],[37.826903,49.987834],[37.826955,49.987526],[37.825842000002034,49.98740500000022],[37.82567,49.987386],[37.82528,49.987715],[37.826014,49.987774],[37.826014,49.987773566197184]]]}},{"type":"Feature","properties":{"cadnum":"6321881501:00:000:0053"},"geometry":{"type":"Polygon","coordinates":[[[37.82798,49.989805],[37.82775868263473,49.990029],[37.827758,49.990029],[37.827388,49.990405],[37.828458,49.990664],[37.828583,49.990708],[37.828641,49.991154],[37.828925,49.991301],[37.829069,49.991329],[37.829164,49.991204],[37.828808,49.99106],[37.829199,49.99051],[37.829629,49.990621],[37.829727,49.990488],[37.82883359041394,49.990139],[37.828834,49.990139],[37.82798,49.989805]]]}},{"type":"Feature","properties":{"cadnum":"6321881501:00:000:0158"},"geometry":{"type":"Polygon","coordinates":[[[37.82798,49.989805],[37.827746,49.989714],[37.826972,49.989492],[37.826549,49.989379],[37.826307,49.990028],[37.8263085045045,49.990029],[37.826307,49.990029],[37.826507,49.990162],[37.826597,49.990382],[37.826677,49.990507],[37.826842,49.990504],[37.827002,49.990301],[37.827388,49.990405],[37.82764975531915,49.990139],[37.82765,49.990139],[37.82798,49.989805]]]}},{"type":"Feature","properties":{"cadnum":"6321881501:00:000:0163"},"geometry":{"type":"Polygon","coordinates":[[[37.830683,49.979406],[37.831057,49.979151],[37.830573,49.978829],[37.830506,49.978786],[37.830463,49.978762],[37.830296,49.978675],[37.830218,49.978743],[37.830183,49.978776],[37.829998,49.978903],[37.830321,49.979035],[37.830593,49.979168],[37.830454,49.979289],[37.830683,49.979406]]]}},{"type":"Feature","properties":{"cadnum":"6321881501:00:000:0020"},"geometry":{"type":"Polygon","coordinates":[[[37.830646,49.97822],[37.831016,49.977872],[37.830754,49.977745],[37.829989,49.977551],[37.829809,49.97772],[37.829963,49.977761],[37.830437,49.977918],[37.83054,49.977976],[37.830427,49.97808],[37.830483,49.978104],[37.830457,49.978129],[37.830646,49.97822]]]}},{"type":"Feature","properties":{"cadnum":"6321881501:00:000:0097"},"geometry":{"type":"Polygon","coordinates":[[[37.828972,49.979338],[37.829239,49.979039],[37.828961,49.978927],[37.828012,49.978571],[37.827686,49.978812],[37.828261,49.979048],[37.828972,49.979338]]]}},{"type":"Feature","properties":{"cadnum":"6321881501:00:000:0114"},"geometry":{"type":"Polygon","coordinates":[[[37.829703,49.978959],[37.829924,49.978787],[37.830089,49.978669],[37.829809,49.978558],[37.82975,49.978537],[37.829765,49.978513],[37.829411,49.978362],[37.829368,49.978373],[37.829039,49.978665],[37.829419,49.97883],[37.829703,49.978959]]]}},{"type":"Feature","properties":{"cadnum":"6321881501:00:000:0113"},"geometry":{"type":"Polygon","coordinates":[[[37.829561,49.979141],[37.829703,49.978959],[37.829419,49.97883],[37.829039,49.978665],[37.828666,49.978505],[37.82842,49.978724],[37.828961,49.978927],[37.829239,49.979039],[37.829561,49.979141]]]}},{"type":"Feature","properties":{"cadnum":"6321881501:00:000:0146"},"geometry":{"type":"Polygon","coordinates":[[[37.828654,49.977228],[37.828847,49.977042],[37.829107,49.97663],[37.829074,49.976319],[37.828646,49.976317],[37.827799,49.976336],[37.827748,49.976458],[37.828751,49.976518],[37.828508,49.976912],[37.827623,49.976737],[37.827506,49.976849],[37.828236,49.977113],[37.828654,49.977228]]]}},{"type":"Feature","properties":{"cadnum":"6321881501:00:000:0036"},"geometry":{"type":"Polygon","coordinates":[[[37.829563,49.979316],[37.829397,49.979516],[37.829374,49.979543],[37.82937437837838,49.979543],[37.829366,49.979553],[37.829323,49.979603],[37.829262,49.979679],[37.829935,49.979957],[37.829986,49.979897],[37.830014,49.979865],[37.830038,49.979836],[37.830206,49.979625],[37.82992159327738,49.97948882521012],[37.829563,49.979316]]]}},{"type":"Feature","properties":{"cadnum":"6321881501:00:000:0170"},"geometry":{"type":"Polygon","coordinates":[[[37.828949,49.979366],[37.828415,49.979134],[37.82763,49.978811],[37.827534,49.978929],[37.827292,49.979127],[37.826927,49.979371],[37.826890232558135,49.979433],[37.826889,49.979433],[37.826787,49.979607],[37.826799,49.97974],[37.827331,49.980013],[37.828571,49.980436],[37.828884,49.979995],[37.829248,49.979471],[37.828949,49.979366]]]}},{"type":"Feature","properties":{"cadnum":"6321881501:00:000:0116"},"geometry":{"type":"Polygon","coordinates":[[[37.826543,49.977819],[37.826993,49.977433],[37.826695,49.977326],[37.826659,49.977364],[37.82651,49.97732],[37.826166,49.977601],[37.826543,49.977819]]]}},{"type":"Feature","properties":{"cadnum":"6321881501:00:000:0171"},"geometry":{"type":"Polygon","coordinates":[[[37.827934,49.977923],[37.828572,49.977326],[37.828572,49.977232],[37.828469,49.977201],[37.827789,49.977862],[37.827934,49.977923]]]}},{"type":"Feature","properties":{"cadnum":"6321881501:00:000:0143"},"geometry":{"type":"Polygon","coordinates":[[[37.827713,49.978399],[37.828057,49.977997],[37.827183,49.977626],[37.827403,49.977276],[37.827221,49.977224],[37.827073,49.97746],[37.826881,49.977699],[37.826688,49.977891],[37.826913,49.978001],[37.827713,49.978399]]]}},{"type":"Feature","properties":{"cadnum":"6321881501:00:000:0122"},"geometry":{"type":"Polygon","coordinates":[[[37.82692,49.976802],[37.826832,49.976548],[37.827159,49.976501],[37.827119,49.976256],[37.826747,49.976304],[37.826554,49.976328],[37.826262,49.976362],[37.826408,49.976621],[37.826354,49.976781],[37.82692,49.976802]]]}},{"type":"Feature","properties":{"cadnum":"6321881501:00:000:0105"},"geometry":{"type":"Polygon","coordinates":[[[37.827534,49.977747],[37.827914,49.97738],[37.827998,49.977322],[37.827293,49.977077],[37.827251,49.977133],[37.827218,49.977207],[37.827432,49.977266],[37.827249,49.9776],[37.827446,49.977716],[37.827534,49.977747]]]}},{"type":"Feature","properties":{"cadnum":"6321881501:00:000:0077"},"geometry":{"type":"Polygon","coordinates":[[[37.830457,49.978129],[37.830483,49.978104],[37.830427,49.97808],[37.83054,49.977976],[37.830437,49.977918],[37.829963,49.977761],[37.829809,49.97772],[37.829989,49.977551],[37.830021,49.977521],[37.82984,49.977485],[37.829173,49.977454],[37.828984,49.977486],[37.828956,49.977852],[37.829264,49.977941],[37.829407,49.977964],[37.829549,49.977783],[37.830438,49.977997],[37.830356,49.978086],[37.830457,49.978129]]]}},{"type":"Feature","properties":{"cadnum":"6321881501:00:000:0073"},"geometry":{"type":"Polygon","coordinates":[[[37.827765,49.977853],[37.828434,49.977208],[37.828261,49.977143],[37.827914,49.97738],[37.827534,49.977747],[37.827765,49.977853]]]}},{"type":"Feature","properties":{"cadnum":"6321881501:00:000:0059"},"geometry":{"type":"Polygon","coordinates":[[[37.829293,49.978348],[37.829364,49.978242],[37.829082,49.978154],[37.829264,49.977941],[37.828956,49.977852],[37.828984,49.977486],[37.829173,49.977454],[37.82984,49.977485],[37.830246,49.977564],[37.830335,49.977364],[37.829714,49.977195],[37.829805,49.977041],[37.829702,49.977],[37.829366,49.977394],[37.828936,49.977387],[37.828476,49.978061],[37.829293,49.978348]]]}},{"type":"Feature","properties":{"cadnum":"6321881501:00:000:0018"},"geometry":{"type":"Polygon","coordinates":[[[37.831488,49.979202],[37.831507,49.979194],[37.831507,49.979192806451614],[37.83155,49.979172],[37.831582,49.979156],[37.831623,49.979136],[37.831635,49.979145],[37.831796,49.979075],[37.83138592441923,49.978833046511994],[37.831332,49.978801],[37.831092,49.978692],[37.830744,49.97886],[37.83107,49.97908],[37.831335,49.979234505300354],[37.831335,49.979236],[37.831353,49.979245],[37.831386,49.979255],[37.831488,49.979202]]]}},{"type":"Feature","properties":{"cadnum":"6321881501:00:000:0035"},"geometry":{"type":"Polygon","coordinates":[[[37.831441,49.978373],[37.831402,49.978355],[37.830953,49.978169],[37.830717,49.978369],[37.830395,49.978624],[37.830709,49.978828],[37.830965,49.978656],[37.830994,49.978663],[37.831335,49.978441769574935],[37.831335,49.978442],[37.831441,49.978373]]]}},{"type":"Feature","properties":{"cadnum":"6321881501:00:000:0074"},"geometry":{"type":"Polygon","coordinates":[[[37.831387,49.979543],[37.831387393586006,49.979543],[37.831344,49.979787],[37.831437,49.979946],[37.831507,49.979968],[37.831507,49.979967280000004],[37.831562,49.979984],[37.831578,49.979989],[37.831574,49.979997],[37.831615,49.98001],[37.831774,49.980053],[37.831877,49.97994],[37.832078,49.979714],[37.832102,49.979684],[37.832083,49.97966],[37.831855,49.979545],[37.831749,49.979567],[37.831405,49.979444],[37.831386,49.979543],[37.831387,49.979543]]]}},{"type":"Feature","properties":{"cadnum":"6321881501:00:000:0025"},"geometry":{"type":"Polygon","coordinates":[[[37.832446,49.978742],[37.832326,49.978665],[37.831693,49.978329],[37.831567,49.978428],[37.831402,49.978547],[37.831661,49.978708],[37.832106,49.978969],[37.832446,49.978742]]]}},{"type":"Feature","properties":{"cadnum":"6321881501:00:000:0103"},"geometry":{"type":"Polygon","coordinates":[[[37.83144,49.977088],[37.831507,49.977106],[37.831507,49.97710586666667],[37.831575,49.977124],[37.831613,49.97705],[37.831428,49.976966],[37.831363,49.976937],[37.831433,49.976756],[37.831335,49.976714],[37.831335,49.97671424347826],[37.830973,49.97656],[37.83064,49.976863],[37.831247,49.977063],[37.831335,49.977092866666666],[37.831335,49.977094],[37.831412,49.977119],[37.83144,49.977088]]]}},{"type":"Feature","properties":{"cadnum":"6321881501:00:000:0128"},"geometry":{"type":"Polygon","coordinates":[[[37.831507,49.976770800000004],[37.831818,49.976833],[37.831924,49.976639],[37.831971,49.976534],[37.831487,49.976446],[37.831493,49.976174],[37.831425,49.976126],[37.830973,49.97656],[37.831433,49.976756],[37.831507,49.976771],[37.831507,49.976770800000004]]]}},{"type":"Feature","properties":{"cadnum":"6321881501:00:000:0027"},"geometry":{"type":"Polygon","coordinates":[[[37.837,49.98383469148936],[37.837204,49.983896],[37.837307,49.983719],[37.83697617985647,49.98361540287781],[37.836699,49.983527],[37.8366,49.983493],[37.835906,49.983246],[37.835757,49.983423],[37.835985,49.983503],[37.836552,49.983699],[37.836828,49.98378278571428],[37.836828,49.983783],[37.83689850000132,49.9838041875004],[37.837,49.983835],[37.837,49.98383469148936]]]}},{"type":"Feature","properties":{"cadnum":"6321881501:00:000:0067"},"geometry":{"type":"Polygon","coordinates":[[[37.825241,49.985704],[37.825284,49.985491],[37.825299,49.985423],[37.824796,49.985404],[37.824792,49.985493],[37.824757,49.986276],[37.824864,49.986341],[37.82487723214285,49.986497],[37.824876,49.986497],[37.824883,49.986565],[37.82506,49.986605],[37.825241,49.985704]]]}},{"type":"Feature","properties":{"cadnum":"6321881501:00:000:0066"},"geometry":{"type":"Polygon","coordinates":[[[37.824521,49.987852],[37.824702,49.987815],[37.824823,49.987739],[37.824827,49.987638],[37.824898,49.98755],[37.825122,49.987577],[37.825492,49.98702],[37.824792,49.986769],[37.824187,49.986715],[37.823551,49.986809],[37.823449,49.98705],[37.823378,49.987082],[37.82302,49.987227],[37.823342,49.98756],[37.823527,49.987669],[37.823958,49.987819],[37.824161,49.987736],[37.824521,49.987852]]]}},{"type":"Feature","properties":{"cadnum":"6321881501:00:000:0065"},"geometry":{"type":"Polygon","coordinates":[[[37.831507,49.983499830687826],[37.831524,49.983501],[37.831574,49.983263],[37.831543,49.983262],[37.831466,49.983255],[37.831397,49.98325],[37.831189,49.983236],[37.831177,49.983312],[37.83117,49.983351],[37.83115,49.983475],[37.831335,49.98348795518207],[37.831335,49.983488],[37.831371000001035,49.983490476190546],[37.831507,49.9835],[37.831507,49.983499830687826]]]}},{"type":"Feature","properties":{"cadnum":"6321881501:00:000:0062"},"geometry":{"type":"Polygon","coordinates":[[[37.831437,49.983777],[37.83145,49.983744],[37.831456,49.983708],[37.831507,49.983555],[37.831507,49.983552749999994],[37.831524,49.983501],[37.831371000001035,49.983490476190546],[37.83115,49.983475],[37.831139,49.983544],[37.831135,49.983581],[37.831123,49.983684],[37.83112,49.983684],[37.831118,49.983719],[37.831106,49.983776],[37.831178,49.983783],[37.831177,49.983792],[37.831261,49.9838],[37.831272,49.983798],[37.831331,49.983802],[37.831335,49.983802301075265],[37.831335,49.983803],[37.831424,49.983809],[37.831437,49.983777]]]}},{"type":"Feature","properties":{"cadnum":"6321881501:00:000:0055"},"geometry":{"type":"Polygon","coordinates":[[[37.831233,49.982999],[37.831232,49.98302],[37.831224,49.983059],[37.831222,49.983068],[37.83122,49.983075],[37.8312205,49.983075],[37.831213,49.98311],[37.831189,49.983236],[37.831335,49.983245826923074],[37.831335,49.983246],[37.831397,49.98325],[37.831466,49.983255],[37.831507,49.983259],[37.831507,49.98325872727273],[37.831543,49.983262],[37.831574,49.983263],[37.831589,49.983219],[37.831654,49.983033],[37.831507,49.98302101880878],[37.831507,49.983021],[37.831507,49.98302],[37.831233,49.982999]]]}},{"type":"Feature","properties":{"cadnum":"6321881501:00:000:0085"},"geometry":{"type":"Polygon","coordinates":[[[37.831669,49.982983],[37.831703,49.982872],[37.831723,49.982873],[37.831731,49.98285],[37.831972,49.982895],[37.832199,49.98293],[37.832231,49.982876],[37.832252,49.982841],[37.832317,49.982735],[37.831803,49.982616],[37.831731,49.982794],[37.83145268971945,49.98276377943923],[37.83128,49.982744],[37.831267,49.982823],[37.83126,49.982864],[37.831233,49.982999],[37.831335,49.98300681751825],[37.831335,49.983007],[37.831654,49.983033],[37.831669,49.982983]]]}},{"type":"Feature","properties":{"cadnum":"6321881501:00:000:0096"},"geometry":{"type":"Polygon","coordinates":[[[37.831335,49.984418],[37.832062,49.984508],[37.832065,49.984448],[37.832094,49.984214],[37.832154,49.98408],[37.832142,49.984071],[37.831853,49.984034],[37.831854,49.984031],[37.831794,49.984024],[37.831795,49.984017],[37.831606,49.983994],[37.831469,49.983975],[37.831335,49.984418]]]}},{"type":"Feature","properties":{"cadnum":"6321881501:00:000:0101"},"geometry":{"type":"Polygon","coordinates":[[[37.833026,49.984131],[37.8331,49.984129],[37.833217,49.983978],[37.832699,49.983816],[37.832629,49.983901],[37.832593,49.984058],[37.833026,49.984131]]]}},{"type":"Feature","properties":{"cadnum":"6321881501:00:000:0057"},"geometry":{"type":"Polygon","coordinates":[[[37.832845,49.982961],[37.832691,49.982931],[37.832621,49.982917],[37.832413,49.982869],[37.832366398058255,49.982965],[37.832366,49.982965],[37.83234272972982,49.983013756756584],[37.832313,49.983075],[37.832313500000005,49.983075],[37.832303,49.983097],[37.832286,49.983114],[37.832264,49.983249],[37.832589,49.983307],[37.832696,49.983322],[37.832753,49.983331],[37.832786,49.983215],[37.833014,49.983254],[37.833163,49.983031],[37.832845,49.982961]]]}},{"type":"Feature","properties":{"cadnum":"6321881501:00:000:0093"},"geometry":{"type":"Polygon","coordinates":[[[37.833791,49.984688],[37.833876,49.984652],[37.833929,49.98445],[37.833972,49.98431],[37.833801,49.984283],[37.833788,49.984282],[37.833706,49.984272],[37.833659,49.984397],[37.833636,49.984474],[37.833614,49.984547],[37.833791,49.984688]]]}},{"type":"Feature","properties":{"cadnum":"6321881501:00:000:0039"},"geometry":{"type":"Polygon","coordinates":[[[37.832492,49.986147],[37.833065,49.985921],[37.832951,49.985785],[37.832557,49.985522],[37.832254,49.985726],[37.832323,49.985786],[37.832279,49.985819],[37.83211,49.985917],[37.832235,49.985992],[37.832287,49.986024],[37.832492,49.986147]]]}},{"type":"Feature","properties":{"cadnum":"6321881501:00:000:0050"},"geometry":{"type":"Polygon","coordinates":[[[37.832947,49.98512],[37.832975,49.985101],[37.833199,49.984959],[37.833223,49.984862],[37.833235,49.984825],[37.833348,49.98449],[37.833361,49.984442],[37.833416,49.984239],[37.83341,49.984238],[37.833418,49.984217],[37.833339,49.984206],[37.833333,49.984221],[37.833324,49.98422],[37.833258,49.984213],[37.833194,49.984204],[37.833166,49.984201],[37.833036,49.984592],[37.832944,49.984912],[37.832939,49.984931],[37.832946,49.98511],[37.832947,49.98512]]]}},{"type":"Feature","properties":{"cadnum":"6321881501:00:000:0156"},"geometry":{"type":"Polygon","coordinates":[[[37.833375,49.984853],[37.833388,49.984772],[37.833419,49.984568],[37.833525,49.984518],[37.833619,49.984529],[37.833636,49.984474],[37.833659,49.984397],[37.833706,49.984272],[37.833416,49.984239],[37.833361,49.984442],[37.833348,49.98449],[37.833238,49.984817],[37.833235,49.984825],[37.833229,49.984844],[37.833375,49.984853]]]}},{"type":"Feature","properties":{"cadnum":"6321881501:00:000:0155"},"geometry":{"type":"Polygon","coordinates":[[[37.835633,49.984844],[37.835775,49.984449],[37.835633,49.984399],[37.83538,49.984355],[37.835197,49.984323],[37.835141,49.984356],[37.835106,49.984452],[37.835067,49.984552],[37.835,49.984727],[37.835633,49.984844]]]}},{"type":"Feature","properties":{"cadnum":"6321881501:00:000:0106"},"geometry":{"type":"Polygon","coordinates":[[[37.835232,49.983733],[37.835393,49.983537],[37.835171,49.983465],[37.834884,49.983382],[37.834397,49.983255],[37.834095,49.983225],[37.834028,49.983368],[37.834705,49.983541],[37.835232,49.983733]]]}},{"type":"Feature","properties":{"cadnum":"6321881501:00:000:0107"},"geometry":{"type":"Polygon","coordinates":[[[37.832482,49.984808],[37.832707,49.984776],[37.832715,49.984653],[37.832727,49.984556],[37.832777,49.984411],[37.832846,49.984186],[37.832848,49.98418],[37.832624,49.984137],[37.832558,49.984129],[37.832486,49.984119],[37.832484,49.984134],[37.832472,49.984243],[37.832471,49.984273],[37.832471,49.984356],[37.832482,49.984808]]]}},{"type":"Feature","properties":{"cadnum":"6321881501:00:000:0174"},"geometry":{"type":"Polygon","coordinates":[[[37.836604,49.98576],[37.836687,49.98539],[37.835149,49.985325],[37.83535,49.984826],[37.835018,49.98476],[37.834686,49.985367],[37.834717,49.985618],[37.834762,49.985676],[37.836604,49.98576]]]}},{"type":"Feature","properties":{"cadnum":"6321881501:00:000:0017"},"geometry":{"type":"Polygon","coordinates":[[[37.832201,49.98164],[37.832222,49.981379],[37.831654,49.98135],[37.831626,49.98135],[37.831564,49.981344],[37.831559,49.981374],[37.831513,49.981587],[37.832201,49.98164]]]}},{"type":"Feature","properties":{"cadnum":"6321881501:00:000:0022"},"geometry":{"type":"Polygon","coordinates":[[[37.831507,49.982528685082876],[37.831567,49.982532],[37.831817,49.982568],[37.831882,49.982422],[37.832004,49.98242],[37.832018,49.982422],[37.832016,49.982356],[37.831843,49.982343],[37.831562,49.98233],[37.831544,49.982328],[37.831379,49.982311],[37.83137,49.982347],[37.831336,49.982485],[37.83133,49.982516],[37.831335,49.98251653571428],[37.831335,49.982517],[37.831386,49.982522],[37.831507,49.982529],[37.831507,49.982528685082876]]]}},{"type":"Feature","properties":{"cadnum":"6321881501:00:000:0125"},"geometry":{"type":"Polygon","coordinates":[[[37.831445,49.981042],[37.831456,49.980988],[37.831462,49.980952],[37.831507,49.98068],[37.831507,49.98067860377359],[37.831515,49.98063],[37.831567,49.980475],[37.831484393939206,49.98046930303029],[37.831134,49.980443],[37.830981,49.980728],[37.830894,49.980966],[37.830863,49.980993],[37.83085,49.981039],[37.831311,49.981073],[37.831335,49.98107451181102],[37.831335,49.981075],[37.831438,49.981081],[37.831445,49.981042]]]}},{"type":"Feature","properties":{"cadnum":"6321881501:00:000:0173"},"geometry":{"type":"Polygon","coordinates":[[[37.832222,49.981379],[37.83227,49.981173],[37.831605,49.981081],[37.831564,49.981344],[37.831626,49.98135],[37.831654,49.98135],[37.832222,49.981379]]]}},{"type":"Feature","properties":{"cadnum":"6321881501:00:000:0110"},"geometry":{"type":"Polygon","coordinates":[[[37.833095,49.981324],[37.833221,49.981103],[37.832726,49.980985],[37.832381,49.9809],[37.832277,49.981157],[37.832661,49.981225],[37.832906,49.981276],[37.833095,49.981324]]]}},{"type":"Feature","properties":{"cadnum":"6321881501:00:000:0061"},"geometry":{"type":"Polygon","coordinates":[[[37.832974,49.981537],[37.833017,49.981468],[37.833036,49.981432],[37.833095,49.981324],[37.832906,49.981276],[37.832661,49.981225],[37.832277,49.981157],[37.83227,49.981173],[37.832222,49.981379],[37.83222,49.981391],[37.832577,49.981436],[37.832667,49.981457],[37.832974,49.981537]]]}},{"type":"Feature","properties":{"cadnum":"6321881501:00:000:0026"},"geometry":{"type":"Polygon","coordinates":[[[37.832617,49.979383],[37.832527,49.97933],[37.832632,49.979245],[37.832652,49.979169],[37.832588,49.979043],[37.832391,49.9791],[37.832321,49.979069],[37.832263,49.979125],[37.832132,49.97932],[37.832108,49.979377],[37.83214981333333,49.979433],[37.832149,49.979433],[37.83222,49.979527],[37.832173,49.979543],[37.83217428571429,49.979543],[37.83216,49.979548],[37.83210031395374,49.979509220930396],[37.831898,49.979377],[37.831743,49.979453],[37.831855,49.979545],[37.832083,49.97966],[37.832239,49.979558],[37.832326,49.979611],[37.832554,49.979433],[37.8325529375,49.979433],[37.832617,49.979383]]]}},{"type":"Feature","properties":{"cadnum":"6321881501:00:000:0109"},"geometry":{"type":"Polygon","coordinates":[[[37.834772,49.981407],[37.83489,49.981213],[37.83437,49.980972],[37.834186,49.980968],[37.833902,49.980883],[37.833598,49.980808],[37.833473,49.981012],[37.834024,49.981153],[37.834456,49.981273],[37.834627,49.981312],[37.834772,49.981407]]]}},{"type":"Feature","properties":{"cadnum":"6321881501:00:000:0091"},"geometry":{"type":"Polygon","coordinates":[[[37.834287,49.981677],[37.834405,49.981477],[37.833933,49.981363],[37.833885,49.981345],[37.833703,49.981304],[37.833353,49.981226],[37.833313,49.981303],[37.833293,49.981337],[37.833231,49.981441],[37.834287,49.981677]]]}},{"type":"Feature","properties":{"cadnum":"6321881501:00:000:0102"},"geometry":{"type":"Polygon","coordinates":[[[37.832321,49.980552],[37.832573,49.980339],[37.832429,49.980247],[37.832222,49.980085],[37.83191,49.980295],[37.832321,49.980552]]]}},{"type":"Feature","properties":{"cadnum":"6321881501:00:000:0172"},"geometry":{"type":"Polygon","coordinates":[[[37.83227,49.981173],[37.832277,49.981157],[37.832381,49.9809],[37.832349,49.980897],[37.832365,49.980837],[37.831983,49.980803],[37.831641,49.980748],[37.831622,49.980918],[37.831618,49.980962],[37.831606,49.981081],[37.831839,49.981114],[37.832205,49.981162],[37.83227,49.981173]]]}},{"type":"Feature","properties":{"cadnum":"6321881501:00:000:0033"},"geometry":{"type":"Polygon","coordinates":[[[37.833457,49.980697],[37.833591,49.980476],[37.833374,49.980417],[37.833249,49.980385],[37.832956,49.980298],[37.832851,49.980417],[37.832684,49.980361],[37.832652,49.980406],[37.832577,49.980385],[37.832514,49.980468],[37.832549,49.980479],[37.833154,49.980622],[37.833211,49.980636],[37.833268,49.980648],[37.833457,49.980697]]]}},{"type":"Feature","properties":{"cadnum":"6321881501:00:000:0014"},"geometry":{"type":"Polygon","coordinates":[[[37.833368,49.979305],[37.833407,49.979242],[37.833661,49.979047],[37.833372,49.978881],[37.833233,49.978957],[37.833171,49.979019],[37.832786837837844,49.979433],[37.832786,49.979433],[37.832759,49.979463],[37.83283,49.979508],[37.833101,49.979508],[37.833368,49.979305]]]}},{"type":"Feature","properties":{"cadnum":"6321881501:00:000:0037"},"geometry":{"type":"Polygon","coordinates":[[[37.834186,49.980968],[37.834312,49.98078],[37.8342,49.980756],[37.833918,49.980693],[37.833703,49.980637],[37.833598,49.980808],[37.833902,49.980883],[37.834186,49.980968]]]}},{"type":"Feature","properties":{"cadnum":"6321881501:00:000:0023"},"geometry":{"type":"Polygon","coordinates":[[[37.832167,49.981864],[37.832201,49.98164],[37.831513,49.981587],[37.831472,49.98181],[37.831833,49.981837],[37.832167,49.981864]]]}},{"type":"Feature","properties":{"cadnum":"6321881501:00:000:0072"},"geometry":{"type":"Polygon","coordinates":[[[37.833286,49.982829],[37.833398,49.982653],[37.833489,49.982519],[37.833093,49.982429],[37.832778,49.982357],[37.832722,49.982344],[37.832716,49.982342],[37.832667,49.982428],[37.832629,49.982491],[37.832553,49.982628],[37.832956,49.982733],[37.833286,49.982829]]]}},{"type":"Feature","properties":{"cadnum":"6321881501:00:000:0030"},"geometry":{"type":"Polygon","coordinates":[[[37.835289,49.982569],[37.83592,49.981704],[37.835557,49.981651],[37.835468,49.981791],[37.835311,49.982039],[37.835203,49.98219],[37.835196,49.9822],[37.835101,49.982328],[37.834984,49.982474],[37.835016,49.982465],[37.835071,49.982482],[37.835077,49.982501],[37.835289,49.982569]]]}},{"type":"Feature","properties":{"cadnum":"6321881501:00:000:0038"},"geometry":{"type":"Polygon","coordinates":[[[37.835979,49.982788],[37.836021,49.982773],[37.836182,49.982566],[37.836198,49.982503],[37.836457,49.982224],[37.836018,49.982071],[37.83557,49.982654],[37.835561,49.982666],[37.835979,49.982788]]]}},{"type":"Feature","properties":{"cadnum":"6321881501:00:000:0040"},"geometry":{"type":"Polygon","coordinates":[[[37.834986,49.982475],[37.835106,49.982316],[37.835388,49.981915],[37.834696,49.981762],[37.834609,49.981983],[37.834876,49.982046],[37.834834,49.982086],[37.834814,49.982109],[37.834772,49.982156],[37.834735,49.982197],[37.834719,49.982209],[37.834609,49.982339],[37.834614,49.982359],[37.834986,49.982475]]]}},{"type":"Feature","properties":{"cadnum":"6321881501:00:000:0032"},"geometry":{"type":"Polygon","coordinates":[[[37.833859,49.982066],[37.83396,49.981853],[37.833611,49.981783],[37.833603,49.981771],[37.833103,49.98167],[37.832966,49.981903],[37.833327,49.981965],[37.83337,49.981973],[37.833488,49.981993],[37.833859,49.982066]]]}},{"type":"Feature","properties":{"cadnum":"6321881501:00:000:0029"},"geometry":{"type":"Polygon","coordinates":[[[37.83557,49.982654],[37.836237,49.981787],[37.83592,49.981704],[37.835289,49.982569],[37.83557,49.982654]]]}},{"type":"Feature","properties":{"cadnum":"6321881501:00:000:0063"},"geometry":{"type":"Polygon","coordinates":[[[37.834433,49.982423],[37.834522,49.982316],[37.834609,49.982339],[37.834719,49.982209],[37.834735,49.982197],[37.834772,49.982156],[37.834814,49.982109],[37.834834,49.982086],[37.834876,49.982046],[37.834609,49.981983],[37.834597,49.98201],[37.834064,49.981908],[37.833851,49.982263],[37.833985,49.982306],[37.834135,49.982349],[37.834181,49.982359],[37.834433,49.982423]]]}},{"type":"Feature","properties":{"cadnum":"6321881501:00:000:0031"},"geometry":{"type":"Polygon","coordinates":[[[37.834146,49.981891],[37.834287,49.981677],[37.833231,49.981441],[37.833103,49.98167],[37.833603,49.981771],[37.833611,49.981783],[37.834146,49.981891]]]}},{"type":"Feature","properties":{"cadnum":"6321881501:00:000:0145"},"geometry":{"type":"Polygon","coordinates":[[[37.832386,49.977808],[37.832606,49.977624],[37.832172,49.977372],[37.832069,49.977322],[37.83183,49.977229],[37.831677,49.977424],[37.831693,49.97743],[37.832386,49.977808]]]}},{"type":"Feature","properties":{"cadnum":"6321881501:00:000:0154"},"geometry":{"type":"Polygon","coordinates":[[[37.833024,49.978344],[37.83304,49.978338],[37.83321,49.978248],[37.833241,49.978232],[37.833363,49.978165],[37.833201,49.978019],[37.833205,49.978017],[37.833136,49.977964],[37.832903,49.977779],[37.83262,49.977627],[37.832385,49.977809],[37.832773,49.978092],[37.832958,49.978323],[37.832982,49.978337],[37.833024,49.978344]]]}},{"type":"Feature","properties":{"cadnum":"6321881501:00:000:0075"},"geometry":{"type":"Polygon","coordinates":[[[37.833661,49.979047],[37.833844,49.978897],[37.833929,49.978829],[37.833964,49.9788],[37.833962,49.978799],[37.83399,49.978775],[37.833996,49.978777],[37.83411,49.978686],[37.833958,49.978605],[37.833915,49.978584],[37.833686,49.978462],[37.833628,49.978466],[37.833115,49.978681],[37.833399,49.978871],[37.833372,49.978881],[37.833661,49.979047]]]}},{"type":"Feature","properties":{"cadnum":"6321881501:00:000:0123"},"geometry":{"type":"Polygon","coordinates":[[[37.835121,49.97668],[37.835408,49.976377],[37.835108,49.976213],[37.83475,49.976024],[37.834409,49.976297],[37.835121,49.97668]]]}},{"type":"Feature","properties":{"cadnum":"6321881501:00:000:0006"},"geometry":{"type":"Polygon","coordinates":[[[37.833705,49.975927],[37.833657,49.975897],[37.833525,49.975831],[37.83343055865922,49.9759],[37.83343,49.9759],[37.833321525423685,49.975979661016986],[37.83328,49.97601],[37.833280212765956,49.97601],[37.833238,49.976041],[37.833154,49.976123],[37.833478,49.976305],[37.833775,49.976555],[37.833792,49.976562],[37.833875,49.976016],[37.83386353932585,49.97601],[37.833864,49.97601],[37.833705,49.975927]]]}},{"type":"Feature","properties":{"cadnum":"6321881501:00:000:0152"},"geometry":{"type":"Polygon","coordinates":[[[37.834868,49.976951],[37.835121,49.97668],[37.834409,49.976297],[37.834123,49.976524],[37.834611,49.976809],[37.834868,49.976951]]]}},{"type":"Feature","properties":{"cadnum":"6321881501:00:000:0005"},"geometry":{"type":"Polygon","coordinates":[[[37.834578,49.975909],[37.834353,49.97583],[37.834276984375,49.9759],[37.834276,49.9759],[37.834214,49.975958],[37.834155,49.97601],[37.83415685148515,49.97601],[37.834103,49.976059],[37.834031,49.976028],[37.83400033333334,49.97601],[37.834001,49.97601],[37.833939,49.975974],[37.833883,49.97601],[37.83388414285714,49.97601],[37.833875,49.976016],[37.833792,49.976562],[37.833836,49.976582],[37.83389,49.976527],[37.833949,49.976549],[37.834039,49.976452],[37.834157,49.976491],[37.83446,49.976157],[37.834563,49.976021],[37.83463,49.975929],[37.834578,49.975909]]]}},{"type":"Feature","properties":{"cadnum":"6321881501:00:000:0078"},"geometry":{"type":"Polygon","coordinates":[[[37.827065,49.991369],[37.827318,49.991202],[37.827387,49.991071],[37.826734,49.990931],[37.82633,49.990795],[37.82596,49.991137],[37.826086,49.991182],[37.827065,49.991369]]]}},{"type":"Feature","properties":{"cadnum":"6321881501:00:000:0052"},"geometry":{"type":"Polygon","coordinates":[[[37.829164,49.991204],[37.829337,49.990978],[37.829567,49.990916],[37.829671,49.990632],[37.829629,49.990621],[37.829199,49.99051],[37.828808,49.99106],[37.829164,49.991204]]]}},{"type":"Feature","properties":{"cadnum":"6321881501:00:000:0060"},"geometry":{"type":"Polygon","coordinates":[[[37.827632,49.990992],[37.82796,49.990614],[37.827034,49.990319],[37.827009,49.990313],[37.826854,49.990508],[37.826504,49.990697],[37.827632,49.990992]]]}},{"type":"Feature","properties":{"cadnum":"6321881501:00:000:0047"},"geometry":{"type":"Polygon","coordinates":[[[37.826014,49.985711],[37.825834,49.985669],[37.825622,49.986105],[37.82598040000037,49.98623940000014],[37.826188,49.986318],[37.826425,49.985809],[37.826264,49.985771],[37.826165,49.985747],[37.826014,49.9857119380805],[37.826014,49.985711]]]}},{"type":"Feature","properties":{"cadnum":"6321881501:00:000:0054"},"geometry":{"type":"Polygon","coordinates":[[[37.830966,49.983683],[37.830985,49.983537],[37.830994,49.983464],[37.830722,49.983444],[37.830656,49.983441],[37.830601,49.983437],[37.830137,49.983409],[37.829567,49.983545],[37.829576,49.98359],[37.830166,49.983518],[37.830243,49.98362],[37.830446,49.983644],[37.830571,49.983654],[37.830636,49.98366],[37.83072,49.983667],[37.830966,49.983683]]]}},{"type":"Feature","properties":{"cadnum":"6321881501:00:000:0048"},"geometry":{"type":"Polygon","coordinates":[[[37.831087,49.982989],[37.831125,49.982798],[37.830844,49.982777],[37.830785,49.982779],[37.830036,49.982754],[37.830023,49.982922],[37.829883,49.982924],[37.829882344000005,49.982965],[37.829881,49.982965],[37.829881,49.983049],[37.830612,49.983089],[37.830757,49.983096],[37.830764,49.982965],[37.831087,49.982989]]]}},{"type":"Feature","properties":{"cadnum":"6321881501:00:000:0112"},"geometry":{"type":"Polygon","coordinates":[[[37.828524,49.985308],[37.829161,49.985198],[37.829175,49.985176],[37.829152,49.985173],[37.829157,49.985146],[37.829191,49.985148],[37.829211,49.985112],[37.829491,49.985072],[37.829405,49.984966],[37.829003,49.984861],[37.828489,49.984986],[37.828524,49.985308]]]}},{"type":"Feature","properties":{"cadnum":"6321881501:00:000:0176"},"geometry":{"type":"Polygon","coordinates":[[[37.829471,49.982885],[37.829456,49.98275],[37.82946,49.982714],[37.828594,49.982873],[37.828249,49.982525],[37.82784,49.982537],[37.82774,49.982747],[37.827642,49.982965],[37.827593,49.983074],[37.827592,49.983075],[37.82759242857143,49.983075],[37.827485,49.983263],[37.827395,49.983417],[37.827505,49.983425],[37.827706,49.983426],[37.827875,49.983406],[37.828086,49.983303],[37.829026,49.982967],[37.829039,49.982965],[37.82903685365854,49.982965],[37.829471,49.982885]]]}},{"type":"Feature","properties":{"cadnum":"6321881501:00:000:0111"},"geometry":{"type":"Polygon","coordinates":[[[37.8275,49.982831],[37.827156,49.982709],[37.8269,49.982965],[37.82679,49.983075],[37.82679093617021,49.983075],[37.826667,49.9832],[37.827049,49.983329],[37.827371,49.982995],[37.8275,49.982831]]]}},{"type":"Feature","properties":{"cadnum":"6321881501:00:000:0149"},"geometry":{"type":"Polygon","coordinates":[[[37.831125,49.982798],[37.831159,49.982654],[37.831166,49.982617],[37.831075,49.982611],[37.830703,49.982588],[37.830349,49.982598],[37.830116,49.982625],[37.829948,49.982657],[37.829927,49.982739],[37.830036,49.982754],[37.830785,49.982779],[37.830844,49.982777],[37.831125,49.982798]]]}},{"type":"Feature","properties":{"cadnum":"6321881501:00:000:0015"},"geometry":{"type":"Polygon","coordinates":[[[37.830876,49.980186],[37.830914,49.980077],[37.830793,49.980042],[37.830921,49.97982],[37.830923,49.979786],[37.830964,49.979709],[37.830387,49.979542],[37.83015,49.97996],[37.830513,49.980091],[37.830876,49.980186]]]}},{"type":"Feature","properties":{"cadnum":"6321881501:00:000:0100"},"geometry":{"type":"Polygon","coordinates":[[[37.830418,49.980743],[37.830441,49.980724],[37.830474,49.980719],[37.830563,49.980614],[37.83052,49.980546],[37.830489,49.980536],[37.830404,49.980507],[37.830218,49.980441],[37.829963,49.980355],[37.829699,49.980593],[37.829879,49.980674],[37.829999,49.980599],[37.830163,49.980657],[37.830418,49.980743]]]}},{"type":"Feature","properties":{"cadnum":"6321881501:00:000:0051"},"geometry":{"type":"Polygon","coordinates":[[[37.827799,49.982064],[37.827809,49.981951],[37.827828,49.981812],[37.827831,49.981786],[37.827839,49.981745],[37.827463,49.981734],[37.827414,49.981733],[37.826844,49.981695],[37.826765,49.981997],[37.827799,49.982064]]]}},{"type":"Feature","properties":{"cadnum":"6321881501:00:000:0081"},"geometry":{"type":"Polygon","coordinates":[[[37.827414,49.981733],[37.827545,49.981155],[37.827994,49.981232],[37.828173,49.980987],[37.827277,49.980747],[37.827226,49.981075],[37.826981,49.981058],[37.826805,49.981085],[37.826689,49.981175],[37.826807,49.980143],[37.826661,49.980118],[37.826529,49.981347],[37.826516,49.981673],[37.826644,49.981682],[37.826844,49.981695],[37.827414,49.981733]]]}},{"type":"Feature","properties":{"cadnum":"6321881501:00:000:0076"},"geometry":{"type":"Polygon","coordinates":[[[37.828453,49.980593],[37.828571,49.980436],[37.827331,49.980013],[37.827196,49.980139],[37.827171,49.980163],[37.828453,49.980593]]]}},{"type":"Feature","properties":{"cadnum":"6321881501:00:000:0147"},"geometry":{"type":"Polygon","coordinates":[[[37.829913,49.981827],[37.830156,49.981561],[37.830241,49.981357],[37.829994,49.981247],[37.829565,49.981638],[37.829386,49.98159],[37.829853,49.981206],[37.829496,49.981071],[37.829211,49.980949],[37.82857,49.980649],[37.828373,49.980924],[37.828181,49.981263],[37.828454,49.981379],[37.828917,49.981522],[37.829507,49.981686],[37.829913,49.981827]]]}},{"type":"Feature","properties":{"cadnum":"6321881501:00:000:0177"},"geometry":{"type":"Polygon","coordinates":[[[37.828594,49.982873],[37.82946,49.982714],[37.829468,49.982645],[37.829368,49.98253],[37.829219,49.982433],[37.829034,49.982388],[37.828956,49.982545],[37.828307,49.982523],[37.828249,49.982525],[37.828594,49.982873]]]}},{"type":"Feature","properties":{"cadnum":"6321881501:00:000:0013"},"geometry":{"type":"Polygon","coordinates":[[[37.831243,49.982148],[37.831295,49.981871],[37.830813,49.98183],[37.83047,49.981803],[37.830433,49.981975],[37.830388,49.982102],[37.830705,49.982114],[37.831243,49.982148]]]}},{"type":"Feature","properties":{"cadnum":"6321881501:00:000:0019"},"geometry":{"type":"Polygon","coordinates":[[[37.836704,49.973934],[37.8368,49.973893],[37.836773,49.973738],[37.836729,49.973634],[37.836532,49.973446],[37.836311,49.973312],[37.83612,49.973443],[37.835994,49.973591],[37.835902,49.973701],[37.835849,49.973723],[37.835845,49.973775],[37.835884,49.973816],[37.835969,49.97386],[37.836095,49.973764],[37.836166,49.973716],[37.836242,49.973651],[37.836375,49.973754],[37.83654,49.973917],[37.836704,49.973934]]]}},{"type":"Feature","properties":{"cadnum":"6321881501:00:000:0024"},"geometry":{"type":"Polygon","coordinates":[[[37.835637,49.974809],[37.835809,49.974726],[37.836018,49.974615],[37.835454,49.974409],[37.835289,49.974509],[37.835267,49.974523],[37.835301,49.974543],[37.835393,49.974617],[37.835423,49.974639],[37.835511,49.974709],[37.835637,49.974809]]]}},{"type":"Feature","properties":{"cadnum":"6321881501:00:000:0011"},"geometry":{"type":"Polygon","coordinates":[[[37.835533,49.975187],[37.835592,49.975149],[37.835463,49.975066],[37.835404,49.975104],[37.835415,49.97511],[37.835533,49.975187]]]}},{"type":"Feature","properties":{"cadnum":"6321881501:00:000:0126"},"geometry":{"type":"Polygon","coordinates":[[[37.833707,49.975149],[37.833905,49.974987],[37.834088,49.974859],[37.834126,49.974827],[37.83371,49.974588],[37.833674,49.974632],[37.833733,49.974661],[37.833665,49.974718],[37.833673,49.974736],[37.833416,49.974968],[37.833707,49.975149]]]}},{"type":"Feature","properties":{"cadnum":"6321881501:00:000:0090"},"geometry":{"type":"Polygon","coordinates":[[[37.836186,49.975243],[37.836412,49.9751],[37.836121,49.974912],[37.836077,49.974883],[37.83604,49.974855],[37.835997,49.974823],[37.835969,49.974801],[37.835932,49.97482],[37.835813,49.974882],[37.835765,49.974906],[37.835731,49.974923],[37.835754,49.97494],[37.835712,49.974962],[37.835688,49.974945],[37.83566,49.974959],[37.835919,49.975111],[37.836186,49.975243]]]}},{"type":"Feature","properties":{"cadnum":"6321881501:00:000:0095"},"geometry":{"type":"Polygon","coordinates":[[[37.834126,49.974827],[37.834196,49.974761],[37.834394,49.974615],[37.834264,49.974532],[37.834197,49.974521],[37.834138,49.974509],[37.834133,49.974508],[37.833997,49.974502],[37.833931,49.974517],[37.833874,49.974515],[37.833761,49.974547],[37.833683,49.974568],[37.83371,49.974588],[37.834126,49.974827]]]}},{"type":"Feature","properties":{"cadnum":"6321881501:00:000:0127"},"geometry":{"type":"Polygon","coordinates":[[[37.835387,49.975646],[37.836096,49.975198],[37.835919,49.975111],[37.83566,49.974959],[37.835475,49.975059],[37.835611,49.975144],[37.835533,49.9752],[37.835388,49.975113],[37.835169,49.975241],[37.83526,49.975297],[37.835251,49.975304],[37.835128,49.975389],[37.835387,49.975646]]]}},{"type":"Feature","properties":{"cadnum":"6321881501:00:000:0028"},"geometry":{"type":"Polygon","coordinates":[[[37.835328,49.974958],[37.835361,49.974943],[37.835428,49.97491],[37.835637,49.974809],[37.835511,49.974709],[37.835423,49.974639],[37.835393,49.974617],[37.835301,49.974543],[37.835267,49.974523],[37.835454,49.974409],[37.835201,49.974253],[37.834662,49.974496],[37.835328,49.974958]]]}},{"type":"Feature","properties":{"cadnum":"6321881501:00:001:0001"},"geometry":{"type":"Polygon","coordinates":[[[37.833416,49.974968],[37.833673,49.974736],[37.833665,49.974718],[37.833733,49.974661],[37.833674,49.974632],[37.833592,49.974605],[37.833422,49.974666],[37.833174,49.974812],[37.833416,49.974968]]]}},{"type":"Feature","properties":{"cadnum":"6321881501:00:000:0010"},"geometry":{"type":"Polygon","coordinates":[[[37.834577,49.975451],[37.834712,49.975368],[37.834721,49.975361],[37.834658,49.975319],[37.834577,49.975264],[37.834547,49.975283],[37.834432,49.975355],[37.834536,49.975424],[37.834577,49.975451]]]}},{"type":"Feature","properties":{"cadnum":"6321881501:00:000:0148"},"geometry":{"type":"Polygon","coordinates":[[[37.834531,49.974558],[37.834542,49.974552],[37.834662,49.974496],[37.835201,49.974253],[37.835073,49.974157],[37.834992,49.974146],[37.83478,49.974222],[37.834583,49.974298],[37.834492,49.97434],[37.83455,49.97439],[37.834424,49.974448],[37.834531,49.974558]]]}},{"type":"Feature","properties":{"cadnum":"6321881501:00:000:0108"},"geometry":{"type":"Polygon","coordinates":[[[37.834975,49.974909],[37.835015,49.974883],[37.835126,49.974818],[37.834662,49.974496],[37.834542,49.974552],[37.834531,49.974558],[37.834496,49.974573],[37.834487,49.974577],[37.834531,49.974606],[37.834755,49.974759],[37.834975,49.974909]]]}},{"type":"Feature","properties":{"cadnum":"6321881501:00:000:0049"},"geometry":{"type":"Polygon","coordinates":[[[37.834492,49.97434],[37.834583,49.974298],[37.83478,49.974222],[37.834992,49.974146],[37.83485,49.973985],[37.834695,49.973841],[37.834614,49.973769],[37.834469,49.973713],[37.834174,49.973736],[37.834001,49.973807],[37.834277,49.973952],[37.834294,49.974054],[37.834315,49.974106],[37.834332,49.974151],[37.834334,49.974158],[37.834358,49.97421],[37.834365,49.974291],[37.834452,49.974297],[37.834492,49.97434]]]}},{"type":"Feature","properties":{"cadnum":"6321881501:00:000:0142"},"geometry":{"type":"Polygon","coordinates":[[[37.834303,49.975538],[37.834507,49.975405],[37.834432,49.975355],[37.834547,49.975283],[37.834577,49.975264],[37.834622,49.975295],[37.834737,49.975232],[37.834831,49.975178],[37.834719,49.97509],[37.83456,49.974918],[37.834526,49.974899],[37.834378,49.974987],[37.834519,49.975114],[37.83433,49.975247],[37.83409,49.975398],[37.834303,49.975538]]]}},{"type":"Feature","properties":{"cadnum":"6321881501:00:000:0099"},"geometry":{"type":"Polygon","coordinates":[[[37.834374,49.974989],[37.834378,49.974987],[37.834526,49.974899],[37.83456,49.974918],[37.834695,49.974815],[37.834504,49.974693],[37.834491,49.974696],[37.834454,49.974674],[37.83445,49.974651],[37.834394,49.974615],[37.834233,49.974734],[37.834204,49.974756],[37.834196,49.974761],[37.834126,49.974827],[37.834088,49.974859],[37.834292,49.974989],[37.834374,49.974989]]]}}]}