{"type":"FeatureCollection","features":[{"type":"Feature","properties":{"cadnum":"6321883504:00:000:0019"},"geometry":{"type":"Polygon","coordinates":[[[37.890855,49.738416],[37.890885,49.738142],[37.890902,49.73783],[37.891461,49.73772],[37.891425,49.73705],[37.891446,49.736707],[37.89095,49.736661],[37.890613,49.736701],[37.889917,49.737184],[37.889821,49.737373],[37.889861,49.737582],[37.890185,49.738276],[37.89027753926702,49.738626],[37.890277,49.738626],[37.890286,49.738658],[37.890341,49.738674],[37.890686,49.738718],[37.890855,49.738416]]]}},{"type":"Feature","properties":{"cadnum":"6321883504:00:000:0008"},"geometry":{"type":"Polygon","coordinates":[[[37.913857,49.743224],[37.913904,49.743213],[37.913904,49.74321283168317],[37.913958,49.7432],[37.91414,49.743157],[37.914563,49.743062],[37.914469,49.742879],[37.913758,49.743032],[37.913318,49.74313],[37.913424,49.743325],[37.913733,49.74325292378753],[37.913733,49.743253],[37.913857,49.743224]]]}},{"type":"Feature","properties":{"cadnum":"6321883504:00:000:0020"},"geometry":{"type":"Polygon","coordinates":[[[37.913995,49.741992],[37.91388419823856,49.74201864317165],[37.91321311764706,49.742176],[37.913211,49.742176],[37.913179,49.742184],[37.913121,49.742212],[37.912851,49.742285],[37.912851,49.742287],[37.91285206849315,49.742287],[37.912968,49.742504],[37.913183,49.742452],[37.913256,49.742434],[37.913295,49.742426],[37.913348,49.742414],[37.913391,49.742404],[37.913494,49.74238],[37.913623,49.742341],[37.913733,49.74231594661922],[37.913733,49.742316],[37.91374582515984,49.74231302558637],[37.913904,49.742277],[37.913904,49.74227634164589],[37.914134,49.742223],[37.913995,49.741992]]]}},{"type":"Feature","properties":{"cadnum":"6321883504:00:000:0024"},"geometry":{"type":"Polygon","coordinates":[[[37.914573,49.743617],[37.914753,49.743578],[37.914683,49.743446],[37.915265,49.743282],[37.915696,49.743165],[37.915602,49.743],[37.915233,49.743096],[37.915188,49.743109],[37.91467,49.743245],[37.914618,49.74331],[37.914437,49.743363],[37.914573,49.743617]]]}},{"type":"Feature","properties":{"cadnum":"6321883504:00:000:0018"},"geometry":{"type":"Polygon","coordinates":[[[37.916325,49.744992],[37.916731,49.744891],[37.916419,49.744418],[37.91621,49.744151],[37.91603,49.744215],[37.916018,49.74422],[37.915893,49.744263],[37.915951,49.744329],[37.916065,49.744479],[37.916129,49.744641],[37.916325,49.744992]]]}},{"type":"Feature","properties":{"cadnum":"6321883504:00:000:0012"},"geometry":{"type":"Polygon","coordinates":[[[37.91467,49.743245],[37.915188,49.743109],[37.915233,49.743096],[37.915775,49.742955],[37.915699,49.742832],[37.91567,49.742791],[37.915326,49.742882],[37.915295,49.74289],[37.915173,49.742922],[37.915131,49.742933],[37.914563,49.743062],[37.91467,49.743245]]]}},{"type":"Feature","properties":{"cadnum":"6321883504:00:000:0010"},"geometry":{"type":"Polygon","coordinates":[[[37.920108,49.741862],[37.919397,49.74203773469388],[37.919397,49.742037],[37.918835996,49.742176],[37.918835,49.742176],[37.916615,49.742726],[37.916518,49.742749],[37.916216,49.742823],[37.916129,49.742845],[37.916152,49.74288],[37.916232,49.743003],[37.916549,49.742931],[37.916611,49.742915],[37.916718,49.742889],[37.919397,49.74226],[37.919397,49.74225974059003],[37.920264,49.742056],[37.920108,49.741862]]]}},{"type":"Feature","properties":{"cadnum":"6321883504:00:000:0011"},"geometry":{"type":"Polygon","coordinates":[[[37.914411,49.744224],[37.914412,49.744134],[37.914135,49.744133],[37.914134,49.744222],[37.914411,49.744224]]]}},{"type":"Feature","properties":{"cadnum":"6321883504:00:000:0031"},"geometry":{"type":"Polygon","coordinates":[[[37.899501,49.737025],[37.898067,49.736881],[37.897253,49.736809],[37.897253,49.736809861423225],[37.896357,49.736731],[37.895384,49.736677],[37.895278,49.736935],[37.894592,49.736899],[37.894633,49.737817],[37.89443,49.737841],[37.89449,49.738217],[37.895329,49.738223],[37.895307,49.73814],[37.895311,49.737869],[37.895323,49.737009],[37.896856,49.737138],[37.897425,49.737192],[37.897425,49.737191057316544],[37.899556,49.73739],[37.899501,49.737025]]]}},{"type":"Feature","properties":{"cadnum":"6321883504:00:000:0025"},"geometry":{"type":"Polygon","coordinates":[[[37.896132,49.73843],[37.896884,49.73836],[37.896805,49.737712],[37.896395,49.737767],[37.896258,49.737859],[37.895724,49.737862],[37.895692,49.737518],[37.8962,49.737484],[37.896266,49.737365],[37.896867,49.73737],[37.896856,49.737138],[37.895323,49.737009],[37.895311,49.737869],[37.895594,49.737904],[37.895945,49.737926],[37.896132,49.73843]]]}},{"type":"Feature","properties":{"cadnum":"6321883504:00:000:0029"},"geometry":{"type":"Polygon","coordinates":[[[37.916813,49.732922],[37.917016,49.732667],[37.916938,49.732586],[37.91679,49.732375],[37.916503,49.732101],[37.916004,49.732345],[37.916285,49.732545],[37.916574,49.732752],[37.916813,49.732922]]]}},{"type":"Feature","properties":{"cadnum":"6321883504:00:000:0028"},"geometry":{"type":"Polygon","coordinates":[[[37.917536,49.731379],[37.91691939805826,49.731525],[37.916918,49.731525],[37.916666,49.731585],[37.916537,49.731636],[37.916537852791876,49.731636],[37.916171,49.731782],[37.917108,49.732619],[37.917296,49.732495],[37.917117,49.732354],[37.91736,49.732236],[37.917512,49.732358],[37.918154,49.731942],[37.91781717985612,49.731636],[37.917818,49.731636],[37.917536,49.731379]]]}},{"type":"Feature","properties":{"cadnum":"6321883504:00:000:0027"},"geometry":{"type":"Polygon","coordinates":[[[37.917532,49.736628],[37.918268,49.736341],[37.917948,49.735956],[37.917877,49.735996],[37.917811,49.736044],[37.91763,49.73613],[37.917563,49.73616],[37.917564,49.736196],[37.917439,49.736238],[37.917359,49.73627],[37.917489,49.736433],[37.917434,49.736484],[37.917463,49.73653],[37.917494,49.736576],[37.917532,49.736628]]]}},{"type":"Feature","properties":{"cadnum":"6321883504:00:000:0004"},"geometry":{"type":"Polygon","coordinates":[[[37.915135,49.738624],[37.915125,49.738584],[37.915027,49.738609],[37.9150337734375,49.738626],[37.915033,49.738626],[37.91505487209306,49.73867895348846],[37.915078,49.738737],[37.91507884782609,49.738737],[37.91509,49.738764],[37.91482,49.73875],[37.915166,49.73934],[37.915409,49.739719],[37.915688,49.739648],[37.915607,49.739523],[37.915288,49.739021],[37.91513,49.738771],[37.915212,49.73878],[37.91517166666673,49.738699333333464],[37.915135,49.738624]]]}},{"type":"Feature","properties":{"cadnum":"6321883504:00:000:0005"},"geometry":{"type":"Polygon","coordinates":[[[37.915027,49.738609],[37.915125,49.738584],[37.915087,49.738455],[37.91496,49.738225],[37.914872,49.738227],[37.914965,49.738454],[37.915027,49.738609]]]}},{"type":"Feature","properties":{"cadnum":"6321883504:00:000:0015"},"geometry":{"type":"Polygon","coordinates":[[[37.912488,49.741663],[37.912728,49.74162],[37.912764,49.741612],[37.912893,49.74158],[37.913003,49.741543],[37.913196,49.741481],[37.913588,49.741379],[37.913522,49.741271],[37.913456,49.741165],[37.912362,49.741426],[37.912488,49.741663]]]}},{"type":"Feature","properties":{"cadnum":"6321883504:00:000:0032"},"geometry":{"type":"Polygon","coordinates":[[[37.913267,49.738494],[37.912905765432114,49.738626],[37.912905,49.738626],[37.912102,49.73892],[37.912774,49.739541],[37.913733,49.73926573965041],[37.913733,49.739267],[37.913861,49.739229],[37.91346283084577,49.738737],[37.913463,49.738737],[37.913267,49.738494]]]}},{"type":"Feature","properties":{"cadnum":"6321883504:00:000:0026"},"geometry":{"type":"Polygon","coordinates":[[[37.908969,49.738199],[37.90827138907898,49.738290740614275],[37.90823,49.738296],[37.908239,49.73834476119402],[37.908239,49.738347],[37.908290865384615,49.738626],[37.90829,49.738626],[37.908297,49.738659],[37.908309,49.738737],[37.90830943636364,49.738737],[37.908411,49.739374],[37.908411,49.73937295620439],[37.908434,49.739517],[37.908852,49.739559],[37.909336,49.739548],[37.909994,49.73956],[37.909994,49.739434],[37.910172,49.739414],[37.91014,49.739324],[37.909979,49.738834],[37.90994193945338,49.73873121875072],[37.909733,49.738145],[37.908969,49.738199]]]}},{"type":"Feature","properties":{"cadnum":"6321883504:00:000:0022"},"geometry":{"type":"Polygon","coordinates":[[[37.910631,49.741852],[37.911392,49.741673],[37.911526,49.741634],[37.911627,49.741611],[37.911702,49.741594],[37.912063,49.741504],[37.911934,49.741274],[37.911851,49.741231],[37.911453,49.741326],[37.911408,49.741253],[37.911198,49.741302],[37.911308,49.741444],[37.911376,49.741533],[37.910613,49.741772],[37.910631,49.741852]]]}},{"type":"Feature","properties":{"cadnum":"6321883504:00:000:0030"},"geometry":{"type":"Polygon","coordinates":[[[37.902546,49.737218],[37.902672,49.737866],[37.902863,49.738737],[37.90286339560439,49.738737],[37.902879,49.738808],[37.903226,49.738829],[37.903296,49.739134],[37.903377,49.739399],[37.903312,49.739653],[37.903651,49.739664],[37.903594,49.73936],[37.903495,49.739127],[37.903411,49.738626],[37.90341082314411,49.738626],[37.903279,49.737821],[37.903289,49.737475],[37.902958,49.737483],[37.902917,49.73721],[37.902546,49.737218]]]}},{"type":"Feature","properties":{"cadnum":"6321883504:00:000:0017"},"geometry":{"type":"Polygon","coordinates":[[[37.919395,49.740351],[37.919397,49.740351],[37.919397,49.74035038095238],[37.919521,49.740312],[37.919609,49.740282],[37.919758,49.740236],[37.920732,49.739978],[37.920599,49.739794],[37.919623,49.740054],[37.919474,49.740102],[37.919397,49.740127666666666],[37.919397,49.740127],[37.919387,49.740131],[37.919261,49.740171],[37.919226,49.740182],[37.919226,49.740182052631575],[37.919185,49.740195],[37.919257,49.740293],[37.919314,49.740373],[37.919395,49.740351]]]}},{"type":"Feature","properties":{"cadnum":"6321883504:00:000:0021"},"geometry":{"type":"Polygon","coordinates":[[[37.903312,49.739653],[37.903377,49.739399],[37.903296,49.739134],[37.903226,49.738829],[37.902879,49.738808],[37.902943,49.739103],[37.902946,49.739336],[37.902946,49.739395],[37.902925,49.73963],[37.903312,49.739653]]]}},{"type":"Feature","properties":{"cadnum":"6321883504:00:000:0016"},"geometry":{"type":"Polygon","coordinates":[[[37.909972,49.748859],[37.910022,49.748343],[37.910172,49.747821],[37.909528,49.747771],[37.909572,49.74832],[37.909626,49.748832],[37.909972,49.748859]]]}},{"type":"Feature","properties":{"cadnum":"6321883504:00:000:0023"},"geometry":{"type":"Polygon","coordinates":[[[37.915786,49.740792],[37.915894,49.740762],[37.915695,49.740449],[37.915585,49.74048],[37.915666,49.740607],[37.915644,49.740612],[37.915688,49.74068],[37.915709,49.740674],[37.915786,49.740792]]]}},{"type":"Feature","properties":{"cadnum":"6321883504:00:000:0013"},"geometry":{"type":"Polygon","coordinates":[[[37.916472,49.741982],[37.918039,49.741593],[37.917954,49.74144],[37.916368,49.741815],[37.916472,49.741982]]]}},{"type":"Feature","properties":{"cadnum":"6321883504:00:000:0002"},"geometry":{"type":"Polygon","coordinates":[[[37.915688,49.739648],[37.915945,49.739586],[37.915917,49.739543],[37.915864,49.739456],[37.915821,49.739391],[37.915756,49.739288],[37.915721,49.739235],[37.915552,49.738958],[37.915288,49.739021],[37.915607,49.739523],[37.915688,49.739648]]]}},{"type":"Feature","properties":{"cadnum":"6321883504:00:000:0014"},"geometry":{"type":"Polygon","coordinates":[[[37.915692,49.742185],[37.915906,49.742127],[37.916157,49.74206],[37.916472,49.741982],[37.916368,49.741815],[37.916058,49.741887],[37.915842,49.741951],[37.915591,49.742029],[37.915613,49.742061],[37.915692,49.742185]]]}},{"type":"Feature","properties":{"cadnum":"6321883504:00:000:0009"},"geometry":{"type":"Polygon","coordinates":[[[37.914667,49.740545],[37.914839,49.7405],[37.914925,49.740476],[37.915434,49.740319],[37.915245,49.740075],[37.914539,49.740255],[37.914217,49.740339],[37.914211,49.740369],[37.914285,49.740481],[37.914313,49.740473],[37.914325,49.74049],[37.914587,49.740419],[37.914667,49.740545]]]}}]}