{"type":"FeatureCollection","features":[{"type":"Feature","properties":{"cadnum":"6321885003:00:000:0004"},"geometry":{"type":"Polygon","coordinates":[[[37.638475,49.918255],[37.638035,49.918706],[37.639074,49.91923536663914],[37.639074,49.919236],[37.639503,49.919454],[37.639504432142864,49.919454],[37.639837,49.919623],[37.641639,49.920539],[37.642235,49.920156],[37.640626,49.919343],[37.64062568548386,49.919343],[37.640355,49.919206],[37.63918421386388,49.91861466617481],[37.638475,49.918255]]]}},{"type":"Feature","properties":{"cadnum":"6321885003:00:000:0005"},"geometry":{"type":"Polygon","coordinates":[[[37.639246,49.921545795477904],[37.640047,49.92195],[37.640382,49.921838],[37.640071,49.921672],[37.640389,49.92139],[37.639246,49.92078590494297],[37.639246,49.920785],[37.637111,49.919656],[37.636975,49.919795],[37.637095,49.919983],[37.636829,49.920323],[37.638437,49.921137],[37.639246,49.921546],[37.639246,49.921545795477904]]]}},{"type":"Feature","properties":{"cadnum":"6321885003:00:000:0008"},"geometry":{"type":"Polygon","coordinates":[[[37.638035,49.918706],[37.637596,49.919158],[37.638154,49.919454],[37.63815513043479,49.919454],[37.639246,49.920033],[37.639246,49.92003216449086],[37.640989,49.920956],[37.641639,49.920539],[37.639837,49.919623],[37.639286,49.919343],[37.639284564220176,49.919343],[37.639246,49.919323403263405],[37.639246,49.919323],[37.638035,49.918706]]]}},{"type":"Feature","properties":{"cadnum":"6321885003:00:000:0006"},"geometry":{"type":"Polygon","coordinates":[[[37.637596,49.919158],[37.637415375,49.919343],[37.637415,49.919343],[37.63734365961837,49.9194164524324],[37.637307,49.919454],[37.63730719169329,49.919454],[37.637111,49.919656],[37.639074,49.92069404543326],[37.639074,49.920695],[37.640389,49.92139],[37.640586,49.921215],[37.640989,49.920956],[37.639074,49.919941],[37.639074,49.9199417076923],[37.637946,49.919343],[37.637944749999996,49.919343],[37.637596,49.919158]]]}},{"type":"Feature","properties":{"cadnum":"6321885003:00:000:0007"},"geometry":{"type":"Polygon","coordinates":[[[37.639246,49.91864587275566],[37.640355,49.919206],[37.640845,49.919454],[37.6408456789668,49.919454],[37.642235,49.920156],[37.642955,49.919663],[37.642408,49.919343],[37.642407097582804,49.919343],[37.640686,49.918337],[37.640166,49.918923],[37.639246,49.918388393034824],[37.639246,49.918388],[37.639161,49.918339],[37.638546,49.918182],[37.638475,49.918255],[37.639074,49.91855877302205],[37.639074,49.918559],[37.63918421386388,49.91861466617481],[37.639246,49.918646],[37.639246,49.91864587275566]]]}},{"type":"Feature","properties":{"cadnum":"6321885003:00:000:0003"},"geometry":{"type":"Polygon","coordinates":[[[37.644169,49.919036],[37.643654,49.918525],[37.643434,49.918609],[37.64309,49.918926],[37.641589,49.917875],[37.641388,49.917919],[37.641181,49.91787],[37.640807,49.918199],[37.640686,49.918337],[37.642597,49.919454],[37.64259774062501,49.919454],[37.642955,49.919663],[37.64331,49.919469],[37.643491120920665,49.91937697888708],[37.644169,49.919036]]]}},{"type":"Feature","properties":{"cadnum":"6321885003:00:000:0009"},"geometry":{"type":"Polygon","coordinates":[[[37.63378,49.921903],[37.633753,49.92195056291391],[37.633753,49.92195],[37.633629,49.922169],[37.633427,49.922641],[37.63357495238095,49.92288],[37.633574,49.92288],[37.633581,49.92289099999999],[37.633581,49.922891],[37.633609,49.922935],[37.633753,49.92295],[37.633753,49.92294976923077],[37.634155,49.922991],[37.6341603846154,49.922991],[37.634249,49.923],[37.6342529,49.922991],[37.634253,49.922991],[37.63448,49.922473],[37.634702,49.922244],[37.634717,49.921748],[37.634248,49.921671],[37.634468,49.921338],[37.633671,49.921143],[37.633587,49.921543],[37.633753,49.921854],[37.633753,49.9218526373057],[37.63378,49.921903]]]}},{"type":"Feature","properties":{"cadnum":"6321885003:00:000:0012"},"geometry":{"type":"Polygon","coordinates":[[[37.637264,49.922156],[37.636658012936614,49.92288],[37.636658,49.92288],[37.636617,49.922929],[37.636719,49.922991],[37.63672129802514,49.922991],[37.637554,49.923486],[37.638491,49.92289],[37.638475,49.92288],[37.63847428337874,49.92288],[37.637264,49.922156]]]}},{"type":"Feature","properties":{"cadnum":"6321885003:00:000:0010"},"geometry":{"type":"Polygon","coordinates":[[[37.632925,49.925324],[37.633147,49.925282],[37.633352,49.925317],[37.633723,49.925329],[37.633753,49.925328],[37.633753,49.92532756287425],[37.634057,49.925313],[37.634044,49.925018],[37.633675,49.924881],[37.63369,49.924697],[37.633352,49.924617],[37.633057,49.924475],[37.63292,49.924597],[37.63266,49.925227],[37.632586,49.925418],[37.632869,49.925497],[37.632925,49.925324]]]}},{"type":"Feature","properties":{"cadnum":"6321885003:00:000:0011"},"geometry":{"type":"Polygon","coordinates":[[[37.633629,49.922169],[37.63378,49.921903],[37.633587,49.921543],[37.633671,49.921143],[37.633565,49.921139],[37.633254,49.921093],[37.632842,49.921138],[37.632465,49.921234],[37.632005,49.921367],[37.631264,49.922082],[37.631936,49.922353],[37.632047,49.922194],[37.632475,49.922292],[37.632691,49.92237],[37.632649,49.922592],[37.633137,49.922735],[37.633427,49.922641],[37.633581,49.922281158415835],[37.633581,49.922282],[37.633629,49.922169]]]}},{"type":"Feature","properties":{"cadnum":"6321885003:00:000:0016"},"geometry":{"type":"Polygon","coordinates":[[[37.633177,49.922983],[37.632865,49.922773],[37.632658,49.922692],[37.632496,49.922629],[37.631701,49.922475],[37.63150215230461,49.92288],[37.631501,49.92288],[37.631456,49.922974],[37.631493,49.922991],[37.63149576436781,49.922991],[37.63227,49.923322],[37.632359,49.9233],[37.63261,49.923239],[37.63315928125,49.922991],[37.63316,49.922991],[37.633177,49.922983]]]}},{"type":"Feature","properties":{"cadnum":"6321885003:00:000:0013"},"geometry":{"type":"Polygon","coordinates":[[[37.631961,49.923776],[37.632339,49.9236],[37.632406,49.923474],[37.631827,49.923306],[37.631398,49.923045],[37.631305,49.923142],[37.631158,49.923189],[37.631073,49.923279],[37.630927,49.923433],[37.631181,49.923533],[37.631961,49.923776]]]}},{"type":"Feature","properties":{"cadnum":"6321885003:00:000:0002"},"geometry":{"type":"Polygon","coordinates":[[[37.632727,49.924629],[37.63288,49.924586],[37.632958,49.924493],[37.632963,49.92437],[37.633124,49.924199],[37.633207,49.924105],[37.632895,49.923976],[37.632452,49.924296],[37.632259,49.924331],[37.632342,49.924439],[37.632573,49.924623],[37.632727,49.924629]]]}},{"type":"Feature","properties":{"cadnum":"6321885003:00:000:0014"},"geometry":{"type":"Polygon","coordinates":[[[37.631324,49.92482],[37.631865,49.924685],[37.631712,49.924414],[37.631346,49.924495],[37.631283,49.924692],[37.631324,49.92482]]]}},{"type":"Feature","properties":{"cadnum":"6321885003:00:000:0015"},"geometry":{"type":"Polygon","coordinates":[[[37.631865,49.924685],[37.63239,49.924553],[37.632573,49.924623],[37.632342,49.924439],[37.63202,49.924345],[37.631712,49.924414],[37.631865,49.924685]]]}}]}