{"type":"FeatureCollection","features":[{"type":"Feature","properties":{"cadnum":"6321884502:00:000:0003"},"geometry":{"type":"Polygon","coordinates":[[[37.974989,49.96521],[37.9749002636816,49.965301],[37.9749,49.965301],[37.97486308731726,49.96533912474097],[37.974793,49.965411],[37.97479349710982,49.965411],[37.974565,49.965647],[37.974157,49.966093],[37.974157,49.96609315023475],[37.974116,49.966138],[37.974157,49.966181827586205],[37.974157,49.966183],[37.974203,49.966231],[37.974157,49.966275],[37.974157,49.96627518897638],[37.974076,49.966353],[37.973727,49.966692],[37.97322,49.967091],[37.972708,49.9675],[37.973119,49.967632],[37.973349,49.967466],[37.973538,49.967483],[37.973797,49.96739],[37.974092,49.967139],[37.974157,49.967088918032786],[37.974157,49.967089],[37.974275,49.966998],[37.974329,49.967027],[37.974329,49.967026414578584],[37.974714,49.967229],[37.974818,49.967148],[37.974468,49.966936],[37.974494,49.966621],[37.974672,49.96647],[37.974938,49.966415],[37.975169,49.966103],[37.975371,49.965922],[37.975485,49.965716],[37.97572,49.965611],[37.97535483870969,49.965411],[37.975355,49.965411],[37.974989,49.96521]]]}},{"type":"Feature","properties":{"cadnum":"6321884502:00:000:0009"},"geometry":{"type":"Polygon","coordinates":[[[37.985027,49.958021],[37.984635,49.957909],[37.984415,49.958344],[37.98441614007782,49.958344],[37.984084,49.959004],[37.984501,49.959179],[37.984698,49.959182],[37.984736,49.95939],[37.985315,49.959756],[37.985315,49.95975492622951],[37.98551,49.959878],[37.985947,49.959495],[37.986407,49.95908],[37.986235,49.958582],[37.985912,49.958366],[37.985596,49.958357],[37.985315,49.958694200000004],[37.985315,49.958694],[37.985286,49.958729],[37.984904,49.958663],[37.985133,49.958335],[37.985144,49.95833676785714],[37.985144,49.958337],[37.985172407407774,49.95834133333339],[37.985189,49.958344],[37.98518988888886,49.958344],[37.985439,49.958382],[37.985614,49.958326],[37.985853,49.958329],[37.985692,49.958219],[37.985467,49.958102],[37.985315,49.95807423529412],[37.985315,49.958074],[37.985027,49.958021]]]}},{"type":"Feature","properties":{"cadnum":"6321884502:00:000:0002"},"geometry":{"type":"Polygon","coordinates":[[[37.979326,49.961489],[37.978435,49.961849],[37.977698,49.962575],[37.978175,49.962684],[37.978787,49.96283],[37.97906,49.962322],[37.97961,49.962518],[37.979343,49.962975],[37.979484,49.963011],[37.979822,49.962713],[37.979822,49.96271183548387],[37.98076453053783,49.961878],[37.980765,49.961878],[37.980982,49.961686],[37.980939,49.961664],[37.980794,49.961578],[37.979822,49.96151937412587],[37.979822,49.961519],[37.979326,49.961489]]]}},{"type":"Feature","properties":{"cadnum":"6321884502:00:000:0007"},"geometry":{"type":"Polygon","coordinates":[[[37.982838,49.961867],[37.982563,49.961706],[37.982637,49.961632],[37.982447,49.961404],[37.98271,49.961239],[37.981186,49.960679],[37.97981246153696,49.96127813461604],[37.979326,49.961489],[37.97965,49.961508596774195],[37.97965,49.961509],[37.980794,49.961578],[37.980939,49.961664],[37.980982,49.961686],[37.981344,49.961878],[37.98134486885245,49.961878],[37.981827,49.962133],[37.98237,49.962183],[37.98282170886076,49.961878],[37.982822,49.961878],[37.982838,49.961867]]]}},{"type":"Feature","properties":{"cadnum":"6321884502:00:000:0006"},"geometry":{"type":"Polygon","coordinates":[[[37.979343,49.962975],[37.97961,49.962518],[37.97906,49.962322],[37.978787,49.96283],[37.979343,49.962975]]]}},{"type":"Feature","properties":{"cadnum":"6321884502:00:000:0015"},"geometry":{"type":"Polygon","coordinates":[[[37.978355,49.96456],[37.978642,49.964398],[37.978603,49.964364],[37.978224,49.964023],[37.97791,49.963951],[37.977891,49.963945],[37.977542,49.96435],[37.97769,49.964414],[37.977919,49.964254],[37.978355,49.96456]]]}},{"type":"Feature","properties":{"cadnum":"6321884502:00:000:0004"},"geometry":{"type":"Polygon","coordinates":[[[37.980982,49.961686],[37.98089045312499,49.961767],[37.98089,49.961767],[37.97965,49.962864],[37.97965,49.962864644970416],[37.979484,49.963011],[37.97965,49.96305372781065],[37.97965,49.963054],[37.980204,49.963196],[37.980839,49.96336],[37.98099,49.963403],[37.981178,49.963272],[37.981564,49.96297],[37.981815,49.962754],[37.982193,49.9625],[37.982479,49.962278],[37.98237,49.962183],[37.981827,49.962133],[37.981135,49.961767],[37.981134718750006,49.961767],[37.980982,49.961686]]]}},{"type":"Feature","properties":{"cadnum":"6321884502:00:000:0001"},"geometry":{"type":"Polygon","coordinates":[[[37.979885,49.963991],[37.980164,49.963873],[37.980541,49.963763],[37.980786,49.963679],[37.980921,49.963585],[37.980156,49.963381],[37.97965,49.963238],[37.97965,49.96323808256881],[37.979386,49.963163],[37.979011,49.963057],[37.978747,49.963034],[37.97825,49.963033],[37.978178,49.963105],[37.977979,49.963153],[37.977739,49.963172],[37.97751,49.963095],[37.976967,49.963677],[37.977344,49.963793],[37.97791,49.963951],[37.978224,49.964023],[37.978426,49.963964],[37.978654,49.963788],[37.978348,49.963664],[37.978457,49.963465],[37.978602,49.963425],[37.979066,49.96355],[37.979228,49.963599],[37.979279,49.963792],[37.979217,49.963989],[37.979207,49.964047],[37.978626,49.964353],[37.978871,49.964573],[37.97965,49.96412575078865],[37.97965,49.964127],[37.979885,49.963991]]]}},{"type":"Feature","properties":{"cadnum":"6321884502:00:000:0012"},"geometry":{"type":"Polygon","coordinates":[[[37.977112,49.9653],[37.978311,49.964704],[37.977043,49.964156],[37.977344,49.963793],[37.976967,49.963677],[37.976708,49.964011],[37.976089,49.9644],[37.975992,49.964488],[37.976051,49.964678],[37.975972,49.96473],[37.977112,49.9653]]]}},{"type":"Feature","properties":{"cadnum":"6321884502:00:000:0013"},"geometry":{"type":"Polygon","coordinates":[[[37.978403,49.962894],[37.978449,49.962749],[37.978175,49.962684],[37.977698,49.962575],[37.97762,49.962789],[37.977764,49.962819],[37.978403,49.962894]],[[37.977942,49.962813],[37.977923,49.962799],[37.977943,49.962787],[37.977962,49.962801],[37.977942,49.962813]]]}},{"type":"Feature","properties":{"cadnum":"6321884502:00:000:0014"},"geometry":{"type":"Polygon","coordinates":[[[37.991542,49.953304],[37.991884,49.953087],[37.992274,49.952771],[37.992113,49.952687],[37.991838,49.952526],[37.991291,49.9529],[37.990808,49.95348122477064],[37.990808,49.953481],[37.990032,49.954413],[37.989411,49.954174],[37.989179,49.954458],[37.990119,49.95481],[37.990121970802925,49.95481],[37.990192,49.954836],[37.989941,49.95511],[37.989988,49.955203],[37.989817,49.95524],[37.988741,49.956484],[37.989072,49.956615],[37.990637,49.95500943260369],[37.990637,49.95501],[37.990931,49.954708],[37.990637,49.954565],[37.990637,49.954565319148934],[37.990479,49.954488],[37.990637,49.95428581762918],[37.990637,49.954287],[37.99134,49.95339],[37.991542,49.953304]]]}},{"type":"Feature","properties":{"cadnum":"6321884502:00:000:0011"},"geometry":{"type":"Polygon","coordinates":[[[37.991466,49.954178],[37.992388,49.953298],[37.992492,49.953207],[37.992864,49.952922],[37.993035,49.952943],[37.993696,49.952525],[37.993933,49.952233],[37.99387,49.951948],[37.99361,49.951563],[37.993374,49.951667],[37.993217,49.95206],[37.992113,49.952687],[37.992274,49.952771],[37.991884,49.953087],[37.991542,49.953304],[37.99134,49.95339],[37.990808,49.95406881081081],[37.990808,49.954067],[37.990479,49.954488],[37.990808,49.954649],[37.990808,49.95464817346939],[37.990931,49.954708],[37.991466,49.954178]]]}},{"type":"Feature","properties":{"cadnum":"6321884502:00:000:0010"},"geometry":{"type":"Polygon","coordinates":[[[37.991291,49.9529],[37.991838,49.952526],[37.992113,49.952687],[37.993217,49.95206],[37.993374,49.951667],[37.992945,49.95128],[37.992443,49.951582],[37.992944,49.951928],[37.9923,49.95235],[37.991695,49.952128],[37.991514,49.95211],[37.991212,49.952278],[37.990673142856416,49.95272314285774],[37.990336,49.953001],[37.989411,49.954174],[37.990032,49.954413],[37.990637,49.95368637628866],[37.990637,49.953687],[37.991291,49.9529]]]}},{"type":"Feature","properties":{"cadnum":"6321884502:00:000:0008"},"geometry":{"type":"Polygon","coordinates":[[[37.983963,49.96118],[37.985136,49.960187],[37.9836,49.959451],[37.983309,49.959831],[37.983058,49.96],[37.9827,49.960239],[37.982228,49.960618],[37.982472,49.960714],[37.982841,49.96079],[37.983963,49.96118]]]}}]}