{"type":"FeatureCollection","features":[{"type":"Feature","properties":{"cadnum":"6321482001:00:003:0016"},"geometry":{"type":"Polygon","coordinates":[[[37.622294,50.046468],[37.622062,50.046329],[37.62184026760564,50.046502],[37.62184,50.046502],[37.62127,50.046946],[37.621566,50.047099],[37.622126080402005,50.046613],[37.622127,50.046613],[37.622294,50.046468]]]}},{"type":"Feature","properties":{"cadnum":"6321482001:00:003:0017"},"geometry":{"type":"Polygon","coordinates":[[[37.622766,50.04547457692308],[37.622907,50.045527],[37.6233,50.044981],[37.623595,50.044913],[37.623803,50.04467],[37.623924,50.044635],[37.624283,50.044748],[37.624447,50.044552],[37.624715,50.044225],[37.622855,50.043462],[37.622644,50.043413],[37.622414,50.044068],[37.622431,50.044297],[37.622595,50.04452379279279],[37.622595,50.044524],[37.622653,50.044604],[37.622595,50.044974],[37.622366,50.045325],[37.622595,50.045410875],[37.622595,50.045411],[37.6226340000001,50.045425500000036],[37.622766,50.045475],[37.622766,50.04547457692308]]]}},{"type":"Feature","properties":{"cadnum":"6321482001:00:003:0006"},"geometry":{"type":"Polygon","coordinates":[[[37.6215,50.045359],[37.621978,50.044626],[37.621879,50.04454],[37.621883,50.044469],[37.621361,50.044214],[37.620758,50.045048],[37.6215,50.045359]]]}},{"type":"Feature","properties":{"cadnum":"6321482001:00:003:0019"},"geometry":{"type":"Polygon","coordinates":[[[37.623142,50.046476],[37.623331,50.046288],[37.622807,50.046002],[37.622766,50.046046153846156],[37.622766,50.046046],[37.62269,50.046128],[37.622431,50.046402],[37.622595,50.04649207761194],[37.622595,50.046493],[37.622813,50.046613],[37.62281548913044,50.046613],[37.622948,50.046686],[37.623020316278776,50.0466072651166],[37.623142,50.046476]]]}},{"type":"Feature","properties":{"cadnum":"6321482001:00:003:0023"},"geometry":{"type":"Polygon","coordinates":[[[37.622807,50.046002],[37.623118,50.045666],[37.623323,50.045446],[37.623035,50.04535],[37.622907,50.045527],[37.622766,50.045675230769234],[37.622766,50.045675],[37.622549,50.045902],[37.622595,50.04597573049645],[37.622595,50.045976],[37.62269,50.046128],[37.622807,50.046002]]]}},{"type":"Feature","properties":{"cadnum":"6321482001:00:003:0021"},"geometry":{"type":"Polygon","coordinates":[[[37.622595,50.04585388018433],[37.622595,50.045855],[37.622907,50.045527],[37.6226340000001,50.045425500000036],[37.622366,50.045325],[37.622129,50.045728],[37.622549,50.045902],[37.622595,50.04585388018433]]]}},{"type":"Feature","properties":{"cadnum":"6321482001:00:003:0013"},"geometry":{"type":"Polygon","coordinates":[[[37.622294,50.046468],[37.62225484137931,50.046502],[37.622254,50.046502],[37.621586,50.047082],[37.62192,50.047246],[37.622289,50.046928],[37.622591,50.046631],[37.622356,50.046502],[37.62235566896551,50.046502],[37.622294,50.046468]]]}},{"type":"Feature","properties":{"cadnum":"6321482001:00:003:0028"},"geometry":{"type":"Polygon","coordinates":[[[37.620776,50.048893],[37.621168,50.048525],[37.620338,50.048219],[37.620281,50.048317],[37.620326,50.048612],[37.620776,50.048893]]]}},{"type":"Feature","properties":{"cadnum":"6321482001:00:003:0020"},"geometry":{"type":"Polygon","coordinates":[[[37.619089,50.050003],[37.619112,50.049945],[37.619156,50.049925],[37.619116,50.049868],[37.619133,50.049832],[37.619117,50.049817],[37.619166,50.049714],[37.618696,50.049569],[37.61859,50.049712],[37.6184,50.049705],[37.618381,50.049913],[37.618499,50.04993],[37.618656,50.049949],[37.619089,50.050003]]]}},{"type":"Feature","properties":{"cadnum":"6321482001:00:003:0025"},"geometry":{"type":"Polygon","coordinates":[[[37.621091,50.048425],[37.621906,50.047256],[37.621549,50.047122],[37.620523,50.048035],[37.620945,50.048252],[37.620878,50.048354],[37.621091,50.048425]]]}},{"type":"Feature","properties":{"cadnum":"6321482001:00:003:0015"},"geometry":{"type":"Polygon","coordinates":[[[37.622595,50.04943285156251],[37.622595,50.049434],[37.622756,50.049175],[37.622018,50.048949],[37.621742,50.049399],[37.6225,50.049585],[37.622595,50.04943285156251]]]}},{"type":"Feature","properties":{"cadnum":"6321482001:00:003:0027"},"geometry":{"type":"Polygon","coordinates":[[[37.624429,50.048334],[37.624645,50.047446],[37.624024,50.047214],[37.624181,50.047035],[37.623743,50.04686],[37.623571,50.047055],[37.623369,50.048201],[37.624002,50.048281],[37.624429,50.048334]]]}},{"type":"Feature","properties":{"cadnum":"6321482001:00:003:0008"},"geometry":{"type":"Polygon","coordinates":[[[37.624675,50.049961],[37.625107,50.049783],[37.625005,50.049164],[37.624497,50.049083],[37.624625,50.048828],[37.625083,50.048886],[37.625142,50.048657],[37.624125,50.048529],[37.623276,50.048409],[37.622944,50.049155],[37.62287,50.049303],[37.62317,50.049348],[37.622874,50.049662],[37.624675,50.049961]]]}},{"type":"Feature","properties":{"cadnum":"6321482001:00:003:0026"},"geometry":{"type":"Polygon","coordinates":[[[37.623224,50.047724],[37.623497,50.047177],[37.623414,50.047152],[37.623477,50.047067],[37.623265,50.046948],[37.62315,50.04695],[37.623023,50.047164],[37.622792,50.047624],[37.623224,50.047724]]]}},{"type":"Feature","properties":{"cadnum":"6321482001:00:004:0004"},"geometry":{"type":"Polygon","coordinates":[[[37.62826,50.048981615763545],[37.628291,50.048992],[37.628599,50.048674],[37.628571,50.048664],[37.628473,50.048618],[37.628383,50.048578],[37.628122,50.048457],[37.627747,50.048827],[37.628079,50.04892],[37.628088,50.04892308287293],[37.628088,50.048924],[37.628209215826885,50.048964604316396],[37.62826,50.048982],[37.62826,50.048981615763545]]]}},{"type":"Feature","properties":{"cadnum":"6321482001:00:004:0003"},"geometry":{"type":"Polygon","coordinates":[[[37.627641,50.049601],[37.628079,50.04892],[37.627572,50.048777],[37.627212,50.049471],[37.627641,50.049601]]]}}]}