{"type":"FeatureCollection","features":[{"type":"Feature","properties":{"cadnum":"6321882504:00:000:0004"},"geometry":{"type":"Polygon","coordinates":[[[37.561919,49.869807],[37.562216,49.869254],[37.561608,49.869206],[37.561525,49.869133],[37.56121,49.869056],[37.5612,49.868956],[37.560896,49.868896],[37.560714,49.868679],[37.560483,49.868657],[37.560425,49.868836],[37.560056,49.868818],[37.55994,49.869317],[37.559968,49.869385],[37.560152,49.869437],[37.56068,49.869467],[37.560782,49.869609],[37.561919,49.869807]]]}},{"type":"Feature","properties":{"cadnum":"6321882504:00:000:0002"},"geometry":{"type":"Polygon","coordinates":[[[37.556849,49.867933],[37.556781,49.867733],[37.55604,49.867686],[37.55589,49.868158],[37.55626,49.868167],[37.556645,49.868314],[37.556677,49.86831846927374],[37.556677,49.86832],[37.556824,49.868339],[37.55687,49.868474],[37.557042,49.868472],[37.55713,49.868028],[37.557471,49.868065],[37.557994,49.868188],[37.558123,49.868287],[37.558101,49.868428],[37.558344,49.868426],[37.558379,49.868112],[37.558788,49.868131],[37.558922,49.867845],[37.558176,49.867748],[37.557359,49.867692],[37.557274,49.867819],[37.556945,49.867944],[37.556854,49.867949],[37.556849,49.86793420547945],[37.556849,49.867933]]]}},{"type":"Feature","properties":{"cadnum":"6321882504:00:000:0003"},"geometry":{"type":"Polygon","coordinates":[[[37.556002,49.868811],[37.555794,49.868846],[37.555815,49.869276],[37.556677,49.869281835589945],[37.556677,49.869282],[37.5573,49.869286],[37.557671,49.869167],[37.55785,49.869206],[37.557707,49.869452],[37.556849,49.86944533592233],[37.556849,49.869445],[37.556553,49.869442],[37.555452,49.869535],[37.555487,49.869674],[37.556849,49.869599],[37.556849,49.869598395939086],[37.556874,49.869597],[37.558853,49.869487],[37.559051,49.868655],[37.559157,49.868754],[37.559094,49.869241],[37.559334,49.869224],[37.559718,49.868767],[37.559606,49.868524],[37.55915,49.868509],[37.558646,49.868556],[37.558603,49.869004],[37.558379,49.869008],[37.558313,49.868613],[37.557923,49.868624],[37.557903,49.868831],[37.556958,49.868812],[37.556849,49.868812],[37.556002,49.868811]]]}},{"type":"Feature","properties":{"cadnum":"6321882504:00:000:0010"},"geometry":{"type":"Polygon","coordinates":[[[37.561736,49.868638],[37.561923,49.868251],[37.560573,49.868059],[37.55917,49.867859],[37.559092,49.868366],[37.561736,49.868638]]]}},{"type":"Feature","properties":{"cadnum":"6321882504:00:000:0007"},"geometry":{"type":"Polygon","coordinates":[[[37.545705,49.869497],[37.545893,49.869468],[37.545994,49.869374],[37.546593,49.869418],[37.546983,49.869493],[37.548063,49.869442],[37.547319,49.868265],[37.545889,49.868439],[37.545691,49.868466],[37.545691,49.869474],[37.545705,49.869497]]]}},{"type":"Feature","properties":{"cadnum":"6321882504:00:000:0001"},"geometry":{"type":"Polygon","coordinates":[[[37.551341692309315,49.86766903846165],[37.551355,49.86767],[37.551355,49.86766997],[37.551484,49.867679],[37.551491,49.86743],[37.551216941371244,49.86741036061944],[37.55081,49.867379],[37.55019,49.867521],[37.549518,49.867563],[37.549045,49.867667],[37.549106,49.867963],[37.549267,49.867901],[37.549206,49.867758],[37.549808,49.86784],[37.550037,49.868069],[37.550264,49.868082],[37.550413,49.86794],[37.550498,49.86794],[37.550618,49.868178],[37.551355,49.868231],[37.551355,49.86822990506329],[37.5515,49.86824],[37.551492,49.867875],[37.55132210121461,49.86787720647773],[37.550877,49.86788],[37.550871,49.867694],[37.551009,49.867645],[37.551184,49.86765764450867],[37.551184,49.867658],[37.551341692309315,49.86766903846165]]]}},{"type":"Feature","properties":{"cadnum":"6321882504:00:000:0009"},"geometry":{"type":"Polygon","coordinates":[[[37.548063,49.869442],[37.548137,49.869439],[37.54885,49.869326],[37.549985,49.868987],[37.549962,49.868267],[37.549093,49.868164],[37.548088,49.868172],[37.547319,49.868265],[37.548063,49.869442]]]}},{"type":"Feature","properties":{"cadnum":"6321882504:00:000:0011"},"geometry":{"type":"Polygon","coordinates":[[[37.554467,49.868449],[37.554732,49.867853],[37.554827,49.867346],[37.552994,49.867382],[37.552393,49.867287],[37.552145,49.868311],[37.554467,49.868449]]]}},{"type":"Feature","properties":{"cadnum":"6321882504:00:000:0012"},"geometry":{"type":"Polygon","coordinates":[[[37.555396,49.868513],[37.555809,49.868413],[37.55589,49.868158],[37.55604,49.867686],[37.555625,49.867704],[37.555467,49.868211],[37.555396,49.868513]]]}}]}