{"type":"FeatureCollection","features":[{"type":"Feature","properties":{"cadnum":"6321881509:00:000:0004"},"geometry":{"type":"Polygon","coordinates":[[[37.930849,50.017173],[37.930895,50.017079],[37.930522,50.017004],[37.930445,50.017166],[37.93026202647056,50.01756021764712],[37.930158,50.017783],[37.930384,50.01783],[37.930384,50.01782985667752],[37.930519,50.017858],[37.930849,50.017173]]]}},{"type":"Feature","properties":{"cadnum":"6321881509:00:000:0023"},"geometry":{"type":"Polygon","coordinates":[[[37.934359,50.017244],[37.934795,50.01658],[37.934309,50.016419],[37.934526,50.016082],[37.933027,50.01571],[37.932929,50.015854],[37.932933,50.016495],[37.932743,50.016797],[37.933063,50.016857],[37.933451,50.016209],[37.93432,50.016463],[37.934112,50.016811],[37.933365,50.016611],[37.933196,50.016884],[37.934359,50.017244]]]}},{"type":"Feature","properties":{"cadnum":"6321881509:00:000:0030"},"geometry":{"type":"Polygon","coordinates":[[[37.934247,50.017614],[37.932194,50.017303],[37.931961,50.017655],[37.931785,50.017712],[37.931741,50.017769],[37.930687,50.017509],[37.930541,50.017813],[37.932001,50.018207],[37.93228,50.017381],[37.932999,50.017488],[37.93258845535714,50.018274],[37.932588,50.018274],[37.93254892741984,50.01834967741842],[37.932531,50.018384],[37.932531206521745,50.018384],[37.932493,50.018458],[37.932976,50.018606],[37.93323,50.01862],[37.933451,50.01869],[37.933758,50.018274],[37.93375757142857,50.018274],[37.934247,50.017614]]]}},{"type":"Feature","properties":{"cadnum":"6321881509:00:000:0006"},"geometry":{"type":"Polygon","coordinates":[[[37.936022,50.017207],[37.935835,50.017133],[37.935725,50.017279],[37.93501,50.017087],[37.934808,50.017391],[37.934926,50.017428],[37.935012,50.017465],[37.935155,50.017507],[37.935445,50.017592],[37.935611,50.017372],[37.935705,50.017405412322276],[37.935705,50.017406],[37.935822,50.017447],[37.936022,50.017207]]]}},{"type":"Feature","properties":{"cadnum":"6321881509:00:000:0013"},"geometry":{"type":"Polygon","coordinates":[[[37.937215,50.016138],[37.93695,50.016085],[37.936919,50.015966],[37.936376,50.015876],[37.935796,50.015852],[37.935469,50.015839],[37.935098,50.01581],[37.935043,50.015909],[37.934626,50.015887],[37.934526,50.016082],[37.935243,50.016288],[37.934604,50.017325],[37.934808,50.017391],[37.93501,50.017087],[37.935705,50.01727362937063],[37.935705,50.017274],[37.935725,50.017279],[37.935835,50.017133],[37.935877,50.01715],[37.935877,50.01714962032086],[37.936022,50.017207],[37.935877,50.017381],[37.935822,50.017447],[37.935611,50.017372],[37.935445,50.017592],[37.935705,50.01767866666667],[37.935705,50.017679],[37.935913,50.017748],[37.936348,50.017196],[37.936189,50.017116],[37.935979,50.016978],[37.935792590164205,50.01689840163946],[37.935335,50.0167],[37.935385,50.016437],[37.935705,50.016583341463416],[37.935705,50.016584],[37.93659,50.016986],[37.937215,50.016138]]]}},{"type":"Feature","properties":{"cadnum":"6321881509:00:000:0005"},"geometry":{"type":"Polygon","coordinates":[[[37.935662,50.018228],[37.935634,50.01775],[37.934416,50.017385],[37.933676,50.018384],[37.93367682211538,50.018384],[37.933451,50.01869],[37.934136,50.018864],[37.934365,50.018914],[37.934968,50.018955],[37.935023,50.018904],[37.935612333333,50.01828000000035],[37.935662,50.018228]]]}},{"type":"Feature","properties":{"cadnum":"6321881509:00:000:0029"},"geometry":{"type":"Polygon","coordinates":[[[37.931624,50.016587],[37.931915,50.016026],[37.93236,50.016103],[37.932614,50.015502],[37.931434,50.015344],[37.930461,50.0163],[37.931624,50.016587]]]}},{"type":"Feature","properties":{"cadnum":"6321881509:00:000:0037"},"geometry":{"type":"Polygon","coordinates":[[[37.909516,50.016902],[37.910062,50.016449],[37.909857,50.016351],[37.909635,50.01624],[37.909367,50.016455],[37.909316,50.016494],[37.909068,50.016692],[37.909332,50.016816],[37.909516,50.016902]]]}},{"type":"Feature","properties":{"cadnum":"6321881509:00:000:0031"},"geometry":{"type":"Polygon","coordinates":[[[37.908745,50.016497],[37.908846,50.016345],[37.90841,50.016248],[37.90836,50.016363],[37.907588,50.016214],[37.90772,50.015923],[37.906886,50.015794],[37.906216,50.01587],[37.905517,50.016915],[37.9065,50.017196],[37.906689,50.016989],[37.906945,50.017024],[37.907185,50.016753],[37.908239,50.01697534832379],[37.908239,50.016976],[37.908408,50.017011],[37.908411,50.017006],[37.908411,50.01700516],[37.908483,50.016865],[37.9082562391309,50.01681667391314],[37.908072,50.016777],[37.908327,50.016413],[37.908411,50.016431],[37.908411,50.01642988038277],[37.908745,50.016497]]]}},{"type":"Feature","properties":{"cadnum":"6321881509:00:000:0038"},"geometry":{"type":"Polygon","coordinates":[[[37.898385,50.004065],[37.897924,50.003873],[37.897675,50.003938],[37.897831,50.004264],[37.89783202232143,50.004264],[37.897886,50.004377],[37.898032,50.004889],[37.898575,50.005648],[37.899363,50.005132],[37.89856681613892,50.004264],[37.898567,50.004264],[37.898385,50.004065]]]}},{"type":"Feature","properties":{"cadnum":"6321881509:00:000:0035"},"geometry":{"type":"Polygon","coordinates":[[[37.89946,50.006794],[37.900454,50.006555],[37.899996,50.005766],[37.899418,50.005925],[37.898936,50.006065],[37.899249,50.006762],[37.89946,50.006794]]]}},{"type":"Feature","properties":{"cadnum":"6321881509:00:000:0040"},"geometry":{"type":"Polygon","coordinates":[[[37.9008,50.007368],[37.900729,50.007171],[37.900405,50.007246],[37.900476,50.007397],[37.899988,50.007502],[37.899906,50.007354],[37.899574,50.00742],[37.89968,50.007599],[37.89973100000166,50.00768400000276],[37.89992,50.008],[37.900685,50.007985],[37.900925,50.007979],[37.900869,50.007705],[37.9008,50.007368]]]}},{"type":"Feature","properties":{"cadnum":"6321881509:00:000:0046"},"geometry":{"type":"Polygon","coordinates":[[[37.899418,50.005925],[37.899996,50.005766],[37.899628,50.00517],[37.899424,50.005256],[37.899104,50.005506],[37.899269,50.005696],[37.899418,50.005925]]]}},{"type":"Feature","properties":{"cadnum":"6321881509:00:000:0047"},"geometry":{"type":"Polygon","coordinates":[[[37.9007,50.00695],[37.901322,50.00688],[37.901657,50.006793],[37.90192,50.006664],[37.900985,50.005192],[37.900661,50.005027],[37.899981,50.004891],[37.899628,50.00517],[37.899996,50.005766],[37.900454,50.006555],[37.9007,50.00695]],[[37.900108,50.005407],[37.900095,50.005392],[37.900119,50.005383],[37.900132,50.0054],[37.900108,50.005407]],[[37.900651,50.006012],[37.900638,50.005996],[37.900662,50.005988],[37.900676,50.006003],[37.900651,50.006012]],[[37.901134,50.006551],[37.901121,50.006536],[37.901146,50.006527],[37.901158,50.006543],[37.901134,50.006551]]]}},{"type":"Feature","properties":{"cadnum":"6321881509:00:000:0026"},"geometry":{"type":"Polygon","coordinates":[[[37.920532,50.014715],[37.92064920833333,50.014744],[37.920649,50.014744],[37.920823,50.014787],[37.921593,50.014058],[37.921554,50.014043],[37.920312,50.013589],[37.919691,50.013363],[37.919397,50.01362349032259],[37.919397,50.013623],[37.918707,50.014234],[37.919187,50.014401],[37.919035,50.014613],[37.919397,50.014723],[37.919397,50.01472255354201],[37.919468136612025,50.014744],[37.919468,50.014744],[37.920099,50.014935],[37.920183750000035,50.014794241304294],[37.920262,50.014667],[37.920532,50.014715]]]}},{"type":"Feature","properties":{"cadnum":"6321881509:00:000:0045"},"geometry":{"type":"Polygon","coordinates":[[[37.922723,50.014473],[37.922175,50.014271],[37.921593,50.014058],[37.92086841838134,50.014744],[37.920867,50.014744],[37.920823,50.014787],[37.920783,50.014854],[37.92078330479452,50.014854],[37.92065,50.015079],[37.921259,50.015135],[37.921237,50.015252],[37.921558,50.015381],[37.921342,50.015877],[37.922243,50.015907],[37.92224,50.015612],[37.922141,50.015602],[37.92242,50.015102],[37.922227,50.015045],[37.9223919833887,50.014854],[37.922392,50.014854],[37.922723,50.014473]]]}},{"type":"Feature","properties":{"cadnum":"6321881509:00:000:0015"},"geometry":{"type":"Polygon","coordinates":[[[37.924036,50.014397],[37.922959,50.01374],[37.922511,50.014027],[37.922175,50.014271],[37.922723,50.014473],[37.92248756430446,50.014744],[37.922487,50.014744],[37.922227,50.015045],[37.92242,50.015102],[37.922141,50.015602],[37.922969,50.015688],[37.923426,50.014904],[37.923618,50.014744],[37.92361762582057,50.014744],[37.924036,50.014397]]]}},{"type":"Feature","properties":{"cadnum":"6321881509:00:000:0022"},"geometry":{"type":"Polygon","coordinates":[[[37.920532,50.014715],[37.92051384892086,50.014744],[37.920513,50.014744],[37.920446775510094,50.01485116326549],[37.920445,50.014854],[37.92044502247191,50.014854],[37.920238,50.015189],[37.920151,50.01537],[37.920099,50.01536],[37.920085,50.015389],[37.920053,50.015457],[37.920029,50.015489],[37.920002,50.01557],[37.919977,50.015608],[37.920311,50.015684],[37.920375,50.015553],[37.920492,50.015344],[37.92065,50.015079],[37.920823,50.014787],[37.920532,50.014715]]]}},{"type":"Feature","properties":{"cadnum":"6321881509:00:000:0025"},"geometry":{"type":"Polygon","coordinates":[[[37.923485,50.014854],[37.923486,50.014854],[37.923426,50.014904],[37.922969,50.015688],[37.923588,50.015751],[37.923775,50.01519],[37.924252,50.015259],[37.924038,50.015845],[37.924719,50.015855998654104],[37.924719,50.015856],[37.924781,50.015857],[37.924891,50.015276],[37.924891,50.01527399999999],[37.92498231578929,50.01479002631675],[37.925006,50.014667],[37.924719,50.014587],[37.924719,50.014587121637426],[37.924036,50.014397],[37.923485,50.014854]]]}},{"type":"Feature","properties":{"cadnum":"6321881509:00:000:0042"},"geometry":{"type":"Polygon","coordinates":[[[37.922172,50.016905],[37.922616,50.016834],[37.923046,50.016701],[37.923303,50.016617],[37.923677,50.016375],[37.924146,50.016476],[37.924456,50.016538],[37.924562,50.016034],[37.923442,50.016094],[37.922045,50.016128],[37.92129,50.015991],[37.920929,50.016742],[37.921794,50.016898],[37.922172,50.016905]],[[37.921172,50.016575],[37.92113,50.016574],[37.921133,50.016547],[37.921174,50.016549],[37.921172,50.016575]],[[37.922077,50.016605],[37.922035,50.016605],[37.922038,50.016577],[37.92208,50.016579],[37.922077,50.016605]],[[37.923022,50.016637],[37.922981,50.016636],[37.922983,50.016609],[37.923025,50.01661],[37.923022,50.016637]]]}},{"type":"Feature","properties":{"cadnum":"6321881509:00:000:0021"},"geometry":{"type":"Polygon","coordinates":[[[37.914497,50.014722],[37.914557,50.01456],[37.914703,50.014164],[37.91414,50.01408],[37.913935,50.014477],[37.91417,50.01451],[37.914163,50.014533],[37.914125,50.014642],[37.91412,50.014664],[37.91425,50.014684],[37.914297,50.014692],[37.914497,50.014722]]]}},{"type":"Feature","properties":{"cadnum":"6321881509:00:000:0036"},"geometry":{"type":"Polygon","coordinates":[[[37.914388,50.01355],[37.914835,50.012684],[37.91388702700914,50.01241818906155],[37.913463,50.012298],[37.912872,50.01302],[37.912792,50.013227],[37.912825,50.013381],[37.912269,50.01415],[37.913003,50.014363],[37.913235,50.014381],[37.913349,50.014156],[37.913429,50.013552],[37.913733,50.01355136],[37.913733,50.013552],[37.914388,50.01355]]]}},{"type":"Feature","properties":{"cadnum":"6321881509:00:000:0028"},"geometry":{"type":"Polygon","coordinates":[[[37.914703,50.014164],[37.914741,50.014062],[37.915719,50.012522],[37.915341,50.012461],[37.915015,50.012747],[37.914834,50.012684],[37.914388,50.01355],[37.914209,50.013948],[37.91414,50.01408],[37.914703,50.014164]]]}},{"type":"Feature","properties":{"cadnum":"6321881509:00:000:0019"},"geometry":{"type":"Polygon","coordinates":[[[37.927292,50.018121],[37.927502,50.017596],[37.927551,50.017418],[37.926389,50.01733],[37.926331,50.017513],[37.92647,50.017697],[37.926295,50.018147],[37.926167,50.018137],[37.92608,50.018384],[37.926081205128206,50.018384],[37.926052,50.018469],[37.926059,50.018716],[37.926641,50.018907],[37.927056,50.01878],[37.927193,50.01847],[37.92722529787244,50.018354902127314],[37.927292,50.018121]]]}},{"type":"Feature","properties":{"cadnum":"6321881509:00:000:0034"},"geometry":{"type":"Polygon","coordinates":[[[37.908411,50.014614],[37.908411,50.014613480286734],[37.90862,50.014388],[37.908239,50.014257],[37.908239,50.014257511278196],[37.907746,50.014087],[37.907153,50.014503],[37.906841,50.014361],[37.907411,50.013932],[37.906924,50.013525],[37.906319,50.013621],[37.905703,50.013866],[37.905261,50.014118],[37.90650449456522,50.014744],[37.906504,50.014744],[37.90703,50.015009],[37.908089,50.014949],[37.908239,50.01479447738693],[37.908239,50.014795],[37.908341,50.014689],[37.908411,50.014614]]]}},{"type":"Feature","properties":{"cadnum":"6321881509:00:000:0024"},"geometry":{"type":"Polygon","coordinates":[[[37.910027,50.014261],[37.910065,50.014224],[37.910232,50.014062],[37.910546,50.014102],[37.910687,50.013889],[37.910002,50.013682],[37.909973,50.013725],[37.909653,50.014151],[37.909642,50.014166],[37.909949,50.014241],[37.910027,50.014261]]]}},{"type":"Feature","properties":{"cadnum":"6321881509:00:000:0097"},"geometry":{"type":"Polygon","coordinates":[[[37.908111,50.012958],[37.908239,50.013000240000004],[37.908239,50.013001],[37.90835645454546,50.013039000000006],[37.908411,50.013057],[37.908411,50.013056647058825],[37.908545,50.0131],[37.908686,50.013137],[37.908788,50.013023],[37.908411,50.01292754826958],[37.908411,50.012927],[37.908111,50.012851],[37.907555,50.012652],[37.907109,50.012459],[37.906811,50.012335],[37.906517,50.01262],[37.906205,50.012463],[37.906118,50.012565],[37.906823,50.012896],[37.906932,50.012792],[37.907061,50.012604],[37.907547,50.012758],[37.907378,50.012987],[37.907934,50.013185],[37.908111,50.012958]]]}},{"type":"Feature","properties":{"cadnum":"6321881509:00:000:0011"},"geometry":{"type":"Polygon","coordinates":[[[37.906976,50.011477],[37.906205,50.012463],[37.906517,50.01262],[37.906811,50.012335],[37.907109,50.012459],[37.907555,50.012652],[37.908111,50.012851],[37.908239,50.01288342666666],[37.908239,50.012884],[37.908788,50.013023],[37.909536,50.012051],[37.908504,50.012014],[37.90835057894655,50.01196073684182],[37.906976,50.011477]]]}},{"type":"Feature","properties":{"cadnum":"6321881509:00:000:0032"},"geometry":{"type":"Polygon","coordinates":[[[37.91024,50.01123],[37.910158,50.011324],[37.910159395858706,50.011324],[37.909536,50.012051],[37.908788,50.013023],[37.908686,50.013137],[37.908597,50.013237],[37.908522,50.013355],[37.909155,50.013516],[37.909661,50.012568],[37.910357,50.011261],[37.91024,50.01123]]]}},{"type":"Feature","properties":{"cadnum":"6321881509:00:000:0039"},"geometry":{"type":"Polygon","coordinates":[[[37.910323,50.011324],[37.91032345141545,50.011324],[37.909661,50.012568],[37.909155,50.013516],[37.909981,50.013713],[37.910002,50.013682],[37.910125,50.013279],[37.910515,50.012944],[37.911591,50.01163],[37.910357,50.011261],[37.910323,50.011324]]]}},{"type":"Feature","properties":{"cadnum":"6321881509:00:000:0010"},"geometry":{"type":"Polygon","coordinates":[[[37.911777,50.013324],[37.913061,50.01175],[37.912422,50.011741],[37.911623,50.011592],[37.910515,50.012944],[37.911777,50.013324]]]}},{"type":"Feature","properties":{"cadnum":"6321881509:00:000:0008"},"geometry":{"type":"Polygon","coordinates":[[[37.908545,50.0131],[37.90835645454546,50.013039000000006],[37.908111,50.012958],[37.907732,50.01344],[37.90769,50.013496],[37.907655,50.013543],[37.908099,50.013667],[37.908411,50.01327],[37.908411,50.01326990849673],[37.908545,50.0131]]]}},{"type":"Feature","properties":{"cadnum":"6321881509:00:000:0017"},"geometry":{"type":"Polygon","coordinates":[[[37.906729,50.009766],[37.906166,50.00952],[37.90542,50.009942],[37.904102,50.010533],[37.902746,50.011278],[37.902746,50.01127821395349],[37.902715894737085,50.011294736841975],[37.902662,50.011324],[37.90266257627119,50.011324],[37.902648,50.011332],[37.902746,50.01138535555556],[37.902746,50.011386],[37.903461,50.011773],[37.90376,50.011589],[37.90423758536797,50.011295402437725],[37.905719,50.010386],[37.906729,50.009766]]]}},{"type":"Feature","properties":{"cadnum":"6321881509:00:000:0009"},"geometry":{"type":"Polygon","coordinates":[[[37.907043,50.013282],[37.90714,50.013196],[37.907255,50.013095],[37.907378,50.012987],[37.907547,50.012758],[37.907061,50.012604],[37.906932,50.012792],[37.906765,50.012951],[37.906622,50.013088],[37.906859,50.013197],[37.906898,50.013215],[37.907043,50.013282]]]}},{"type":"Feature","properties":{"cadnum":"6321881509:00:000:0020"},"geometry":{"type":"Polygon","coordinates":[[[37.905851,50.01275],[37.906094,50.012553],[37.906067,50.01254],[37.906711,50.011717],[37.906627,50.011679],[37.906322,50.011493],[37.906114,50.011368],[37.905254,50.01212],[37.905014,50.012335],[37.905851,50.01275]]]}},{"type":"Feature","properties":{"cadnum":"6321881509:00:000:0018"},"geometry":{"type":"Polygon","coordinates":[[[37.906002,50.010856],[37.907313,50.01002],[37.906729,50.009766],[37.905719,50.010386],[37.90437018976545,50.011214],[37.90437,50.011214],[37.90423758536797,50.011295402437725],[37.904191,50.011324],[37.90419106666667,50.011324],[37.90376,50.011589],[37.903461,50.011773],[37.904292,50.012222],[37.904824,50.011906],[37.90547664739884,50.011324],[37.905477,50.011324],[37.906002,50.010856]]]}},{"type":"Feature","properties":{"cadnum":"6321881509:00:000:0012"},"geometry":{"type":"Polygon","coordinates":[[[37.904001,50.012851],[37.904455,50.012556],[37.904142,50.012388],[37.904153,50.012366],[37.90404,50.012305],[37.903996,50.012284],[37.903981,50.012277],[37.903924,50.012248],[37.903912,50.012255],[37.903894,50.012265],[37.903882,50.012258],[37.903847,50.012241],[37.9037,50.012353],[37.903453,50.01254],[37.904001,50.012851]]]}},{"type":"Feature","properties":{"cadnum":"6321881509:00:000:0041"},"geometry":{"type":"Polygon","coordinates":[[[37.905446,50.013654],[37.90655,50.013428],[37.906461,50.013263],[37.905824,50.013121],[37.9054,50.013532],[37.904983,50.013329],[37.905121,50.013184],[37.904932,50.013081],[37.904838,50.013153],[37.904126,50.01277],[37.904001,50.012852],[37.903606,50.013114],[37.90438,50.013451],[37.904852,50.013563],[37.905446,50.013654]]]}},{"type":"Feature","properties":{"cadnum":"6321881509:00:000:0043"},"geometry":{"type":"Polygon","coordinates":[[[37.925698,50.015863],[37.925698,50.015849],[37.925702,50.015694],[37.925682,50.015691],[37.925683,50.015658],[37.925694,50.015568],[37.925703,50.015396],[37.925717,50.015238],[37.92523,50.015216],[37.925175,50.015443],[37.925137,50.015756],[37.925391,50.015782],[37.925371,50.015852],[37.925424,50.015857],[37.925483,50.015857],[37.925486,50.015858],[37.925529,50.015857],[37.925698,50.015863]]]}},{"type":"Feature","properties":{"cadnum":"6321881509:00:000:0003"},"geometry":{"type":"Polygon","coordinates":[[[37.926566,50.015891],[37.926578,50.01574],[37.926642,50.015666],[37.926701,50.015581],[37.926812,50.01518],[37.926362,50.015168],[37.926291,50.01551],[37.926177,50.015521],[37.926167,50.015605],[37.926161,50.015769],[37.926165,50.015812],[37.926169,50.015849],[37.926331,50.015842],[37.926402,50.015887],[37.926566,50.015891]]]}},{"type":"Feature","properties":{"cadnum":"6321881509:00:000:0044"},"geometry":{"type":"Polygon","coordinates":[[[37.927728,50.015944],[37.92779,50.015732],[37.927799,50.015102],[37.927476,50.015103],[37.927397,50.015605],[37.92738,50.015725],[37.927376,50.015761],[37.927364,50.015873],[37.927337,50.015933],[37.927428,50.015934],[37.927482,50.015937],[37.927728,50.015944]]]}},{"type":"Feature","properties":{"cadnum":"6321881509:00:000:0007"},"geometry":{"type":"Polygon","coordinates":[[[37.90291353926871,50.010081694588855],[37.902918,50.010079],[37.902918,50.01007899733333],[37.904246,50.009276],[37.903041,50.008869],[37.902918,50.00895405762712],[37.902918,50.008954],[37.902573,50.009192],[37.902151,50.008913],[37.901142,50.009674],[37.902279,50.010465],[37.902746,50.01018289984351],[37.902746,50.010183],[37.90291353926871,50.010081694588855]]]}},{"type":"Feature","properties":{"cadnum":"6321881509:00:000:0014"},"geometry":{"type":"Polygon","coordinates":[[[37.904256,50.010304],[37.90512,50.009898],[37.904932,50.009803],[37.904246,50.009276],[37.90291353926871,50.010081694588855],[37.902279,50.010465],[37.901942,50.010231],[37.901605,50.010421],[37.901885,50.010656],[37.901671,50.010769],[37.901818,50.011006],[37.902058,50.010947],[37.902321,50.011153],[37.902918,50.010892],[37.902918,50.010891479470196],[37.904256,50.010304]]]}},{"type":"Feature","properties":{"cadnum":"6321881509:00:000:0033"},"geometry":{"type":"Polygon","coordinates":[[[37.901142,50.009674],[37.902151,50.008913],[37.902517,50.008603],[37.900949,50.007903],[37.900481,50.008722],[37.901142,50.009674]]]}},{"type":"Feature","properties":{"cadnum":"6321881509:00:000:0016"},"geometry":{"type":"Polygon","coordinates":[[[37.922175,50.014271],[37.922511,50.014027],[37.922959,50.01374],[37.922919,50.013716],[37.922122,50.013366],[37.921325,50.013016],[37.920777,50.01274],[37.920641,50.012608],[37.919691,50.013363],[37.920312,50.013589],[37.921554,50.014043],[37.922175,50.014271]]]}}]}