{"type":"FeatureCollection","features":[{"type":"Feature","properties":{"cadnum":"6321883306:00:000:0006"},"geometry":{"type":"Polygon","coordinates":[[[37.990543,49.890701],[37.990245,49.890602],[37.990016,49.890899],[37.98969,49.890796],[37.98955018978103,49.89104],[37.989549,49.89104],[37.989533,49.89107],[37.989757,49.891151],[37.98975773529412,49.891151],[37.990099,49.891274],[37.9902473194423,49.891082250002775],[37.990543,49.890701]]]}},{"type":"Feature","properties":{"cadnum":"6321883306:00:000:0005"},"geometry":{"type":"Polygon","coordinates":[[[37.99028008666667,49.89104],[37.99028,49.89104],[37.9902473194423,49.891082250002775],[37.990194,49.891151],[37.99019414102564,49.891151],[37.990099,49.891274],[37.990201,49.891311],[37.990485,49.89162],[37.990808,49.891738],[37.990808,49.891736819241984],[37.991323,49.891923],[37.991757,49.891363],[37.991616,49.891054],[37.991235,49.890929],[37.990637,49.890732],[37.990637,49.89073221509434],[37.990543,49.890701],[37.99028008666667,49.89104]]]}},{"type":"Feature","properties":{"cadnum":"6321883306:00:000:0002"},"geometry":{"type":"Polygon","coordinates":[[[37.990806,49.889393],[37.990446,49.889317],[37.990244,49.889579],[37.988997,49.889631],[37.989049,49.88984],[37.989781,49.890139],[37.99,49.889798],[37.990637,49.889971637071646],[37.990637,49.889972],[37.990642,49.889973],[37.990745,49.890001],[37.990446,49.890467],[37.990637,49.89053031491713],[37.990637,49.890531],[37.991238,49.890728],[37.991238,49.890483],[37.991053,49.890218],[37.991014,49.889918],[37.990808,49.889591],[37.990806,49.889393]]]}},{"type":"Feature","properties":{"cadnum":"6321883306:00:000:0004"},"geometry":{"type":"Polygon","coordinates":[[[37.990745,49.890001],[37.990642,49.889973],[37.99059,49.890057],[37.990395,49.890359],[37.990347,49.890435],[37.990446,49.890467],[37.990637,49.89016932107023],[37.990637,49.890171],[37.990745,49.890001]]]}},{"type":"Feature","properties":{"cadnum":"6321883306:00:000:0003"},"geometry":{"type":"Polygon","coordinates":[[[37.990347,49.890435],[37.990395,49.890359],[37.99059,49.890057],[37.990642,49.889973],[37.99,49.889798],[37.989781,49.890139],[37.990011,49.890232],[37.989966,49.890308],[37.990347,49.890435]]]}},{"type":"Feature","properties":{"cadnum":"6321883306:00:000:0001"},"geometry":{"type":"Polygon","coordinates":[[[37.990016,49.890899],[37.990245,49.890602],[37.98987,49.890479],[37.98969,49.890796],[37.990016,49.890899]]]}}]}