{"type":"FeatureCollection","features":[{"type":"Feature","properties":{"cadnum":"6321082002:01:001:0024"},"geometry":{"type":"Polygon","coordinates":[[[37.810197,49.2423],[37.809714,49.241798],[37.809362,49.24201],[37.809362,49.2420102587532],[37.808363,49.24261],[37.807899,49.242763],[37.807900835748804,49.242763],[37.807614,49.242858],[37.807214265700466,49.242763],[37.807215,49.242763],[37.8070623666637,49.2427268999993],[37.806743,49.242651],[37.80674145614036,49.242651],[37.806733,49.242649],[37.80673259649123,49.242651],[37.806731,49.242651],[37.80664,49.243116],[37.80699,49.243095],[37.807009,49.243094],[37.809004,49.243118],[37.809362,49.24312678113208],[37.809362,49.243127],[37.80942599417825,49.243128350800596],[37.809534,49.243131],[37.809534,49.24313063060686],[37.809741,49.243135],[37.81017,49.243227],[37.810292,49.243051],[37.81032656,49.242763],[37.810327,49.242763],[37.810341,49.24265],[37.810197,49.2423]]]}},{"type":"Feature","properties":{"cadnum":"6321082002:01:001:0026"},"geometry":{"type":"Polygon","coordinates":[[[37.808363,49.24261],[37.809381,49.241998],[37.808686,49.241825],[37.808295,49.241704],[37.808095,49.241634],[37.807784,49.241802],[37.806891,49.241537],[37.806842,49.242023],[37.806733,49.242649],[37.8070623666637,49.2427268999993],[37.807614,49.242858],[37.808239,49.242651],[37.808238660130705,49.242651],[37.808363,49.24261]]]}},{"type":"Feature","properties":{"cadnum":"6321082002:01:001:0016"},"geometry":{"type":"Polygon","coordinates":[[[37.808772,49.235393],[37.808762,49.235354],[37.808114,49.234894],[37.807674,49.235211],[37.80727455672823,49.235478],[37.807274,49.235478],[37.806779,49.235809],[37.807242,49.236297],[37.808255,49.235659],[37.808393,49.235776],[37.808688,49.235478],[37.80868786294416,49.235478],[37.808772,49.235393]]]}},{"type":"Feature","properties":{"cadnum":"6321082002:01:001:0015"},"geometry":{"type":"Polygon","coordinates":[[[37.80653,49.235502],[37.806999,49.235218],[37.80708,49.235169],[37.806719,49.234806],[37.806577,49.234904],[37.806195,49.235166],[37.80653,49.235502]]]}},{"type":"Feature","properties":{"cadnum":"6321082002:01:001:0019"},"geometry":{"type":"Polygon","coordinates":[[[37.807461,49.235354],[37.807227,49.235067],[37.80708,49.235169],[37.80656963963963,49.235478],[37.806569,49.235478],[37.80653,49.235502],[37.806601,49.23559],[37.80660137459284,49.23559],[37.806779,49.235809],[37.80710650755287,49.23559],[37.807107,49.23559],[37.807461,49.235354]]]}},{"type":"Feature","properties":{"cadnum":"6321082002:01:001:0025"},"geometry":{"type":"Polygon","coordinates":[[[37.814233,49.242365],[37.814636,49.242239],[37.812436,49.241882],[37.81210589721886,49.242651],[37.812105,49.242651],[37.812081,49.242709],[37.811746,49.242651],[37.81174448514853,49.242651],[37.810909,49.242507],[37.810811,49.242763],[37.810811705263156,49.242763],[37.810567,49.243411],[37.811005,49.243371],[37.811656,49.24324],[37.812297,49.243048],[37.813466,49.242704],[37.814233,49.242365]]]}},{"type":"Feature","properties":{"cadnum":"6321082002:01:001:0028"},"geometry":{"type":"Polygon","coordinates":[[[37.805076,49.238506],[37.804768,49.237739],[37.804611,49.237696],[37.804089,49.237804],[37.803977,49.237856],[37.803938,49.237819],[37.803279,49.237979],[37.80335,49.238147],[37.80346,49.238274],[37.803633,49.238477],[37.803869,49.238751218623484],[37.803869,49.238752],[37.80388,49.238764],[37.804041,49.23873],[37.804041,49.238729269230774],[37.805076,49.238506]]]}},{"type":"Feature","properties":{"cadnum":"6321082002:01:001:0029"},"geometry":{"type":"Polygon","coordinates":[[[37.805968,49.240417],[37.806295,49.239977],[37.806416,49.239679],[37.806427,49.239275],[37.806091,49.23918],[37.805743,49.239264],[37.805471,49.239411],[37.805209,49.239634],[37.805008,49.239951],[37.804905,49.240231],[37.80508,49.240404],[37.805968,49.240417]]]}},{"type":"Feature","properties":{"cadnum":"6321082002:01:001:0012"},"geometry":{"type":"Polygon","coordinates":[[[37.810531,49.238353],[37.809938,49.237934],[37.809362,49.23798],[37.809362,49.2379803592233],[37.807886,49.238095],[37.80787,49.238303],[37.809362,49.238238507096774],[37.809362,49.238239],[37.80942,49.238236],[37.809388,49.238803],[37.808259,49.238924],[37.80857053754941,49.239065],[37.80857,49.239065],[37.80871088622688,49.239128520957784],[37.808818,49.239177],[37.808818410256414,49.239177],[37.809262,49.239377],[37.809362,49.23932773529412],[37.809362,49.239328],[37.809895,49.239065],[37.809894136000004,49.239065],[37.810174,49.238927],[37.810531,49.238353]]]}},{"type":"Feature","properties":{"cadnum":"6321082002:01:001:0017"},"geometry":{"type":"Polygon","coordinates":[[[37.808339,49.241372],[37.80826,49.241234],[37.809018,49.240798],[37.808838,49.239982],[37.808079,49.23994],[37.806981,49.240432],[37.807005,49.240726],[37.807832,49.241336],[37.808339,49.241372]]]}},{"type":"Feature","properties":{"cadnum":"6321082002:01:001:0002"},"geometry":{"type":"Polygon","coordinates":[[[37.810606,49.240735],[37.810981,49.240212],[37.809534,49.24030852625077],[37.809534,49.240308],[37.809309,49.240323],[37.809362,49.24049551677852],[37.809362,49.240498],[37.809458,49.240808],[37.809534,49.240804],[37.809534,49.240803167247385],[37.810606,49.240735]]]}},{"type":"Feature","properties":{"cadnum":"6321082002:01:001:0011"},"geometry":{"type":"Polygon","coordinates":[[[37.816964,49.242624],[37.816744,49.242447],[37.817118,49.241824],[37.815887,49.241348],[37.815027,49.24193273326867],[37.815027,49.241932],[37.81463,49.242201],[37.814856,49.242245972292196],[37.814856,49.242246],[37.814866146551964,49.24224799137936],[37.815027,49.24228],[37.815027,49.24227956074766],[37.815177,49.242309],[37.815916,49.242586],[37.816215,49.242763],[37.81621510144927,49.242763],[37.816492,49.242927],[37.816844,49.243025],[37.817078,49.242682],[37.816964,49.242624]]]}},{"type":"Feature","properties":{"cadnum":"6321082002:01:001:0018"},"geometry":{"type":"Polygon","coordinates":[[[37.819118,49.242327],[37.817842,49.242115],[37.817471,49.242184],[37.81710246385542,49.242651],[37.817102,49.242651],[37.817078,49.242682],[37.817021,49.242763],[37.817022740524784,49.242763],[37.816844,49.243025],[37.817634,49.243247],[37.818595,49.242651],[37.81859484403669,49.242651],[37.819118,49.242327]]]}},{"type":"Feature","properties":{"cadnum":"6321082002:01:001:0022"},"geometry":{"type":"Polygon","coordinates":[[[37.806652,49.238158],[37.806825,49.23805],[37.806962,49.237814],[37.806694,49.237847],[37.806531,49.237795],[37.806804,49.237321],[37.807121,49.23704],[37.806034,49.236736],[37.805817,49.237264],[37.805869,49.237503],[37.806652,49.238158]]]}},{"type":"Feature","properties":{"cadnum":"6321082002:01:001:0020"},"geometry":{"type":"Polygon","coordinates":[[[37.809539,49.236631],[37.80938388709673,49.23657841935482],[37.808853,49.236396],[37.808327,49.237118],[37.807734,49.237774],[37.807886,49.238095],[37.809362,49.23797917706237],[37.809362,49.23798],[37.809377,49.237978],[37.809474,49.237776],[37.808629,49.237229],[37.809534,49.236636],[37.809534,49.23663430508475],[37.809539,49.236631]]]}},{"type":"Feature","properties":{"cadnum":"6321082002:01:001:0014"},"geometry":{"type":"Polygon","coordinates":[[[37.807121,49.23704],[37.807245,49.236994],[37.807384,49.237014],[37.807506,49.236772],[37.807462,49.23657],[37.807077,49.236453],[37.806952,49.236557],[37.806712,49.236468],[37.806664,49.236224],[37.806897,49.236122],[37.806557,49.235772],[37.806464,49.235792],[37.806034,49.236736],[37.807121,49.23704]]]}},{"type":"Feature","properties":{"cadnum":"6321082002:01:001:0013"},"geometry":{"type":"Polygon","coordinates":[[[37.805192,49.238461],[37.806533,49.238433],[37.806428,49.2383],[37.806205,49.238126],[37.805884,49.237877],[37.80581,49.237819],[37.80565,49.237842],[37.805493,49.237865],[37.805232,49.237903],[37.805247,49.238285],[37.805177,49.238335],[37.805192,49.238461]]]}},{"type":"Feature","properties":{"cadnum":"6321082002:01:001:0023"},"geometry":{"type":"Polygon","coordinates":[[[37.80695,49.238169],[37.807345,49.238122],[37.807886,49.238095],[37.807734,49.237774],[37.807213,49.237656],[37.807062,49.23787],[37.80695,49.238169]]]}},{"type":"Feature","properties":{"cadnum":"6321082002:01:001:0001"},"geometry":{"type":"Polygon","coordinates":[[[37.809676,49.241128],[37.810396,49.241125],[37.810545,49.240819],[37.810606,49.240735],[37.809458,49.240808],[37.809475,49.240863],[37.809664,49.240882],[37.809676,49.241128]]]}},{"type":"Feature","properties":{"cadnum":"6321082002:01:001:0003"},"geometry":{"type":"Polygon","coordinates":[[[37.813642,49.241983],[37.814687,49.241965],[37.814473,49.241025],[37.813685,49.241061],[37.813642,49.241983]]]}},{"type":"Feature","properties":{"cadnum":"6321082002:01:001:0021"},"geometry":{"type":"Polygon","coordinates":[[[37.811758,49.241657],[37.811944,49.241347],[37.812344,49.24084],[37.812025,49.240762],[37.811638,49.241237],[37.811448,49.241579],[37.811758,49.241657]]]}},{"type":"Feature","properties":{"cadnum":"6321082002:01:001:0027"},"geometry":{"type":"Polygon","coordinates":[[[37.81061,49.241488],[37.810705,49.241246],[37.811015,49.240791],[37.810596,49.240748],[37.810545,49.240819],[37.810396,49.241125],[37.810221,49.241247],[37.810229,49.241488],[37.81061,49.241488]]]}},{"type":"Feature","properties":{"cadnum":"6321082002:01:001:0010"},"geometry":{"type":"Polygon","coordinates":[[[37.81108,49.24191],[37.811096,49.241821],[37.811125,49.241647],[37.810663,49.241622],[37.810618,49.241889],[37.81108,49.24191]]]}}]}