{"type":"FeatureCollection","features":[{"type":"Feature","properties":{"cadnum":"6321855101:00:000:0019"},"geometry":{"type":"Polygon","coordinates":[[[37.612321,49.82025],[37.612279,49.820278],[37.612224,49.82032],[37.61222478181818,49.82032],[37.612137,49.820388],[37.612128,49.820396],[37.611969,49.820542],[37.612227,49.820753],[37.612608,49.820673],[37.612744,49.820795],[37.613045,49.820695],[37.612357,49.820222],[37.612321,49.82025]]]}},{"type":"Feature","properties":{"cadnum":"6321855101:00:000:0043"},"geometry":{"type":"Polygon","coordinates":[[[37.612592,49.819936],[37.612719,49.819873],[37.612746,49.819896],[37.613394,49.819745],[37.613455,49.819685],[37.613335,49.819517],[37.613258,49.819552],[37.612987,49.81935],[37.612449,49.819428],[37.612581,49.819787],[37.612592,49.819936]]]}},{"type":"Feature","properties":{"cadnum":"6321855101:00:000:0052"},"geometry":{"type":"Polygon","coordinates":[[[37.615094,49.819095],[37.615311,49.819037],[37.615428,49.818982],[37.615343,49.818933],[37.615274,49.818855],[37.61524,49.818824],[37.615173,49.818749],[37.615103,49.818723],[37.614385,49.818335],[37.614141,49.818402],[37.614183,49.818546],[37.614338,49.818739],[37.614921,49.818737],[37.61498,49.818862],[37.615094,49.819095]]]}},{"type":"Feature","properties":{"cadnum":"6321855101:00:000:0047"},"geometry":{"type":"Polygon","coordinates":[[[37.615837,49.818419],[37.615888,49.818302],[37.616062,49.817963],[37.616097,49.817853],[37.615846,49.817667],[37.615753,49.817594],[37.615397,49.818315],[37.615452,49.818334],[37.615837,49.818419]]]}},{"type":"Feature","properties":{"cadnum":"6321855101:00:000:0068"},"geometry":{"type":"Polygon","coordinates":[[[37.617273,49.8197006981132],[37.617367,49.819761],[37.617723,49.820095],[37.61789,49.819981],[37.617774,49.819945],[37.617707,49.819909],[37.617402,49.81948],[37.617739,49.819357],[37.61756,49.819177],[37.617273,49.819170837423314],[37.617273,49.81917],[37.617234,49.81917],[37.616934,49.81916],[37.616706,49.819278],[37.6171,49.81959],[37.617273,49.819701],[37.617273,49.8197006981132]]]}},{"type":"Feature","properties":{"cadnum":"6321855101:00:000:0084"},"geometry":{"type":"Polygon","coordinates":[[[37.61732,49.82032],[37.617322,49.82032],[37.617303,49.820331],[37.617284909090905,49.82032],[37.617285,49.82032],[37.617247722219844,49.82029738888745],[37.617104,49.82021],[37.61710364864866,49.82021],[37.617102,49.820209],[37.617102,49.82020912809918],[37.617031,49.820166],[37.61695471428571,49.82021],[37.616954,49.82021],[37.6168260930222,49.820284186047125],[37.616764,49.82032],[37.61676434482758,49.82032],[37.616654,49.820384],[37.617102,49.82067216080402],[37.617102,49.820673],[37.617251,49.820768],[37.617755,49.820417],[37.618137,49.8207],[37.618024,49.820814],[37.618298,49.821026],[37.618651,49.820956],[37.618458,49.820798],[37.618521,49.820752],[37.618334,49.820574],[37.618234,49.820603],[37.61788403053435,49.82032],[37.617885,49.82032],[37.61765,49.82013],[37.61732,49.82032]]]}},{"type":"Feature","properties":{"cadnum":"6321855101:00:000:0589"},"geometry":{"type":"Polygon","coordinates":[[[37.61285,49.818475],[37.613402,49.818322],[37.613139,49.817882],[37.6125,49.818109],[37.612722,49.818422],[37.61285,49.818475]]]}},{"type":"Feature","properties":{"cadnum":"6321855101:00:000:0067"},"geometry":{"type":"Polygon","coordinates":[[[37.615881,49.819524],[37.616014,49.819396],[37.615985,49.819059],[37.615683,49.818907],[37.615585,49.818977],[37.615366,49.819087],[37.615122,49.819167],[37.615718,49.819518],[37.615816,49.819468],[37.615881,49.819524]]]}},{"type":"Feature","properties":{"cadnum":"6321855101:00:000:0011"},"geometry":{"type":"Polygon","coordinates":[[[37.613926,49.819953],[37.613628,49.819764],[37.613172,49.819897],[37.613322,49.820167],[37.613662,49.820184],[37.61367327941176,49.82021],[37.613672,49.82021],[37.613729,49.820339],[37.613762,49.820405],[37.614107,49.820304],[37.613926,49.819953]]]}},{"type":"Feature","properties":{"cadnum":"6321855101:00:000:0013"},"geometry":{"type":"Polygon","coordinates":[[[37.61511,49.819811],[37.615065,49.819827],[37.614761,49.819945],[37.614736,49.819993],[37.614976226299696,49.82021],[37.614976,49.82021],[37.615314,49.820515],[37.615541,49.820436],[37.615687,49.820334],[37.615627973451154,49.82028096165176],[37.61511,49.819811]]]}},{"type":"Feature","properties":{"cadnum":"6321855101:00:000:0038"},"geometry":{"type":"Polygon","coordinates":[[[37.611220072463766,49.82032],[37.611173,49.820348],[37.611258,49.820445],[37.611358,49.820545],[37.611575,49.820705],[37.611609,49.82068175706215],[37.611609,49.820682],[37.611752,49.820584],[37.61178,49.820564],[37.61178,49.820563199999995],[37.611787,49.820558],[37.612058,49.820324],[37.61205350877193,49.82032],[37.612054,49.82032],[37.611721,49.820022],[37.611218,49.82032],[37.611220072463766,49.82032]]]}},{"type":"Feature","properties":{"cadnum":"6321855101:00:000:0037"},"geometry":{"type":"Polygon","coordinates":[[[37.615297,49.81974],[37.615708,49.819523],[37.615813,49.819617],[37.615924,49.819714],[37.61604,49.819657],[37.615816,49.819468],[37.615718,49.819518],[37.615122,49.819167],[37.614932,49.819221],[37.614875,49.819245],[37.614708,49.819336],[37.615001,49.819537],[37.615297,49.81974]]]}},{"type":"Feature","properties":{"cadnum":"6321855101:00:000:0082"},"geometry":{"type":"Polygon","coordinates":[[[37.613662,49.820184],[37.613322,49.820167],[37.613172,49.819897],[37.612852,49.81996],[37.61305755555556,49.82021],[37.613057,49.82021],[37.613396,49.820622],[37.613758,49.820474],[37.613888,49.820789],[37.61412,49.820616],[37.614159,49.820406],[37.614107,49.820304],[37.614051,49.82032],[37.61405234653464,49.82032],[37.613762,49.820405],[37.613729,49.820339],[37.613720604651164,49.82032],[37.613721,49.82032],[37.613662,49.820184]]]}},{"type":"Feature","properties":{"cadnum":"6321855101:00:000:0036"},"geometry":{"type":"Polygon","coordinates":[[[37.611721,49.820022],[37.611688,49.819992],[37.61152,49.82004],[37.611178,49.820246],[37.611116,49.820283],[37.611173,49.820348],[37.611405,49.82021],[37.61140367114094,49.82021],[37.611609,49.82008835387674],[37.611609,49.820089],[37.611721,49.820022]]]}},{"type":"Feature","properties":{"cadnum":"6321855101:00:000:0033"},"geometry":{"type":"Polygon","coordinates":[[[37.61759,49.816407],[37.617702,49.816425],[37.618079,49.816312],[37.617918,49.815957],[37.617273,49.816032091911765],[37.617273,49.816032],[37.61684,49.816081],[37.615952,49.816186],[37.614928,49.816437],[37.613813,49.816443],[37.613969,49.816776],[37.613969018450184,49.816776],[37.614044,49.816936],[37.614259,49.816777],[37.615539,49.816853],[37.616107,49.81696],[37.616726,49.816947],[37.616966,49.816811],[37.617102,49.816785306188926],[37.617102,49.816786],[37.617351,49.816738],[37.617318,49.816662],[37.6172964,49.816665],[37.617292,49.816665],[37.617102,49.816692],[37.617102,49.81669236337209],[37.616929,49.816716],[37.616654,49.816725],[37.616133,49.816749],[37.615923,49.816758],[37.615542,49.816665],[37.6155407614679,49.816665],[37.615475,49.816649],[37.614588,49.816604],[37.61459,49.816562],[37.615381,49.816526],[37.615529,49.816357],[37.616025,49.81621],[37.615926,49.81646],[37.615962,49.816562],[37.61623,49.816493],[37.616746,49.816186],[37.617102,49.81614681973434],[37.617102,49.816147],[37.617532,49.8161],[37.61759,49.816407]]]}},{"type":"Feature","properties":{"cadnum":"6321855101:00:000:0059"},"geometry":{"type":"Polygon","coordinates":[[[37.615397,49.818315],[37.615753,49.817594],[37.615401,49.817378],[37.615294,49.817345],[37.615,49.817345],[37.614858,49.817571],[37.614985,49.818031],[37.615199,49.818246],[37.615397,49.818315]]]}},{"type":"Feature","properties":{"cadnum":"6321855101:00:000:0031"},"geometry":{"type":"Polygon","coordinates":[[[37.614749,49.817543],[37.614765,49.817295],[37.614528,49.817235],[37.614092,49.817146],[37.614153,49.817302],[37.61415,49.817506],[37.614749,49.817543]]]}},{"type":"Feature","properties":{"cadnum":"6321855101:00:000:0075"},"geometry":{"type":"Polygon","coordinates":[[[37.616097,49.817853],[37.616238,49.817828],[37.616386,49.817391],[37.616128,49.817327],[37.615908,49.817238],[37.6152,49.816986],[37.614556,49.816946],[37.614511,49.817109],[37.615,49.817345],[37.615294,49.817345],[37.615401,49.817378],[37.615753,49.817594],[37.615846,49.817667],[37.616097,49.817853]]]}},{"type":"Feature","properties":{"cadnum":"6321855101:00:000:0035"},"geometry":{"type":"Polygon","coordinates":[[[37.622143,49.823455],[37.621845,49.823271],[37.621711,49.82351],[37.621518,49.823768],[37.621433,49.823864],[37.621434590163936,49.823864],[37.621306,49.824012],[37.621117,49.824133],[37.6209,49.824248],[37.620579,49.824443],[37.620839,49.824451],[37.621515,49.824345],[37.621932,49.824273],[37.622504,49.824191],[37.622595,49.82415551572327],[37.622595,49.824156],[37.622663,49.824129],[37.62273,49.824029],[37.622595,49.823857],[37.622595,49.8238571],[37.62258,49.823838],[37.622143,49.823455]]]}},{"type":"Feature","properties":{"cadnum":"6321855101:00:000:0034"},"geometry":{"type":"Polygon","coordinates":[[[37.618804,49.823489],[37.619048,49.823179],[37.61883,49.823055],[37.618553,49.822766],[37.617909,49.822371],[37.617627,49.822246],[37.617511,49.822217],[37.617468,49.822268],[37.617584,49.822338],[37.61787,49.822498],[37.618003,49.822592],[37.617568,49.822845],[37.617716,49.822934],[37.618094,49.823108],[37.61807,49.823145],[37.618165,49.823197],[37.618804,49.823489]]]}},{"type":"Feature","properties":{"cadnum":"6321855101:00:000:0010"},"geometry":{"type":"Polygon","coordinates":[[[37.616902,49.823543],[37.616813,49.823662],[37.61673880645161,49.823754],[37.616738,49.823754],[37.616738,49.823755],[37.616796,49.823791],[37.617102,49.82387549865952],[37.617102,49.823876],[37.617169,49.823894],[37.617273,49.823921],[37.617273,49.82392045296167],[37.617456,49.823967],[37.617592326530875,49.82379312244864],[37.617656,49.823713],[37.617743,49.823627],[37.61717564680879,49.8234597148937],[37.617027,49.823415],[37.616902,49.823543]]]}},{"type":"Feature","properties":{"cadnum":"6321855101:00:000:0085"},"geometry":{"type":"Polygon","coordinates":[[[37.618094,49.822485],[37.618421,49.822048],[37.618449,49.821919],[37.618368,49.821881],[37.61807,49.82176],[37.61794,49.821701],[37.617867,49.821685],[37.617823,49.821701],[37.617708,49.821815],[37.618098,49.821955],[37.617854,49.822347],[37.617909,49.822371],[37.61805,49.822458],[37.618094,49.822485]]]}},{"type":"Feature","properties":{"cadnum":"6321855101:00:000:0029"},"geometry":{"type":"Polygon","coordinates":[[[37.621385,49.822631],[37.621373,49.821544],[37.620901,49.821556],[37.620921,49.820974],[37.620273,49.82093],[37.619758,49.820864],[37.619344,49.820856],[37.618973,49.82101],[37.619441,49.821278],[37.619701,49.821566],[37.619744,49.821821],[37.619548,49.822008],[37.619866,49.82232],[37.620243,49.822321],[37.620546,49.822419],[37.620833,49.82251],[37.621385,49.822631]]]}},{"type":"Feature","properties":{"cadnum":"6321855101:00:000:0053"},"geometry":{"type":"Polygon","coordinates":[[[37.618633,49.820262],[37.618577,49.820229],[37.618334,49.820121],[37.61789,49.819981],[37.617723,49.820095],[37.61787224444444,49.82021],[37.61787,49.82021],[37.618303,49.820542],[37.618588,49.820527],[37.618604,49.820511],[37.618782,49.820552],[37.618873,49.820491],[37.618693786026206,49.82032],[37.618694,49.82032],[37.618633,49.820262]]]}},{"type":"Feature","properties":{"cadnum":"6321855101:00:000:0042"},"geometry":{"type":"Polygon","coordinates":[[[37.61807,49.823145],[37.618094,49.823108],[37.617716,49.822934],[37.617568,49.822845],[37.617406,49.822747],[37.617273,49.82293346078432],[37.617273,49.822933],[37.617202,49.823033],[37.617251,49.823068],[37.617158,49.823287],[37.61722,49.823318],[37.617273,49.823333],[37.617273,49.823332922330096],[37.617735,49.823463],[37.61807,49.823145]]]}},{"type":"Feature","properties":{"cadnum":"6321855101:00:000:0009"},"geometry":{"type":"Polygon","coordinates":[[[37.617273,49.822664749999994],[37.617406,49.822747],[37.617568,49.822845],[37.618003,49.822592],[37.61787,49.822498],[37.617584,49.822338],[37.617468,49.822268],[37.617218,49.822343],[37.617142,49.822359],[37.616933,49.82242],[37.617039,49.82252],[37.617273,49.822665],[37.617273,49.822664749999994]]]}},{"type":"Feature","properties":{"cadnum":"6321855101:00:000:0028"},"geometry":{"type":"Polygon","coordinates":[[[37.621942,49.82275],[37.622068,49.822054],[37.621915,49.820493],[37.621443,49.820541],[37.621483,49.820819],[37.621472,49.821542],[37.621373,49.821544],[37.621385,49.822631],[37.621455,49.822645],[37.621942,49.82275]]]}},{"type":"Feature","properties":{"cadnum":"6321855101:00:000:0064"},"geometry":{"type":"Polygon","coordinates":[[[37.621833,49.823089],[37.621867,49.822734],[37.621455,49.822645],[37.621314,49.822877],[37.621833,49.823089]]]}},{"type":"Feature","properties":{"cadnum":"6321855101:00:000:0086"},"geometry":{"type":"Polygon","coordinates":[[[37.619636,49.823242],[37.619937,49.822969],[37.61986,49.822822],[37.619973,49.822657],[37.619681,49.822541],[37.619309,49.822874],[37.619158,49.82305],[37.619636,49.823242]]]}},{"type":"Feature","properties":{"cadnum":"6321855101:00:000:0025"},"geometry":{"type":"Polygon","coordinates":[[[37.621441,49.820085],[37.621315,49.820049],[37.621191,49.820045],[37.621236,49.819878],[37.621199,49.819858],[37.621089,49.819858],[37.620798,49.819842],[37.620807,49.819784],[37.620531,49.819749],[37.620233,49.819793],[37.620244,49.81997],[37.619604,49.819948],[37.619643,49.820083],[37.6197017962963,49.82021],[37.619701,49.82021],[37.619718,49.820245],[37.619917,49.820224],[37.61997,49.82032],[37.6199707092511,49.82032],[37.620044,49.820451],[37.620145,49.820583],[37.620197,49.820595],[37.620428,49.820558],[37.620442,49.82042],[37.620476,49.820419],[37.620601,49.820415],[37.620603,49.820282],[37.62063,49.820125],[37.620642,49.82005],[37.621247,49.820099],[37.621239007999996,49.82021],[37.621238,49.82021],[37.621238,49.820224],[37.621252,49.820225],[37.621393,49.820214],[37.621444,49.820218],[37.621451,49.82032],[37.62145117587939,49.82032],[37.621458,49.820417],[37.621551,49.820409],[37.621695,49.820372],[37.621601,49.82023],[37.621441,49.820085]]]}},{"type":"Feature","properties":{"cadnum":"6321855101:00:000:0083"},"geometry":{"type":"Polygon","coordinates":[[[37.617434,49.821126],[37.61774,49.820905],[37.617858,49.820937],[37.617926,49.820927],[37.618024,49.820814],[37.618137,49.8207],[37.617755,49.820417],[37.617251,49.820768],[37.617365,49.82084],[37.617315,49.820869],[37.617394,49.820932],[37.61733,49.820966],[37.617348,49.82105],[37.617434,49.821126]]]}},{"type":"Feature","properties":{"cadnum":"6321855101:00:000:0002"},"geometry":{"type":"Polygon","coordinates":[[[37.621393,49.820214],[37.621252,49.820225],[37.621238,49.820224],[37.621247,49.820099],[37.620642,49.82005],[37.62063,49.820125],[37.6206153821656,49.82021],[37.620615,49.82021],[37.620603,49.820282],[37.620602,49.82032],[37.62060241085271,49.82032],[37.620599,49.82054],[37.620941,49.820498],[37.621142,49.820473],[37.621185,49.820465],[37.621209,49.82046],[37.621211,49.820444],[37.621458,49.820417],[37.621444,49.820218],[37.621393,49.820214]]]}},{"type":"Feature","properties":{"cadnum":"6321855101:00:000:0023"},"geometry":{"type":"Polygon","coordinates":[[[37.617039,49.82252],[37.616933,49.82242],[37.616776,49.822465],[37.616408,49.822645],[37.616565,49.822757],[37.616671,49.822843],[37.616691,49.822837],[37.616887,49.822958],[37.617019,49.822901],[37.617102,49.82296086885246],[37.617102,49.822961],[37.617202,49.823033],[37.617406,49.822747],[37.617102,49.822559],[37.617102,49.82255903846154],[37.617039,49.82252]]]}},{"type":"Feature","properties":{"cadnum":"6321855101:00:000:0069"},"geometry":{"type":"Polygon","coordinates":[[[37.617102,49.82119031472081],[37.617102,49.821191],[37.617256,49.821161],[37.617257,49.821099],[37.617071,49.821019],[37.616864,49.820921],[37.61666,49.820889],[37.616128,49.820607],[37.615932,49.820758],[37.616702,49.821211],[37.616862,49.821236],[37.617102,49.82119031472081]],[[37.616841,49.820948],[37.616855,49.820932],[37.616879,49.820941],[37.616866,49.820956],[37.616841,49.820948]],[[37.616713,49.821026],[37.616733,49.821014],[37.616753,49.821026],[37.616733,49.821039],[37.616713,49.821026]]]}},{"type":"Feature","properties":{"cadnum":"6321855101:00:000:0039"},"geometry":{"type":"Polygon","coordinates":[[[37.621884,49.817716],[37.622276,49.817679],[37.622179,49.817445],[37.622018,49.817059],[37.621792,49.816751],[37.621668,49.816785],[37.621572,49.816812],[37.621753,49.817176],[37.621832,49.817179],[37.621884,49.817716]]]}},{"type":"Feature","properties":{"cadnum":"6321855101:00:000:0066"},"geometry":{"type":"Polygon","coordinates":[[[37.6209,49.818346],[37.620896,49.81815],[37.620867,49.817897],[37.620766,49.817886],[37.620719,49.81788],[37.620154,49.817832],[37.620218,49.818157],[37.620196,49.818282],[37.6209,49.818346]]]}},{"type":"Feature","properties":{"cadnum":"6321855101:00:000:0060"},"geometry":{"type":"Polygon","coordinates":[[[37.620429,49.819175],[37.620491,49.818992],[37.62055,49.818816],[37.620609,49.818613],[37.620336,49.818573],[37.620267,49.818815],[37.620173,49.819134],[37.62017,49.819141],[37.620429,49.819175]]]}},{"type":"Feature","properties":{"cadnum":"6321855101:00:000:0076"},"geometry":{"type":"Polygon","coordinates":[[[37.619477,49.816697],[37.619215,49.816776],[37.61921652898551,49.816776],[37.619022,49.816835],[37.619062,49.816919],[37.619065,49.816999],[37.619096,49.817163],[37.619694,49.817177],[37.619681,49.816969],[37.619595,49.816678],[37.619477,49.816697]]]}},{"type":"Feature","properties":{"cadnum":"6321855101:00:000:0056"},"geometry":{"type":"Polygon","coordinates":[[[37.619494,49.819068],[37.619505,49.819006],[37.619517,49.818882],[37.619628,49.8184],[37.61928,49.818385],[37.619314,49.818563],[37.619269,49.818643],[37.619214,49.818995],[37.619202,49.819048],[37.619439,49.819065],[37.619494,49.819068]]]}},{"type":"Feature","properties":{"cadnum":"6321855101:00:000:0062"},"geometry":{"type":"Polygon","coordinates":[[[37.622278,49.818789],[37.622288,49.818605],[37.622182,49.81865],[37.621897,49.81862],[37.621686,49.818606],[37.62127,49.818579],[37.621242,49.818717],[37.621502,49.818743],[37.622278,49.818789]]]}},{"type":"Feature","properties":{"cadnum":"6321855101:00:000:0048"},"geometry":{"type":"Polygon","coordinates":[[[37.620143,49.817728],[37.620153,49.817694],[37.620173,49.817608],[37.620192,49.817257],[37.620192,49.81697],[37.619681,49.816969],[37.619787,49.817336],[37.619768,49.817576],[37.619761,49.817673],[37.619821,49.817674],[37.619833,49.817677],[37.619946,49.817687],[37.619997,49.817694],[37.620009,49.817709],[37.620143,49.817728]]]}},{"type":"Feature","properties":{"cadnum":"6321855101:00:000:0070"},"geometry":{"type":"Polygon","coordinates":[[[37.61996,49.819112],[37.620061,49.818695],[37.620098,49.818467],[37.620159,49.818279],[37.620107,49.818294],[37.619825,49.818336],[37.619843,49.818673],[37.619812,49.818798],[37.619966,49.818819],[37.619954,49.818935],[37.619917,49.81911],[37.61996,49.819112]]]}},{"type":"Feature","properties":{"cadnum":"6321855101:00:000:0030"},"geometry":{"type":"Polygon","coordinates":[[[37.6217,49.818569],[37.622147,49.818543],[37.622092,49.818207],[37.621864,49.818222],[37.621837,49.818014],[37.621785,49.818016],[37.621778,49.817972],[37.621774,49.817945],[37.621762,49.817856],[37.621564,49.817867],[37.6217,49.818569]]]}},{"type":"Feature","properties":{"cadnum":"6321855101:00:000:0032"},"geometry":{"type":"Polygon","coordinates":[[[37.622766,49.81880346022727],[37.622771,49.818804],[37.623037,49.818727],[37.622595,49.818158],[37.622595,49.81815809160305],[37.622504,49.81804],[37.622551,49.818372],[37.622532,49.818779],[37.622766,49.818804],[37.622766,49.81880346022727]]]}},{"type":"Feature","properties":{"cadnum":"6321855101:00:000:0008"},"geometry":{"type":"Polygon","coordinates":[[[37.621089,49.819858],[37.621134,49.819701],[37.621239,49.819406],[37.620953,49.819364],[37.620807,49.819784],[37.620798,49.819842],[37.621089,49.819858]]]}},{"type":"Feature","properties":{"cadnum":"6321855101:00:000:0061"},"geometry":{"type":"Polygon","coordinates":[[[37.621686,49.818606],[37.621629,49.818307],[37.621309,49.818175],[37.621204,49.818169],[37.62127,49.818579],[37.621686,49.818606]]]}},{"type":"Feature","properties":{"cadnum":"6321855101:00:000:0063"},"geometry":{"type":"Polygon","coordinates":[[[37.622238,49.818984],[37.62236,49.818787],[37.622278,49.818789],[37.621502,49.818743],[37.621459,49.818907],[37.622238,49.818984]]]}},{"type":"Feature","properties":{"cadnum":"6321855101:00:000:0054"},"geometry":{"type":"Polygon","coordinates":[[[37.619825,49.818336],[37.620107,49.818294],[37.619969,49.817863],[37.619576,49.81784],[37.619575,49.817798],[37.619255,49.817799],[37.619257,49.81781],[37.619264,49.8179],[37.619242,49.817901],[37.619247,49.817961],[37.619266,49.81802],[37.619312,49.818172],[37.61977,49.818159],[37.619825,49.818336]]]}},{"type":"Feature","properties":{"cadnum":"6321855101:00:000:0080"},"geometry":{"type":"Polygon","coordinates":[[[37.622147,49.818543],[37.622197,49.818541],[37.622256,49.818536],[37.622379,49.818528],[37.622356,49.818303],[37.622348,49.818225],[37.622343,49.818199],[37.622269,49.817828],[37.621829,49.817853],[37.621762,49.817856],[37.621774,49.817945],[37.621778,49.817972],[37.621785,49.818016],[37.621837,49.818014],[37.621864,49.818222],[37.622092,49.818207],[37.622147,49.818543]]]}},{"type":"Feature","properties":{"cadnum":"6321855101:00:000:0014"},"geometry":{"type":"Polygon","coordinates":[[[37.620807,49.819784],[37.620953,49.819364],[37.620939,49.81936],[37.620874,49.819352],[37.620664,49.819321],[37.620531,49.819749],[37.620807,49.819784]]]}},{"type":"Feature","properties":{"cadnum":"6321855101:00:000:0050"},"geometry":{"type":"Polygon","coordinates":[[[37.62017,49.819141],[37.620173,49.819134],[37.620267,49.818815],[37.620336,49.818573],[37.620173,49.818547],[37.620157,49.818491],[37.620098,49.818467],[37.620061,49.818695],[37.61996,49.819112],[37.61997,49.819113],[37.620041,49.819123],[37.62017,49.819141]]]}},{"type":"Feature","properties":{"cadnum":"6321855101:00:000:0001"},"geometry":{"type":"Polygon","coordinates":[[[37.622614,49.819007],[37.622638,49.81885],[37.622521,49.818843],[37.62251,49.818913],[37.622497,49.818999],[37.622614,49.819007]]]}},{"type":"Feature","properties":{"cadnum":"6321855101:00:000:0049"},"geometry":{"type":"Polygon","coordinates":[[[37.621985,49.819389],[37.622238,49.818984],[37.621459,49.818907],[37.621429,49.819013],[37.621346,49.819326],[37.621676,49.819381],[37.621985,49.819389]]]}},{"type":"Feature","properties":{"cadnum":"6321855101:00:000:0027"},"geometry":{"type":"Polygon","coordinates":[[[37.622766,49.819477897079274],[37.623314,49.8195],[37.623398,49.819691],[37.623118,49.82],[37.623567,49.820051],[37.624046,49.820023],[37.623037,49.818727],[37.622771,49.818804],[37.622766,49.818836631578954],[37.622766,49.818831],[37.622752,49.818928],[37.622659,49.819074],[37.622376,49.819246],[37.622302,49.819459],[37.622766,49.819479],[37.622766,49.819477897079274]]]}},{"type":"Feature","properties":{"cadnum":"6321855101:00:000:0005"},"geometry":{"type":"Polygon","coordinates":[[[37.621346,49.819326],[37.621502,49.818743],[37.621149,49.818708],[37.620971,49.819263],[37.621346,49.819326]]]}},{"type":"Feature","properties":{"cadnum":"6321855101:00:000:0045"},"geometry":{"type":"Polygon","coordinates":[[[37.619922,49.819959],[37.619961,49.819691],[37.620011,49.819437],[37.620019,49.819394],[37.620032,49.819395],[37.620057,49.8193],[37.620066,49.819249],[37.620016,49.819247],[37.619761,49.819226],[37.619707,49.819555],[37.61967,49.819674],[37.619604,49.819948],[37.619922,49.819959]]]}},{"type":"Feature","properties":{"cadnum":"6321855101:00:000:0081"},"geometry":{"type":"Polygon","coordinates":[[[37.618736,49.818191],[37.618769,49.817742],[37.618074,49.817721],[37.618043,49.81817],[37.618736,49.818191]]]}},{"type":"Feature","properties":{"cadnum":"6321855101:00:000:0073"},"geometry":{"type":"Polygon","coordinates":[[[37.618857,49.819197],[37.618812,49.819524],[37.618545,49.81942],[37.618598,49.819151],[37.618429,49.819141],[37.618344,49.819517],[37.618989,49.819839],[37.619112,49.819572],[37.619112,49.819522],[37.619183,49.819183],[37.61917,49.819183],[37.619081,49.819177],[37.618863,49.819161],[37.61886,49.819179],[37.618888,49.819181],[37.618885,49.819199],[37.618857,49.819197]]]}},{"type":"Feature","properties":{"cadnum":"6321855101:00:000:0007"},"geometry":{"type":"Polygon","coordinates":[[[37.621023,49.816716],[37.620969,49.81655],[37.620936,49.81655],[37.62089237931034,49.816665],[37.620892,49.816665],[37.620881,49.816695],[37.620913,49.81707],[37.621389,49.817058],[37.621388,49.816851],[37.621193,49.81679],[37.621160837837834,49.816776],[37.621161,49.816776],[37.621023,49.816716]]]}},{"type":"Feature","properties":{"cadnum":"6321855101:00:000:0079"},"geometry":{"type":"Polygon","coordinates":[[[37.621452,49.817735],[37.621884,49.817716],[37.621832,49.817179],[37.621753,49.817176],[37.621708,49.817087],[37.6217,49.817085],[37.621389,49.817187],[37.621412,49.817404],[37.621452,49.817735]]]}},{"type":"Feature","properties":{"cadnum":"6321855101:00:000:0006"},"geometry":{"type":"Polygon","coordinates":[[[37.621027,49.817745],[37.621452,49.817735],[37.621412,49.817404],[37.621389,49.817187],[37.621389,49.817058],[37.620913,49.81707],[37.620943,49.81742],[37.620973,49.81757],[37.621027,49.817745]]]}},{"type":"Feature","properties":{"cadnum":"6321855101:00:000:0058"},"geometry":{"type":"Polygon","coordinates":[[[37.6191,49.817196],[37.619096,49.817163],[37.619065,49.816999],[37.618431,49.81692],[37.618417,49.817182],[37.6191,49.817196]]]}},{"type":"Feature","properties":{"cadnum":"6321855101:00:000:0026"},"geometry":{"type":"Polygon","coordinates":[[[37.621242,49.816035],[37.621153,49.815849],[37.620752,49.815894],[37.620748,49.816047],[37.620707,49.816046],[37.620711,49.815898],[37.620234,49.81592],[37.620224,49.816027],[37.620182,49.816025],[37.620193,49.815921],[37.619694,49.815944],[37.619687,49.816002],[37.619646,49.816],[37.619652,49.815945],[37.619062,49.815973],[37.619009,49.816505],[37.619184,49.816518],[37.620406,49.816432],[37.62039,49.816541],[37.62048036170213,49.816665],[37.62048,49.816665],[37.620527,49.816729],[37.620622,49.816742],[37.620881,49.816695],[37.620936,49.81655],[37.620969,49.81655],[37.621006409638554,49.816665],[37.621006,49.816665],[37.621023,49.816716],[37.621193,49.81679],[37.621388,49.816851],[37.621389,49.817058],[37.621389,49.817187],[37.6217,49.817085],[37.621566,49.816812],[37.621771,49.816734],[37.621719,49.816665],[37.62171878111589,49.816665],[37.621242,49.816035]]]}},{"type":"Feature","properties":{"cadnum":"6321855101:00:000:0040"},"geometry":{"type":"Polygon","coordinates":[[[37.619069,49.817658],[37.619074,49.81749],[37.619104,49.817231],[37.6191,49.817196],[37.618417,49.817182],[37.618396,49.817632],[37.618503,49.817639],[37.618517,49.817632],[37.618589,49.817634],[37.618596,49.817646],[37.618759,49.817657],[37.618879,49.817658],[37.619069,49.817658]]]}},{"type":"Feature","properties":{"cadnum":"6321855101:00:000:0024"},"geometry":{"type":"Polygon","coordinates":[[[37.619733,49.817674],[37.619694,49.817177],[37.619096,49.817163],[37.619104,49.817231],[37.619074,49.81749],[37.619069,49.817658],[37.619186,49.817667],[37.619332,49.817662],[37.619733,49.817674]]]}},{"type":"Feature","properties":{"cadnum":"6321855101:00:000:0044"},"geometry":{"type":"Polygon","coordinates":[[[37.62039,49.816541],[37.620406,49.816432],[37.619541,49.816493],[37.6195912054054,49.816665],[37.619591,49.816665],[37.619595,49.816678],[37.619623,49.816776],[37.619623962199306,49.816776],[37.619681,49.816969],[37.620192,49.81697],[37.620192,49.817257],[37.620173,49.817608],[37.620153,49.817694],[37.620143,49.817728],[37.620383,49.817755],[37.620374,49.817672],[37.62031,49.817252],[37.620491,49.817218],[37.620501,49.817179],[37.620524,49.817092],[37.620511,49.816707],[37.62039,49.816541]]]}},{"type":"Feature","properties":{"cadnum":"6321855101:00:000:0021"},"geometry":{"type":"Polygon","coordinates":[[[37.61248,49.823584],[37.61177824644548,49.823754],[37.611776,49.823754],[37.611454,49.823832],[37.61178,49.824532],[37.61178,49.82453014705882],[37.612051,49.825112],[37.613383,49.824524],[37.613372,49.824435],[37.613199,49.824256],[37.612064,49.824686],[37.611866,49.824496],[37.611609,49.824009],[37.611609,49.82400968965517],[37.611606,49.824004],[37.611609,49.824003172413796],[37.611609,49.824004],[37.61252,49.823754],[37.612519436090224,49.823754],[37.612604,49.823731],[37.61248,49.823584]]]}},{"type":"Feature","properties":{"cadnum":"6321855101:00:000:0055"},"geometry":{"type":"Polygon","coordinates":[[[37.609011,49.820209],[37.608849,49.820157],[37.608529,49.820105],[37.607878,49.820084],[37.60738,49.819998],[37.606996,49.819841],[37.606877,49.819913],[37.60716597297297,49.82021],[37.607165,49.82021],[37.607793,49.820853],[37.60804,49.821067],[37.609164,49.820834],[37.60898,49.820702],[37.608887,49.820516],[37.609208,49.820299],[37.609011,49.820209]]]}},{"type":"Feature","properties":{"cadnum":"6321855101:00:000:0016"},"geometry":{"type":"Polygon","coordinates":[[[37.610978,49.81929],[37.611495,49.818996],[37.611287,49.818674],[37.610844,49.818905],[37.610684,49.818975],[37.610631,49.81901],[37.610455,49.819147],[37.610487,49.819158],[37.610667,49.819206],[37.610978,49.81929]]]}},{"type":"Feature","properties":{"cadnum":"6321855101:00:000:0071"},"geometry":{"type":"Polygon","coordinates":[[[37.609023,49.819644],[37.609516,49.819529],[37.609597,49.819509],[37.609447,49.819342],[37.609648,49.819372],[37.609571,49.819289],[37.609103,49.81892],[37.608556,49.819137],[37.609023,49.819644]]]}},{"type":"Feature","properties":{"cadnum":"6321855101:00:000:0046"},"geometry":{"type":"Polygon","coordinates":[[[37.610151,49.818609],[37.610835,49.818416],[37.610349,49.817863],[37.609917,49.818024],[37.610151,49.818609]]]}},{"type":"Feature","properties":{"cadnum":"6321855101:00:000:0057"},"geometry":{"type":"Polygon","coordinates":[[[37.615699,49.823535],[37.615675,49.823529],[37.615228,49.82338],[37.614947,49.823579],[37.614727,49.823745],[37.614769806722684,49.823754],[37.614767,49.823754],[37.615625,49.823935],[37.61564593371758,49.82381659365993],[37.615699,49.823535]]]}},{"type":"Feature","properties":{"cadnum":"6321855101:00:000:0065"},"geometry":{"type":"Polygon","coordinates":[[[37.614727,49.823745],[37.614723142857144,49.823754],[37.614723,49.823754],[37.61470989999961,49.82378490000092],[37.614676,49.823864],[37.61467636569579,49.823864],[37.614592,49.824063],[37.615567,49.824245],[37.615625,49.823935],[37.61528843646409,49.823864],[37.615293,49.823864],[37.614727,49.823745]]]}},{"type":"Feature","properties":{"cadnum":"6321855101:00:000:0018"},"geometry":{"type":"Polygon","coordinates":[[[37.615699,49.823535],[37.61565772948328,49.823754],[37.615657,49.823754],[37.615567,49.824245],[37.614363,49.82402],[37.613874,49.824363],[37.614268,49.824459],[37.615535,49.824602],[37.615575,49.825042],[37.616377,49.824974],[37.616348,49.824511],[37.616469,49.823793],[37.615699,49.823535]]]}},{"type":"Feature","properties":{"cadnum":"6321855101:00:000:0022"},"geometry":{"type":"Polygon","coordinates":[[[37.613906,49.825223],[37.614002,49.825212],[37.61401,49.82506],[37.613713,49.825016],[37.613391,49.824917],[37.613226,49.824829],[37.613137,49.824782],[37.613073,49.824831],[37.612978,49.824904],[37.61295,49.824888],[37.612628,49.825134],[37.613906,49.825223]]]}},{"type":"Feature","properties":{"cadnum":"6321855101:00:000:0041"},"geometry":{"type":"Polygon","coordinates":[[[37.6116905217395,49.82324208695644],[37.61178,49.823222],[37.61178,49.823221328],[37.611984,49.823174],[37.612333,49.823092],[37.61207,49.822772],[37.61178,49.82284811713666],[37.61178,49.822848],[37.611264,49.822983],[37.611465,49.823293],[37.611584,49.823266],[37.611609,49.8232603877551],[37.611609,49.823261],[37.6116905217395,49.82324208695644]]]}},{"type":"Feature","properties":{"cadnum":"6321855101:00:000:0078"},"geometry":{"type":"Polygon","coordinates":[[[37.615789,49.821997],[37.615881,49.821925],[37.616065,49.821814],[37.616158,49.821791],[37.616258,49.821788],[37.616505,49.821918],[37.616584,49.82185],[37.616623,49.821818],[37.616693,49.821743],[37.61654,49.821659],[37.616204,49.821503],[37.615954,49.821436],[37.615534,49.821885],[37.615789,49.821997]]]}},{"type":"Feature","properties":{"cadnum":"6321855101:00:000:0012"},"geometry":{"type":"Polygon","coordinates":[[[37.613301,49.82342],[37.613935,49.823373],[37.61417,49.823401],[37.614468,49.823331],[37.61472,49.823266],[37.614812,49.823213],[37.614674,49.823148],[37.614492,49.823047],[37.614276,49.822903],[37.614067,49.822761],[37.613676,49.823003],[37.613112,49.823215],[37.613301,49.82342]]]}},{"type":"Feature","properties":{"cadnum":"6321855101:00:000:0017"},"geometry":{"type":"Polygon","coordinates":[[[37.613092,49.822054],[37.613137,49.822022],[37.613195,49.821983],[37.613267,49.821937],[37.61377,49.821774],[37.61363,49.821495],[37.612862,49.821708],[37.612617,49.821814],[37.612837,49.821931],[37.612884,49.821955],[37.613092,49.822054]]]}},{"type":"Feature","properties":{"cadnum":"6321855101:00:000:0074"},"geometry":{"type":"Polygon","coordinates":[[[37.616175,49.822697],[37.616292,49.822629],[37.616537,49.822486],[37.616801,49.822333],[37.616729,49.822192],[37.616538,49.822044],[37.615786,49.822481],[37.615817,49.822497],[37.616175,49.822697]]]}},{"type":"Feature","properties":{"cadnum":"6321855101:00:000:0015"},"geometry":{"type":"Polygon","coordinates":[[[37.612441,49.823244],[37.612333,49.823092],[37.611984,49.823174],[37.6116905217395,49.82324208695644],[37.611584,49.823266],[37.611655,49.823402],[37.61178,49.823377],[37.61178,49.82337687277354],[37.612441,49.823244]]]}},{"type":"Feature","properties":{"cadnum":"6321855101:00:000:0020"},"geometry":{"type":"Polygon","coordinates":[[[37.61178,49.821304],[37.61178,49.82130371146245],[37.611963,49.821201],[37.612093,49.821196],[37.612275,49.821091],[37.6117,49.820733],[37.611383,49.820957],[37.611322,49.821028],[37.611317,49.821077],[37.611336,49.821116],[37.611407,49.821186],[37.611531,49.821246],[37.611543,49.821253],[37.611609,49.82128856886227],[37.611609,49.821289],[37.61171,49.821343],[37.61178,49.821304]]]}},{"type":"Feature","properties":{"cadnum":"6321855101:00:000:0077"},"geometry":{"type":"Polygon","coordinates":[[[37.614069,49.82154],[37.614395,49.821476],[37.614462,49.821272],[37.614328,49.821],[37.61399,49.820921],[37.613888,49.820789],[37.613758,49.820474],[37.612596,49.820949],[37.612821,49.82107],[37.612951,49.82097],[37.613587,49.820841],[37.614069,49.82154]]]}},{"type":"Feature","properties":{"cadnum":"6321855101:00:000:0072"},"geometry":{"type":"Polygon","coordinates":[[[37.614627,49.823038],[37.615113,49.822636],[37.614575,49.82229],[37.614633,49.822253],[37.614828,49.821965],[37.614888,49.821884],[37.615673,49.822089],[37.61581,49.822003],[37.61502,49.821712],[37.614748,49.821599],[37.61481,49.821388],[37.614689,49.821078],[37.614602,49.821726],[37.614403,49.821986],[37.614255,49.822185],[37.61389,49.822542],[37.614229,49.822779],[37.614627,49.823038]]]}},{"type":"Feature","properties":{"cadnum":"6321855101:00:000:0051"},"geometry":{"type":"Polygon","coordinates":[[[37.617764,49.824667],[37.618648,49.824665],[37.61874,49.824318],[37.617752,49.824165],[37.617764,49.824667]]]}},{"type":"Feature","properties":{"cadnum":"6321855101:00:000:0456"},"geometry":{"type":"Polygon","coordinates":[[[37.611292,49.823476],[37.611645,49.823407],[37.611576,49.823274],[37.611461,49.8233],[37.611395,49.823199],[37.611327,49.82321],[37.611198,49.823011],[37.611059,49.82304],[37.611292,49.823476]]]}}]}