{"type":"FeatureCollection","features":[{"type":"Feature","properties":{"cadnum":"6321882701:00:000:0012"},"geometry":{"type":"Polygon","coordinates":[[[37.868303,49.947614],[37.868219,49.947593],[37.868237,49.94757],[37.86805,49.947523],[37.867525,49.947258],[37.867263,49.94751],[37.8674891111111,49.94763],[37.867489,49.94763],[37.86767,49.947726],[37.867825,49.94781],[37.868123,49.947899],[37.868261272726976,49.94767890909137],[37.868303,49.947614]]]}},{"type":"Feature","properties":{"cadnum":"6321882701:00:000:0053"},"geometry":{"type":"Polygon","coordinates":[[[37.866921,49.95116],[37.86653474683713,49.951266265822326],[37.866437,49.951293],[37.866579,49.951487],[37.867153,49.951501],[37.86699897023809,49.951275],[37.866999,49.951275],[37.866921,49.95116]]]}},{"type":"Feature","properties":{"cadnum":"6321882701:00:000:0103"},"geometry":{"type":"Polygon","coordinates":[[[37.867274,49.947516],[37.86714829464287,49.94763],[37.867148,49.94763],[37.867111906249264,49.947663000000674],[37.867027,49.94774],[37.8670276875,49.94774],[37.867008,49.947758],[37.867381,49.947942],[37.867487,49.947995],[37.867961,49.948177],[37.868123,49.947899],[37.867825,49.94781],[37.86769355555557,49.94774],[37.867695,49.94774],[37.867274,49.947516]]]}},{"type":"Feature","properties":{"cadnum":"6321882701:00:000:0080"},"geometry":{"type":"Polygon","coordinates":[[[37.866156,49.950716],[37.866488,49.950513],[37.866094,49.950321],[37.86552,49.950038],[37.8653,49.950241],[37.865883,49.950559],[37.866156,49.950716]]]}},{"type":"Feature","properties":{"cadnum":"6321882701:00:000:0049"},"geometry":{"type":"Polygon","coordinates":[[[37.865627,49.950039],[37.865903,49.949818],[37.865175,49.94947],[37.864993,49.94971],[37.865627,49.950039]]]}},{"type":"Feature","properties":{"cadnum":"6321882701:00:000:0179"},"geometry":{"type":"Polygon","coordinates":[[[37.868388,49.950848],[37.868297,49.95068],[37.868061,49.950718],[37.867754,49.950164],[37.867423,49.950245],[37.867533,49.95039],[37.867825,49.950871],[37.867891,49.951038],[37.86803,49.951275],[37.86803111494253,49.951275],[37.868069,49.951339],[37.868583,49.951181],[37.868388,49.950848]]]}},{"type":"Feature","properties":{"cadnum":"6321882701:00:000:0048"},"geometry":{"type":"Polygon","coordinates":[[[37.866449,49.950458],[37.866768,49.950228],[37.866412,49.950062],[37.865903,49.949818],[37.865627,49.950039],[37.86609,49.950278],[37.866449,49.950458]]]}},{"type":"Feature","properties":{"cadnum":"6321882701:00:000:0168"},"geometry":{"type":"Polygon","coordinates":[[[37.868814,49.950782],[37.869043,49.950689],[37.868744,49.949645],[37.86839,49.949714],[37.868814,49.950782]]]}},{"type":"Feature","properties":{"cadnum":"6321882701:00:000:0052"},"geometry":{"type":"Polygon","coordinates":[[[37.86653474683713,49.951266265822326],[37.866905,49.951165],[37.86690282608695,49.951165],[37.866921,49.95116],[37.866724,49.95087],[37.866715,49.950859],[37.866497,49.950639],[37.866463,49.950614],[37.866373,49.950662],[37.866382,49.95067],[37.866327,49.9507],[37.866007,49.95086],[37.866072,49.950911],[37.866274,49.951071],[37.86634311764706,49.951165],[37.866342,49.951165],[37.866437,49.951293],[37.86650281249999,49.951275],[37.866503,49.951275],[37.86653474683713,49.951266265822326]]]}},{"type":"Feature","properties":{"cadnum":"6321882701:00:000:0099"},"geometry":{"type":"Polygon","coordinates":[[[37.86676,49.950923],[37.867063,49.950816],[37.867367,49.950708],[37.867216,49.950476],[37.866988,49.950255],[37.866962,49.95028],[37.866955,49.950285],[37.866919,49.95031],[37.866786,49.950409],[37.866662,49.950498],[37.866609,49.950527],[37.866463,49.950614],[37.866497,49.950639],[37.866715,49.950859],[37.866724,49.95087],[37.86676,49.950923]]]}},{"type":"Feature","properties":{"cadnum":"6321882701:00:000:0055"},"geometry":{"type":"Polygon","coordinates":[[[37.868388,49.950848],[37.868615,49.950798],[37.868164,49.949961],[37.868101,49.949868],[37.868013,49.949753],[37.867957,49.949686],[37.867776,49.949782],[37.867892,49.949937],[37.867938,49.950018],[37.868388,49.950848]]]}},{"type":"Feature","properties":{"cadnum":"6321882701:00:000:0054"},"geometry":{"type":"Polygon","coordinates":[[[37.867529,49.950958],[37.867825,49.950871],[37.867533,49.95039],[37.867423,49.950245],[37.867249,49.950078],[37.866988,49.950255],[37.867216,49.950476],[37.867529,49.950958]]]}},{"type":"Feature","properties":{"cadnum":"6321882701:00:000:0081"},"geometry":{"type":"Polygon","coordinates":[[[37.8653,49.950241],[37.86552,49.950038],[37.865311,49.949934],[37.865108,49.950137],[37.8653,49.950241]]]}},{"type":"Feature","properties":{"cadnum":"6321882701:00:000:0098"},"geometry":{"type":"Polygon","coordinates":[[[37.865902,49.950861],[37.866156,49.950716],[37.865883,49.950559],[37.8653,49.950241],[37.865108,49.950137],[37.864788,49.949927],[37.864655,49.950051],[37.865614,49.950671],[37.865763,49.950762],[37.865902,49.950861]]]}},{"type":"Feature","properties":{"cadnum":"6321882701:00:000:0051"},"geometry":{"type":"Polygon","coordinates":[[[37.864466,49.951083],[37.864466,49.95108127074236],[37.864523,49.951029],[37.864466,49.95097747598253],[37.864466,49.950977],[37.864199,49.950735],[37.86317,49.951037],[37.863396,49.951146],[37.86343517829458,49.951165],[37.863434,49.951165],[37.86363666666647,49.951262714285626],[37.863662,49.951275],[37.86366214814815,49.951275],[37.86405,49.951462],[37.864324290780395,49.9512113404253],[37.864466,49.951083]]]}},{"type":"Feature","properties":{"cadnum":"6321882701:00:000:0050"},"geometry":{"type":"Polygon","coordinates":[[[37.864613,49.951111],[37.864523,49.951029],[37.86431391304338,49.95122073913053],[37.864254,49.951275],[37.86425462962963,49.951275],[37.86405,49.951462],[37.864167,49.951518],[37.864294,49.95158043812709],[37.864294,49.951581],[37.86446043720868,49.95166226511597],[37.864466,49.951665],[37.864466,49.95166498122065],[37.864507,49.951685],[37.864687,49.95149],[37.864759,49.951528],[37.864824,49.951556],[37.864993,49.951372],[37.865025,49.951339],[37.865028,49.951337],[37.864715,49.951174],[37.864613,49.951111]]]}},{"type":"Feature","properties":{"cadnum":"6321882701:00:000:0041"},"geometry":{"type":"Polygon","coordinates":[[[37.865965,49.94724],[37.865124,49.946806],[37.86525829569267,49.94763],[37.865257,49.94763],[37.865264,49.947665],[37.867019,49.948362],[37.867381,49.947942],[37.86697311538463,49.94774],[37.866974,49.94774],[37.865965,49.94724]]]}},{"type":"Feature","properties":{"cadnum":"6321882701:00:000:0040"},"geometry":{"type":"Polygon","coordinates":[[[37.867577,49.948519],[37.867755,49.94849],[37.867822,49.948384],[37.867742,49.948363],[37.867805,49.948293],[37.867873,49.948311],[37.867961,49.948177],[37.867487,49.947995],[37.867381,49.947942],[37.867019,49.948362],[37.867277,49.948465],[37.867577,49.948519]]]}},{"type":"Feature","properties":{"cadnum":"6321882701:00:000:0106"},"geometry":{"type":"Polygon","coordinates":[[[37.867274,49.947516],[37.867263,49.94751],[37.866143,49.946917],[37.865493,49.946583],[37.865067,49.946376],[37.864796,49.946613],[37.865124,49.946806],[37.865965,49.94724],[37.866752019999986,49.94763],[37.866751,49.94763],[37.867008,49.947758],[37.867111906249264,49.947663000000674],[37.867274,49.947516]]]}},{"type":"Feature","properties":{"cadnum":"6321882701:00:000:0056"},"geometry":{"type":"Polygon","coordinates":[[[37.870068,49.949502],[37.870043,49.949423],[37.870027,49.94929],[37.870025,49.949196],[37.870022,49.949152],[37.86984674576295,49.949172135593194],[37.869774,49.94918],[37.86977,49.949218],[37.869648,49.949231],[37.869697,49.949533],[37.869762,49.950061],[37.869787,49.950061888324875],[37.869787,49.950063],[37.870084,49.950072],[37.870068,49.949502]]]}},{"type":"Feature","properties":{"cadnum":"6321882701:00:000:0153"},"geometry":{"type":"Polygon","coordinates":[[[37.869787,49.950645675],[37.869787,49.950646],[37.869889,49.950624],[37.869747,49.950062],[37.869684,49.949534],[37.869126,49.949586],[37.869329,49.950743],[37.869787,49.950645675]]]}},{"type":"Feature","properties":{"cadnum":"6321882701:00:000:0172"},"geometry":{"type":"Polygon","coordinates":[[[37.876261,49.958871],[37.876309,49.958774],[37.876353,49.958608],[37.876332,49.95856],[37.875476,49.958536],[37.875486,49.958615],[37.875325777771494,49.958849888898094],[37.875168,49.959081],[37.87528,49.959096380281686],[37.87528,49.959097],[37.875852,49.959174],[37.876261,49.958871]]]}},{"type":"Feature","properties":{"cadnum":"6321882701:00:000:0006"},"geometry":{"type":"Polygon","coordinates":[[[37.875982,49.959712],[37.876141,49.959541],[37.876191,49.959482],[37.875833,49.959357],[37.875507,49.959276],[37.875307,49.95971],[37.875302,49.959723],[37.875452,49.959765],[37.875452,49.95976371803853],[37.875873,49.959878],[37.875982,49.959712]]]}},{"type":"Feature","properties":{"cadnum":"6321882701:00:000:0019"},"geometry":{"type":"Polygon","coordinates":[[[37.876927,49.957913],[37.875968,49.957765],[37.87573170137525,49.958233],[37.875731,49.958233],[37.875711,49.958274],[37.875735,49.958275],[37.876444,49.958344],[37.87645337383174,49.958344],[37.876849,49.958382],[37.876874,49.958233],[37.876873542923434,49.958233],[37.876927,49.957913]]]}},{"type":"Feature","properties":{"cadnum":"6321882701:00:000:0007"},"geometry":{"type":"Polygon","coordinates":[[[37.875268,49.959796],[37.87528,49.95980154347826],[37.87528,49.959802],[37.875774,49.960029],[37.875873,49.959878],[37.875302,49.959723],[37.87528,49.95977],[37.87528,49.959770235294116],[37.875268,49.959796]]]}},{"type":"Feature","properties":{"cadnum":"6321882701:00:000:0001"},"geometry":{"type":"Polygon","coordinates":[[[37.867096,49.95698],[37.867334,49.956789],[37.867368,49.95676],[37.867629,49.95654],[37.867458,49.956424],[37.867074,49.956655],[37.866854,49.956876],[37.867096,49.95698]]]}},{"type":"Feature","properties":{"cadnum":"6321882701:00:000:0174"},"geometry":{"type":"Polygon","coordinates":[[[37.865791,49.9559],[37.866235,49.955627],[37.86607,49.955504],[37.865969,49.955444],[37.865682,49.955232],[37.865309,49.955463],[37.865486,49.95568],[37.865608,49.955771],[37.865791,49.9559]]]}},{"type":"Feature","properties":{"cadnum":"6321882701:00:000:0002"},"geometry":{"type":"Polygon","coordinates":[[[37.867349,49.957092],[37.86762,49.95686],[37.867856,49.956685],[37.867629,49.95654],[37.867368,49.95676],[37.867334,49.956789],[37.867096,49.95698],[37.867349,49.957092]]]}},{"type":"Feature","properties":{"cadnum":"6321882701:00:000:0101"},"geometry":{"type":"Polygon","coordinates":[[[37.867755,49.957271],[37.868009,49.95704],[37.868305,49.956813],[37.86797,49.956603],[37.867856,49.956685],[37.86762,49.95686],[37.867349,49.957092],[37.86749,49.957156],[37.867552,49.957182],[37.867755,49.957271]]]}},{"type":"Feature","properties":{"cadnum":"6321882701:00:000:0108"},"geometry":{"type":"Polygon","coordinates":[[[37.865671,49.957574],[37.86574,49.957524],[37.865886,49.957416],[37.866265,49.957163],[37.866491,49.956983],[37.86619,49.956854],[37.865903,49.957047],[37.865627,49.957214],[37.865315,49.957401],[37.865671,49.957574]]]}},{"type":"Feature","properties":{"cadnum":"6321882701:00:000:0169"},"geometry":{"type":"Polygon","coordinates":[[[37.865079,49.956177],[37.864904,49.955988],[37.864707,49.955816],[37.864431,49.955948],[37.863831,49.956163],[37.86397,49.956324],[37.864294,49.95619380138568],[37.864294,49.956194],[37.864403,49.95615],[37.864466,49.956205],[37.864466,49.95620380088496],[37.864629,49.956343],[37.865079,49.956177]]]}},{"type":"Feature","properties":{"cadnum":"6321882701:00:000:0185"},"geometry":{"type":"Polygon","coordinates":[[[37.863688375,49.954699],[37.863688,49.954699],[37.862345,49.955523],[37.862587,49.955752],[37.863277,49.955679],[37.863546,49.955961],[37.863688,49.955886],[37.864294,49.95559317829457],[37.864294,49.955594],[37.864462,49.955512],[37.864211,49.955266],[37.864294,49.955232800000005],[37.864294,49.955233],[37.86432349999976,49.955221000000094],[37.864466,49.955164],[37.864466,49.95516303389831],[37.86453,49.955137],[37.864365,49.954938],[37.864124,49.954814],[37.864086,49.954827],[37.863892,49.954699],[37.863891869318174,49.954699],[37.863794,49.954634],[37.863688375,49.954699]]]}},{"type":"Feature","properties":{"cadnum":"6321882701:00:000:0147"},"geometry":{"type":"Polygon","coordinates":[[[37.867003,49.956085],[37.86712,49.956015],[37.866821,49.955808],[37.866701,49.955879],[37.866817,49.955958],[37.86679,49.955974],[37.866826,49.955999],[37.866853,49.955983],[37.867003,49.956085]]]}},{"type":"Feature","properties":{"cadnum":"6321882701:00:000:0122"},"geometry":{"type":"Polygon","coordinates":[[[37.865042,49.957079],[37.864777,49.9569],[37.864643,49.956995],[37.864376,49.956851],[37.863755,49.957156],[37.863291,49.957357],[37.863043,49.957493],[37.863709,49.957764],[37.864466,49.957376],[37.864466,49.95737547058824],[37.865042,49.957079]]]}},{"type":"Feature","properties":{"cadnum":"6321882701:00:000:0151"},"geometry":{"type":"Polygon","coordinates":[[[37.8643775384617,49.95763723076914],[37.864466,49.957588],[37.864466,49.9575877053407],[37.864837,49.95738],[37.865484,49.957019],[37.865351,49.95692],[37.865042,49.957079],[37.864294,49.957464],[37.864294,49.95746415852047],[37.863709,49.957764],[37.863935,49.957901],[37.863937,49.957896],[37.864121,49.95778],[37.864294,49.95768372173913],[37.864294,49.957684],[37.8643775384617,49.95763723076914]]]}},{"type":"Feature","properties":{"cadnum":"6321882701:00:000:0120"},"geometry":{"type":"Polygon","coordinates":[[[37.865671,49.957574],[37.865315,49.957401],[37.865093,49.957533],[37.864837,49.95738],[37.8643775384617,49.95763723076914],[37.864121,49.95778],[37.863937,49.957896],[37.863732,49.958225],[37.86369509677419,49.958233],[37.863695,49.958233],[37.863589,49.958256],[37.863471,49.958233],[37.86346929545455,49.958233],[37.862673,49.95808],[37.862037,49.957892],[37.861741,49.957753],[37.861665,49.957798],[37.861962,49.958153],[37.86206713089005,49.958233],[37.862066,49.958233],[37.86215874927969,49.95830271757937],[37.862213,49.958344],[37.86221366964285,49.958344],[37.862215,49.958345],[37.862537,49.958424],[37.862966,49.958432],[37.86326,49.958474],[37.863573,49.958461],[37.863872,49.958541],[37.864466,49.958249],[37.864466,49.9582474278607],[37.86448926927092,49.958235851108995],[37.865214,49.957879],[37.865671,49.957574]]]}},{"type":"Feature","properties":{"cadnum":"6321882701:00:000:0074"},"geometry":{"type":"Polygon","coordinates":[[[37.866123,49.957703],[37.866308,49.957547],[37.866829,49.957136],[37.866491,49.956983],[37.866265,49.957163],[37.865886,49.957416],[37.86574,49.957524],[37.866123,49.957703]]]}},{"type":"Feature","properties":{"cadnum":"6321882701:00:000:0109"},"geometry":{"type":"Polygon","coordinates":[[[37.865093,49.957533],[37.865315,49.957401],[37.865627,49.957214],[37.865903,49.957047],[37.86619,49.956854],[37.866103,49.956814],[37.866079,49.956799],[37.866011,49.956768],[37.865946,49.956739],[37.86571,49.956891],[37.865537,49.956989],[37.864837,49.95738],[37.865093,49.957533]]]}},{"type":"Feature","properties":{"cadnum":"6321882701:00:000:0075"},"geometry":{"type":"Polygon","coordinates":[[[37.867702,49.958129],[37.867715,49.958053],[37.867558,49.957992],[37.86731494602273,49.958233],[37.867314,49.958233],[37.867203,49.958344],[37.867108,49.958439],[37.866984,49.958395],[37.866907,49.95837],[37.866817,49.958477],[37.866794,49.958523],[37.866614,49.958631],[37.86664,49.958669],[37.867016,49.958815],[37.867211,49.958602],[37.867273,49.958626],[37.867356,49.958571],[37.867589,49.958299],[37.867702,49.958129]]]}},{"type":"Feature","properties":{"cadnum":"6321882701:00:000:0123"},"geometry":{"type":"Polygon","coordinates":[[[37.865961,49.958175],[37.866827,49.957633],[37.866389,49.957483],[37.866308,49.957547],[37.866123,49.957703],[37.86539602362205,49.958233],[37.865394,49.958233],[37.865252,49.958338],[37.865244,49.958344],[37.8652440766129,49.958344],[37.864597,49.958834],[37.864899,49.95883],[37.86497,49.958829],[37.865234,49.958655],[37.865704921800955,49.958344],[37.865705,49.958344],[37.865961,49.958175]]]}},{"type":"Feature","properties":{"cadnum":"6321882701:00:000:0091"},"geometry":{"type":"Polygon","coordinates":[[[37.866105,49.958264],[37.866267,49.958181],[37.867033,49.957728],[37.867113,49.95773],[37.867525,49.957485],[37.867308,49.957349],[37.867263,49.957324],[37.867261,49.957326],[37.867159,49.9574],[37.867168,49.957406],[37.867082,49.957468],[37.867071,49.957463],[37.866892,49.957593],[37.865961,49.958175],[37.866105,49.958264]]]}},{"type":"Feature","properties":{"cadnum":"6321882701:00:000:0141"},"geometry":{"type":"Polygon","coordinates":[[[37.865669,49.956378],[37.865818,49.956235],[37.865989,49.956101],[37.866084,49.956028],[37.866496,49.955761],[37.866428,49.955692],[37.8658,49.955987],[37.865396,49.956253],[37.865669,49.956378]]]}},{"type":"Feature","properties":{"cadnum":"6321882701:00:000:0163"},"geometry":{"type":"Polygon","coordinates":[[[37.868918,49.959909],[37.869051,49.959409],[37.869182,49.959461],[37.869491,49.95893],[37.869321,49.958881],[37.868968,49.95869],[37.868768,49.959272],[37.868834,49.959797],[37.868139,49.959768],[37.867867,49.959106],[37.867612,49.959122],[37.867635,49.959165],[37.867777,49.959233],[37.867962,49.959425],[37.868025,49.959543],[37.86812,49.959796],[37.868285,49.959856],[37.868599,49.959899],[37.868918,49.959909]]]}},{"type":"Feature","properties":{"cadnum":"6321882701:00:000:0145"},"geometry":{"type":"Polygon","coordinates":[[[37.869156,49.959878],[37.869579,49.95984],[37.8697,49.959486],[37.869263,49.959401],[37.869156,49.959878]]]}},{"type":"Feature","properties":{"cadnum":"6321882701:00:000:0003"},"geometry":{"type":"Polygon","coordinates":[[[37.87528,49.94941846296297],[37.87528,49.949419],[37.87536196779912,49.94938393023278],[37.875452,49.949346],[37.875452,49.94934541012658],[37.875675,49.94925],[37.875349,49.948965],[37.875109,49.948757],[37.874706,49.948966],[37.874965,49.949203],[37.875236,49.949437],[37.87528,49.94941846296297]]]}},{"type":"Feature","properties":{"cadnum":"6321882701:00:000:0082"},"geometry":{"type":"Polygon","coordinates":[[[37.875452,49.950272],[37.875452,49.950270856435644],[37.875818,49.950125],[37.875437,49.949746],[37.87528,49.949574],[37.87528,49.949574357512944],[37.875244,49.949535],[37.874879,49.949705],[37.87528,49.950140596078434],[37.87528,49.950141],[37.875389,49.950259],[37.875414,49.950286],[37.875452,49.950272]]]}},{"type":"Feature","properties":{"cadnum":"6321882701:00:000:0076"},"geometry":{"type":"Polygon","coordinates":[[[37.87528,49.95030681136364],[37.87528,49.950307],[37.875389,49.950259],[37.874879,49.949705],[37.874513,49.949869],[37.874949,49.950452],[37.87528,49.95030681136364]]]}},{"type":"Feature","properties":{"cadnum":"6321882701:00:000:0022"},"geometry":{"type":"Polygon","coordinates":[[[37.875578,49.94895],[37.875511,49.94853],[37.87528,49.948534],[37.87528,49.94853477763975],[37.874647,49.948545],[37.874647,49.949381],[37.874887,49.949259],[37.874965,49.949203],[37.874706,49.948966],[37.875109,49.948757],[37.87528,49.9489052],[37.87528,49.948906],[37.875349,49.948965],[37.875452,49.948959],[37.875452,49.94895825327511],[37.875578,49.94895]]]}},{"type":"Feature","properties":{"cadnum":"6321882701:00:000:0087"},"geometry":{"type":"Polygon","coordinates":[[[37.877385,49.949245],[37.877807,49.949047],[37.877272,49.948527],[37.876883,49.948716],[37.877047,49.948889],[37.877385,49.949245]]]}},{"type":"Feature","properties":{"cadnum":"6321882701:00:000:0182"},"geometry":{"type":"Polygon","coordinates":[[[37.880945,49.95011144951139],[37.881081,49.950317],[37.881271,49.950601],[37.881875,49.950494],[37.881684,49.950188],[37.881476,49.949891],[37.880774,49.949533],[37.880774,49.94953358452139],[37.880454,49.94937],[37.880945,49.950113],[37.880945,49.95011144951139]]]}},{"type":"Feature","properties":{"cadnum":"6321882701:00:000:0089"},"geometry":{"type":"Polygon","coordinates":[[[37.87818,49.950935],[37.878007,49.950557],[37.877535,49.950656],[37.877727,49.950959],[37.877706,49.950968],[37.87781481904762,49.951165],[37.877814,49.951165],[37.877822,49.951178],[37.87787,49.951165],[37.877868583333324,49.951165],[37.877908,49.951154],[37.87791413461539,49.951165],[37.877913,49.951165],[37.877937,49.951206],[37.877963,49.951242],[37.877983,49.951275],[37.87798373076923,49.951275],[37.878012,49.95132],[37.878301,49.95126],[37.87818,49.950935]]]}},{"type":"Feature","properties":{"cadnum":"6321882701:00:000:0166"},"geometry":{"type":"Polygon","coordinates":[[[37.879105,49.950765],[37.87955,49.950629],[37.879357,49.950193],[37.878885,49.95034],[37.879105,49.950765]]]}},{"type":"Feature","properties":{"cadnum":"6321882701:00:000:0159"},"geometry":{"type":"Polygon","coordinates":[[[37.878575,49.949884],[37.878834,49.949706],[37.8794,49.949081],[37.879351,49.94904],[37.878461,49.948811],[37.877807,49.949047],[37.878232,49.949461],[37.878575,49.949884]]]}},{"type":"Feature","properties":{"cadnum":"6321882701:00:000:0149"},"geometry":{"type":"Polygon","coordinates":[[[37.877328,49.949733],[37.878232,49.949461],[37.877807,49.949047],[37.877385,49.949245],[37.877047,49.948889],[37.876883,49.948716],[37.876549,49.948898],[37.877328,49.949733]]]}},{"type":"Feature","properties":{"cadnum":"6321882701:00:000:0021"},"geometry":{"type":"Polygon","coordinates":[[[37.876293,49.950265],[37.87662,49.950127],[37.875865,49.949397],[37.875602,49.949528],[37.876293,49.950265]]]}},{"type":"Feature","properties":{"cadnum":"6321882701:00:000:0136"},"geometry":{"type":"Polygon","coordinates":[[[37.869347,49.941722],[37.869959,49.941896],[37.869959,49.94189572103004],[37.870719,49.942111],[37.870924,49.941775],[37.869787,49.941447],[37.869787,49.94144718292683],[37.869303,49.941307],[37.869526,49.940944],[37.869241,49.940853],[37.868883,49.941438],[37.868645,49.941977],[37.868599,49.942242],[37.868915,49.942444],[37.869347,49.941722]]]}},{"type":"Feature","properties":{"cadnum":"6321882701:00:000:0131"},"geometry":{"type":"Polygon","coordinates":[[[37.869781,49.941864],[37.869355,49.941746],[37.869072,49.942219],[37.86893,49.942458],[37.868995,49.942486],[37.869787,49.942831062240664],[37.869787,49.942832],[37.870173,49.942999],[37.870717,49.942126],[37.870072,49.941946],[37.869924378435535,49.94190508033827],[37.869781,49.941864]]]}},{"type":"Feature","properties":{"cadnum":"6321882701:00:000:0110"},"geometry":{"type":"Polygon","coordinates":[[[37.870054,49.940004],[37.869892,49.940276],[37.869787,49.940241],[37.869787,49.940241117449666],[37.869594,49.940177],[37.869304,49.94067],[37.86930546551724,49.94067],[37.869302,49.940676],[37.869654,49.940776],[37.869633,49.940801],[37.869605,49.940844],[37.869787,49.94089695480226],[37.869787,49.940897],[37.869931415579934,49.94093897402467],[37.869959,49.940947],[37.869959,49.94094699136691],[37.871177,49.941301],[37.871193,49.941269],[37.871261,49.941157],[37.8716553333335,49.940669594202696],[37.871747,49.940558],[37.870054,49.940004]]]}},{"type":"Feature","properties":{"cadnum":"6321882701:00:000:0008"},"geometry":{"type":"Polygon","coordinates":[[[37.869959,49.943391363636366],[37.869963,49.943392],[37.870054,49.94321],[37.869911080291956,49.943161289537706],[37.869764,49.94311],[37.869724,49.943096],[37.869579,49.943046],[37.869312,49.942952],[37.86871,49.942691],[37.868682,49.94269],[37.868576,49.942847],[37.8687,49.942887],[37.869208,49.943118],[37.869272,49.943154],[37.869337,49.943186],[37.869363,49.943217],[37.869451,49.943253],[37.869468,49.94328],[37.86968,49.943346],[37.869787,49.94336364157706],[37.869787,49.943364],[37.86984897183129,49.94337385915498],[37.869959,49.943392],[37.869959,49.943391363636366]]]}},{"type":"Feature","properties":{"cadnum":"6321882701:00:000:0079"},"geometry":{"type":"Polygon","coordinates":[[[37.869959,49.938701],[37.870045,49.938769],[37.870342,49.938935],[37.870572,49.938806],[37.870503,49.938766],[37.870368,49.938688],[37.869787,49.938327],[37.869787,49.93832736],[37.869709,49.938279],[37.869512,49.93813],[37.869346,49.938214],[37.869959,49.938702],[37.869959,49.938701]]]}},{"type":"Feature","properties":{"cadnum":"6321882701:00:000:0176"},"geometry":{"type":"Polygon","coordinates":[[[37.869959,49.939432872727274],[37.869975,49.93944],[37.870042,49.939367],[37.870184,49.939211],[37.870274,49.939112],[37.870349,49.939052],[37.870228,49.93897],[37.869874,49.93873],[37.869865,49.938724],[37.869696,49.938492],[37.869388,49.938247],[37.869068,49.938432],[37.868962,49.938487],[37.868611,49.938632],[37.868848,49.938772],[37.869449,49.939147],[37.869787,49.939345020202026],[37.869787,49.939346],[37.869845,49.939379],[37.869865,49.939391],[37.869959,49.939434],[37.869959,49.939432872727274]]]}},{"type":"Feature","properties":{"cadnum":"6321882701:00:000:0138"},"geometry":{"type":"Polygon","coordinates":[[[37.869959,49.94014],[37.869959,49.94013930674846],[37.870047,49.939993],[37.871753,49.94055],[37.871936,49.940304],[37.872054,49.940146],[37.870521,49.939604],[37.870094,49.939453],[37.86979426627263,49.93988649112363],[37.869599,49.940168],[37.869787,49.94023132631579],[37.869787,49.940232],[37.869884,49.940264],[37.869959,49.94014]]]}},{"type":"Feature","properties":{"cadnum":"6321882701:00:000:0180"},"geometry":{"type":"Polygon","coordinates":[[[37.868521,49.940435],[37.86882254639175,49.94056],[37.868822,49.94056],[37.868989,49.940629],[37.869067,49.940533],[37.86725,49.939628],[37.867204,49.939684],[37.866589,49.939934],[37.86648,49.940172],[37.8668451300813,49.94056],[37.866845,49.94056],[37.866943,49.940664],[37.866947,49.94067],[37.86694710810811,49.94067],[37.867171,49.940997],[37.86705,49.941175],[37.868077,49.941647],[37.868461,49.941324],[37.868128,49.94121],[37.868217,49.940888],[37.868273,49.940752],[37.86838069306956,49.94061322772245],[37.868521,49.940435]]]}},{"type":"Feature","properties":{"cadnum":"6321882701:00:000:0150"},"geometry":{"type":"Polygon","coordinates":[[[37.86341,49.954341],[37.861145,49.954572],[37.860996,49.95481],[37.86099737096774,49.95481],[37.860951,49.954885],[37.860481,49.955116],[37.860395,49.955143],[37.860564,49.955539],[37.862449,49.955347],[37.863342,49.95482],[37.86334733333334,49.95477966666664],[37.86341,49.954341]]]}},{"type":"Feature","properties":{"cadnum":"6321882701:00:000:0090"},"geometry":{"type":"Polygon","coordinates":[[[37.863316,49.956897],[37.863656,49.95676],[37.863531,49.956653],[37.863672,49.956593],[37.863579,49.956521],[37.863551,49.956499],[37.863373,49.95637],[37.863196,49.956286],[37.86302,49.956289],[37.86282,49.956321],[37.862709,49.956368],[37.863316,49.956897]]]}},{"type":"Feature","properties":{"cadnum":"6321882701:00:000:0186"},"geometry":{"type":"Polygon","coordinates":[[[37.872317,49.947475],[37.872376,49.947312],[37.870454,49.947065],[37.87024903154575,49.94763],[37.870249,49.94763],[37.870224,49.947699],[37.872317,49.947475]]]}},{"type":"Feature","properties":{"cadnum":"6321882701:00:000:0043"},"geometry":{"type":"Polygon","coordinates":[[[37.86996,49.947643],[37.870127,49.947184],[37.870057,49.947175],[37.869885,49.947627],[37.86996,49.947643]]]}},{"type":"Feature","properties":{"cadnum":"6321882701:00:000:0042"},"geometry":{"type":"Polygon","coordinates":[[[37.869959,49.947433],[37.869959,49.94743253488372],[37.870057,49.947175],[37.869796507041144,49.94714412676043],[37.869681,49.94713],[37.869558,49.947106],[37.869453,49.947085],[37.869358,49.947067],[37.869276,49.947316],[37.869224,49.947494],[37.869787,49.94760728139183],[37.869787,49.947608],[37.869885,49.947627],[37.869959,49.947433]]]}},{"type":"Feature","properties":{"cadnum":"6321882701:00:000:0047"},"geometry":{"type":"Polygon","coordinates":[[[37.872484,49.945891],[37.872558,49.945622],[37.871199,49.945208],[37.870996,49.945532],[37.871445,49.945644],[37.872484,49.945891]]]}},{"type":"Feature","properties":{"cadnum":"6321882701:00:000:0045"},"geometry":{"type":"Polygon","coordinates":[[[37.871394,49.945792],[37.871445,49.945644],[37.870996,49.945532],[37.870612,49.945436],[37.870589,49.945429],[37.870212,49.945319],[37.870113,49.94548],[37.870219,49.945512],[37.870396,49.945595],[37.870443,49.945608],[37.871394,49.945792]]]}},{"type":"Feature","properties":{"cadnum":"6321882701:00:000:0137"},"geometry":{"type":"Polygon","coordinates":[[[37.869959,49.94668620454545],[37.869963,49.946687],[37.8708,49.946865],[37.870919,49.946644],[37.870062,49.946467],[37.869959,49.946444527272725],[37.869959,49.946444],[37.869636,49.946373],[37.869516,49.946597],[37.869959,49.946687],[37.869959,49.94668620454545]]]}},{"type":"Feature","properties":{"cadnum":"6321882701:00:000:0044"},"geometry":{"type":"Polygon","coordinates":[[[37.869959,49.946123155882354],[37.87021,49.94618],[37.870955,49.946344],[37.871106,49.946126],[37.87,49.945897],[37.869964,49.945889],[37.869941,49.94594],[37.869927,49.945973],[37.86987,49.946103],[37.869959,49.946124],[37.869959,49.946123155882354]]]}},{"type":"Feature","properties":{"cadnum":"6321882701:00:000:0046"},"geometry":{"type":"Polygon","coordinates":[[[37.870996,49.945532],[37.871199,49.945208],[37.870849,49.945102],[37.870621,49.945026],[37.870418,49.94497],[37.870336,49.945113],[37.870318,49.945149],[37.870294,49.945186],[37.870212,49.945319],[37.870589,49.945429],[37.870612,49.945436],[37.870996,49.945532]]]}},{"type":"Feature","properties":{"cadnum":"6321882701:00:000:0175"},"geometry":{"type":"Polygon","coordinates":[[[37.872558,49.945622],[37.8727,49.945133],[37.871111,49.944639],[37.870766,49.945075],[37.870849,49.945102],[37.871199,49.945208],[37.872558,49.945622]]]}},{"type":"Feature","properties":{"cadnum":"6321882701:00:000:0162"},"geometry":{"type":"Polygon","coordinates":[[[37.872351,49.94718],[37.872477,49.946106],[37.872406,49.946031],[37.871394,49.945792],[37.870664,49.94565],[37.870477,49.945945],[37.871073,49.94607],[37.871106,49.946126],[37.870955,49.946344],[37.871831,49.946544],[37.871708,49.946803],[37.870919,49.946644],[37.8708,49.946865],[37.872351,49.94718]]]}},{"type":"Feature","properties":{"cadnum":"6321882701:00:000:0015"},"geometry":{"type":"Polygon","coordinates":[[[37.863396,49.951146],[37.86317,49.951037],[37.862973999999994,49.951165],[37.862973,49.951165],[37.862925,49.951197],[37.86309,49.951275],[37.86309014062501,49.951275],[37.863196,49.951325],[37.86331192436976,49.95122079831932],[37.863396,49.951146]]]}},{"type":"Feature","properties":{"cadnum":"6321882701:00:000:0148"},"geometry":{"type":"Polygon","coordinates":[[[37.861145,49.954572],[37.86341,49.954341],[37.863456,49.954023],[37.863322,49.953522],[37.863098,49.953202],[37.863054,49.953208],[37.862893,49.953207],[37.862852,49.95325],[37.862353,49.953487],[37.861727,49.953483],[37.861541,49.953595],[37.861156,49.953847],[37.861124,49.953905],[37.861151,49.953987],[37.861258,49.954393],[37.861145,49.954572]]]}},{"type":"Feature","properties":{"cadnum":"6321882701:00:000:0133"},"geometry":{"type":"Polygon","coordinates":[[[37.86079,49.951039],[37.86112,49.950579],[37.860759,49.950404],[37.860799,49.950364],[37.860332,49.950181],[37.859514,49.95096],[37.860058038461545,49.951165],[37.860056,49.951165],[37.860066,49.951168],[37.859958,49.951275],[37.85995973489011,49.951275],[37.859343,49.951896],[37.859674,49.952054],[37.860288,49.951495],[37.860598,49.951644],[37.860229,49.952407],[37.859671,49.952785],[37.859923,49.952953],[37.860574,49.952635],[37.860869,49.952366],[37.861104,49.952036],[37.861227,49.951724],[37.861203,49.951428],[37.86104011026616,49.951275],[37.861041,49.951275],[37.86079,49.951039]]]}},{"type":"Feature","properties":{"cadnum":"6321882701:00:000:0016"},"geometry":{"type":"Polygon","coordinates":[[[37.864294,49.95205891709844],[37.864294,49.952059],[37.86430554509851,49.952049525489805],[37.864466,49.951919],[37.864466,49.95191784782609],[37.864478,49.951908],[37.864438,49.95189],[37.86405,49.951701],[37.86398,49.951668],[37.863334,49.951387],[37.863327,49.951384],[37.86313,49.951572],[37.86324,49.95162],[37.863837,49.951881],[37.864226,49.952051],[37.864273,49.952076],[37.864294,49.95205891709844]]]}},{"type":"Feature","properties":{"cadnum":"6321882701:00:000:0014"},"geometry":{"type":"Polygon","coordinates":[[[37.863396,49.951146],[37.86337464341085,49.951165],[37.863374,49.951165],[37.86331192436976,49.95122079831932],[37.863251,49.951275],[37.863251625,49.951275],[37.863196,49.951325],[37.863225,49.95134],[37.863327,49.951384],[37.863334,49.951387],[37.86398,49.951668],[37.86405,49.951701],[37.864294,49.9518198556701],[37.864294,49.95182],[37.864438,49.95189],[37.864466,49.951903],[37.864466,49.951902600000004],[37.864478,49.951908],[37.864607,49.951798],[37.864572,49.951782],[37.864603,49.95175],[37.86464,49.95175],[37.864507,49.951685],[37.86446043720868,49.95166226511597],[37.864167,49.951518],[37.86405,49.951462],[37.86363666666647,49.951262714285626],[37.863396,49.951146]]]}},{"type":"Feature","properties":{"cadnum":"6321882701:00:000:0060"},"geometry":{"type":"Polygon","coordinates":[[[37.87382981250057,49.95479174999971],[37.874012,49.954699],[37.87401181849315,49.954699],[37.874367,49.954518],[37.874122,49.954391],[37.873726,49.954186],[37.87342,49.95446],[37.873588,49.954553],[37.873499,49.954621],[37.8736178224299,49.954699],[37.873617,49.954699],[37.87364983582062,49.95472001492519],[37.873662,49.954728],[37.873789,49.95481],[37.873790437500006,49.95481],[37.873792,49.954811],[37.87379396428571,49.95481],[37.873794,49.95481],[37.87382981250057,49.95479174999971]]]}},{"type":"Feature","properties":{"cadnum":"6321882701:00:000:0068"},"geometry":{"type":"Polygon","coordinates":[[[37.871678,49.953792],[37.871785,49.95372],[37.872007,49.953566],[37.87187,49.95349],[37.871639,49.953358],[37.871319,49.953104],[37.871006,49.953285],[37.871119,49.95345],[37.871678,49.953792]]]}},{"type":"Feature","properties":{"cadnum":"6321882701:00:000:0067"},"geometry":{"type":"Polygon","coordinates":[[[37.872996,49.95428],[37.873328,49.954017],[37.873038,49.953866],[37.872724,49.953699],[37.872579,49.953625],[37.87257,49.95362],[37.872351,49.95378],[37.872268,49.953844],[37.872996,49.95428]]]}},{"type":"Feature","properties":{"cadnum":"6321882701:00:000:0058"},"geometry":{"type":"Polygon","coordinates":[[[37.874623,49.954652],[37.874897,49.954515],[37.874372,49.954249],[37.873945,49.954033],[37.87386,49.953991],[37.873667,49.954152],[37.873726,49.954186],[37.874122,49.954391],[37.874367,49.954518],[37.874623,49.954652]]]}},{"type":"Feature","properties":{"cadnum":"6321882701:00:000:0065"},"geometry":{"type":"Polygon","coordinates":[[[37.873475,49.954094],[37.873596,49.953916],[37.873191,49.953702],[37.87294,49.95357],[37.872777,49.953483],[37.872579,49.953625],[37.872724,49.953699],[37.873038,49.953866],[37.873328,49.954017],[37.873475,49.954094]]]}},{"type":"Feature","properties":{"cadnum":"6321882701:00:000:0057"},"geometry":{"type":"Polygon","coordinates":[[[37.875636,49.953177],[37.875341,49.952846],[37.87528,49.952884],[37.87528,49.952884707641196],[37.87504,49.953037],[37.875095,49.953076],[37.875031,49.95312],[37.87502,49.953114],[37.87498,49.953142],[37.874929,49.953111],[37.874826,49.953184],[37.874874,49.953216],[37.87507,49.953328],[37.875224,49.953402],[37.87524,49.953412],[37.875452,49.953287],[37.875452,49.95328605617977],[37.875636,49.953177]]]}},{"type":"Feature","properties":{"cadnum":"6321882701:00:000:0029"},"geometry":{"type":"Polygon","coordinates":[[[37.87112,49.952702],[37.87143,49.952665],[37.871332,49.952415],[37.871277,49.952033],[37.871261,49.951921],[37.870705,49.951999],[37.870978,49.95245],[37.87112,49.952702]]]}},{"type":"Feature","properties":{"cadnum":"6321882701:00:000:0124"},"geometry":{"type":"Polygon","coordinates":[[[37.875419,49.953579],[37.875452,49.953556],[37.875452,49.95355533962264],[37.875472,49.953541],[37.87533,49.953462],[37.87528,49.953434],[37.87528,49.95343422222222],[37.87524,49.953412],[37.875224,49.953402],[37.87507,49.953328],[37.874875,49.953217],[37.874755,49.953295],[37.874712,49.953324],[37.874713,49.953329],[37.874676,49.953355],[37.874499,49.953475],[37.87446,49.953501],[37.874529,49.953533],[37.874804,49.953709],[37.875058,49.953837],[37.875419,49.953579]]]}},{"type":"Feature","properties":{"cadnum":"6321882701:00:000:0059"},"geometry":{"type":"Polygon","coordinates":[[[37.874897,49.954515],[37.875099,49.954413],[37.87458,49.954121],[37.874138,49.953859],[37.874067,49.95382],[37.87386,49.953991],[37.873945,49.954033],[37.874372,49.954249],[37.874897,49.954515]]]}},{"type":"Feature","properties":{"cadnum":"6321882701:00:000:0025"},"geometry":{"type":"Polygon","coordinates":[[[37.871946,49.952598],[37.872231,49.952573],[37.87214,49.952256],[37.872066,49.952003],[37.871953,49.951618],[37.871615,49.95166],[37.871728,49.952003],[37.871831,49.952321],[37.871946,49.952598]]]}},{"type":"Feature","properties":{"cadnum":"6321882701:00:000:0024"},"geometry":{"type":"Polygon","coordinates":[[[37.872066,49.952003],[37.872516,49.951925],[37.872237,49.95129],[37.87185,49.951265],[37.871953,49.951618],[37.872066,49.952003]]]}},{"type":"Feature","properties":{"cadnum":"6321882701:00:000:0030"},"geometry":{"type":"Polygon","coordinates":[[[37.870705,49.951999],[37.871261,49.951921],[37.871175,49.951315],[37.870295,49.951327],[37.870705,49.951999]]]}},{"type":"Feature","properties":{"cadnum":"6321882701:00:000:0173"},"geometry":{"type":"Polygon","coordinates":[[[37.87082,49.953103],[37.870994,49.953076],[37.871262,49.952984],[37.87112,49.952702],[37.870978,49.95245],[37.870849,49.952237],[37.870525,49.952324],[37.870541,49.952354],[37.870682,49.952588],[37.870782,49.952763],[37.870743,49.952843],[37.870754,49.952921],[37.87082,49.953103]]]}},{"type":"Feature","properties":{"cadnum":"6321882701:00:000:0026"},"geometry":{"type":"Polygon","coordinates":[[[37.871615,49.95166],[37.871953,49.951618],[37.87185,49.951265],[37.8715,49.951309],[37.871615,49.95166]]]}},{"type":"Feature","properties":{"cadnum":"6321882701:00:000:0031"},"geometry":{"type":"Polygon","coordinates":[[[37.870266,49.952828],[37.87011,49.95245],[37.869978,49.952124],[37.86992118354472,49.95214155063278],[37.869481,49.952276],[37.869511,49.952316],[37.869724,49.952593],[37.869787,49.95267777777779],[37.869787,49.952679],[37.869805,49.952702],[37.869956,49.952914],[37.869959,49.952914],[37.869959,49.95291316774193],[37.870266,49.952828]]]}},{"type":"Feature","properties":{"cadnum":"6321882701:00:000:0160"},"geometry":{"type":"Polygon","coordinates":[[[37.87281,49.952505],[37.873245,49.952393],[37.872935,49.952028],[37.872696,49.95164],[37.872413,49.951688],[37.872516,49.951925],[37.872634,49.952192],[37.87281,49.952505]]]}},{"type":"Feature","properties":{"cadnum":"6321882701:00:000:0028"},"geometry":{"type":"Polygon","coordinates":[[[37.871277,49.952033],[37.871728,49.952003],[37.871615,49.95166],[37.8715,49.951309],[37.871175,49.951315],[37.871261,49.951921],[37.871277,49.952033]]]}},{"type":"Feature","properties":{"cadnum":"6321882701:00:000:0161"},"geometry":{"type":"Polygon","coordinates":[[[37.869959,49.95213],[37.869959,49.952129782608694],[37.869978,49.952124],[37.87011,49.95245],[37.870541,49.952354],[37.870459,49.95221],[37.870144,49.951655],[37.869787,49.951758],[37.869787,49.951758672413796],[37.869727,49.951776],[37.869787,49.95188195121952],[37.869787,49.951883],[37.869932,49.952138],[37.869959,49.95213]]]}},{"type":"Feature","properties":{"cadnum":"6321882701:00:000:0177"},"geometry":{"type":"Polygon","coordinates":[[[37.869958,49.95119],[37.869877,49.951204],[37.869919,49.951275],[37.86991903325943,49.951275],[37.870144,49.951655],[37.870459,49.95221],[37.870525,49.952324],[37.870849,49.952237],[37.870705,49.951999],[37.870295,49.951327],[37.87023,49.951204],[37.869958,49.95119]]]}},{"type":"Feature","properties":{"cadnum":"6321882701:00:000:0027"},"geometry":{"type":"Polygon","coordinates":[[[37.87143,49.952665],[37.871512,49.952654],[37.871946,49.952598],[37.871831,49.952321],[37.871728,49.952003],[37.871277,49.952033],[37.871332,49.952415],[37.87143,49.952665]]]}},{"type":"Feature","properties":{"cadnum":"6321882701:00:000:0023"},"geometry":{"type":"Polygon","coordinates":[[[37.872236,49.952589],[37.87281,49.952505],[37.872634,49.952192],[37.872516,49.951925],[37.872066,49.952003],[37.87214,49.952256],[37.872231,49.952573],[37.872236,49.952589]]]}},{"type":"Feature","properties":{"cadnum":"6321882701:00:000:0033"},"geometry":{"type":"Polygon","coordinates":[[[37.869805,49.952702],[37.869555,49.952831],[37.869766,49.953008],[37.869956,49.952914],[37.869805,49.952702]]]}},{"type":"Feature","properties":{"cadnum":"6321882701:00:000:0184"},"geometry":{"type":"Polygon","coordinates":[[[37.874292,49.95346],[37.874511,49.953276],[37.874181,49.953065],[37.873947,49.952843],[37.873629,49.952984],[37.87388,49.953174],[37.874292,49.95346]]]}},{"type":"Feature","properties":{"cadnum":"6321882701:00:000:0135"},"geometry":{"type":"Polygon","coordinates":[[[37.870646,49.954307],[37.870894,49.954119],[37.87089,49.954117],[37.870836,49.954087],[37.870903,49.95404],[37.870727,49.953943],[37.870621,49.953946],[37.870537,49.953899],[37.870418,49.95399],[37.870505,49.954038],[37.870356,49.954151],[37.870646,49.954307]]]}},{"type":"Feature","properties":{"cadnum":"6321882701:00:000:0157"},"geometry":{"type":"Polygon","coordinates":[[[37.872197,49.953433],[37.872389,49.953297],[37.87228,49.953238],[37.872004,49.953074],[37.871721,49.952906],[37.871525,49.95299],[37.871807,49.953212],[37.872062,49.95336],[37.872197,49.953433]]]}},{"type":"Feature","properties":{"cadnum":"6321882701:00:000:0118"},"geometry":{"type":"Polygon","coordinates":[[[37.872811,49.954689],[37.87298,49.954539],[37.873026,49.9545],[37.872832,49.954407],[37.872563,49.954279],[37.872176,49.954093],[37.872157,49.954109],[37.872133,49.954097],[37.872152,49.954082],[37.872098,49.954055],[37.87189,49.954222],[37.87195,49.954256],[37.87229,49.954433],[37.872586,49.954585],[37.872811,49.954689]]]}},{"type":"Feature","properties":{"cadnum":"6321882701:00:000:0069"},"geometry":{"type":"Polygon","coordinates":[[[37.872007,49.953566],[37.872197,49.953433],[37.872062,49.95336],[37.871807,49.953212],[37.871525,49.95299],[37.871494,49.953003],[37.871319,49.953104],[37.871639,49.953358],[37.87187,49.95349],[37.872007,49.953566]]]}},{"type":"Feature","properties":{"cadnum":"6321882701:00:000:0070"},"geometry":{"type":"Polygon","coordinates":[[[37.872389,49.953297],[37.872608,49.953136],[37.872542,49.953096],[37.872221,49.952929],[37.872062,49.952783],[37.871721,49.952906],[37.872004,49.953074],[37.87228,49.953238],[37.872389,49.953297]]]}},{"type":"Feature","properties":{"cadnum":"6321882701:00:000:0072"},"geometry":{"type":"Polygon","coordinates":[[[37.869484,49.944084],[37.869257,49.943973],[37.869097,49.943888],[37.868765,49.943724],[37.868588,49.943894],[37.868814,49.944008],[37.86872325806452,49.944095],[37.868722,49.944095],[37.868717,49.944101],[37.868826,49.944152],[37.868848,49.944163],[37.868945,49.944206],[37.86894719318182,49.944206],[37.869051,49.944251],[37.869241,49.944348],[37.869388,49.944403],[37.869388,49.944401],[37.86944,49.944272],[37.869581,49.944295],[37.869594,49.944269],[37.869645,49.944114],[37.869484,49.944084]]]}},{"type":"Feature","properties":{"cadnum":"6321882701:00:000:0084"},"geometry":{"type":"Polygon","coordinates":[[[37.869582,49.944102],[37.869701,49.943869],[37.869197,49.943736],[37.868269,49.943278],[37.868126,49.943414],[37.868517,49.943601],[37.868765,49.943724],[37.869097,49.943888],[37.869257,49.943973],[37.869484,49.944084],[37.869582,49.944102]]]}},{"type":"Feature","properties":{"cadnum":"6321882701:00:000:0009"},"geometry":{"type":"Polygon","coordinates":[[[37.868576,49.942847],[37.868682,49.94269],[37.868434,49.94268],[37.868169,49.942637],[37.867432,49.942313],[37.866668,49.941962],[37.866574,49.942053],[37.867549,49.942476],[37.867958,49.942658],[37.86838,49.942784],[37.868576,49.942847]]]}},{"type":"Feature","properties":{"cadnum":"6321882701:00:000:0183"},"geometry":{"type":"Polygon","coordinates":[[[37.869701,49.943869],[37.869712,49.943853],[37.869644,49.94384],[37.869248,49.943729],[37.869052,49.943619],[37.86908,49.943588],[37.868332,49.943218],[37.86699,49.942555],[37.867058,49.942905],[37.867155,49.942952],[37.867301,49.943021],[37.867562,49.943146],[37.868126,49.943414],[37.868269,49.943278],[37.869197,49.943736],[37.869701,49.943869]]]}},{"type":"Feature","properties":{"cadnum":"6321882701:00:000:0039"},"geometry":{"type":"Polygon","coordinates":[[[37.868826,49.944152],[37.868717,49.944101],[37.868814,49.944008],[37.867249,49.943218],[37.867031,49.943404],[37.867198,49.943516],[37.867116,49.943662],[37.867139,49.943699],[37.868111,49.944206],[37.868112408668736,49.944206],[37.86852,49.944418],[37.868763879699245,49.944206],[37.868764,49.944206],[37.868826,49.944152]]]}},{"type":"Feature","properties":{"cadnum":"6321882701:00:000:0083"},"geometry":{"type":"Polygon","coordinates":[[[37.868588,49.943894],[37.868765,49.943724],[37.868517,49.943601],[37.867562,49.943146],[37.867301,49.943021],[37.866947,49.942851],[37.866976,49.943073],[37.867066,49.943121],[37.867249,49.943218],[37.867314,49.943252],[37.868588,49.943894]]]}},{"type":"Feature","properties":{"cadnum":"6321882701:00:000:0142"},"geometry":{"type":"Polygon","coordinates":[[[37.876722,49.952869],[37.877205,49.952651],[37.877116,49.952576],[37.877186,49.952476],[37.876955,49.952231],[37.876306,49.952513],[37.876722,49.952869]]]}},{"type":"Feature","properties":{"cadnum":"6321882701:00:000:0158"},"geometry":{"type":"Polygon","coordinates":[[[37.877709,49.952755],[37.878038,49.952493],[37.878529,49.95226],[37.878452,49.952093],[37.878428,49.951891],[37.878022,49.95197],[37.877509,49.952084],[37.877524,49.952195],[37.877338,49.952311],[37.877383,49.952349],[37.877186,49.952476],[37.877343,49.952504],[37.877709,49.952755]]]}},{"type":"Feature","properties":{"cadnum":"6321882701:00:000:0143"},"geometry":{"type":"Polygon","coordinates":[[[37.876634,49.953357],[37.877709,49.952755],[37.877343,49.952504],[37.877186,49.952476],[37.877116,49.952576],[37.877205,49.952651],[37.876722,49.952869],[37.876306,49.952513],[37.875893,49.952717],[37.876056,49.952957],[37.876634,49.953357]]]}},{"type":"Feature","properties":{"cadnum":"6321882701:00:000:0178"},"geometry":{"type":"Polygon","coordinates":[[[37.865788,49.953295],[37.866036,49.953283],[37.86585,49.952664],[37.865598,49.952641],[37.864881,49.952739],[37.864923,49.952861],[37.865274,49.952818],[37.865437,49.953247],[37.865788,49.953295]]]}},{"type":"Feature","properties":{"cadnum":"6321882701:00:000:0130"},"geometry":{"type":"Polygon","coordinates":[[[37.868559,49.95453],[37.868607,49.954513],[37.868747,49.954446],[37.868712,49.954426],[37.868409,49.954196],[37.86802,49.954],[37.867789,49.953727],[37.867745,49.953321],[37.867675,49.953334],[37.86762,49.953645],[37.867546,49.953721],[37.868215,49.954355],[37.868335,49.9543],[37.868364,49.954328],[37.868559,49.95453]]]}},{"type":"Feature","properties":{"cadnum":"6321882701:00:000:0128"},"geometry":{"type":"Polygon","coordinates":[[[37.868183,49.954671],[37.86835,49.954608],[37.868376,49.9546],[37.868559,49.95453],[37.868364,49.954328],[37.868335,49.9543],[37.868215,49.954355],[37.867546,49.953721],[37.867407,49.953865],[37.867967,49.954468],[37.868183,49.954671]]]}},{"type":"Feature","properties":{"cadnum":"6321882701:00:000:0085"},"geometry":{"type":"Polygon","coordinates":[[[37.864711,49.952209],[37.8649,49.952192],[37.865088,49.952162],[37.865366,49.951992],[37.865122,49.951794],[37.865214,49.951732],[37.864951,49.951605],[37.864757,49.95181],[37.864509,49.952059],[37.864484,49.952078],[37.864711,49.952209]]]}},{"type":"Feature","properties":{"cadnum":"6321882701:00:000:0165"},"geometry":{"type":"Polygon","coordinates":[[[37.865583,49.953613],[37.865508,49.953462],[37.865426,49.953261],[37.865264,49.952832],[37.864912,49.952875],[37.865068,49.953337],[37.864884,49.953419],[37.86508,49.953538],[37.865206,49.953593],[37.865583,49.953613]]]}},{"type":"Feature","properties":{"cadnum":"6321882701:00:000:0035"},"geometry":{"type":"Polygon","coordinates":[[[37.86906,49.953667],[37.86926,49.953551],[37.869345,49.953504],[37.869437,49.953444],[37.869295,49.953362],[37.869272,49.953375],[37.869213,49.953344],[37.869197,49.953354],[37.868839,49.95356],[37.86906,49.953667]]]}},{"type":"Feature","properties":{"cadnum":"6321882701:00:000:0034"},"geometry":{"type":"Polygon","coordinates":[[[37.869181,49.95329],[37.869351,49.953219],[37.869343,49.953208],[37.869563,49.953107],[37.869133,49.952723],[37.868721,49.952979],[37.868885,49.953097],[37.869181,49.95329]]]}},{"type":"Feature","properties":{"cadnum":"6321882701:00:000:0032"},"geometry":{"type":"Polygon","coordinates":[[[37.869577,49.95311],[37.869766,49.953008],[37.869555,49.952831],[37.869805,49.952702],[37.869724,49.952593],[37.869511,49.952316],[37.868993,49.9526],[37.869133,49.952723],[37.869563,49.953107],[37.86957,49.953102],[37.869577,49.95311]]]}},{"type":"Feature","properties":{"cadnum":"6321882701:00:000:0121"},"geometry":{"type":"Polygon","coordinates":[[[37.861553,49.950392],[37.862057,49.95031],[37.863952,49.949144],[37.863645,49.949057],[37.863589,49.949005],[37.862615,49.948824],[37.862226,49.948752],[37.862097,49.948742],[37.861944,49.948791],[37.861829,49.948841],[37.861629,49.948949],[37.861163,49.949357],[37.862357,49.949767],[37.86204,49.950085],[37.860855,49.94973],[37.860484,49.95004],[37.861553,49.950392]]]}},{"type":"Feature","properties":{"cadnum":"6321882701:00:000:0164"},"geometry":{"type":"Polygon","coordinates":[[[37.881602,49.951083],[37.881651,49.951078],[37.882158,49.951055],[37.881986,49.950668],[37.881881,49.950503],[37.881875,49.950494],[37.881271,49.950601],[37.881294,49.950635],[37.881353,49.950618],[37.881602,49.951083]]]}},{"type":"Feature","properties":{"cadnum":"6321882701:00:000:0097"},"geometry":{"type":"Polygon","coordinates":[[[37.872704,49.939575],[37.873971,49.938229],[37.873638,49.938053],[37.87353,49.938023],[37.872986,49.938092],[37.872398,49.938223],[37.871685,49.938501],[37.871032,49.93872],[37.872704,49.939575]]]}},{"type":"Feature","properties":{"cadnum":"6321882701:00:000:0134"},"geometry":{"type":"Polygon","coordinates":[[[37.872054,49.940146],[37.872182,49.939974],[37.872361,49.939735],[37.870601,49.938957],[37.870462,49.939043],[37.870409,49.939095],[37.870192,49.939313],[37.870127,49.939409],[37.870094,49.939453],[37.870521,49.939604],[37.872054,49.940146]],[[37.870483,49.939372],[37.870456,49.939359],[37.870477,49.939342],[37.870503,49.939355],[37.870483,49.939372]]]}},{"type":"Feature","properties":{"cadnum":"6321882701:00:000:0037"},"geometry":{"type":"Polygon","coordinates":[[[37.872996,49.937681],[37.873415,49.93752],[37.87298,49.937207],[37.872637,49.937375],[37.872996,49.937681]]]}},{"type":"Feature","properties":{"cadnum":"6321882701:00:000:0036"},"geometry":{"type":"Polygon","coordinates":[[[37.873125,49.937135],[37.873126526315794,49.937135],[37.87298,49.937207],[37.873415,49.93752],[37.873584,49.937607],[37.873667,49.937651],[37.873725,49.937681],[37.873798,49.937632],[37.873934,49.937691],[37.874111,49.937574],[37.873328,49.937036],[37.873125,49.937135]]]}},{"type":"Feature","properties":{"cadnum":"6321882701:00:000:0140"},"geometry":{"type":"Polygon","coordinates":[[[37.872361,49.939735],[37.872577,49.93951],[37.871032,49.93872],[37.870601,49.938957],[37.872361,49.939735]]]}},{"type":"Feature","properties":{"cadnum":"6321882701:00:000:0010"},"geometry":{"type":"Polygon","coordinates":[[[37.868237,49.94757],[37.868261,49.947539],[37.868316,49.947457],[37.868327,49.947459],[37.868372,49.947376],[37.868346,49.947372],[37.868429,49.947203],[37.868154,49.947095],[37.867798,49.94694],[37.867518,49.947255],[37.867525,49.947258],[37.86805,49.947523],[37.868237,49.94757]]]}},{"type":"Feature","properties":{"cadnum":"6321882701:00:000:0013"},"geometry":{"type":"Polygon","coordinates":[[[37.867263,49.94751],[37.867525,49.947258],[37.867518,49.947255],[37.866367,49.946675],[37.866143,49.946917],[37.867263,49.94751]]]}},{"type":"Feature","properties":{"cadnum":"6321882701:00:000:0086"},"geometry":{"type":"Polygon","coordinates":[[[37.868579,49.94695],[37.868603,49.946914],[37.868624,49.946881],[37.868674,49.946893],[37.868756,49.946764],[37.86824,49.946638],[37.867299,49.946242],[37.867198,49.946405],[37.867977,49.946751],[37.868265,49.946865],[37.868579,49.94695]]]}},{"type":"Feature","properties":{"cadnum":"6321882701:00:000:0094"},"geometry":{"type":"Polygon","coordinates":[[[37.868781,49.946728],[37.868878,49.946545],[37.868858,49.946542],[37.868771,49.946523],[37.868506,49.946447],[37.867876,49.946218],[37.867754,49.946165],[37.86754,49.94607],[37.867384,49.946241],[37.868266,49.946609],[37.868781,49.946728]]]}},{"type":"Feature","properties":{"cadnum":"6321882701:00:000:0107"},"geometry":{"type":"Polygon","coordinates":[[[37.867198,49.946405],[37.867299,49.946242],[37.866012,49.945698],[37.865901,49.945831],[37.867198,49.946405]]]}},{"type":"Feature","properties":{"cadnum":"6321882701:00:000:0095"},"geometry":{"type":"Polygon","coordinates":[[[37.868858,49.946542],[37.868861,49.946537],[37.868879,49.946501],[37.868898,49.946496],[37.868909,49.946474],[37.868976,49.946321],[37.868714,49.94625],[37.868464,49.946151],[37.868021,49.945917],[37.868001,49.945907],[37.867754,49.946165],[37.867876,49.946218],[37.868506,49.946447],[37.868771,49.946523],[37.868858,49.946542]]]}},{"type":"Feature","properties":{"cadnum":"6321882701:00:000:0105"},"geometry":{"type":"Polygon","coordinates":[[[37.867754,49.946165],[37.868001,49.945907],[37.866437,49.94523],[37.866276,49.945161],[37.866096,49.945433],[37.866143,49.945454],[37.86754,49.94607],[37.867754,49.946165]]]}},{"type":"Feature","properties":{"cadnum":"6321882701:00:000:0096"},"geometry":{"type":"Polygon","coordinates":[[[37.867384,49.946241],[37.86754,49.94607],[37.866143,49.945454],[37.865936,49.945636],[37.867384,49.946241]]]}},{"type":"Feature","properties":{"cadnum":"6321882701:00:000:0187"},"geometry":{"type":"Polygon","coordinates":[[[37.868303,49.946066],[37.868606,49.94575],[37.868473,49.945712],[37.868199,49.945587],[37.866468,49.94487],[37.866276,49.945161],[37.866437,49.94523],[37.868001,49.945907],[37.868021,49.945917],[37.868303,49.946066]]]}},{"type":"Feature","properties":{"cadnum":"6321882701:00:000:0011"},"geometry":{"type":"Polygon","coordinates":[[[37.867518,49.947255],[37.867798,49.94694],[37.866518,49.94638],[37.866367,49.946675],[37.867518,49.947255]]]}},{"type":"Feature","properties":{"cadnum":"6321882701:00:000:0038"},"geometry":{"type":"Polygon","coordinates":[[[37.869428,49.944724],[37.869432,49.944719],[37.869445,49.944675],[37.869488,49.944527],[37.869491,49.94452],[37.8695,49.944491],[37.869506,49.94449],[37.869518,49.944453],[37.869241,49.944348],[37.869051,49.944251],[37.868848,49.944163],[37.868826,49.944152],[37.86852,49.944418],[37.868847,49.944605],[37.869066,49.944676],[37.869428,49.944724]]]}},{"type":"Feature","properties":{"cadnum":"6321882701:00:000:0154"},"geometry":{"type":"Polygon","coordinates":[[[37.869327,49.94505],[37.869369,49.944918],[37.869417,49.944757],[37.869428,49.944724],[37.869066,49.944676],[37.868847,49.944605],[37.868716,49.94453],[37.868387,49.944836],[37.868599,49.944922],[37.868949,49.945017],[37.86918,49.945037],[37.869327,49.94505]]]}},{"type":"Feature","properties":{"cadnum":"6321882701:00:000:0155"},"geometry":{"type":"Polygon","coordinates":[[[37.874017,49.950836],[37.873957,49.950545],[37.873908,49.950303],[37.873899,49.950259],[37.873356,49.950207],[37.873342,49.950255],[37.873332,49.950294],[37.873498,49.950785],[37.874017,49.950836]]]}},{"type":"Feature","properties":{"cadnum":"6321882701:00:000:0167"},"geometry":{"type":"Polygon","coordinates":[[[37.874024,49.950885],[37.874017,49.950836],[37.873498,49.950785],[37.873332,49.950294],[37.873342,49.950255],[37.873356,49.950207],[37.873899,49.950259],[37.873827,49.94988],[37.873338,49.949891],[37.873184,49.950237],[37.872848,49.950193],[37.872676,49.950706],[37.872661,49.950806],[37.87292,49.950809],[37.873151,49.950838],[37.873293,49.95084],[37.874024,49.950885]]]}},{"type":"Feature","properties":{"cadnum":"6321882701:00:000:0020"},"geometry":{"type":"Polygon","coordinates":[[[37.870043,49.949423],[37.870828,49.949414],[37.870848,49.949285],[37.870835,49.949077],[37.870108,49.949086],[37.870122,49.949192],[37.870025,49.949196],[37.870027,49.94929],[37.870043,49.949423]]]}},{"type":"Feature","properties":{"cadnum":"6321882701:00:000:0078"},"geometry":{"type":"Polygon","coordinates":[[[37.87019,49.950773],[37.871374,49.950762],[37.871359,49.950021],[37.871407,49.949095],[37.870835,49.949077],[37.870848,49.949285],[37.870828,49.949414],[37.870043,49.949423],[37.870068,49.949502],[37.870084,49.950072],[37.87019,49.950773]]]}},{"type":"Feature","properties":{"cadnum":"6321882701:00:000:0152"},"geometry":{"type":"Polygon","coordinates":[[[37.871708,49.950501],[37.871906,49.949502],[37.871796,49.949478],[37.871647,49.949432],[37.871388,49.949459],[37.871359,49.950021],[37.871368,49.950486],[37.871708,49.950501]]]}},{"type":"Feature","properties":{"cadnum":"6321882701:00:000:0102"},"geometry":{"type":"Polygon","coordinates":[[[37.872333,49.950225],[37.872435,49.949862],[37.872473,49.949747],[37.872593,49.949484],[37.872684,49.949278],[37.872654,49.949275],[37.872581,49.949267],[37.872573,49.94928],[37.872516,49.949272],[37.872333,49.949247],[37.872298,49.949333],[37.87222,49.949542],[37.872165,49.949666],[37.872032,49.950174],[37.872333,49.950225]]]}},{"type":"Feature","properties":{"cadnum":"6321882701:00:000:0077"},"geometry":{"type":"Polygon","coordinates":[[[37.870025,49.949196],[37.870122,49.949192],[37.870108,49.949086],[37.870017,49.949086],[37.870022,49.949152],[37.870025,49.949196]]]}},{"type":"Feature","properties":{"cadnum":"6321882701:00:000:0100"},"geometry":{"type":"Polygon","coordinates":[[[37.8743,49.958309],[37.874098,49.958226],[37.873727,49.958064],[37.87355317142857,49.958233],[37.873553,49.958233],[37.873341,49.958439],[37.873615,49.958531],[37.873709,49.958397],[37.87412,49.958536],[37.874371,49.958616],[37.874564,49.958429],[37.874512,49.958389],[37.874385,49.958343],[37.8743,49.958309]]]}},{"type":"Feature","properties":{"cadnum":"6321882701:00:000:0171"},"geometry":{"type":"Polygon","coordinates":[[[37.873727,49.958064],[37.873151,49.957716],[37.873002,49.957511],[37.872814,49.957711],[37.872337,49.958162],[37.87233387912088,49.958233],[37.872333,49.958233],[37.872317,49.958632],[37.872245,49.958756],[37.873312,49.958903],[37.873469,49.958694],[37.873615,49.958531],[37.873341,49.958439],[37.8734387669903,49.958344],[37.873439,49.958344],[37.873727,49.958064]]]}},{"type":"Feature","properties":{"cadnum":"6321882701:00:000:0093"},"geometry":{"type":"Polygon","coordinates":[[[37.871319,49.958137],[37.871195748387095,49.958233],[37.871195,49.958233],[37.87112,49.958292],[37.871087,49.958344],[37.87108731428572,49.958344],[37.870988,49.958502],[37.87093,49.958627],[37.871006,49.958641],[37.871378,49.958693],[37.87141,49.958669],[37.871545,49.958556],[37.871685,49.958567],[37.871918,49.958348],[37.871591,49.958233],[37.871590768115944,49.958233],[37.871319,49.958137]]]}},{"type":"Feature","properties":{"cadnum":"6321882701:00:000:0092"},"geometry":{"type":"Polygon","coordinates":[[[37.871186,49.95824],[37.870703,49.957975],[37.870451,49.958212],[37.870430477272734,49.958233],[37.87043,49.958233],[37.87038649999974,49.95827800000026],[37.870322,49.958344],[37.8703227,49.958344],[37.870285,49.958383],[37.870379,49.958424],[37.870703,49.958565],[37.87075,49.95859],[37.870792,49.958606],[37.87093,49.958627],[37.870988,49.958502],[37.87112,49.958292],[37.871186,49.95824]]]}},{"type":"Feature","properties":{"cadnum":"6321882701:00:000:0116"},"geometry":{"type":"Polygon","coordinates":[[[37.872197,49.958091],[37.871001,49.957641],[37.870703,49.957975],[37.87117324150943,49.958233],[37.871173,49.958233],[37.871186,49.95824],[37.871319,49.958137],[37.871905,49.958344],[37.87190662608695,49.958344],[37.871918,49.958348],[37.87196113043549,49.95830799999935],[37.872197,49.958091]]]}},{"type":"Feature","properties":{"cadnum":"6321882701:00:000:0017"},"geometry":{"type":"Polygon","coordinates":[[[37.874835,49.958089],[37.874941,49.957951],[37.875034,49.957841],[37.874193,49.957521],[37.874102,49.957483],[37.87384,49.957682],[37.874285,49.957889],[37.874418,49.957937],[37.874748,49.958057],[37.874835,49.958089]]]}},{"type":"Feature","properties":{"cadnum":"6321882701:00:000:0061"},"geometry":{"type":"Polygon","coordinates":[[[37.873566,49.95613],[37.873929,49.955885],[37.873322,49.955503],[37.873494,49.955404],[37.873226,49.955234],[37.872728,49.955575],[37.872955,49.955707],[37.873566,49.95613]]]}},{"type":"Feature","properties":{"cadnum":"6321882701:00:000:0115"},"geometry":{"type":"Polygon","coordinates":[[[37.873908,49.956707],[37.874158,49.956528],[37.874203,49.956494],[37.874297,49.956432],[37.874528,49.956269],[37.87408,49.955986],[37.873828,49.956161],[37.87395,49.956229],[37.873643,49.956426],[37.873717,49.956472],[37.873612,49.956532],[37.873908,49.956707]]]}},{"type":"Feature","properties":{"cadnum":"6321882701:00:000:0125"},"geometry":{"type":"Polygon","coordinates":[[[37.875382,49.957369],[37.875452,49.957288],[37.875452,49.957287333333326],[37.87549,49.957243],[37.875522,49.957206],[37.875534,49.95719],[37.875551,49.957196],[37.87559,49.957148],[37.875606,49.957129],[37.875592,49.957123],[37.87539372661992,49.95704483453286],[37.875047,49.956907],[37.874702,49.957319],[37.875207,49.95757],[37.875213,49.957573],[37.875382,49.957369]]]}},{"type":"Feature","properties":{"cadnum":"6321882701:00:000:0139"},"geometry":{"type":"Polygon","coordinates":[[[37.875452,49.95706780769231],[37.875592,49.957123],[37.875606,49.957129],[37.875669,49.957137],[37.875852,49.956913],[37.875853,49.956784],[37.87579,49.956692],[37.875644,49.956566],[37.875467,49.95647],[37.875356783333615,49.95643286818191],[37.874814,49.956244],[37.874614,49.956309],[37.874256,49.956594],[37.875047,49.956907],[37.87528,49.956999624691356],[37.87528,49.957],[37.87539372661992,49.95704483453286],[37.875452,49.957068],[37.875452,49.95706780769231]]]}},{"type":"Feature","properties":{"cadnum":"6321882701:00:000:0127"},"geometry":{"type":"Polygon","coordinates":[[[37.875034,49.957841],[37.875213,49.957573],[37.874702,49.957319],[37.873857,49.956898],[37.873424,49.957198],[37.874102,49.957483],[37.874193,49.957521],[37.875034,49.957841]]]}},{"type":"Feature","properties":{"cadnum":"6321882701:00:000:0156"},"geometry":{"type":"Polygon","coordinates":[[[37.874702,49.957319],[37.875047,49.956907],[37.874256,49.956594],[37.873857,49.956898],[37.874702,49.957319]]]}},{"type":"Feature","properties":{"cadnum":"6321882701:00:000:0117"},"geometry":{"type":"Polygon","coordinates":[[[37.873737,49.95683],[37.873908,49.956707],[37.873612,49.956532],[37.873717,49.956472],[37.873643,49.956426],[37.87395,49.956229],[37.873828,49.956161],[37.87408,49.955986],[37.873929,49.955885],[37.873566,49.95613],[37.873546,49.956115],[37.873258,49.956304],[37.872912,49.956078],[37.872704,49.956202],[37.872716,49.956209],[37.87357,49.956729],[37.873737,49.95683]]]}},{"type":"Feature","properties":{"cadnum":"6321882701:00:000:0064"},"geometry":{"type":"Polygon","coordinates":[[[37.871945,49.956326],[37.872366,49.956048],[37.8718,49.955714],[37.871757,49.95569],[37.871355,49.955957],[37.871464,49.956025],[37.871945,49.956326]]]}},{"type":"Feature","properties":{"cadnum":"6321882701:00:000:0111"},"geometry":{"type":"Polygon","coordinates":[[[37.871053,49.955426],[37.871283,49.95525],[37.871364,49.955187],[37.871256,49.955129],[37.871198,49.955173],[37.870945,49.955367],[37.871053,49.955426]]]}},{"type":"Feature","properties":{"cadnum":"6321882701:00:000:0063"},"geometry":{"type":"Polygon","coordinates":[[[37.87308,49.957358],[37.873322,49.957206],[37.873831,49.956887],[37.87357,49.956729],[37.872716,49.956209],[37.872677,49.956231],[37.872366,49.956048],[37.871945,49.956326],[37.871677,49.956549],[37.872098,49.956812],[37.87308,49.957358]]]}},{"type":"Feature","properties":{"cadnum":"6321882701:00:000:0062"},"geometry":{"type":"Polygon","coordinates":[[[37.872728,49.955575],[37.873226,49.955234],[37.873062,49.95513],[37.872834,49.955],[37.872724,49.95494],[37.872243,49.955316],[37.872319,49.955356],[37.872587,49.955494],[37.872728,49.955575]]]}},{"type":"Feature","properties":{"cadnum":"6321882701:00:000:0018"},"geometry":{"type":"Polygon","coordinates":[[[37.875968,49.957765],[37.875838,49.957745],[37.875478,49.957658],[37.875452,49.95769242045454],[37.875452,49.957692],[37.875302,49.957891],[37.87528,49.957927],[37.87528,49.95792725925926],[37.875248,49.95798],[37.87528,49.957994],[37.87515,49.958213],[37.87528,49.95823438157895],[37.87528,49.958235],[37.875302,49.958238],[37.875452,49.958252],[37.875452,49.95825120293399],[37.875711,49.958274],[37.875968,49.957765]]]}},{"type":"Feature","properties":{"cadnum":"6321882701:00:000:0004"},"geometry":{"type":"Polygon","coordinates":[[[37.874843,49.959916],[37.874914,49.959621],[37.875093,49.959225],[37.874751,49.959192],[37.874721,49.959224],[37.874456,49.959516],[37.874363,49.959839],[37.874843,49.959916]]]}},{"type":"Feature","properties":{"cadnum":"6321882701:00:000:0146"},"geometry":{"type":"Polygon","coordinates":[[[37.872511,49.960159],[37.872532,49.959953],[37.872908,49.959956],[37.873167,49.959565],[37.872571,49.95944],[37.87233,49.959824],[37.872209,49.960075],[37.872511,49.960159]]]}},{"type":"Feature","properties":{"cadnum":"6321882701:00:000:0126"},"geometry":{"type":"Polygon","coordinates":[[[37.872031,49.960199],[37.872341,49.959753],[37.872571,49.95944],[37.872935,49.958948],[37.872514,49.958902],[37.872325,49.959128],[37.871816,49.959699],[37.871525,49.959589],[37.871236,49.959881],[37.871119,49.96002],[37.872031,49.960199]]]}},{"type":"Feature","properties":{"cadnum":"6321882701:00:000:0114"},"geometry":{"type":"Polygon","coordinates":[[[37.871816,49.959699],[37.872325,49.959128],[37.872514,49.958902],[37.872076,49.958855],[37.871988,49.95901],[37.871665,49.95945],[37.871525,49.959589],[37.871816,49.959699]]]}},{"type":"Feature","properties":{"cadnum":"6321882701:00:000:0181"},"geometry":{"type":"Polygon","coordinates":[[[37.873654,49.960182],[37.873798,49.959866],[37.873935,49.959523],[37.874063,49.959328],[37.873841,49.959256],[37.87375,49.959454],[37.873662,49.959352],[37.873667,49.959252],[37.873773,49.959066],[37.873426,49.95903],[37.873328,49.959233],[37.873167,49.959565],[37.872908,49.959956],[37.872971,49.960164],[37.873404,49.960111],[37.873654,49.960182]]]}},{"type":"Feature","properties":{"cadnum":"6321882701:00:000:0119"},"geometry":{"type":"Polygon","coordinates":[[[37.873167,49.959565],[37.873328,49.959233],[37.873426,49.95903],[37.873175,49.958981],[37.873076,49.958964],[37.872935,49.958948],[37.872571,49.95944],[37.873167,49.959565]]]}},{"type":"Feature","properties":{"cadnum":"6321882701:00:000:0088"},"geometry":{"type":"Polygon","coordinates":[[[37.870729,49.959305],[37.870981,49.959046],[37.87126,49.95876],[37.870886,49.958697],[37.870829,49.958694],[37.870746,49.958723],[37.870647,49.958683],[37.87049,49.958879],[37.87033,49.959157],[37.870729,49.959305]]]}},{"type":"Feature","properties":{"cadnum":"6321882701:00:000:0005"},"geometry":{"type":"Polygon","coordinates":[[[37.874791,49.960131],[37.874843,49.959916],[37.874363,49.959839],[37.874299,49.960062],[37.874791,49.960131]]]}},{"type":"Feature","properties":{"cadnum":"6321882701:00:000:0129"},"geometry":{"type":"Polygon","coordinates":[[[37.873719,49.958954],[37.873733,49.958929],[37.873788,49.958803],[37.874092,49.958894],[37.874301,49.958687],[37.874335,49.958654],[37.874371,49.958616],[37.87412,49.958536],[37.873709,49.958397],[37.873615,49.958531],[37.873469,49.958694],[37.873312,49.958903],[37.873719,49.958954]]]}},{"type":"Feature","properties":{"cadnum":"6321882701:00:000:0132"},"geometry":{"type":"Polygon","coordinates":[[[37.879982,49.963551],[37.88006,49.963499],[37.880641,49.963113],[37.87929,49.962364],[37.878908,49.962634],[37.87847,49.962098],[37.878416,49.962236],[37.878299,49.962382],[37.878157,49.962503],[37.877964,49.962626],[37.877822,49.962696],[37.877488,49.96281],[37.877206,49.962884],[37.876951,49.962935],[37.876917,49.963036],[37.8769,49.963084],[37.878392,49.96331],[37.879982,49.963551]]]}},{"type":"Feature","properties":{"cadnum":"6321882701:00:000:0113"},"geometry":{"type":"Polygon","coordinates":[[[37.87837,49.957044],[37.87853,49.956538],[37.877383,49.956027],[37.875997,49.955408],[37.87582,49.955568],[37.876373,49.955788],[37.876455,49.955702],[37.876668,49.955789],[37.876294,49.956115],[37.877468,49.95664],[37.87837,49.957044]]]}},{"type":"Feature","properties":{"cadnum":"6321882701:00:000:0112"},"geometry":{"type":"Polygon","coordinates":[[[37.87853,49.956538],[37.878543,49.956496],[37.878702,49.956186],[37.878695,49.956065],[37.878522,49.95592],[37.878074,49.955698],[37.877835,49.95559],[37.876583,49.955027],[37.876195,49.955273],[37.875997,49.955408],[37.87853,49.956538]]]}},{"type":"Feature","properties":{"cadnum":"6321882701:00:000:0170"},"geometry":{"type":"Polygon","coordinates":[[[37.877745,49.958015],[37.87789,49.957503],[37.877985,49.95739],[37.877145,49.9571],[37.877166,49.95692],[37.876568,49.956657],[37.876542,49.956684],[37.876569,49.956927],[37.876591,49.957093],[37.87701,49.95723],[37.876656,49.95772],[37.876945,49.957815],[37.876927,49.957913],[37.876998,49.957927],[37.877745,49.958015]]]}},{"type":"Feature","properties":{"cadnum":"6321882701:00:000:0104"},"geometry":{"type":"Polygon","coordinates":[[[37.876927,49.957913],[37.876945,49.957815],[37.876119,49.957541],[37.875675,49.95741],[37.875487,49.95766],[37.875838,49.957745],[37.875968,49.957765],[37.876927,49.957913]]]}},{"type":"Feature","properties":{"cadnum":"6321882701:00:000:0144"},"geometry":{"type":"Polygon","coordinates":[[[37.877166,49.95692],[37.877495,49.956653],[37.877468,49.95664],[37.876294,49.956115],[37.87583,49.956439],[37.876349,49.956561],[37.877166,49.95692]]]}}]}