{"type":"FeatureCollection","features":[{"type":"Feature","properties":{"cadnum":"6321084505:01:001:0262"},"geometry":{"type":"Polygon","coordinates":[[[37.857542,49.335323],[37.857949,49.335294],[37.858157,49.335165],[37.85818,49.334607],[37.857491,49.334508],[37.857562,49.33476],[37.857551,49.335141],[37.857542,49.335323]]]}},{"type":"Feature","properties":{"cadnum":"6321084505:01:001:0251"},"geometry":{"type":"Polygon","coordinates":[[[37.857536,49.335417],[37.857551,49.335141],[37.857562,49.33476],[37.857406,49.33421],[37.855525,49.334237],[37.85551,49.335391],[37.855928,49.335417],[37.856824,49.335414],[37.857536,49.335417]]]}},{"type":"Feature","properties":{"cadnum":"6321084505:01:001:0252"},"geometry":{"type":"Polygon","coordinates":[[[37.853285,49.334269],[37.853273,49.335255],[37.853308,49.335256868932035],[37.853308,49.335258],[37.853682,49.335277],[37.854594,49.335328],[37.855238,49.335375],[37.85551,49.335391],[37.855525,49.334237],[37.85336548703517,49.33426817023675],[37.853285,49.334269]]]}},{"type":"Feature","properties":{"cadnum":"6321084505:01:001:0002"},"geometry":{"type":"Polygon","coordinates":[[[37.857289,49.335907],[37.857288,49.335918],[37.857288555090655,49.335918],[37.85726,49.336624],[37.857284,49.336726],[37.858035,49.336656],[37.858038,49.336533],[37.858049,49.335846],[37.857289,49.335907]]]}},{"type":"Feature","properties":{"cadnum":"6321084505:01:001:3636"},"geometry":{"type":"Polygon","coordinates":[[[37.862117,49.335595],[37.86213,49.335209],[37.86171,49.335194],[37.861692,49.335564],[37.86167969491525,49.335806],[37.861679,49.335806],[37.861672,49.335962],[37.862105,49.335976],[37.862111,49.335806],[37.86211046749226,49.335806],[37.862117,49.335595]]]}},{"type":"Feature","properties":{"cadnum":"6321084505:01:001:0264"},"geometry":{"type":"Polygon","coordinates":[[[37.862083,49.336679],[37.862092,49.336394],[37.862105,49.335976],[37.861672,49.335962],[37.861652,49.33635],[37.861637,49.336664],[37.862083,49.336679]]]}},{"type":"Feature","properties":{"cadnum":"6321084505:01:001:0263"},"geometry":{"type":"Polygon","coordinates":[[[37.861167,49.335225],[37.861176,49.334462],[37.859387,49.334451],[37.859378,49.335209],[37.861167,49.335225]]]}},{"type":"Feature","properties":{"cadnum":"6321084505:01:001:0260"},"geometry":{"type":"Polygon","coordinates":[[[37.8369183773586,49.33912409433958],[37.837,49.339093],[37.837,49.33909256993737],[37.837307,49.338974],[37.83774,49.338758],[37.837559,49.337532],[37.836828,49.338],[37.836828,49.338001063001855],[37.835381,49.338927],[37.835746,49.339359],[37.836307,49.339324],[37.836769,49.339181],[37.836828,49.33915852380952],[37.836828,49.339159],[37.8369183773586,49.33912409433958]]]}},{"type":"Feature","properties":{"cadnum":"6321084505:01:001:0253"},"geometry":{"type":"Polygon","coordinates":[[[37.853273,49.335255],[37.853285,49.334269],[37.850737,49.334306],[37.850683,49.334531],[37.850522,49.334853],[37.85044,49.335074],[37.85084,49.335118],[37.851406,49.335153],[37.851842,49.335167],[37.852197,49.335197],[37.853273,49.335255]]]}},{"type":"Feature","properties":{"cadnum":"6321084505:01:001:0255"},"geometry":{"type":"Polygon","coordinates":[[[37.83774,49.338758],[37.838165,49.338695],[37.838688,49.338616],[37.8395,49.338495],[37.839348,49.337468],[37.83932,49.337275],[37.838957,49.337318],[37.837673,49.337474],[37.837559,49.337532],[37.83774,49.338758]],[[37.839092,49.337608],[37.839061,49.337601],[37.839072,49.337582],[37.839101,49.337588],[37.839092,49.337608]],[[37.838667,49.338269],[37.838637,49.338261],[37.838649,49.338241],[37.83868,49.338249],[37.838667,49.338269]]]}},{"type":"Feature","properties":{"cadnum":"6321084505:01:001:0256"},"geometry":{"type":"Polygon","coordinates":[[[37.842321,49.335766],[37.842321,49.3357660681606],[37.84208471823207,49.335806],[37.842084,49.335806],[37.841081,49.335975],[37.84108,49.335975],[37.841236,49.337042],[37.842321,49.336911661893396],[37.842321,49.336912],[37.84298,49.336832],[37.843161,49.336809],[37.84302863808575,49.335918],[37.843029,49.335918],[37.842991,49.335653],[37.842321,49.335766]]]}},{"type":"Feature","properties":{"cadnum":"6321084505:01:001:0259"},"geometry":{"type":"Polygon","coordinates":[[[37.842949,49.337978],[37.843145,49.33795],[37.84298,49.336832],[37.842493,49.3368911198786],[37.842493,49.336891],[37.841236,49.337042],[37.841109,49.337058],[37.841282,49.338227],[37.842321,49.3380717076796],[37.842321,49.338072],[37.842949,49.337978]]]}},{"type":"Feature","properties":{"cadnum":"6321084505:01:001:0254"},"geometry":{"type":"Polygon","coordinates":[[[37.8395,49.338495],[37.841282,49.338227],[37.841109,49.337058],[37.83947,49.337256],[37.83932,49.337275],[37.839348,49.337468],[37.8395,49.338495]]]}},{"type":"Feature","properties":{"cadnum":"6321084505:01:001:0261"},"geometry":{"type":"Polygon","coordinates":[[[37.837673,49.337474],[37.838957,49.337318],[37.83932,49.337275],[37.83947,49.337256],[37.841109,49.337058],[37.841236,49.337042],[37.84108,49.335975],[37.840539,49.336124],[37.839996,49.336344],[37.839575,49.336514],[37.839366,49.33662],[37.837673,49.337474]],[[37.839472,49.336868],[37.839441,49.336861],[37.839451,49.33684],[37.839482,49.336847],[37.839472,49.336868]]]}},{"type":"Feature","properties":{"cadnum":"6321084505:01:001:0257"},"geometry":{"type":"Polygon","coordinates":[[[37.844774,49.335352],[37.842991,49.335653],[37.84301293962264,49.335806],[37.843012,49.335806],[37.843161,49.336809],[37.844938,49.336594],[37.84484792385787,49.335918],[37.844848,49.335918],[37.844774,49.335352]]]}},{"type":"Feature","properties":{"cadnum":"6321084505:01:001:0001"},"geometry":{"type":"Polygon","coordinates":[[[37.85739,49.33716],[37.858028,49.337102],[37.858035,49.336656],[37.857284,49.336726],[37.85739,49.33716]]]}},{"type":"Feature","properties":{"cadnum":"6321084505:01:001:0258"},"geometry":{"type":"Polygon","coordinates":[[[37.843145,49.33795],[37.845081,49.33767],[37.844938,49.336594],[37.843161,49.336809],[37.84298,49.336832],[37.843145,49.33795]]]}}]}