{"type":"FeatureCollection","features":[{"type":"Feature","properties":{"cadnum":"6321084002:01:001:0275"},"geometry":{"type":"Polygon","coordinates":[[[37.649405,49.331502],[37.648934,49.331409],[37.64862285508982,49.332226],[37.648622,49.332226],[37.648616,49.332244],[37.64898,49.332613],[37.64912655955033,49.33222715955117],[37.649405,49.331502]]]}},{"type":"Feature","properties":{"cadnum":"6321084002:01:001:0266"},"geometry":{"type":"Polygon","coordinates":[[[37.64987454352427,49.33225310615754],[37.649884,49.332226],[37.64988397661623,49.332226],[37.650098,49.331611],[37.649735,49.331557],[37.649465,49.332338],[37.649465694444444,49.332338],[37.649307,49.332802],[37.649622,49.332977],[37.64984492676432,49.332338],[37.649845,49.332338],[37.64987454352427,49.33225310615754]]]}},{"type":"Feature","properties":{"cadnum":"6321084002:01:001:0012"},"geometry":{"type":"Polygon","coordinates":[[[37.66113607905303,49.33801834782497],[37.661219,49.337962],[37.661219,49.337961888583216],[37.661774,49.337584],[37.661416,49.337303],[37.661047,49.33754],[37.661047,49.33754005873261],[37.660572,49.337844],[37.66096,49.338138],[37.661047,49.33807888030888],[37.661047,49.338079],[37.66113607905303,49.33801834782497]]]}},{"type":"Feature","properties":{"cadnum":"6321084002:01:001:0284"},"geometry":{"type":"Polygon","coordinates":[[[37.659706,49.335667],[37.66078,49.335509],[37.661047,49.33558441685649],[37.661047,49.335585],[37.661187237726274,49.33562402842382],[37.661219,49.335633],[37.661219,49.33563286792453],[37.661471,49.335703],[37.661551962790696,49.335806],[37.661551,49.335806],[37.66162297841704,49.33589634532346],[37.66164,49.335918],[37.66164023076923,49.335918],[37.661696,49.335988],[37.661737998073036,49.3358803429677],[37.662001,49.33522],[37.661219,49.33520524528302],[37.661219,49.335205],[37.660873,49.335198],[37.658148,49.335215],[37.657187,49.335221],[37.657188959799,49.335806],[37.657187,49.335806],[37.657189,49.335818],[37.657545,49.335891],[37.657819,49.335903],[37.658567,49.335838],[37.658782,49.335806],[37.65878014619886,49.335806],[37.659706,49.335667]]]}},{"type":"Feature","properties":{"cadnum":"6321084002:01:001:0268"},"geometry":{"type":"Polygon","coordinates":[[[37.661153285714654,49.33576120408141],[37.661219,49.335721],[37.661219,49.33572052380953],[37.661278,49.335684],[37.661074104000186,49.33567076000001],[37.660936,49.335661],[37.660539,49.335703],[37.66036461860466,49.335806],[37.660364,49.335806],[37.659723,49.336185],[37.659903,49.336529],[37.66089682572614,49.335918],[37.660897,49.335918],[37.661047,49.33582622981366],[37.661047,49.335827],[37.661153285714654,49.33576120408141]]]}},{"type":"Feature","properties":{"cadnum":"6321084002:01:001:0260"},"geometry":{"type":"Polygon","coordinates":[[[37.660166,49.337051],[37.661051,49.336564],[37.660646,49.336311],[37.660029,49.336692],[37.660166,49.337051]]]}},{"type":"Feature","properties":{"cadnum":"6321084002:01:001:0263"},"geometry":{"type":"Polygon","coordinates":[[[37.661295,49.33725],[37.661105,49.336895],[37.660201,49.337459],[37.660437,49.337801],[37.661219,49.3373],[37.661219,49.33729903225806],[37.661295,49.33725]]]}},{"type":"Feature","properties":{"cadnum":"6321084002:01:001:0259"},"geometry":{"type":"Polygon","coordinates":[[[37.661262,49.336449],[37.66161,49.336256],[37.661661,49.336221],[37.66124,49.335943],[37.661047,49.336063],[37.661047,49.33606315625],[37.660835,49.336194],[37.660646,49.336311],[37.661047,49.33656150123457],[37.661047,49.336562],[37.661051,49.336564],[37.661262,49.336449]]]}},{"type":"Feature","properties":{"cadnum":"6321084002:01:001:0262"},"geometry":{"type":"Polygon","coordinates":[[[37.661708,49.336986],[37.661956,49.336827],[37.661759,49.336487],[37.661487,49.336657],[37.661105,49.336895],[37.661219,49.337109],[37.661219,49.337108],[37.661295,49.33725],[37.661708,49.336986]]]}},{"type":"Feature","properties":{"cadnum":"6321084002:01:001:0273"},"geometry":{"type":"Polygon","coordinates":[[[37.670271,49.338725],[37.669782,49.338543],[37.669134,49.339341],[37.6692535897436,49.339385],[37.669253,49.339385],[37.669323916667224,49.339410875000205],[37.669558,49.339497],[37.669559962962964,49.339497],[37.669623,49.33952],[37.669641740740744,49.339497],[37.669642,49.339497],[37.670271,49.338725]]]}},{"type":"Feature","properties":{"cadnum":"6321084002:01:001:0272"},"geometry":{"type":"Polygon","coordinates":[[[37.669134,49.339341],[37.66909846153846,49.339385],[37.669098,49.339385],[37.668925,49.3396],[37.668729,49.339827],[37.669233,49.340004],[37.669425,49.339764],[37.669623,49.33952],[37.669323916667224,49.339410875000205],[37.669134,49.339341]]]}},{"type":"Feature","properties":{"cadnum":"6321084002:01:001:0276"},"geometry":{"type":"Polygon","coordinates":[[[37.667036,49.337881],[37.66728,49.337985],[37.667866,49.338234],[37.668391,49.337761],[37.667114,49.337239],[37.66654,49.337844],[37.66654,49.33784446489564],[37.666185,49.338219],[37.665848,49.338727],[37.66602,49.33877],[37.666712,49.338165],[37.666712,49.338164500000005],[37.667036,49.337881]]]}},{"type":"Feature","properties":{"cadnum":"6321084002:01:001:0285"},"geometry":{"type":"Polygon","coordinates":[[[37.662478,49.335044],[37.662387,49.335261],[37.662668,49.335339],[37.66298336614853,49.335806],[37.662982,49.335806],[37.663099,49.335977],[37.664255,49.336465],[37.665584,49.336767],[37.66654,49.337191786948175],[37.66654,49.337192],[37.666626,49.33723],[37.666712,49.337169],[37.666712,49.3371682172949],[37.667077,49.336906],[37.666712,49.33675646554935],[37.666712,49.336756],[37.665265,49.33616],[37.66438,49.335806],[37.66437951258581,49.335806],[37.662478,49.335044]]]}},{"type":"Feature","properties":{"cadnum":"6321084002:01:001:0270"},"geometry":{"type":"Polygon","coordinates":[[[37.669822,49.338493],[37.669869,49.338434],[37.669505,49.338338],[37.669461,49.338395],[37.669277,49.33862],[37.668709,49.339309],[37.66864553191489,49.339385],[37.668644,49.339385],[37.668379,49.339705],[37.668729,49.339827],[37.668925,49.3396],[37.66900787906977,49.339497],[37.669008,49.339497],[37.669822,49.338493]]]}},{"type":"Feature","properties":{"cadnum":"6321084002:01:001:0261"},"geometry":{"type":"Polygon","coordinates":[[[37.667809,49.339273],[37.668597,49.338421],[37.668215,49.338383],[37.66786,49.33884],[37.667692,49.338801],[37.667873,49.338591],[37.667908,49.338354],[37.666952,49.339207],[37.66740419852941,49.339385],[37.667404,49.339385],[37.667643,49.339479],[37.667809,49.339273]]]}},{"type":"Feature","properties":{"cadnum":"6321084002:01:001:0014"},"geometry":{"type":"Polygon","coordinates":[[[37.662943,49.337388],[37.663781,49.336805],[37.663646,49.336711],[37.663323,49.336953],[37.662927,49.336786],[37.662621,49.337101],[37.662682,49.337139],[37.66289,49.337267],[37.662831,49.33731],[37.662943,49.337388]]]}},{"type":"Feature","properties":{"cadnum":"6321084002:01:001:0267"},"geometry":{"type":"Polygon","coordinates":[[[37.663806,49.338987],[37.664062,49.33872],[37.663828,49.338607],[37.664027,49.338422],[37.663702,49.33828],[37.663229,49.338746],[37.663806,49.338987]]]}},{"type":"Feature","properties":{"cadnum":"6321084002:01:001:0278"},"geometry":{"type":"Polygon","coordinates":[[[37.662722,49.335739],[37.662625,49.335444],[37.662316,49.335368],[37.66207549818182,49.335806],[37.662074,49.335806],[37.661939,49.336055],[37.662867,49.33637],[37.662737,49.335806],[37.662736972067044,49.335806],[37.662722,49.335739]]]}},{"type":"Feature","properties":{"cadnum":"6321084002:01:001:0269"},"geometry":{"type":"Polygon","coordinates":[[[37.663562,49.339241],[37.663806,49.338987],[37.663229,49.338746],[37.662857,49.339111],[37.663411,49.339191],[37.663562,49.339241]]]}},{"type":"Feature","properties":{"cadnum":"6321084002:01:001:0265"},"geometry":{"type":"Polygon","coordinates":[[[37.662848,49.338478],[37.662896,49.338432],[37.663084,49.338259],[37.663321,49.338038],[37.662911,49.337802],[37.66268,49.338003],[37.662615,49.338062],[37.662393,49.338276],[37.662848,49.338478]]]}},{"type":"Feature","properties":{"cadnum":"6321084002:01:001:0282"},"geometry":{"type":"Polygon","coordinates":[[[37.66563,49.339177],[37.665394,49.338966],[37.665261,49.338907],[37.664868,49.339127],[37.664687,49.339228],[37.66449,49.339114],[37.664182,49.338938],[37.664043,49.339264],[37.664003,49.339359],[37.663955898550725,49.339385],[37.663954,49.339385],[37.66384456378587,49.3394464567902],[37.663753,49.339497],[37.66375456140351,49.339497],[37.663751,49.339499],[37.663745,49.339534],[37.663701,49.339848],[37.663685,49.339956],[37.664896,49.340104],[37.66564,49.340155],[37.665731,49.339654],[37.665674,49.339385],[37.66567355,49.339385],[37.66563,49.339177]],[[37.66406,49.339349],[37.664093,49.33934],[37.664103,49.339356],[37.664073,49.339366],[37.66406,49.339349]]]}},{"type":"Feature","properties":{"cadnum":"6321084002:01:001:0011"},"geometry":{"type":"Polygon","coordinates":[[[37.661774,49.337584],[37.661937,49.337473],[37.662325,49.337209],[37.662092,49.336871],[37.66159,49.337192],[37.661416,49.337303],[37.661774,49.337584]]]}},{"type":"Feature","properties":{"cadnum":"6321084002:01:001:0277"},"geometry":{"type":"Polygon","coordinates":[[[37.662365,49.336757],[37.662872,49.336396],[37.662867,49.33637],[37.662549,49.336262],[37.661939,49.336055],[37.661896,49.336131],[37.662124,49.336486],[37.662365,49.336757]]]}},{"type":"Feature","properties":{"cadnum":"6321084002:01:001:0015"},"geometry":{"type":"Polygon","coordinates":[[[37.663781,49.336805],[37.664217,49.336502],[37.66403,49.336423],[37.663646,49.336711],[37.663781,49.336805]]]}},{"type":"Feature","properties":{"cadnum":"6321084002:01:001:0264"},"geometry":{"type":"Polygon","coordinates":[[[37.662308,49.338994],[37.662848,49.338478],[37.662393,49.338276],[37.662306,49.33836],[37.661844,49.338789],[37.662308,49.338994]]]}},{"type":"Feature","properties":{"cadnum":"6321084002:01:001:0013"},"geometry":{"type":"Polygon","coordinates":[[[37.662392,49.333134],[37.662776,49.333131],[37.662867,49.332827],[37.662481,49.332853],[37.662392,49.333134]]]}},{"type":"Feature","properties":{"cadnum":"6321084002:01:001:0009"},"geometry":{"type":"Polygon","coordinates":[[[37.66109859550612,49.33365637078551],[37.661219,49.333413],[37.661219,49.33341220557491],[37.661334,49.333179],[37.661467,49.332909],[37.661135,49.332935],[37.660988,49.333192],[37.660638,49.3338],[37.661031,49.333793],[37.661047,49.333760659574466],[37.661047,49.333761],[37.66109859550612,49.33365637078551]]]}},{"type":"Feature","properties":{"cadnum":"6321084002:01:001:0283"},"geometry":{"type":"Polygon","coordinates":[[[37.661428,49.334032],[37.6626,49.334002],[37.662898,49.333476],[37.662886,49.333347],[37.661819,49.333296],[37.661428,49.334032]]]}},{"type":"Feature","properties":{"cadnum":"6321084002:01:001:0286"},"geometry":{"type":"Polygon","coordinates":[[[37.66595,49.333062],[37.666016,49.33293],[37.666051,49.332717],[37.665766,49.332586],[37.665357,49.332528],[37.665293,49.332803],[37.665258,49.332966],[37.66595,49.333062]]]}},{"type":"Feature","properties":{"cadnum":"6321084002:01:001:0279"},"geometry":{"type":"Polygon","coordinates":[[[37.662886,49.333347],[37.662878,49.33327],[37.662776,49.333131],[37.662392,49.333134],[37.662481,49.332853],[37.661983,49.332913],[37.661853,49.333231],[37.661819,49.333296],[37.662886,49.333347]]]}},{"type":"Feature","properties":{"cadnum":"6321084002:01:001:0004"},"geometry":{"type":"Polygon","coordinates":[[[37.656891,49.334301],[37.657126,49.333783],[37.65677,49.333702],[37.656491,49.334216],[37.656891,49.334301]]]}},{"type":"Feature","properties":{"cadnum":"6321084002:01:001:0002"},"geometry":{"type":"Polygon","coordinates":[[[37.658134,49.334406],[37.658276,49.334106],[37.658303,49.33405],[37.658023,49.334004],[37.658,49.334049],[37.657858,49.33435],[37.658134,49.334406]]]}},{"type":"Feature","properties":{"cadnum":"6321084002:01:001:0005"},"geometry":{"type":"Polygon","coordinates":[[[37.656333,49.334015],[37.656785,49.333141],[37.656949,49.332826],[37.656698,49.332791],[37.656545,49.333089],[37.656109,49.333943],[37.656333,49.334015]]]}},{"type":"Feature","properties":{"cadnum":"6321084002:01:001:0271"},"geometry":{"type":"Polygon","coordinates":[[[37.658866,49.334512],[37.65936,49.333512],[37.659546,49.333103],[37.659204,49.333099],[37.659009,49.333477],[37.658546,49.334452],[37.658866,49.334512]]]}},{"type":"Feature","properties":{"cadnum":"6321084002:01:001:0008"},"geometry":{"type":"Polygon","coordinates":[[[37.660421,49.334178],[37.660858,49.334144],[37.661031,49.333793],[37.660638,49.3338],[37.660421,49.334178]]]}},{"type":"Feature","properties":{"cadnum":"6321084002:01:001:0253"},"geometry":{"type":"Polygon","coordinates":[[[37.656016,49.333148],[37.656247,49.332683],[37.655978,49.332638],[37.655843,49.33288],[37.655727,49.333091],[37.655725,49.33309458381503],[37.655725,49.333094],[37.655438,49.333608],[37.65572,49.333679],[37.656016,49.333148]]]}},{"type":"Feature","properties":{"cadnum":"6321084002:01:001:0007"},"geometry":{"type":"Polygon","coordinates":[[[37.656313,49.333207],[37.656016,49.333148],[37.655725,49.33367063858094],[37.655725,49.33367],[37.655565,49.333958],[37.655725,49.333992],[37.655725,49.33399108474576],[37.65586,49.334019],[37.656313,49.333207]]]}},{"type":"Feature","properties":{"cadnum":"6321084002:01:001:0254"},"geometry":{"type":"Polygon","coordinates":[[[37.655554,49.333637],[37.655554,49.33363720567376],[37.655438,49.333608],[37.655355,49.333756],[37.655204,49.334025],[37.65491,49.334552],[37.655194,49.334618],[37.655565,49.333958],[37.65572,49.333679],[37.655554,49.333637]]]}},{"type":"Feature","properties":{"cadnum":"6321084002:01:001:0257"},"geometry":{"type":"Polygon","coordinates":[[[37.655727,49.333091],[37.655843,49.33288],[37.655978,49.332638],[37.655716,49.332593],[37.65559,49.332829],[37.655476,49.333042],[37.655115,49.333706],[37.655355,49.333756],[37.655438,49.333608],[37.655554,49.33340025087107],[37.655554,49.333401],[37.655727,49.333091]]]}},{"type":"Feature","properties":{"cadnum":"6321084002:01:001:0006"},"geometry":{"type":"Polygon","coordinates":[[[37.656277,49.334122],[37.656333,49.334015],[37.656109,49.333943],[37.656067,49.334026],[37.656277,49.334122]]]}},{"type":"Feature","properties":{"cadnum":"6321084002:01:001:0001"},"geometry":{"type":"Polygon","coordinates":[[[37.658303,49.33405],[37.658622,49.333379],[37.658811,49.333026],[37.658503,49.332994],[37.658354,49.333314],[37.658023,49.334004],[37.658303,49.33405]]]}},{"type":"Feature","properties":{"cadnum":"6321084002:01:001:0003"},"geometry":{"type":"Polygon","coordinates":[[[37.657126,49.333783],[37.657409,49.33316],[37.657528,49.332897],[37.657223,49.332863],[37.657085,49.333117],[37.65677,49.333702],[37.657126,49.333783]]]}},{"type":"Feature","properties":{"cadnum":"6321084002:01:001:0255"},"geometry":{"type":"Polygon","coordinates":[[[37.659486,49.334161],[37.659887,49.333391],[37.660047,49.333084],[37.659774,49.333064],[37.659613,49.333367],[37.659208,49.334127],[37.659486,49.334161]]]}},{"type":"Feature","properties":{"cadnum":"6321084002:01:001:0256"},"geometry":{"type":"Polygon","coordinates":[[[37.659367,49.33447],[37.659431,49.334268],[37.659486,49.334161],[37.659208,49.334127],[37.659058,49.334409],[37.659367,49.33447]]]}},{"type":"Feature","properties":{"cadnum":"6321084002:01:001:0258"},"geometry":{"type":"Polygon","coordinates":[[[37.655204,49.334025],[37.655355,49.333756],[37.655115,49.333706],[37.654968,49.333977],[37.655204,49.334025]]]}},{"type":"Feature","properties":{"cadnum":"6321084002:01:001:0274"},"geometry":{"type":"Polygon","coordinates":[[[37.653483,49.333383],[37.653759,49.332892],[37.654024,49.332413],[37.653723,49.332359],[37.65355,49.332702],[37.653193,49.333331],[37.653483,49.333383]]]}}]}