{"type":"FeatureCollection","features":[{"type":"Feature","properties":{"cadnum":"6321885005:00:000:0005"},"geometry":{"type":"Polygon","coordinates":[[[37.600743,49.904645],[37.600839,49.905035],[37.600798,49.905166],[37.600622,49.905235],[37.600622,49.90523505263158],[37.600461,49.905298],[37.600432,49.905305],[37.60043219672133,49.905305],[37.60021,49.905359],[37.600622,49.905630334488734],[37.600622,49.905631],[37.600787,49.905739],[37.600951,49.906012],[37.601971,49.905964],[37.602323,49.90573],[37.601644,49.905194],[37.60164391034483,49.905194],[37.600869,49.90458],[37.600743,49.904645]]]}},{"type":"Feature","properties":{"cadnum":"6321885005:00:000:0002"},"geometry":{"type":"Polygon","coordinates":[[[37.604531,49.904551],[37.603609,49.903545],[37.602968,49.90384],[37.602722,49.903759],[37.602083,49.903684],[37.601962,49.903772],[37.602163,49.903946],[37.601943,49.904088],[37.60300139072848,49.905194],[37.603001,49.905194],[37.603099,49.905296],[37.604531,49.904551]]]}},{"type":"Feature","properties":{"cadnum":"6321885005:00:000:0003"},"geometry":{"type":"Polygon","coordinates":[[[37.600794,49.903806],[37.60052,49.903603],[37.600126,49.903673],[37.600007,49.903716],[37.600622,49.90433256289708],[37.600622,49.904333],[37.600794,49.904505],[37.600869,49.90458],[37.601784,49.905305],[37.60178461380597,49.905305],[37.602323,49.90573],[37.602567,49.905567],[37.60308133210332,49.905305],[37.603082,49.905305],[37.603099,49.905296],[37.601943,49.904088],[37.601561,49.903887],[37.601274,49.90395],[37.600937,49.903912],[37.600794,49.90380622539682],[37.600794,49.903806]]]}},{"type":"Feature","properties":{"cadnum":"6321885005:00:000:0001"},"geometry":{"type":"Polygon","coordinates":[[[37.60044,49.905274],[37.600622,49.905203475],[37.600622,49.905204],[37.60076,49.90515],[37.600794,49.905046],[37.600794,49.90504451282052],[37.600799,49.905029],[37.600794,49.90500924999999],[37.600794,49.905008],[37.600699,49.904634],[37.600794,49.904586],[37.600794,49.90458526086957],[37.600814,49.904575],[37.600794,49.90455510416667],[37.600794,49.904555],[37.599974,49.903736],[37.599834,49.90377],[37.599564,49.904126],[37.598962,49.903982],[37.598416,49.904016],[37.598321,49.90413],[37.598762,49.904347],[37.59848,49.904507],[37.598683,49.904823],[37.598907,49.90499],[37.599526,49.905128],[37.59954576271186,49.905194],[37.599545,49.905194],[37.59956879098363,49.90527090573779],[37.599579,49.905305],[37.599579338129494,49.905305],[37.599588,49.905333],[37.599812,49.905406],[37.600133,49.905349],[37.60031310666667,49.905305],[37.600314,49.905305],[37.60044,49.905274]]]}},{"type":"Feature","properties":{"cadnum":"6321885005:00:000:0004"},"geometry":{"type":"Polygon","coordinates":[[[37.593325,49.905131],[37.593172,49.904929],[37.593117,49.904669],[37.59292,49.904572],[37.592899,49.904358],[37.592966,49.904319],[37.592656,49.904206],[37.592274,49.904007],[37.592103,49.904107],[37.591593,49.904623],[37.592377,49.904889],[37.592606,49.905095],[37.592519,49.905305],[37.59251953723405,49.905305],[37.592488,49.905382],[37.592968,49.905366],[37.593068,49.905213],[37.593325,49.905131]]]}},{"type":"Feature","properties":{"cadnum":"6321885005:00:000:0007"},"geometry":{"type":"Polygon","coordinates":[[[37.595003,49.904724],[37.594527,49.904088],[37.594257,49.904287],[37.593746,49.904659],[37.59411702167183,49.905194],[37.594116,49.905194],[37.594346,49.905522],[37.595129,49.90665141277081],[37.595129,49.906652],[37.595223,49.906787],[37.595301,49.906719],[37.595301,49.90671853333333],[37.595313,49.906708],[37.595424,49.906274],[37.596119,49.906212],[37.59538299416899,49.905232583090246],[37.595301,49.905122636363636],[37.595301,49.905121],[37.595003,49.904724]]]}},{"type":"Feature","properties":{"cadnum":"6321885005:00:000:0014"},"geometry":{"type":"Polygon","coordinates":[[[37.595903,49.908316],[37.596847,49.907993],[37.596619,49.907745],[37.596517,49.907674],[37.596274,49.907705],[37.595879,49.907843],[37.595362,49.908017],[37.595301,49.907969278911565],[37.595301,49.907969],[37.595215,49.907902],[37.595129,49.90793],[37.595129,49.90793043548387],[37.594967,49.907984],[37.594971,49.908077],[37.594963,49.908414],[37.594999,49.908463],[37.595129,49.90853509606987],[37.595129,49.908536],[37.595228,49.90859],[37.595301,49.908561],[37.595301,49.908560367407404],[37.595903,49.908316]]]}},{"type":"Feature","properties":{"cadnum":"6321885005:00:000:0013"},"geometry":{"type":"Polygon","coordinates":[[[37.595444,49.907361],[37.595946,49.907152],[37.595912,49.906883],[37.595861,49.906808],[37.595138,49.906876],[37.594823,49.906905],[37.594886,49.907377],[37.595129,49.90736997349397],[37.595129,49.907371],[37.595444,49.907361]]]}},{"type":"Feature","properties":{"cadnum":"6321885005:00:000:0011"},"geometry":{"type":"Polygon","coordinates":[[[37.595301,49.904024],[37.594955,49.903638],[37.593888,49.903235],[37.595003,49.904724],[37.595129,49.904891859060406],[37.595129,49.904892],[37.59535422033898,49.905194],[37.595354,49.905194],[37.59538299416902,49.90523258309028],[37.595437,49.905305],[37.59543741355599,49.905305],[37.596119,49.906212],[37.59645,49.906183],[37.596459,49.905877],[37.596622,49.905851],[37.596647,49.906192],[37.597149,49.906078],[37.596452950226244,49.905305],[37.596453,49.905305],[37.595301,49.9040242265861],[37.595301,49.904024]]]}},{"type":"Feature","properties":{"cadnum":"6321885005:00:000:0010"},"geometry":{"type":"Polygon","coordinates":[[[37.59949,49.905149],[37.598883,49.905013],[37.598647,49.904837],[37.598429,49.904499],[37.598696,49.904349],[37.598267,49.904138],[37.598389,49.90399],[37.598967,49.903954],[37.599544,49.904093],[37.59976,49.903805],[37.599694,49.903829],[37.599445,49.903435],[37.597523,49.904311],[37.598138,49.904924],[37.598506,49.905305],[37.59850619117647,49.905305],[37.599384,49.906214],[37.600016,49.906002],[37.599706,49.905507],[37.599807,49.905434],[37.599551,49.905351],[37.599504,49.905194],[37.59950326923077,49.905194],[37.59949,49.905149]]]}},{"type":"Feature","properties":{"cadnum":"6321885005:00:000:0006"},"geometry":{"type":"Polygon","coordinates":[[[37.595301,49.903765],[37.594955,49.903638],[37.595129,49.90383211560694],[37.595129,49.903833],[37.59635316032609,49.905194],[37.596353,49.905194],[37.597149,49.906078],[37.597649,49.905964],[37.598077,49.906654],[37.598621,49.906471],[37.597463,49.905261],[37.596302,49.904052],[37.596203,49.904122],[37.595539,49.903853],[37.595301,49.903765346341466],[37.595301,49.903765]]]}},{"type":"Feature","properties":{"cadnum":"6321885005:00:000:0009"},"geometry":{"type":"Polygon","coordinates":[[[37.598138,49.904924],[37.597523,49.904311],[37.596832,49.904604],[37.597398651445964,49.905194],[37.597397,49.905194],[37.597463,49.905261],[37.597503,49.905305],[37.5975051090909,49.905305],[37.598621,49.906471],[37.599384,49.906214],[37.598399,49.905194],[37.59839878740158,49.905194],[37.598138,49.904924]]]}},{"type":"Feature","properties":{"cadnum":"6321885005:00:000:0012"},"geometry":{"type":"Polygon","coordinates":[[[37.594028,49.904439],[37.594507,49.904061],[37.593888,49.903235],[37.593855,49.90319],[37.593294,49.902969],[37.592883,49.902951],[37.592059,49.902841],[37.591819,49.902846],[37.591437,49.903253],[37.592463,49.903684],[37.592223,49.903915],[37.592436,49.904022],[37.592656,49.903874],[37.59323,49.904031],[37.594028,49.904439]]]}},{"type":"Feature","properties":{"cadnum":"6321885005:00:000:0015"},"geometry":{"type":"Polygon","coordinates":[[[37.591587,49.904636],[37.591593,49.904623],[37.592103,49.904107],[37.592274,49.904007],[37.592187,49.903973],[37.591901,49.903849],[37.5915,49.903782],[37.591269,49.903753],[37.59113,49.903753],[37.590663,49.904576],[37.591063,49.904551],[37.59146,49.904603],[37.591587,49.904636]]]}}]}