{"type":"FeatureCollection","features":[{"type":"Feature","properties":{"cadnum":"6321883502:00:000:0001"},"geometry":{"type":"Polygon","coordinates":[[[37.705153,49.788999],[37.704512,49.788638],[37.704351,49.788772],[37.704622,49.789018],[37.70487,49.789188],[37.705153,49.788999]]]}},{"type":"Feature","properties":{"cadnum":"6321883502:00:000:0002"},"geometry":{"type":"Polygon","coordinates":[[[37.70422543749882,49.78838812499721],[37.704189,49.788302],[37.70418886683417,49.788302],[37.704067,49.788015],[37.703744,49.788173],[37.70381052830189,49.788302],[37.703809,49.788302],[37.703826,49.788332],[37.703882,49.788413],[37.70388285576923,49.788413],[37.703899,49.788436],[37.703834,49.788499],[37.703962,49.788623],[37.703993,49.788651],[37.704025,49.788637],[37.704062,49.788622],[37.70418,49.788573],[37.704214,49.788537],[37.704277,49.78851],[37.70423596153846,49.788413],[37.704236,49.788413],[37.70422543749882,49.78838812499721]]]}}]}