{"type":"FeatureCollection","features":[{"type":"Feature","properties":{"cadnum":"6321886002:00:000:0008"},"geometry":{"type":"Polygon","coordinates":[[[37.957678,49.79135677304964],[37.957678,49.791357],[37.95770914984024,49.7913381604678],[37.95785,49.791254],[37.95785,49.791252973799125],[37.958136,49.79108],[37.95785,49.79068284716157],[37.95785,49.790682],[37.957462,49.790144],[37.956778,49.789593],[37.956035,49.790093],[37.955619,49.790372],[37.956089,49.790747],[37.956496,49.791036],[37.957286,49.791591],[37.957678,49.79135677304964]]]}},{"type":"Feature","properties":{"cadnum":"6321886002:00:000:0016"},"geometry":{"type":"Polygon","coordinates":[[[37.959716,49.780567],[37.958788,49.780554],[37.95910308496732,49.781209],[37.959103,49.781209],[37.95911239306335,49.781228349710496],[37.959156,49.781319],[37.959156398058255,49.781319],[37.959203,49.781415],[37.960056,49.781284],[37.959716,49.780567]]]}},{"type":"Feature","properties":{"cadnum":"6321886002:00:000:0005"},"geometry":{"type":"Polygon","coordinates":[[[37.963897,49.777642],[37.963171,49.777739],[37.963171,49.777739296296296],[37.963073,49.777752],[37.963171,49.7780038962963],[37.963171,49.778004],[37.963412,49.778625],[37.963812,49.778589],[37.963882,49.778591],[37.963895,49.778456],[37.964249,49.778424],[37.963931749611355,49.77772125349957],[37.963897,49.777642]]]}},{"type":"Feature","properties":{"cadnum":"6321886002:00:000:0006"},"geometry":{"type":"Polygon","coordinates":[[[37.963714,49.77724],[37.963567,49.777258],[37.963587,49.777314],[37.963453,49.777331],[37.963343,49.777345042553186],[37.963343,49.777345],[37.962991,49.77739],[37.962924,49.777401],[37.963037,49.777658],[37.96303853191489,49.777662],[37.963037,49.777662],[37.963073,49.777752],[37.963343,49.777717],[37.963343,49.777716046793756],[37.963748,49.777662],[37.963747309278354,49.777662],[37.963897,49.777642],[37.963714,49.77724]]]}},{"type":"Feature","properties":{"cadnum":"6321886002:00:000:0007"},"geometry":{"type":"Polygon","coordinates":[[[37.956402,49.782305],[37.956561,49.782272],[37.956575,49.782269],[37.956813,49.782222],[37.956295,49.78152],[37.955933,49.781623],[37.956137,49.781914],[37.956402,49.782305]]]}},{"type":"Feature","properties":{"cadnum":"6321886002:00:000:0012"},"geometry":{"type":"Polygon","coordinates":[[[37.955712,49.780731],[37.955375,49.780795],[37.955728,49.781319],[37.955728130434785,49.781319],[37.955933,49.781623],[37.956295,49.78152],[37.95614570418007,49.781319],[37.956146,49.781319],[37.955712,49.780731]]]}},{"type":"Feature","properties":{"cadnum":"6321886002:00:000:0009"},"geometry":{"type":"Polygon","coordinates":[[[37.963343,49.77995212827989],[37.963343,49.779951],[37.963253,49.7796],[37.963171,49.779629],[37.963171,49.77962914116486],[37.96224,49.77996],[37.962594,49.781006],[37.963171,49.78092457801899],[37.963171,49.780925],[37.963331,49.780902],[37.963343,49.780905],[37.963343,49.780903811320755],[37.963596,49.780942],[37.963343,49.77995212827989]]]}},{"type":"Feature","properties":{"cadnum":"6321886002:00:000:0002"},"geometry":{"type":"Polygon","coordinates":[[[37.957943,49.778482],[37.958753,49.778388],[37.958688,49.778018],[37.957863,49.778114],[37.957918,49.778445],[37.957943,49.778482]]]}},{"type":"Feature","properties":{"cadnum":"6321886002:00:000:0010"},"geometry":{"type":"Polygon","coordinates":[[[37.965311,49.780828],[37.964916,49.779315],[37.964515,49.779524],[37.963627,49.779528],[37.963253,49.7796],[37.963596,49.780942],[37.964121,49.781021],[37.965311,49.780828]]]}},{"type":"Feature","properties":{"cadnum":"6321886002:00:000:0013"},"geometry":{"type":"Polygon","coordinates":[[[37.959116,49.77923],[37.960365,49.779127],[37.95995,49.778321],[37.959853,49.778085],[37.959614,49.778072],[37.959358,49.778094],[37.958855,49.778138],[37.95883,49.777998],[37.958688,49.778018],[37.958753,49.778388],[37.958767,49.778469],[37.958975,49.778967],[37.959116,49.77923]]]}},{"type":"Feature","properties":{"cadnum":"6321886002:00:000:0003"},"geometry":{"type":"Polygon","coordinates":[[[37.958322,49.779043],[37.958975,49.778967],[37.958767,49.778469],[37.958753,49.778388],[37.957943,49.778482],[37.958322,49.779043]]]}},{"type":"Feature","properties":{"cadnum":"6321886002:00:000:0015"},"geometry":{"type":"Polygon","coordinates":[[[37.955044,49.791086],[37.955827,49.790622],[37.955541,49.790393],[37.954758,49.790857],[37.955044,49.791086]]]}},{"type":"Feature","properties":{"cadnum":"6321886002:00:000:0014"},"geometry":{"type":"Polygon","coordinates":[[[37.955676,49.791536],[37.956425,49.791099],[37.956124,49.790859],[37.955374,49.791295],[37.955676,49.791536]]]}},{"type":"Feature","properties":{"cadnum":"6321886002:00:000:0004"},"geometry":{"type":"Polygon","coordinates":[[[37.955374,49.791295],[37.956124,49.790859],[37.955827,49.790622],[37.955044,49.791086],[37.955374,49.791295]]]}},{"type":"Feature","properties":{"cadnum":"6321886002:00:000:0011"},"geometry":{"type":"Polygon","coordinates":[[[37.966193,49.78077],[37.966097,49.779544],[37.964984,49.779357],[37.965268,49.780606],[37.965431,49.780636],[37.965585,49.780717],[37.966193,49.78077]]]}}]}