{"type":"FeatureCollection","features":[{"type":"Feature","properties":{"cadnum":"6321055102:01:001:0255"},"geometry":{"type":"Polygon","coordinates":[[[37.64902,49.424752],[37.64880858669002,49.425211],[37.648808,49.425211],[37.648108,49.42674],[37.649917,49.426987],[37.650061,49.42667570588235],[37.650061,49.426678],[37.650189,49.426399],[37.649424569023566,49.425323],[37.649425,49.425323],[37.64902,49.424752]]]}},{"type":"Feature","properties":{"cadnum":"6321055102:01:001:0290"},"geometry":{"type":"Polygon","coordinates":[[[37.650232,49.428569738255035],[37.651402,49.428739],[37.651702,49.428764],[37.65136,49.428362],[37.65095,49.427764],[37.650515,49.42707],[37.650189,49.426399],[37.649917,49.426987],[37.649326,49.428264],[37.649251,49.428427],[37.650232,49.42857],[37.650232,49.428569738255035]]]}},{"type":"Feature","properties":{"cadnum":"6321055102:01:001:0345"},"geometry":{"type":"Polygon","coordinates":[[[37.649586,49.428525],[37.64985547169811,49.428784],[37.649855,49.428784],[37.64992773980074,49.428853459756674],[37.649972,49.428896],[37.64997228888889,49.428896],[37.650232,49.429144],[37.650232,49.429143889108914],[37.650566,49.429464],[37.651599,49.428826],[37.651319,49.428784],[37.65131692139737,49.428784],[37.650232,49.4286224609883],[37.650232,49.428622],[37.649586,49.428525]]]}},{"type":"Feature","properties":{"cadnum":"6321055102:01:001:0001"},"geometry":{"type":"Polygon","coordinates":[[[37.64273,49.428768],[37.643336,49.428816],[37.643351,49.428784],[37.64335093333333,49.428784],[37.643441,49.428591],[37.64288,49.428488],[37.642418,49.428386],[37.642305,49.428632],[37.642542,49.428686],[37.64248928787879,49.428784],[37.642489,49.428784],[37.642471,49.428818],[37.642664,49.428862],[37.64273,49.428768]]]}},{"type":"Feature","properties":{"cadnum":"6321055102:01:001:0341"},"geometry":{"type":"Polygon","coordinates":[[[37.644567,49.429477261997405],[37.644567,49.429478],[37.645056,49.429447],[37.645069,49.429334],[37.644987,49.429326],[37.644739,49.42930238095238],[37.644739,49.429302],[37.644048,49.429234],[37.644023,49.429232],[37.643936,49.429513],[37.643968,49.429513],[37.644567,49.429477261997405]]]}},{"type":"Feature","properties":{"cadnum":"6321055102:01:001:0342"},"geometry":{"type":"Polygon","coordinates":[[[37.643347,49.429524],[37.643936,49.429513],[37.644023,49.429232],[37.643567,49.429184],[37.643477,49.429174],[37.643456,49.429171],[37.643434,49.429244],[37.643347,49.429524]]]}},{"type":"Feature","properties":{"cadnum":"6321055102:01:001:0010"},"geometry":{"type":"Polygon","coordinates":[[[37.644256,49.428857],[37.644137,49.428845],[37.643641,49.428795],[37.643597,49.428896],[37.64359771428571,49.428896],[37.643566,49.42897],[37.644211,49.429047],[37.644567,49.42908475757576],[37.644567,49.429085],[37.645186,49.429151],[37.645223,49.428957],[37.644739,49.428907567073175],[37.644739,49.428907],[37.64463274,49.428896],[37.644635,49.428896],[37.644256,49.428857]]]}},{"type":"Feature","properties":{"cadnum":"6321055102:01:001:0019"},"geometry":{"type":"Polygon","coordinates":[[[37.644909,49.430439],[37.645603,49.430079],[37.645308,49.429865],[37.644686,49.430218],[37.644567,49.430291],[37.644567,49.43029156363637],[37.644466,49.430354],[37.644567,49.43044619724771],[37.644567,49.430447],[37.644684,49.430553],[37.644739,49.430526],[37.644739,49.43052513333333],[37.644909,49.430439]]]}},{"type":"Feature","properties":{"cadnum":"6321055102:01:001:0011"},"geometry":{"type":"Polygon","coordinates":[[[37.643761,49.428513],[37.643645680851066,49.428784],[37.643645,49.428784],[37.643641,49.428795],[37.644137,49.428845],[37.644256,49.428857],[37.644635,49.428896],[37.644636,49.428896],[37.644636588235336,49.428896],[37.644736,49.428906],[37.644739,49.428899],[37.644739,49.428897285714285],[37.644766000000075,49.42881885714264],[37.64483,49.428636],[37.64471045454336,49.42862281818159],[37.644425,49.428591],[37.643761,49.428513]]]}},{"type":"Feature","properties":{"cadnum":"6321055102:01:001:0023"},"geometry":{"type":"Polygon","coordinates":[[[37.644124,49.429036],[37.643566,49.42897],[37.643477,49.429174],[37.644048,49.429234],[37.644567,49.42928507380608],[37.644567,49.429286],[37.644987,49.429326],[37.645085,49.429139],[37.644567,49.429084],[37.644567,49.42908426178862],[37.644124,49.429036]]]}},{"type":"Feature","properties":{"cadnum":"6321055102:01:001:0278"},"geometry":{"type":"Polygon","coordinates":[[[37.645072,49.430854],[37.645548,49.430611],[37.646639,49.430043],[37.646516,49.429924],[37.646387,49.42999],[37.645976,49.430215],[37.645601,49.430427],[37.645184,49.430652],[37.644939,49.430786],[37.644911,49.43076],[37.644828,49.430796],[37.644804,49.430778],[37.644745,49.430804],[37.644684,49.430832],[37.64464,49.430854],[37.644739,49.43095],[37.644739,49.43094963265306],[37.644787,49.430996],[37.645072,49.430854]]]}},{"type":"Feature","properties":{"cadnum":"6321055102:01:002:0025"},"geometry":{"type":"Polygon","coordinates":[[[37.63275,49.421071],[37.633105,49.420977],[37.63342,49.420882],[37.633128,49.420534],[37.63286,49.420643],[37.632776,49.42054],[37.632437,49.420651],[37.63275,49.421071]]]}},{"type":"Feature","properties":{"cadnum":"6321055102:01:002:0026"},"geometry":{"type":"Polygon","coordinates":[[[37.63211,49.421242],[37.63275,49.421071],[37.632437,49.420651],[37.631819,49.420853],[37.63211,49.421242]]]}},{"type":"Feature","properties":{"cadnum":"6321055102:01:002:0023"},"geometry":{"type":"Polygon","coordinates":[[[37.633329,49.421321],[37.633414,49.421296],[37.633686,49.421197],[37.63342,49.420882],[37.633105,49.420977],[37.632654,49.421096],[37.632986,49.421445],[37.633329,49.421321]]]}},{"type":"Feature","properties":{"cadnum":"6321055102:01:002:0284"},"geometry":{"type":"Polygon","coordinates":[[[37.633938,49.421547],[37.633924,49.421532],[37.63369584375032,49.42161049107132],[37.633615175675665,49.421638],[37.633615,49.421638],[37.633613,49.421638],[37.633536,49.421665],[37.633298,49.42175],[37.63329885714285,49.42175],[37.633204,49.421784],[37.633497,49.422091],[37.633581,49.42206278125],[37.633581,49.422063],[37.633918,49.42195],[37.634244,49.421828],[37.634067,49.421638],[37.634066897196256,49.421638],[37.633973,49.421536],[37.633938,49.421547]]]}},{"type":"Feature","properties":{"cadnum":"6321055102:01:002:0031"},"geometry":{"type":"Polygon","coordinates":[[[37.63372491086969,49.421600491304304],[37.633753,49.421591],[37.633753,49.42159082798834],[37.633924,49.421532],[37.633918,49.421524],[37.63395,49.421512],[37.633686,49.421197],[37.633581,49.421235],[37.633581,49.42123521691176],[37.633414,49.421296],[37.633329,49.421321],[37.632974,49.42145],[37.633151,49.42175],[37.633151051282056,49.42175],[37.633177,49.421794],[37.633534,49.421665],[37.633581,49.42164911872146],[37.633581,49.42165],[37.63372491086969,49.421600491304304]]]}},{"type":"Feature","properties":{"cadnum":"6321055102:01:002:0024"},"geometry":{"type":"Polygon","coordinates":[[[37.632365,49.421671],[37.632986,49.421445],[37.632654,49.421096],[37.63211,49.421242],[37.632365,49.421671]]]}},{"type":"Feature","properties":{"cadnum":"6321055102:01:002:0032"},"geometry":{"type":"Polygon","coordinates":[[[37.632974,49.42145],[37.63245593665159,49.421638],[37.632455,49.421638],[37.632365,49.421671],[37.632433,49.42175],[37.63243421904762,49.42175],[37.632641,49.421986],[37.633177,49.421794],[37.633085,49.421638],[37.633084919999995,49.421638],[37.632974,49.42145]]]}},{"type":"Feature","properties":{"cadnum":"6321055102:01:002:0287"},"geometry":{"type":"Polygon","coordinates":[[[37.639246,49.42503870354906],[37.639604,49.425097],[37.639778,49.424723],[37.639301,49.424643],[37.6391636554624,49.42462121848743],[37.639007,49.424595],[37.638841,49.424973],[37.639074,49.42501073943662],[37.639074,49.425012],[37.639125,49.425019],[37.639246,49.425039],[37.639246,49.42503870354906]]]}},{"type":"Feature","properties":{"cadnum":"6321055102:01:002:0261"},"geometry":{"type":"Polygon","coordinates":[[[37.633581,49.42245325979381],[37.633581,49.422454],[37.633703,49.422411],[37.63347,49.422101],[37.633015,49.422253],[37.633218,49.422579],[37.633581,49.42245325979381]]]}},{"type":"Feature","properties":{"cadnum":"6321055102:01:002:0254"},"geometry":{"type":"Polygon","coordinates":[[[37.635121,49.424027],[37.635404,49.42392],[37.635126,49.423599],[37.634827,49.423706],[37.635121,49.424027]]]}},{"type":"Feature","properties":{"cadnum":"6321055102:01:002:0253"},"geometry":{"type":"Polygon","coordinates":[[[37.635404,49.42392],[37.635444,49.423905],[37.635838,49.423755],[37.635567,49.423434],[37.635172,49.423583],[37.635126,49.423599],[37.635404,49.42392]]]}},{"type":"Feature","properties":{"cadnum":"6321055102:01:002:0013"},"geometry":{"type":"Polygon","coordinates":[[[37.63506,49.422631],[37.635543,49.422478],[37.635727,49.422433],[37.635487,49.422046],[37.635464,49.422052],[37.635284,49.422096],[37.634802,49.42225],[37.63506,49.422631]]]}},{"type":"Feature","properties":{"cadnum":"6321055102:01:002:0005"},"geometry":{"type":"Polygon","coordinates":[[[37.634614,49.423385],[37.634925,49.42327],[37.635311,49.423106],[37.635203,49.422984],[37.635024,49.422788],[37.63467,49.422926],[37.634313,49.423064],[37.634614,49.423385]]]}},{"type":"Feature","properties":{"cadnum":"6321055102:01:002:0014"},"geometry":{"type":"Polygon","coordinates":[[[37.635727,49.422433],[37.636128,49.422334],[37.635872,49.421951],[37.635487,49.422046],[37.635727,49.422433]]]}},{"type":"Feature","properties":{"cadnum":"6321055102:01:002:0052"},"geometry":{"type":"Polygon","coordinates":[[[37.638099,49.424241],[37.638221,49.423987],[37.63756,49.42391],[37.637427,49.424177],[37.638099,49.424241]]]}},{"type":"Feature","properties":{"cadnum":"6321055102:01:002:0275"},"geometry":{"type":"Polygon","coordinates":[[[37.636116,49.423912],[37.636179,49.423908],[37.636423,49.42334],[37.635656,49.423267],[37.636116,49.423912]]]}},{"type":"Feature","properties":{"cadnum":"6321055102:01:002:0034"},"geometry":{"type":"Polygon","coordinates":[[[37.637845,49.423307],[37.637965,49.423001],[37.637473,49.422942],[37.637008,49.422886],[37.63688,49.423157],[37.636908,49.423192],[37.637352,49.423249],[37.637845,49.423307]]]}},{"type":"Feature","properties":{"cadnum":"6321055102:01:002:0046"},"geometry":{"type":"Polygon","coordinates":[[[37.638178,49.422641],[37.638313,49.422371],[37.63768,49.422283],[37.637299,49.42223],[37.637154,49.422533],[37.637537,49.422573],[37.638178,49.422641]]]}},{"type":"Feature","properties":{"cadnum":"6321055102:01:002:0251"},"geometry":{"type":"Polygon","coordinates":[[[37.637701,49.42361],[37.637843,49.423307],[37.637352,49.423249],[37.637217,49.423232],[37.636908,49.423192],[37.636864,49.423189],[37.636693,49.423471],[37.637064,49.423521],[37.637701,49.42361]]]}},{"type":"Feature","properties":{"cadnum":"6321055102:01:002:0266"},"geometry":{"type":"Polygon","coordinates":[[[37.638313,49.422371],[37.638354,49.422053],[37.637826,49.421983],[37.637445,49.421925],[37.637299,49.42223],[37.63768,49.422283],[37.638313,49.422371]]]}},{"type":"Feature","properties":{"cadnum":"6321055102:01:002:0277"},"geometry":{"type":"Polygon","coordinates":[[[37.63503,49.421717],[37.6352,49.421675],[37.63489,49.421297],[37.634765,49.421337],[37.634559,49.4214],[37.634222,49.421509],[37.63432335714286,49.421638],[37.634323,49.421638],[37.634354,49.421677],[37.63441,49.42175],[37.63441069543148,49.42175],[37.634507,49.421874],[37.634902,49.421748],[37.63503,49.421717]]]}},{"type":"Feature","properties":{"cadnum":"6321055102:01:002:0011"},"geometry":{"type":"Polygon","coordinates":[[[37.638849,49.421511],[37.638157,49.421447],[37.637705,49.421372],[37.637582,49.421628],[37.638019,49.421696],[37.638545,49.42175],[37.6385495263158,49.42175],[37.638579,49.421753],[37.638746,49.421771],[37.638766850241495,49.42171767149772],[37.638849,49.421511]]]}},{"type":"Feature","properties":{"cadnum":"6321055102:01:002:0033"},"geometry":{"type":"Polygon","coordinates":[[[37.638491,49.425244],[37.638459,49.425323],[37.63845913666667,49.425323],[37.63837,49.425544],[37.63884,49.425627],[37.639074,49.42566792118227],[37.639074,49.425668],[37.63910270588385,49.42567294117673],[37.639246,49.425698],[37.639246,49.42569760655738],[37.639318,49.42571],[37.639459,49.425408],[37.63918512244894,49.4253624723032],[37.63898,49.425327],[37.638537,49.425252],[37.638491,49.425244]]]}},{"type":"Feature","properties":{"cadnum":"6321055102:01:002:0012"},"geometry":{"type":"Polygon","coordinates":[[[37.63879851882845,49.421638],[37.638798,49.421638],[37.638766850241495,49.42171767149772],[37.638754,49.42175],[37.638754210526315,49.42175],[37.638746,49.421771],[37.639074,49.42180565356265],[37.639074,49.421806],[37.639153,49.421814],[37.639177727272724,49.42175],[37.639178,49.42175],[37.639257,49.421547],[37.63914251658767,49.42153761611374],[37.638849,49.421511],[37.63879851882845,49.421638]]]}},{"type":"Feature","properties":{"cadnum":"6321055102:01:002:0262"},"geometry":{"type":"Polygon","coordinates":[[[37.634021,49.422301],[37.634496,49.422164],[37.634405,49.422043],[37.634371,49.421999],[37.634244,49.421828],[37.633918,49.42195],[37.633753,49.42200581602374],[37.633753,49.422005],[37.63347,49.422101],[37.633581,49.42224868240343],[37.633581,49.422249],[37.633703,49.422411],[37.633753,49.422395],[37.633753,49.42239370440251],[37.634021,49.422301]]]}},{"type":"Feature","properties":{"cadnum":"6321055102:01:002:0006"},"geometry":{"type":"Polygon","coordinates":[[[37.634166,49.42355],[37.634614,49.423385],[37.634313,49.423064],[37.633857,49.423241],[37.634166,49.42355]]]}},{"type":"Feature","properties":{"cadnum":"6321055102:01:002:0041"},"geometry":{"type":"Polygon","coordinates":[[[37.634329,49.423057],[37.63401,49.42275],[37.633629,49.422897],[37.633456,49.422964],[37.633581,49.423093629629626],[37.633581,49.423094],[37.63370671428581,49.4232240000001],[37.633753,49.423272],[37.633753,49.42327186363636],[37.633757,49.423276],[37.634329,49.423057]]]}},{"type":"Feature","properties":{"cadnum":"6321055102:01:002:0036"},"geometry":{"type":"Polygon","coordinates":[[[37.634033,49.422741],[37.634393,49.422601],[37.634736,49.422463],[37.634496,49.422164],[37.634021,49.422301],[37.633726,49.422403],[37.634033,49.422741]]]}},{"type":"Feature","properties":{"cadnum":"6321055102:01:002:0252"},"geometry":{"type":"Polygon","coordinates":[[[37.63837,49.423703],[37.638535,49.423388],[37.637845,49.423307],[37.637843,49.423307],[37.637701,49.42361],[37.63837,49.423703]]]}},{"type":"Feature","properties":{"cadnum":"6321055102:01:002:0043"},"geometry":{"type":"Polygon","coordinates":[[[37.63794,49.424561],[37.638099,49.424241],[37.637414,49.424176],[37.637279,49.424478],[37.637342,49.424486],[37.63794,49.424561]]]}},{"type":"Feature","properties":{"cadnum":"6321055102:01:002:0047"},"geometry":{"type":"Polygon","coordinates":[[[37.638763,49.422702],[37.638883,49.422451],[37.638313,49.422371],[37.638178,49.422641],[37.638763,49.422702]]]}},{"type":"Feature","properties":{"cadnum":"6321055102:01:002:0268"},"geometry":{"type":"Polygon","coordinates":[[[37.63746,49.423898],[37.637607,49.423597],[37.637064,49.423521],[37.636693,49.423471],[37.636501,49.423787],[37.636899,49.423833],[37.63746,49.423898]]]}},{"type":"Feature","properties":{"cadnum":"6321055102:01:002:0265"},"geometry":{"type":"Polygon","coordinates":[[[37.634902,49.421748],[37.634895,49.42175],[37.63489573015872,49.42175],[37.634507,49.421874],[37.634603,49.421978],[37.634802,49.42225],[37.635284,49.422096],[37.635464,49.422052],[37.635204,49.421674],[37.634902,49.421748]]]}},{"type":"Feature","properties":{"cadnum":"6321055102:01:002:0028"},"geometry":{"type":"Polygon","coordinates":[[[37.637836,49.424811],[37.63794,49.424561],[37.637342,49.424486],[37.637248,49.424746],[37.637836,49.424811]]]}},{"type":"Feature","properties":{"cadnum":"6321055102:01:002:0272"},"geometry":{"type":"Polygon","coordinates":[[[37.638537,49.425252],[37.638663,49.424944],[37.637878,49.424816],[37.637761,49.425121],[37.638491,49.425244],[37.638537,49.425252]]]}},{"type":"Feature","properties":{"cadnum":"6321055102:01:002:0288"},"geometry":{"type":"Polygon","coordinates":[[[37.638841,49.424973],[37.639007,49.424595],[37.638024,49.424432],[37.637878,49.424816],[37.638663,49.424944],[37.638841,49.424973]]]}},{"type":"Feature","properties":{"cadnum":"6321055102:01:002:0037"},"geometry":{"type":"Polygon","coordinates":[[[37.633753,49.422849],[37.633753,49.42284868232044],[37.63401,49.42275],[37.634033,49.422741],[37.633726,49.422403],[37.633703,49.422411],[37.63336,49.42253],[37.633581,49.422805482638886],[37.633581,49.422806],[37.633648,49.422889],[37.633753,49.422849]]]}},{"type":"Feature","properties":{"cadnum":"6321055102:01:002:0040"},"geometry":{"type":"Polygon","coordinates":[[[37.634329,49.423057],[37.634682,49.422921],[37.635023,49.422787],[37.634748,49.422459],[37.63441,49.422594],[37.634393,49.422601],[37.63401,49.42275],[37.634329,49.423057]]]}},{"type":"Feature","properties":{"cadnum":"6321055102:01:002:0286"},"geometry":{"type":"Polygon","coordinates":[[[37.639246,49.42248326307448],[37.639705,49.422532],[37.63984,49.422217],[37.639133,49.422133],[37.639074,49.422254],[37.639074,49.42225400636943],[37.638976,49.422455],[37.639246,49.422484],[37.639246,49.42248326307448]]]}},{"type":"Feature","properties":{"cadnum":"6321055102:01:002:0042"},"geometry":{"type":"Polygon","coordinates":[[[37.637279,49.424478],[37.637414,49.424176],[37.63675,49.424112],[37.636368,49.424076],[37.63625,49.424333],[37.636675,49.424401],[37.637279,49.424478]]]}},{"type":"Feature","properties":{"cadnum":"6321055102:01:002:0035"},"geometry":{"type":"Polygon","coordinates":[[[37.638535,49.423388],[37.638695,49.42304],[37.637965,49.423001],[37.637845,49.423307],[37.638535,49.423388]]]}},{"type":"Feature","properties":{"cadnum":"6321055102:01:002:0051"},"geometry":{"type":"Polygon","coordinates":[[[37.637427,49.424177],[37.63756,49.42391],[37.636899,49.423833],[37.636501,49.423787],[37.636368,49.424076],[37.63675,49.424112],[37.637427,49.424177]]]}},{"type":"Feature","properties":{"cadnum":"6321055102:01:002:0270"},"geometry":{"type":"Polygon","coordinates":[[[37.638221,49.423987],[37.63837,49.423703],[37.637701,49.42361],[37.637607,49.423597],[37.63746,49.423898],[37.63756,49.42391],[37.638221,49.423987]]]}},{"type":"Feature","properties":{"cadnum":"6321055102:01:002:0030"},"geometry":{"type":"Polygon","coordinates":[[[37.637761,49.425121],[37.637684,49.425323],[37.63768438536585,49.425323],[37.637649,49.425416],[37.63837,49.425544],[37.638491,49.425244],[37.637761,49.425121]]]}},{"type":"Feature","properties":{"cadnum":"6321055102:01:002:0274"},"geometry":{"type":"Polygon","coordinates":[[[37.637836,49.424811],[37.637248,49.424746],[37.637342,49.424486],[37.637279,49.424478],[37.636721,49.424407],[37.636495,49.424932],[37.63616,49.424872],[37.63599200666667,49.425211],[37.635991,49.425211],[37.635937,49.425322],[37.63594,49.425323],[37.63594127472526,49.425323],[37.636326,49.425413],[37.636668,49.425665],[37.637367,49.425873],[37.6376087673716,49.425323],[37.63761,49.425323],[37.637836,49.424811]]]}},{"type":"Feature","properties":{"cadnum":"6321055102:01:002:0271"},"geometry":{"type":"Polygon","coordinates":[[[37.63855377272727,49.425211],[37.638553,49.425211],[37.638537,49.425252],[37.638954,49.425323],[37.63895637333331,49.425323],[37.63898,49.425327],[37.639074,49.4253432556391],[37.639074,49.425344],[37.63918512244894,49.4253624723032],[37.639246,49.425373],[37.639246,49.42537259220779],[37.639459,49.425408],[37.63951544303781,49.42528581012694],[37.639604,49.425097],[37.639125,49.425019],[37.638663,49.424944],[37.63855377272727,49.425211]]]}},{"type":"Feature","properties":{"cadnum":"6321055102:01:001:0301"},"geometry":{"type":"Polygon","coordinates":[[[37.653703,49.431413],[37.653529,49.431992],[37.653801216386555,49.432357],[37.653801,49.432357],[37.655725,49.434932],[37.655725,49.43493169795917],[37.656289,49.435686],[37.656305,49.435683],[37.657061,49.435909],[37.655554,49.433892],[37.655554,49.433892135053114],[37.654489935374144,49.432468],[37.65449,49.432468],[37.653703,49.431413]]]}},{"type":"Feature","properties":{"cadnum":"6321055102:01:001:0304"},"geometry":{"type":"Polygon","coordinates":[[[37.655613,49.435756],[37.65332,49.432688],[37.653066,49.433354],[37.652937,49.433433],[37.652892,49.433437],[37.654443,49.435514],[37.654903,49.435573],[37.655408,49.435729],[37.655613,49.435756]]]}},{"type":"Feature","properties":{"cadnum":"6321055102:01:001:0303"},"geometry":{"type":"Polygon","coordinates":[[[37.651433,49.435291],[37.652826,49.435154],[37.651599,49.433511],[37.651535,49.433514],[37.651136,49.433572],[37.650696,49.433582],[37.650456,49.433543],[37.650191,49.433628],[37.651433,49.435291]]]}},{"type":"Feature","properties":{"cadnum":"6321055102:01:001:0327"},"geometry":{"type":"Polygon","coordinates":[[[37.653145,49.435749],[37.653037,49.435747],[37.652426,49.435693],[37.65256027586207,49.435929],[37.65256,49.435929],[37.654512,49.439368],[37.655157,49.439294],[37.653247,49.435929],[37.653246712328766,49.435929],[37.653145,49.435749]]]}},{"type":"Feature","properties":{"cadnum":"6321055102:01:001:0323"},"geometry":{"type":"Polygon","coordinates":[[[37.651729,49.435632],[37.651054,49.435573],[37.651319,49.436041],[37.65131956164383,49.436041],[37.653286,49.439506],[37.653888,49.439437],[37.65196056670467,49.436041],[37.651961,49.436041],[37.651729,49.435632]]]}},{"type":"Feature","properties":{"cadnum":"6321055102:01:001:0305"},"geometry":{"type":"Polygon","coordinates":[[[37.653723,49.431346],[37.653703,49.431413],[37.6544071971564,49.432357],[37.654407,49.432357],[37.655725,49.434121],[37.655725,49.43412086994027],[37.657061,49.435909],[37.65712812121212,49.435929],[37.657128,49.435929],[37.657317473669686,49.43598542104831],[37.657504,49.436041],[37.657504119403,49.436041],[37.657578,49.436063],[37.657642,49.436043],[37.65764866666665,49.436041],[37.65765,49.436041],[37.657682,49.436031],[37.657606,49.435929],[37.657605759747106,49.435929],[37.655554,49.433184],[37.655554,49.433184133079855],[37.65501893465909,49.432468],[37.65502,49.432468],[37.654117,49.43126],[37.653723,49.431346]]]}},{"type":"Feature","properties":{"cadnum":"6321055102:01:001:0325"},"geometry":{"type":"Polygon","coordinates":[[[37.652426,49.435693],[37.651729,49.435632],[37.65189746943766,49.435929],[37.651897,49.435929],[37.653888,49.439437],[37.654512,49.439368],[37.6526235719686,49.436041],[37.652624,49.436041],[37.652426,49.435693]]]}},{"type":"Feature","properties":{"cadnum":"6321055102:01:001:0324"},"geometry":{"type":"Polygon","coordinates":[[[37.654592,49.435772],[37.65386,49.43576],[37.653955024911035,49.435929],[37.653955,49.435929],[37.65395780952348,49.435933952380374],[37.654018,49.436041],[37.65401853846154,49.436041],[37.655725,49.439049],[37.655725,49.4390481641791],[37.655822,49.439219],[37.656505,49.439143],[37.655554,49.437467],[37.655554,49.43746845689656],[37.654681,49.435929],[37.65468071375465,49.435929],[37.654592,49.435772]]]}},{"type":"Feature","properties":{"cadnum":"6321055102:01:001:0307"},"geometry":{"type":"Polygon","coordinates":[[[37.654443,49.435514],[37.652892,49.433437],[37.652518,49.433471],[37.651599,49.433511],[37.652826,49.435154],[37.653053,49.435132],[37.654073,49.435466],[37.654443,49.435514]]]}},{"type":"Feature","properties":{"cadnum":"6321055102:01:001:0326"},"geometry":{"type":"Polygon","coordinates":[[[37.651054,49.435573],[37.650511,49.435525],[37.650425,49.435558],[37.65063546376812,49.435929],[37.650635,49.435929],[37.652663252608455,49.439501],[37.652662,49.439501],[37.652703,49.439571],[37.653286,49.439506],[37.651256,49.435929],[37.65125558119658,49.435929],[37.651054,49.435573]]]}},{"type":"Feature","properties":{"cadnum":"6321055102:01:001:0322"},"geometry":{"type":"Polygon","coordinates":[[[37.650061,49.435697],[37.650061,49.43569758823529],[37.649909,49.435755],[37.65007,49.436041],[37.65007063636364,49.436041],[37.650232,49.436325],[37.650232,49.436323749877154],[37.652096,49.439613],[37.652096766423355,49.439613],[37.652111,49.439638],[37.65233189552239,49.439613],[37.652334,49.439613],[37.652703,49.439571],[37.65069859582647,49.436041],[37.650699,49.436041],[37.650425,49.435558],[37.650061,49.435697]]]}},{"type":"Feature","properties":{"cadnum":"6321055102:01:001:0271"},"geometry":{"type":"Polygon","coordinates":[[[37.650498,49.432263],[37.650232,49.43245500704225],[37.650232,49.432455],[37.650214,49.432468],[37.65021518834081,49.432468],[37.65016333333333,49.43250566666667],[37.650026,49.432605],[37.650061,49.43263647058824],[37.650061,49.432637],[37.650145,49.432712],[37.650232,49.432651],[37.650232,49.43265047609562],[37.650505263631146,49.43245723189431],[37.651933,49.43145],[37.650624,49.430455],[37.650232,49.430746040852576],[37.650232,49.430746],[37.649446,49.431328],[37.650232,49.432027],[37.650232,49.432026217391304],[37.650498,49.432263]]]}},{"type":"Feature","properties":{"cadnum":"6321055102:01:001:0318"},"geometry":{"type":"Polygon","coordinates":[[[37.65386,49.43576],[37.653145,49.435749],[37.65331,49.436041],[37.65331057206538,49.436041],[37.655157,49.439294],[37.655554,49.43924996654929],[37.655554,49.43925],[37.655561033149795,49.43924918646402],[37.655725,49.439231],[37.655725,49.439230220149256],[37.655822,49.439219],[37.655554,49.438747],[37.655554,49.43874757627119],[37.65395780952348,49.435933952380374],[37.65386,49.43576]]]}},{"type":"Feature","properties":{"cadnum":"6321055102:01:001:0320"},"geometry":{"type":"Polygon","coordinates":[[[37.655382,49.435844],[37.65494,49.435777],[37.654592,49.435772],[37.654744,49.436041],[37.65474451330798,49.436041],[37.655725,49.43777],[37.655725,49.43776836277601],[37.656505,49.439143],[37.657209,49.439063],[37.655554,49.436146],[37.655554,49.43614757627119],[37.65543,49.435929],[37.65542989340101,49.435929],[37.655382,49.435844]]]}},{"type":"Feature","properties":{"cadnum":"6321055102:01:001:0292"},"geometry":{"type":"Polygon","coordinates":[[[37.653259,49.432344],[37.652427974999796,49.432357],[37.652425,49.432357],[37.650702,49.432384],[37.650581,49.432468],[37.65058236363637,49.432468],[37.650185,49.432747],[37.65072,49.433284],[37.652998,49.433267],[37.653161,49.432912],[37.653248,49.432679],[37.65325455279503,49.432468],[37.653255,49.432468],[37.653259,49.432344]]]}},{"type":"Feature","properties":{"cadnum":"6321055102:01:001:0022"},"geometry":{"type":"Polygon","coordinates":[[[37.650207,49.433534],[37.649947,49.433229],[37.648553,49.433674],[37.648807,49.433966],[37.650061,49.43357905142857],[37.650061,49.43358],[37.650207,49.433534]]]}},{"type":"Feature","properties":{"cadnum":"6321055102:01:001:0306"},"geometry":{"type":"Polygon","coordinates":[[[37.653529,49.431992],[37.653385,49.432468],[37.653386036363635,49.432468],[37.653321,49.432687],[37.65332,49.432688],[37.655554,49.43567705887484],[37.655554,49.435678],[37.655613,49.435756],[37.655725,49.435771],[37.655725,49.43577079245283],[37.655772,49.435777],[37.656289,49.435686],[37.655554,49.434703],[37.655554,49.4347031408524],[37.653883937475726,49.432468],[37.653884,49.432468],[37.653529,49.431992]]]}},{"type":"Feature","properties":{"cadnum":"6321055102:01:001:0309"},"geometry":{"type":"Polygon","coordinates":[[[37.651433,49.435291],[37.650191,49.433628],[37.648005,49.434334],[37.649224,49.435967],[37.649265,49.435954],[37.649625,49.435748],[37.650006,49.435517],[37.649748,49.435469],[37.649357,49.435314],[37.649102,49.435034],[37.648828,49.434803],[37.648779,49.434584],[37.648878,49.434418],[37.649075,49.434371],[37.649239,49.434317],[37.649434,49.434127],[37.649854,49.434156],[37.650055,49.434273],[37.650219,49.434614],[37.650232,49.43462],[37.650232,49.434619650900906],[37.650663,49.434807],[37.650725,49.435046],[37.650557,49.43522],[37.650586,49.435374],[37.651433,49.435291]]]}},{"type":"Feature","properties":{"cadnum":"6321055102:01:001:0317"},"geometry":{"type":"Polygon","coordinates":[[[37.655493,49.436041],[37.65549353846154,49.436041],[37.655725,49.436449],[37.655725,49.43644739395769],[37.657209,49.439063],[37.657221,49.439062],[37.657806,49.438996],[37.65632,49.435983],[37.655956,49.435929],[37.65595563636364,49.435929],[37.655652,49.435884],[37.655382,49.435844],[37.655493,49.436041]]]}},{"type":"Feature","properties":{"cadnum":"6321055102:01:001:0328"},"geometry":{"type":"Polygon","coordinates":[[[37.650232,49.43834237837838],[37.650468,49.438572],[37.65128723342939,49.439501],[37.651286,49.439501],[37.651471,49.43971],[37.651561,49.4397],[37.651628,49.439692],[37.65155712889154,49.43958194811613],[37.650061,49.437244],[37.650061,49.43724490082644],[37.649264,49.436],[37.648852,49.436157],[37.648221,49.436369],[37.649391,49.437522],[37.649755,49.437877],[37.650061,49.43817594339623],[37.650061,49.438176],[37.650075271427816,49.43818988571355],[37.650232,49.438343],[37.650232,49.43834237837838]]]}},{"type":"Feature","properties":{"cadnum":"6321055102:01:001:0321"},"geometry":{"type":"Polygon","coordinates":[[[37.64945091836734,49.435929],[37.649449,49.435929],[37.649264,49.436],[37.64929,49.436041],[37.649290248677254,49.436041],[37.650232,49.437512],[37.650232,49.43751121569921],[37.65150532756437,49.439501],[37.651505,49.439501],[37.65155712889154,49.43958194811613],[37.651577,49.439613],[37.651577125654455,49.439613],[37.651628,49.439692],[37.652111,49.439638],[37.652033,49.439501],[37.65203253021443,49.439501],[37.650061,49.436022],[37.650061,49.43602404],[37.650007,49.435929],[37.65000695104895,49.435929],[37.649909,49.435755],[37.64945091836734,49.435929]]]}},{"type":"Feature","properties":{"cadnum":"6321055102:01:001:0027"},"geometry":{"type":"Polygon","coordinates":[[[37.644739,49.42149008376963],[37.644834,49.421506],[37.644909,49.421322],[37.644739,49.42129506010929],[37.644739,49.421295],[37.644726,49.421293],[37.644643,49.421474],[37.644739,49.421491],[37.644739,49.42149008376963]]]}},{"type":"Feature","properties":{"cadnum":"6321055102:01:001:0329"},"geometry":{"type":"Polygon","coordinates":[[[37.644527215189875,49.42175],[37.644508,49.421796],[37.644567,49.42180647186147],[37.644567,49.421807],[37.645422,49.421957],[37.645553588059734,49.42169132537307],[37.645583,49.421633],[37.644834,49.421506],[37.644643,49.421474],[37.64457407246377,49.421638],[37.644574,49.421638],[37.644562214285756,49.42166621428561],[37.644527,49.42175],[37.644527215189875,49.42175]]]}},{"type":"Feature","properties":{"cadnum":"6321055102:01:001:0026"},"geometry":{"type":"Polygon","coordinates":[[[37.646303,49.421561],[37.646059,49.421501],[37.645835,49.421465],[37.644909,49.421322],[37.644834,49.421506],[37.645839,49.421677],[37.646192,49.42175],[37.6461929579832,49.42175],[37.646416,49.421796],[37.646368135135305,49.42169778378414],[37.646303,49.421561]]]}},{"type":"Feature","properties":{"cadnum":"6321055102:01:001:0280"},"geometry":{"type":"Polygon","coordinates":[[[37.645839,49.421677],[37.645583,49.421633],[37.64558047863248,49.421638],[37.64558,49.421638],[37.645553588059734,49.42169132537307],[37.645524,49.42175],[37.64552452664577,49.42175],[37.645422,49.421957],[37.645789,49.422029],[37.646287,49.422128],[37.646414,49.421867],[37.64642,49.421802],[37.646416,49.421796],[37.645962,49.421702],[37.645839,49.421677]]]}},{"type":"Feature","properties":{"cadnum":"6321055102:01:001:0289"},"geometry":{"type":"Polygon","coordinates":[[[37.64396,49.41986],[37.643886,49.420132],[37.644074,49.420158],[37.644073,49.420195],[37.644069,49.420363],[37.644567,49.42041651641791],[37.644567,49.420417],[37.645034,49.420467],[37.645104,49.420233],[37.645183,49.419954],[37.644779,49.4199],[37.64464728003162,49.41989440811455],[37.64396,49.41986]],[[37.644739,49.42008246666666],[37.644791,49.420079],[37.644802,49.420148],[37.644696,49.420155],[37.644686,49.420086],[37.644739,49.420083],[37.644739,49.42008246666666]]]}},{"type":"Feature","properties":{"cadnum":"6321055102:01:002:0050"},"geometry":{"type":"Polygon","coordinates":[[[37.641598,49.425],[37.641744,49.424643],[37.641058,49.424588],[37.640922,49.424945],[37.641598,49.425]]]}},{"type":"Feature","properties":{"cadnum":"6321055102:01:002:0049"},"geometry":{"type":"Polygon","coordinates":[[[37.640922,49.424945],[37.641058,49.424588],[37.640611,49.424554],[37.640214,49.424531],[37.640064,49.424883],[37.640478,49.424909],[37.640922,49.424945]]]}},{"type":"Feature","properties":{"cadnum":"6321055102:01:001:0283"},"geometry":{"type":"Polygon","coordinates":[[[37.644739,49.424266722638684],[37.645273,49.42437],[37.645383,49.424137],[37.644763,49.424017],[37.64463643089389,49.42399181533093],[37.644158,49.423893],[37.644048,49.424114],[37.644567,49.42423212365592],[37.644567,49.424233],[37.644606,49.424241],[37.644739,49.424267],[37.644739,49.424266722638684]]]}},{"type":"Feature","properties":{"cadnum":"6321055102:01:001:0251"},"geometry":{"type":"Polygon","coordinates":[[[37.644739,49.42401210204082],[37.644763,49.424017],[37.645383,49.424137],[37.645478,49.423937],[37.644966,49.423823],[37.64469066666626,49.42377055555548],[37.64413,49.423661],[37.644027,49.423866],[37.644739,49.424013],[37.644739,49.42401210204082]]]}},{"type":"Feature","properties":{"cadnum":"6321055102:01:002:0278"},"geometry":{"type":"Polygon","coordinates":[[[37.641731,49.423868],[37.64183,49.423629],[37.641307,49.423564],[37.640559,49.423495],[37.640464,49.423725],[37.641247,49.423802],[37.641731,49.423868]]]}},{"type":"Feature","properties":{"cadnum":"6321055102:01:001:0257"},"geometry":{"type":"Polygon","coordinates":[[[37.643622,49.423407],[37.643715,49.423191],[37.642702,49.422995],[37.642384,49.422934],[37.642308,49.423153],[37.642638,49.423216],[37.643622,49.423407]]]}},{"type":"Feature","properties":{"cadnum":"6321055102:01:002:0054"},"geometry":{"type":"Polygon","coordinates":[[[37.639372,49.421582],[37.63934733333333,49.421638],[37.639347,49.421638],[37.63933561410793,49.421664605809035],[37.639298,49.42175],[37.639299069869,49.42175],[37.639249,49.421867],[37.639946,49.421948],[37.640071,49.421654],[37.639919,49.421638],[37.6399156666667,49.421638],[37.639372,49.421582]]]}},{"type":"Feature","properties":{"cadnum":"6321055102:01:001:0291"},"geometry":{"type":"Polygon","coordinates":[[[37.644739,49.42303358322237],[37.6454,49.423126],[37.645838,49.423225],[37.645961,49.422972],[37.645548,49.422901],[37.644742,49.422792],[37.644739,49.42279927777778],[37.644739,49.422799],[37.644688,49.422923],[37.644649,49.423021],[37.644739,49.423034],[37.644739,49.42303358322237]]]}},{"type":"Feature","properties":{"cadnum":"6321055102:01:001:0005"},"geometry":{"type":"Polygon","coordinates":[[[37.643143,49.425323],[37.64314437155963,49.425323],[37.643094,49.425462],[37.643197,49.425477],[37.64374,49.425551],[37.644567,49.425689752222226],[37.644567,49.42569],[37.64464,49.425702],[37.644704,49.425536],[37.644621,49.425529],[37.64437,49.42547],[37.643924,49.425379],[37.643173,49.425244],[37.643143,49.425323]]]}},{"type":"Feature","properties":{"cadnum":"6321055102:01:001:0055"},"geometry":{"type":"Polygon","coordinates":[[[37.642284,49.42508],[37.642371,49.424831],[37.64175,49.424727],[37.641661,49.424978],[37.642284,49.42508]]]}},{"type":"Feature","properties":{"cadnum":"6321055102:01:001:0006"},"geometry":{"type":"Polygon","coordinates":[[[37.642328,49.425094],[37.64228661572052,49.425211],[37.642286,49.425211],[37.64226065168544,49.42528440449425],[37.642247,49.425323],[37.64224732374101,49.425323],[37.642238,49.42535],[37.643094,49.425462],[37.643173,49.425244],[37.642328,49.425094]]]}},{"type":"Feature","properties":{"cadnum":"6321055102:01:002:0283"},"geometry":{"type":"Polygon","coordinates":[[[37.641966,49.423897],[37.642062,49.423655],[37.64183,49.423629],[37.641731,49.423868],[37.641966,49.423897]]]}},{"type":"Feature","properties":{"cadnum":"6321055102:01:002:0282"},"geometry":{"type":"Polygon","coordinates":[[[37.640673,49.422627],[37.640804,49.42234],[37.640387,49.422286],[37.640236,49.422265],[37.63984,49.422217],[37.639705,49.422532],[37.640366,49.422604],[37.640673,49.422627]]]}},{"type":"Feature","properties":{"cadnum":"6321055102:01:001:0310"},"geometry":{"type":"Polygon","coordinates":[[[37.643061,49.424281],[37.643204,49.424001],[37.642596,49.423893],[37.642158,49.423808],[37.642035,49.424082],[37.642445,49.424161],[37.643061,49.424281]]]}},{"type":"Feature","properties":{"cadnum":"6321055102:01:001:0295"},"geometry":{"type":"Polygon","coordinates":[[[37.644539,49.421483],[37.643295,49.42129],[37.643182,49.421521],[37.644427,49.421715],[37.644539,49.421483]]]}},{"type":"Feature","properties":{"cadnum":"6321055102:01:001:0336"},"geometry":{"type":"Polygon","coordinates":[[[37.64437,49.423322],[37.644195,49.423673],[37.644567,49.42374622834645],[37.644567,49.423747],[37.644703,49.423773],[37.644885,49.423417],[37.644567,49.423358],[37.644567,49.423358837398375],[37.64437,49.423322]]]}},{"type":"Feature","properties":{"cadnum":"6321055102:01:001:0252"},"geometry":{"type":"Polygon","coordinates":[[[37.644027,49.423866],[37.64413,49.423661],[37.643529,49.423543],[37.643434,49.423744],[37.644027,49.423866]]]}},{"type":"Feature","properties":{"cadnum":"6321055102:01:001:0293"},"geometry":{"type":"Polygon","coordinates":[[[37.644164,49.422192],[37.644285,49.421953],[37.643647,49.421834],[37.643165,49.421742],[37.643029,49.422014],[37.643515,49.422086],[37.644164,49.422192]]]}},{"type":"Feature","properties":{"cadnum":"6321055102:01:002:0273"},"geometry":{"type":"Polygon","coordinates":[[[37.640591,49.422296],[37.640633,49.422187],[37.640861,49.422217],[37.64094,49.422049],[37.640596,49.422024],[37.640503,49.422012],[37.640368,49.421997],[37.639946,49.421948],[37.639249,49.421867],[37.6392,49.421979],[37.640312,49.422107],[37.640246,49.422242],[37.640398,49.422265],[37.640591,49.422296]]]}},{"type":"Feature","properties":{"cadnum":"6321055102:01:002:0053"},"geometry":{"type":"Polygon","coordinates":[[[37.640071,49.421654],[37.640029,49.42175],[37.64003018367347,49.42175],[37.639946,49.421948],[37.640596,49.422024],[37.64094,49.422049],[37.641069,49.421754],[37.640702,49.421719],[37.640071,49.421654]]]}},{"type":"Feature","properties":{"cadnum":"6321055102:01:001:0047"},"geometry":{"type":"Polygon","coordinates":[[[37.642026,49.425094],[37.641644,49.42503],[37.64157913651877,49.425211],[37.641578,49.425211],[37.641499,49.425436],[37.64217,49.425549],[37.6422,49.42547],[37.641888,49.425415],[37.64194440659336,49.425282736263846],[37.642026,49.425094]]]}},{"type":"Feature","properties":{"cadnum":"6321055102:01:001:0349"},"geometry":{"type":"Polygon","coordinates":[[[37.643944,49.422514],[37.643993,49.42241],[37.644117,49.422431],[37.644208,49.422199],[37.644164,49.422192],[37.643584,49.422097],[37.64343,49.422417],[37.643944,49.422514]]]}},{"type":"Feature","properties":{"cadnum":"6321055102:01:001:0350"},"geometry":{"type":"Polygon","coordinates":[[[37.64343,49.422417],[37.643584,49.422097],[37.643515,49.422086],[37.643029,49.422014],[37.64288,49.422314],[37.643318,49.422396],[37.64343,49.422417]]]}},{"type":"Feature","properties":{"cadnum":"6321055102:01:001:0287"},"geometry":{"type":"Polygon","coordinates":[[[37.643988,49.425145],[37.64409,49.424938],[37.643572,49.424832],[37.643542,49.424826],[37.643283,49.424773],[37.642599,49.424634],[37.64256,49.424723],[37.642491,49.424876],[37.643988,49.425145]]]}},{"type":"Feature","properties":{"cadnum":"6321055102:01:001:0286"},"geometry":{"type":"Polygon","coordinates":[[[37.644287,49.424978],[37.64409,49.424938],[37.643988,49.425145],[37.644193,49.425182],[37.644567,49.42524897384306],[37.644567,49.425249],[37.64469,49.425271],[37.64482,49.425294],[37.644859,49.425301],[37.644947,49.425114],[37.6448,49.425083],[37.64466348941103,49.42505546352926],[37.644287,49.424978]]]}},{"type":"Feature","properties":{"cadnum":"6321055102:01:001:0273"},"geometry":{"type":"Polygon","coordinates":[[[37.647326,49.4258],[37.647405,49.425621],[37.646996,49.425545],[37.646858,49.425716],[37.647326,49.4258]]]}},{"type":"Feature","properties":{"cadnum":"6321055102:01:001:0049"},"geometry":{"type":"Polygon","coordinates":[[[37.646951,49.426517],[37.647002,49.426318],[37.64633,49.426255],[37.646256,49.426452],[37.646951,49.426517]]]}},{"type":"Feature","properties":{"cadnum":"6321055102:01:001:0272"},"geometry":{"type":"Polygon","coordinates":[[[37.645319,49.425323],[37.64531964968153,49.425323],[37.645276,49.425412],[37.64574,49.425515],[37.645792,49.425524],[37.646319,49.42562],[37.646858,49.425716],[37.646996,49.425545],[37.645902,49.425349],[37.645353,49.425255],[37.645319,49.425323]]]}},{"type":"Feature","properties":{"cadnum":"6321055102:01:001:0281"},"geometry":{"type":"Polygon","coordinates":[[[37.649294,49.428557],[37.64744,49.428318],[37.648034,49.428896],[37.64803444836434,49.428896],[37.649526,49.430343],[37.650061,49.42991863739377],[37.650061,49.429919],[37.650392,49.429656],[37.650061,49.429325],[37.650061,49.42932575983146],[37.64963184291726,49.428896],[37.649632,49.428896],[37.649294,49.428557]]]}},{"type":"Feature","properties":{"cadnum":"6321055102:01:001:0008"},"geometry":{"type":"Polygon","coordinates":[[[37.646957,49.428827],[37.647022,49.428621],[37.645977,49.428514],[37.645379,49.428453],[37.645317,49.428646],[37.645526,49.428669],[37.645915,49.428712],[37.646957,49.428827]]]}},{"type":"Feature","properties":{"cadnum":"6321055102:01:001:0053"},"geometry":{"type":"Polygon","coordinates":[[[37.647262,49.426069],[37.647376,49.42581],[37.646319,49.42562],[37.646185,49.425886],[37.647262,49.426069]]]}},{"type":"Feature","properties":{"cadnum":"6321055102:01:001:0282"},"geometry":{"type":"Polygon","coordinates":[[[37.64744,49.428318],[37.64720092985972,49.428784],[37.6472,49.428784],[37.647184,49.428817],[37.647172,49.428896],[37.64717204871795,49.428896],[37.647125,49.429207],[37.648734,49.430968],[37.649526,49.430343],[37.647919,49.428784],[37.64791889965398,49.428784],[37.64744,49.428318]]]}},{"type":"Feature","properties":{"cadnum":"6321055102:01:001:0348"},"geometry":{"type":"Polygon","coordinates":[[[37.647196,49.42842],[37.64731,49.428215],[37.646487,49.428122],[37.644919,49.427887],[37.64482,49.428142],[37.645143,49.42818],[37.646049,49.428285],[37.647196,49.42842]]]}},{"type":"Feature","properties":{"cadnum":"6321055102:01:001:0256"},"geometry":{"type":"Polygon","coordinates":[[[37.649326,49.428264],[37.649917,49.426987],[37.648108,49.42674],[37.64751,49.428042],[37.649326,49.428264]]]}},{"type":"Feature","properties":{"cadnum":"6321055102:01:001:0314"},"geometry":{"type":"Polygon","coordinates":[[[37.648938,49.424819],[37.648081,49.424654],[37.64804,49.424738],[37.647786,49.424694],[37.64763147535771,49.425211],[37.647631,49.425211],[37.6475,49.425651],[37.647227,49.426244],[37.648186,49.426406],[37.648752,49.425211],[37.64875133333334,49.425211],[37.648938,49.424819]]]}},{"type":"Feature","properties":{"cadnum":"6321055102:01:001:0333"},"geometry":{"type":"Polygon","coordinates":[[[37.646446,49.427818],[37.646543,49.427617],[37.64563,49.427463],[37.645526,49.427688],[37.646446,49.427818]]]}},{"type":"Feature","properties":{"cadnum":"6321055102:01:001:0308"},"geometry":{"type":"Polygon","coordinates":[[[37.646666,49.427497],[37.646853,49.427032],[37.646961,49.426747],[37.646893,49.42674],[37.646244,49.426664],[37.64607,49.426643],[37.645998,49.426889],[37.645706,49.426839],[37.645524,49.427334],[37.646666,49.427497]]]}},{"type":"Feature","properties":{"cadnum":"6321055102:01:001:0004"},"geometry":{"type":"Polygon","coordinates":[[[37.645977,49.428514],[37.646049,49.428285],[37.645143,49.42818],[37.645038,49.428418],[37.645977,49.428514]]]}},{"type":"Feature","properties":{"cadnum":"6321055102:01:001:0052"},"geometry":{"type":"Polygon","coordinates":[[[37.646185,49.425886],[37.646319,49.42562],[37.64574,49.425515],[37.645276,49.425412],[37.64514,49.425684],[37.645597,49.425785],[37.646185,49.425886]]]}},{"type":"Feature","properties":{"cadnum":"6321055102:01:001:0034"},"geometry":{"type":"Polygon","coordinates":[[[37.646893,49.42674],[37.646951,49.426517],[37.646303,49.426456],[37.646244,49.426664],[37.646893,49.42674]]]}},{"type":"Feature","properties":{"cadnum":"6321055102:01:001:0033"},"geometry":{"type":"Polygon","coordinates":[[[37.646244,49.426664],[37.646303,49.426456],[37.645213,49.426352],[37.64475,49.426288],[37.64469,49.42648],[37.645151,49.426535],[37.646244,49.426664]]]}},{"type":"Feature","properties":{"cadnum":"6321055102:01:001:0048"},"geometry":{"type":"Polygon","coordinates":[[[37.646256,49.426452],[37.64633,49.426255],[37.64528,49.426155],[37.644813,49.426088],[37.64475,49.426288],[37.645213,49.426352],[37.646256,49.426452]]]}},{"type":"Feature","properties":{"cadnum":"6321055102:01:001:0007"},"geometry":{"type":"Polygon","coordinates":[[[37.644739,49.428582805333335],[37.645317,49.428646],[37.645379,49.428453],[37.644739,49.42838758128079],[37.644739,49.428387],[37.64447,49.428359],[37.643841,49.428269],[37.643755,49.42847],[37.644196,49.428522],[37.644417,49.428548],[37.644739,49.428584],[37.644739,49.428582805333335]]]}},{"type":"Feature","properties":{"cadnum":"6321055102:01:001:0012"},"geometry":{"type":"Polygon","coordinates":[[[37.645534,49.428713],[37.64483,49.428636],[37.6447782,49.428784],[37.644778,49.428784],[37.644766000000075,49.42881885714264],[37.644739,49.428896],[37.64473944262295,49.428896],[37.644736,49.428906],[37.645451,49.42898],[37.645492,49.428851],[37.645534,49.428713]]]}},{"type":"Feature","properties":{"cadnum":"6321055102:01:001:0003"},"geometry":{"type":"Polygon","coordinates":[[[37.644739,49.428133],[37.644539,49.428109],[37.643948,49.428018],[37.643841,49.428269],[37.64447,49.428359],[37.644567,49.42836909665428],[37.644567,49.42837],[37.645038,49.428418],[37.645143,49.42818],[37.644739,49.42813300694445],[37.644739,49.428133]]]}},{"type":"Feature","properties":{"cadnum":"6321055102:01:001:0311"},"geometry":{"type":"Polygon","coordinates":[[[37.644739,49.4278397721519],[37.645278,49.427908],[37.645368,49.427665],[37.644589,49.427555],[37.644196,49.427495],[37.64409,49.427746],[37.644513,49.427811],[37.644567,49.42781792920354],[37.644567,49.427818],[37.64460777419451,49.42782316129045],[37.644739,49.42784],[37.644739,49.4278397721519]]]}},{"type":"Feature","properties":{"cadnum":"6321055102:01:001:0284"},"geometry":{"type":"Polygon","coordinates":[[[37.646623,49.425318],[37.645789,49.425216],[37.645752,49.425211],[37.645746132352926,49.425211],[37.645206,49.425148],[37.64518332,49.425211],[37.645182,49.425211],[37.645129,49.42536],[37.645689,49.425424],[37.64653,49.425524],[37.64662074271845,49.425323],[37.646621,49.425323],[37.646623,49.425318]]]}},{"type":"Feature","properties":{"cadnum":"6321055102:01:001:0312"},"geometry":{"type":"Polygon","coordinates":[[[37.644739,49.42757625256674],[37.645076,49.427624],[37.645221,49.427297],[37.644747,49.427225],[37.64469752631512,49.427217578947264],[37.644345,49.427163],[37.644196,49.427495],[37.644567,49.42755164122137],[37.644567,49.427553],[37.644589,49.427555],[37.644739,49.427577],[37.644739,49.42757625256674]]]}},{"type":"Feature","properties":{"cadnum":"6321055102:01:001:0279"},"geometry":{"type":"Polygon","coordinates":[[[37.646857,49.428851],[37.646185,49.428784],[37.646184462121205,49.428784],[37.645532,49.428719],[37.6455123030303,49.428784],[37.645512,49.428784],[37.645492,49.428851],[37.645942,49.428896],[37.64594735714285,49.428896],[37.646767,49.428977],[37.64682485714285,49.428896],[37.646825,49.428896],[37.646857,49.428851]]]}},{"type":"Feature","properties":{"cadnum":"6321055102:01:002:0258"},"geometry":{"type":"Polygon","coordinates":[[[37.640094,49.426151],[37.640268,49.425833],[37.640044,49.425794],[37.639725,49.425737],[37.63962,49.425945],[37.639579,49.42606],[37.640094,49.426151]]]}},{"type":"Feature","properties":{"cadnum":"6321055102:01:001:0339"},"geometry":{"type":"Polygon","coordinates":[[[37.642596,49.426522],[37.642681,49.426361],[37.641959,49.42622],[37.641782,49.426186],[37.641724,49.426334],[37.642596,49.426522]]]}},{"type":"Feature","properties":{"cadnum":"6321055102:01:001:0330"},"geometry":{"type":"Polygon","coordinates":[[[37.641419,49.426802],[37.641449,49.426693],[37.641812,49.42676],[37.641892,49.426529],[37.641555,49.426455],[37.641571,49.42642],[37.641038,49.42633],[37.640991,49.426323],[37.640904,49.426562],[37.640937,49.42659],[37.640947,49.426592],[37.640934,49.426626],[37.640925,49.426653],[37.641106,49.426767],[37.641419,49.426802]]]}},{"type":"Feature","properties":{"cadnum":"6321055102:01:001:0040"},"geometry":{"type":"Polygon","coordinates":[[[37.642498,49.428404],[37.642667,49.428112],[37.642486,49.428073],[37.642333,49.428368],[37.642498,49.428404]]]}},{"type":"Feature","properties":{"cadnum":"6321055102:01:002:0264"},"geometry":{"type":"Polygon","coordinates":[[[37.640528,49.428041],[37.640599,49.427799],[37.640582,49.42777],[37.639231,49.42756],[37.639676,49.427912],[37.639733,49.427974],[37.640528,49.428041]]]}},{"type":"Feature","properties":{"cadnum":"6321055102:01:001:0054"},"geometry":{"type":"Polygon","coordinates":[[[37.641571,49.426421],[37.641677,49.426162],[37.641142,49.426075],[37.641036,49.426331],[37.641571,49.426421]]]}},{"type":"Feature","properties":{"cadnum":"6321055102:01:001:0013"},"geometry":{"type":"Polygon","coordinates":[[[37.644067,49.427197],[37.644148,49.427006],[37.643613,49.426918],[37.643457,49.426895],[37.643204,49.426846],[37.64328,49.426674],[37.643075,49.426629],[37.642965,49.426778],[37.642749,49.426717],[37.642674,49.426918],[37.644067,49.427197]]]}},{"type":"Feature","properties":{"cadnum":"6321055102:01:001:0037"},"geometry":{"type":"Polygon","coordinates":[[[37.643791,49.427974],[37.643894,49.427716],[37.64354,49.427647],[37.643448,49.427914],[37.643731,49.427961],[37.643791,49.427974]]]}},{"type":"Feature","properties":{"cadnum":"6321055102:01:001:0046"},"geometry":{"type":"Polygon","coordinates":[[[37.642101,49.425963],[37.642145,49.425714],[37.642149,49.4256],[37.64217,49.425549],[37.641499,49.425436],[37.641476,49.425502],[37.64138,49.425745],[37.641341,49.425851],[37.641883,49.425934],[37.642101,49.425963]]]}},{"type":"Feature","properties":{"cadnum":"6321055102:01:001:0036"},"geometry":{"type":"Polygon","coordinates":[[[37.642896,49.426403],[37.642986,49.42619],[37.642044,49.426006],[37.641959,49.42622],[37.642896,49.426403]]]}},{"type":"Feature","properties":{"cadnum":"6321055102:01:002:0263"},"geometry":{"type":"Polygon","coordinates":[[[37.639246,49.42756233160622],[37.640582,49.42777],[37.640428,49.427526],[37.63916829960496,49.427330625492644],[37.638976,49.4273],[37.639074,49.427406330000004],[37.639074,49.427407],[37.639176,49.427517],[37.639231,49.42756],[37.639246,49.427563],[37.639246,49.42756233160622]]]}},{"type":"Feature","properties":{"cadnum":"6321055102:01:001:0035"},"geometry":{"type":"Polygon","coordinates":[[[37.644299,49.426637],[37.644382,49.426441],[37.644043,49.426392],[37.643452,49.426282],[37.642986,49.42619],[37.642896,49.426403],[37.643395,49.4265],[37.643571,49.426532],[37.643715,49.426553],[37.644299,49.426637]]]}},{"type":"Feature","properties":{"cadnum":"6321055102:01:001:0298"},"geometry":{"type":"Polygon","coordinates":[[[37.643359,49.426263],[37.643437,49.426007],[37.642088,49.425849],[37.642044,49.425961],[37.642044,49.426006],[37.642986,49.42619],[37.643359,49.426263]]]}},{"type":"Feature","properties":{"cadnum":"6321055102:01:001:0014"},"geometry":{"type":"Polygon","coordinates":[[[37.642965,49.426778],[37.643075,49.426629],[37.642596,49.426522],[37.642521,49.426506],[37.642186,49.426433],[37.641724,49.426334],[37.641636,49.426474],[37.641892,49.426529],[37.642238,49.426605],[37.642577,49.426679],[37.642749,49.426717],[37.642965,49.426778]],[[37.642355,49.426527],[37.642348,49.426507],[37.64238,49.426502],[37.642386,49.426522],[37.642355,49.426527]]]}},{"type":"Feature","properties":{"cadnum":"6321055102:01:001:0039"},"geometry":{"type":"Polygon","coordinates":[[[37.643441,49.428591],[37.64361,49.428292],[37.643036,49.428191],[37.642667,49.428112],[37.642498,49.428404],[37.64288,49.428488],[37.643441,49.428591]]]}},{"type":"Feature","properties":{"cadnum":"6321055102:01:001:0338"},"geometry":{"type":"Polygon","coordinates":[[[37.643806,49.427603],[37.64392,49.427284],[37.643591,49.427234],[37.643477,49.427553],[37.643806,49.427603]]]}},{"type":"Feature","properties":{"cadnum":"6321055102:01:001:0299"},"geometry":{"type":"Polygon","coordinates":[[[37.644382,49.426441],[37.644504,49.426149],[37.644168,49.426103],[37.643669,49.426034],[37.643437,49.426007],[37.643359,49.426263],[37.643452,49.426282],[37.644043,49.426392],[37.644382,49.426441]]]}},{"type":"Feature","properties":{"cadnum":"6321055102:01:002:0257"},"geometry":{"type":"Polygon","coordinates":[[[37.639172,49.426501],[37.639246,49.426323],[37.639246,49.42632252941177],[37.639308,49.426173],[37.639074,49.42614],[37.639074,49.42614037360179],[37.638799,49.426101],[37.638645,49.426439],[37.638633,49.426466],[37.639159,49.426533],[37.639172,49.426501]]]}},{"type":"Feature","properties":{"cadnum":"6321055102:01:001:0002"},"geometry":{"type":"Polygon","coordinates":[[[37.642305,49.428632],[37.642418,49.428386],[37.64149,49.428181],[37.641404,49.428428],[37.642305,49.428632]]]}},{"type":"Feature","properties":{"cadnum":"6321055102:01:001:0332"},"geometry":{"type":"Polygon","coordinates":[[[37.642674,49.426918],[37.642749,49.426717],[37.641892,49.426529],[37.641812,49.42676],[37.642674,49.426918]]]}},{"type":"Feature","properties":{"cadnum":"6321055102:01:002:0279"},"geometry":{"type":"Polygon","coordinates":[[[37.640425,49.427422],[37.640571,49.42715],[37.640709,49.426813],[37.640248,49.426706],[37.640103,49.427041],[37.639984,49.427319],[37.640425,49.427422]]]}},{"type":"Feature","properties":{"cadnum":"6321055102:01:001:0274"},"geometry":{"type":"Polygon","coordinates":[[[37.644569,49.42589],[37.64464,49.425702],[37.64374,49.425551],[37.643197,49.425477],[37.643114,49.42568],[37.643674,49.425763],[37.644569,49.42589]]]}},{"type":"Feature","properties":{"cadnum":"6321055102:01:001:0337"},"geometry":{"type":"Polygon","coordinates":[[[37.641374,49.427347],[37.641424,49.427163],[37.641452,49.42706],[37.641439,49.427058],[37.641349,49.427047],[37.641318,49.42716],[37.641266,49.427332],[37.641369,49.427346],[37.641374,49.427347]]]}},{"type":"Feature","properties":{"cadnum":"6321055102:01:002:0280"},"geometry":{"type":"Polygon","coordinates":[[[37.640709,49.426813],[37.640756,49.426697],[37.640894,49.426323],[37.640429,49.426285],[37.640291,49.426605],[37.640248,49.426706],[37.640709,49.426813]]]}},{"type":"Feature","properties":{"cadnum":"6321055102:01:001:0334"},"geometry":{"type":"Polygon","coordinates":[[[37.644223,49.426824],[37.644299,49.426637],[37.643715,49.426553],[37.643571,49.426532],[37.643395,49.4265],[37.642896,49.426403],[37.642681,49.426361],[37.642596,49.426522],[37.643075,49.426629],[37.64328,49.426674],[37.643643,49.426732],[37.644223,49.426824]]]}},{"type":"Feature","properties":{"cadnum":"6321055102:01:002:0015"},"geometry":{"type":"Polygon","coordinates":[[[37.635718,49.421099],[37.635959,49.421041],[37.636152,49.420994],[37.636404,49.420911],[37.63616,49.420529],[37.635982,49.420576],[37.635498,49.420702],[37.635718,49.421099]]]}},{"type":"Feature","properties":{"cadnum":"6321055102:01:002:0255"},"geometry":{"type":"Polygon","coordinates":[[[37.634442,49.419973],[37.635066,49.419923],[37.635235,49.419911],[37.635374,49.419886],[37.635398,49.41993],[37.635632,49.4199],[37.635885,49.419869],[37.63584,49.419791],[37.635758,49.419685],[37.635743,49.419667],[37.634376,49.419752],[37.634442,49.419973]]]}},{"type":"Feature","properties":{"cadnum":"6321055102:01:002:0039"},"geometry":{"type":"Polygon","coordinates":[[[37.638899,49.420856],[37.639074,49.42087768587896],[37.639074,49.420878],[37.639717,49.420958],[37.639819,49.420611],[37.639074,49.420495],[37.638899,49.420856]]]}},{"type":"Feature","properties":{"cadnum":"6321055102:01:002:0016"},"geometry":{"type":"Polygon","coordinates":[[[37.635241,49.421214],[37.635718,49.421099],[37.635498,49.420702],[37.635017,49.420828],[37.635241,49.421214]]]}},{"type":"Feature","properties":{"cadnum":"6321055102:01:002:0289"},"geometry":{"type":"Polygon","coordinates":[[[37.639246,49.42133323448276],[37.639364,49.421343],[37.639427,49.421204],[37.639246,49.421172209631735],[37.639246,49.421172],[37.638542,49.421048],[37.638413,49.421033],[37.637921,49.420977],[37.63782,49.421177],[37.638339,49.421255],[37.639246,49.421334],[37.639246,49.42133323448276]]]}},{"type":"Feature","properties":{"cadnum":"6321055102:01:002:0009"},"geometry":{"type":"Polygon","coordinates":[[[37.638588,49.420242],[37.638758,49.419948],[37.638305,49.419855],[37.637843,49.419761],[37.637654,49.420065],[37.638118,49.420153],[37.638588,49.420242]]]}},{"type":"Feature","properties":{"cadnum":"6321055102:01:002:0010"},"geometry":{"type":"Polygon","coordinates":[[[37.639222,49.420043],[37.638758,49.419948],[37.638588,49.420242],[37.638667,49.420258],[37.639074,49.42033585230025],[37.639074,49.420336],[37.63908,49.420337],[37.639222,49.420043]]]}},{"type":"Feature","properties":{"cadnum":"6321055102:01:002:0018"},"geometry":{"type":"Polygon","coordinates":[[[37.639246,49.42052170319635],[37.639731,49.420597],[37.639867,49.420302],[37.639226,49.420186],[37.639074,49.420495],[37.639246,49.420522],[37.639246,49.42052170319635]]]}},{"type":"Feature","properties":{"cadnum":"6321055102:01:002:0045"},"geometry":{"type":"Polygon","coordinates":[[[37.635469,49.421605],[37.635764,49.421552],[37.635954,49.421517],[37.636013,49.421501],[37.635773,49.421086],[37.635241,49.421214],[37.635469,49.421605]]]}},{"type":"Feature","properties":{"cadnum":"6321055102:01:002:0044"},"geometry":{"type":"Polygon","coordinates":[[[37.636013,49.421501],[37.636194,49.421452],[37.636521,49.42141],[37.636608,49.421274],[37.636588,49.421199],[37.636404,49.420911],[37.636152,49.420994],[37.635773,49.421086],[37.636013,49.421501]]]}},{"type":"Feature","properties":{"cadnum":"6321055102:01:002:0017"},"geometry":{"type":"Polygon","coordinates":[[[37.640741,49.420759],[37.640881,49.420486],[37.640436,49.420406],[37.639867,49.420302],[37.639731,49.420597],[37.640289,49.420684],[37.640741,49.420759]]]}},{"type":"Feature","properties":{"cadnum":"6321055102:01:002:0038"},"geometry":{"type":"Polygon","coordinates":[[[37.640586,49.421062],[37.640741,49.420759],[37.640289,49.420684],[37.639819,49.420611],[37.639717,49.420958],[37.640191,49.421018],[37.640586,49.421062]]]}},{"type":"Feature","properties":{"cadnum":"6321055102:01:001:0051"},"geometry":{"type":"Polygon","coordinates":[[[37.643948,49.420344],[37.644,49.42022],[37.64383,49.420195],[37.643799,49.420268],[37.643796,49.420276],[37.643779,49.420323],[37.643948,49.420344]]]}},{"type":"Feature","properties":{"cadnum":"6321055102:01:001:0276"},"geometry":{"type":"Polygon","coordinates":[[[37.648533,49.433128],[37.649728,49.43268],[37.649503,49.43246],[37.648277,49.432915],[37.648533,49.433128]]]}},{"type":"Feature","properties":{"cadnum":"6321055102:01:001:0016"},"geometry":{"type":"Polygon","coordinates":[[[37.648848,49.433278],[37.649681,49.432971],[37.649501,49.432765],[37.648663,49.433079],[37.648848,49.433278]]]}},{"type":"Feature","properties":{"cadnum":"6321055102:01:001:0275"},"geometry":{"type":"Polygon","coordinates":[[[37.647538,49.433497],[37.647958,49.433343],[37.648274,49.433225],[37.648533,49.433128],[37.648277,49.432915],[37.648156,49.432959],[37.647963,49.433032],[37.647778,49.433091],[37.647682,49.433123],[37.647299,49.433269],[37.647538,49.433497]]]}},{"type":"Feature","properties":{"cadnum":"6321055102:01:001:0021"},"geometry":{"type":"Polygon","coordinates":[[[37.647916,49.434233],[37.648315,49.434105],[37.648414,49.434079],[37.648606,49.434029],[37.648807,49.433966],[37.648553,49.433674],[37.648353,49.433738],[37.648167,49.433797],[37.647695,49.433982],[37.647916,49.434233]]]}},{"type":"Feature","properties":{"cadnum":"6321055102:01:001:0302"},"geometry":{"type":"Polygon","coordinates":[[[37.649224,49.435967],[37.649196,49.435929],[37.64919563380282,49.435929],[37.648005,49.434334],[37.646416,49.434847],[37.646483,49.434937],[37.646669,49.435101],[37.646751,49.435118],[37.648081,49.436041],[37.64808298507463,49.436041],[37.648115,49.436063],[37.648577,49.43616],[37.64897592746112,49.436041],[37.648976,49.436041],[37.649224,49.435967]]]}},{"type":"Feature","properties":{"cadnum":"6321055102:01:001:0313"},"geometry":{"type":"Polygon","coordinates":[[[37.646391,49.434855],[37.646416,49.434847],[37.647926,49.43436],[37.64621,49.432611],[37.645741,49.433691],[37.64569,49.433809],[37.645821,49.433921],[37.645666,49.433959],[37.64586,49.434094],[37.645997,49.434298],[37.64615,49.434527],[37.646391,49.434855]]]}},{"type":"Feature","properties":{"cadnum":"6321055102:01:001:0015"},"geometry":{"type":"Polygon","coordinates":[[[37.647771,49.433716],[37.648445,49.433426],[37.648848,49.433278],[37.648663,49.433079],[37.648533,49.433128],[37.648274,49.433225],[37.647958,49.433343],[37.647538,49.433497],[37.647771,49.433716]]]}},{"type":"Feature","properties":{"cadnum":"6321055102:01:001:0319"},"geometry":{"type":"Polygon","coordinates":[[[37.658617,49.438905],[37.659739,49.438778],[37.659801,49.438771],[37.657894,49.436218],[37.657789,49.436203],[37.657242,49.436121],[37.658617,49.438905]]]}},{"type":"Feature","properties":{"cadnum":"6321055102:01:001:0316"},"geometry":{"type":"Polygon","coordinates":[[[37.656348,49.436041],[37.65634860537671,49.436041],[37.657806,49.438996],[37.658617,49.438905],[37.657242,49.436121],[37.65632,49.435983],[37.656348,49.436041]]]}},{"type":"Feature","properties":{"cadnum":"6321055102:01:001:0346"},"geometry":{"type":"Polygon","coordinates":[[[37.648426,49.431218],[37.648734,49.430968],[37.647125,49.429207],[37.647007,49.42969],[37.648426,49.431218]]]}},{"type":"Feature","properties":{"cadnum":"6321055102:01:001:0343"},"geometry":{"type":"Polygon","coordinates":[[[37.645174,49.431261],[37.645213,49.43125],[37.645218,49.43126],[37.645282,49.431245],[37.645277,49.431234],[37.645636,49.431144],[37.647057,49.430781],[37.64696,49.430641],[37.646505,49.430758],[37.646053,49.430874],[37.645545,49.431004],[37.645064,49.431128],[37.645174,49.431261]]]}},{"type":"Feature","properties":{"cadnum":"6321055102:01:001:0020"},"geometry":{"type":"Polygon","coordinates":[[[37.645603,49.430079],[37.645694,49.430031],[37.646271,49.429829],[37.646087,49.429727],[37.645816,49.429576],[37.645308,49.429865],[37.645603,49.430079]]]}},{"type":"Feature","properties":{"cadnum":"6321055102:01:001:0025"},"geometry":{"type":"Polygon","coordinates":[[[37.644939,49.430786],[37.645184,49.430652],[37.645601,49.430427],[37.645328,49.430222],[37.644909,49.430439],[37.644853,49.430468],[37.644684,49.430553],[37.644939,49.430786]]]}},{"type":"Feature","properties":{"cadnum":"6321055102:01:001:0024"},"geometry":{"type":"Polygon","coordinates":[[[37.646028,49.429428],[37.646111,49.429249],[37.645085,49.429139],[37.644987,49.429326],[37.646028,49.429428]]]}},{"type":"Feature","properties":{"cadnum":"6321055102:01:001:0038"},"geometry":{"type":"Polygon","coordinates":[[[37.645541,49.431601],[37.645902,49.431444],[37.647433,49.430914],[37.647318,49.430805],[37.645824,49.431302],[37.645411,49.431474],[37.645541,49.431601]]]}},{"type":"Feature","properties":{"cadnum":"6321055102:01:001:0041"},"geometry":{"type":"Polygon","coordinates":[[[37.646505,49.430758],[37.64761,49.430475],[37.647423,49.430314],[37.646358,49.430578],[37.646505,49.430758]]]}},{"type":"Feature","properties":{"cadnum":"6321055102:01:001:0285"},"geometry":{"type":"Polygon","coordinates":[[[37.647057,49.430781],[37.647695,49.430618],[37.64761,49.430475],[37.64696,49.430641],[37.647057,49.430781]]]}},{"type":"Feature","properties":{"cadnum":"6321055102:01:001:0277"},"geometry":{"type":"Polygon","coordinates":[[[37.646639,49.430043],[37.646808,49.429956],[37.646673,49.429843],[37.646516,49.429924],[37.646639,49.430043]]]}},{"type":"Feature","properties":{"cadnum":"6321055102:01:001:0009"},"geometry":{"type":"Polygon","coordinates":[[[37.646822,49.429325],[37.646885,49.429123],[37.645451,49.42898],[37.645223,49.428957],[37.645186,49.429151],[37.646822,49.429325]]]}},{"type":"Feature","properties":{"cadnum":"6321055102:01:001:0042"},"geometry":{"type":"Polygon","coordinates":[[[37.645064,49.431128],[37.645545,49.431004],[37.646053,49.430874],[37.646505,49.430758],[37.646358,49.430578],[37.645592,49.430769],[37.645422,49.430816],[37.645265,49.43086],[37.644938,49.430975],[37.645064,49.431128]]]}},{"type":"Feature","properties":{"cadnum":"6321055102:01:001:0297"},"geometry":{"type":"Polygon","coordinates":[[[37.647439,49.424292],[37.647584,49.423914],[37.646889,49.423814],[37.646731,49.424192],[37.647439,49.424292]]]}},{"type":"Feature","properties":{"cadnum":"6321055102:01:001:0028"},"geometry":{"type":"Polygon","coordinates":[[[37.647271,49.423498],[37.647352,49.423268],[37.646788,49.423176],[37.646103,49.423083],[37.646005,49.423306],[37.646921,49.423449],[37.647271,49.423498]]]}},{"type":"Feature","properties":{"cadnum":"6321055102:01:001:0057"},"geometry":{"type":"Polygon","coordinates":[[[37.647364,49.424622],[37.647511,49.424302],[37.647439,49.424292],[37.646857,49.424211],[37.646699,49.424524],[37.647364,49.424622]]]}},{"type":"Feature","properties":{"cadnum":"6321055102:01:001:0269"},"geometry":{"type":"Polygon","coordinates":[[[37.647703,49.42261],[37.647521,49.422288],[37.647014,49.42218],[37.64663,49.422108],[37.646509,49.422378],[37.64696,49.422475],[37.647703,49.42261]]]}},{"type":"Feature","properties":{"cadnum":"6321055102:01:001:0340"},"geometry":{"type":"Polygon","coordinates":[[[37.646032,49.422707],[37.646094,49.422542],[37.646138,49.422425],[37.646151,49.42239],[37.645706,49.422325],[37.645673,49.42232],[37.64523,49.422259],[37.645099,49.422575],[37.645548,49.422637],[37.645601,49.422644],[37.646032,49.422707]]]}},{"type":"Feature","properties":{"cadnum":"6321055102:01:001:0288"},"geometry":{"type":"Polygon","coordinates":[[[37.646981,49.423208],[37.647104,49.422914],[37.646645,49.422847],[37.646492,49.422829],[37.646326,49.422809],[37.646229,49.422798],[37.646103,49.423083],[37.646788,49.423176],[37.646981,49.423208]]]}},{"type":"Feature","properties":{"cadnum":"6321055102:01:001:0300"},"geometry":{"type":"Polygon","coordinates":[[[37.648938,49.424819],[37.64899,49.424705],[37.649112,49.424464],[37.648467,49.423598],[37.64801,49.42452],[37.647963,49.42463],[37.648938,49.424819]]]}},{"type":"Feature","properties":{"cadnum":"6321055102:01:001:0029"},"geometry":{"type":"Polygon","coordinates":[[[37.648402,49.423693],[37.648367,49.42345],[37.647716,49.423283],[37.647589,49.423504],[37.648402,49.423693]]]}},{"type":"Feature","properties":{"cadnum":"6321055102:01:001:0056"},"geometry":{"type":"Polygon","coordinates":[[[37.646699,49.424524],[37.646857,49.424211],[37.646371,49.424142],[37.646331,49.424134],[37.64595,49.424058],[37.645787,49.424386],[37.646192,49.424449],[37.646699,49.424524]]]}},{"type":"Feature","properties":{"cadnum":"6321055102:01:001:0296"},"geometry":{"type":"Polygon","coordinates":[[[37.646731,49.424192],[37.646889,49.423814],[37.646674,49.423783],[37.6465,49.423755],[37.646129,49.423697],[37.64595,49.424058],[37.646331,49.424134],[37.646371,49.424142],[37.646731,49.424192]]]}},{"type":"Feature","properties":{"cadnum":"6321055102:01:001:0268"},"geometry":{"type":"Polygon","coordinates":[[[37.64804,49.424738],[37.648207,49.4244],[37.647585,49.424278],[37.647364,49.424622],[37.64804,49.424738]]]}},{"type":"Feature","properties":{"cadnum":"6321055102:01:001:0335"},"geometry":{"type":"Polygon","coordinates":[[[37.645478,49.423937],[37.64556,49.423765],[37.645608,49.423662],[37.645656,49.423558],[37.645131,49.423462],[37.644885,49.423417],[37.644703,49.423773],[37.644966,49.423823],[37.645478,49.423937]]]}},{"type":"Feature","properties":{"cadnum":"6321055102:01:001:0347"},"geometry":{"type":"Polygon","coordinates":[[[37.648113,49.424312],[37.648419,49.423695],[37.648402,49.423693],[37.647569,49.423549],[37.647271,49.423498],[37.646987,49.423459],[37.646857,49.423754],[37.647338,49.423824],[37.647601,49.423869],[37.647474,49.4242],[37.648113,49.424312]]]}},{"type":"Feature","properties":{"cadnum":"6321055102:01:001:0344"},"geometry":{"type":"Polygon","coordinates":[[[37.646857,49.423754],[37.646987,49.423459],[37.646921,49.423449],[37.646005,49.423306],[37.645884,49.423604],[37.646256,49.423664],[37.646429,49.423691],[37.646644,49.423722],[37.646857,49.423754]]]}},{"type":"Feature","properties":{"cadnum":"6321055102:01:001:0270"},"geometry":{"type":"Polygon","coordinates":[[[37.651933,49.43145],[37.653082,49.430638],[37.652067,49.429458],[37.651533,49.4298],[37.650624,49.430455],[37.651933,49.43145]]]}},{"type":"Feature","properties":{"cadnum":"6321055102:01:001:0294"},"geometry":{"type":"Polygon","coordinates":[[[37.650702,49.432384],[37.653259,49.432344],[37.653263,49.432227],[37.653421,49.431954],[37.653434,49.431655],[37.653616,49.431351],[37.653113,49.430679],[37.650702,49.432384]]]}},{"type":"Feature","properties":{"cadnum":"6321055102:01:002:0027"},"geometry":{"type":"Polygon","coordinates":[[[37.635959,49.4266],[37.636025,49.426409],[37.636153,49.426037],[37.636119,49.426035],[37.635986,49.42602],[37.635962,49.426098],[37.635927,49.42608],[37.635688,49.425968],[37.635577,49.42631],[37.635461,49.426488],[37.635959,49.4266]]]}},{"type":"Feature","properties":{"cadnum":"6321055102:01:002:0285"},"geometry":{"type":"Polygon","coordinates":[[[37.636418,49.426651],[37.636463,49.426504],[37.63647,49.426446],[37.636497,49.426221],[37.636562,49.425893],[37.63621,49.425841],[37.636153,49.426037],[37.636043,49.426357],[37.636025,49.426409],[37.635971,49.426567],[37.636418,49.426651]]]}},{"type":"Feature","properties":{"cadnum":"6321055102:01:002:0260"},"geometry":{"type":"Polygon","coordinates":[[[37.637364,49.426841],[37.637435,49.426642],[37.637617,49.42623],[37.637354,49.426196],[37.637177,49.426605],[37.637107,49.426792],[37.637364,49.426841]]]}},{"type":"Feature","properties":{"cadnum":"6321055102:01:002:0276"},"geometry":{"type":"Polygon","coordinates":[[[37.638188,49.426983],[37.638292,49.42674],[37.638445,49.426432],[37.638476,49.426371],[37.63795,49.426329],[37.637803,49.426694],[37.63771,49.426907],[37.638188,49.426983]]]}},{"type":"Feature","properties":{"cadnum":"6321055102:01:001:0032"},"geometry":{"type":"Polygon","coordinates":[[[37.637362,49.42684],[37.637434,49.426641],[37.637618,49.426229],[37.637354,49.426197],[37.637178,49.426606],[37.637106,49.42679],[37.637362,49.42684]]]}},{"type":"Feature","properties":{"cadnum":"6321055102:01:002:0256"},"geometry":{"type":"Polygon","coordinates":[[[37.638892,49.427091],[37.639022,49.426846],[37.639159,49.426533],[37.638633,49.426466],[37.638488,49.426775],[37.638389,49.42702],[37.638892,49.427091]]]}},{"type":"Feature","properties":{"cadnum":"6321055102:01:002:0281"},"geometry":{"type":"Polygon","coordinates":[[[37.637107,49.426792],[37.637177,49.426605],[37.637217,49.426514],[37.637354,49.426196],[37.636872,49.426009],[37.636778,49.426433],[37.636725,49.426734],[37.637107,49.426792]]]}},{"type":"Feature","properties":{"cadnum":"6321055102:01:002:0029"},"geometry":{"type":"Polygon","coordinates":[[[37.63771,49.426907],[37.637803,49.426693],[37.63795,49.426329],[37.637617,49.42623],[37.637435,49.426642],[37.637374,49.426815],[37.637364,49.426841],[37.63771,49.426907]]]}},{"type":"Feature","properties":{"cadnum":"6321055102:01:002:0259"},"geometry":{"type":"Polygon","coordinates":[[[37.636702,49.426731],[37.636754,49.426431],[37.636853,49.425982],[37.636616,49.425959],[37.636497,49.426221],[37.63647,49.426446],[37.636463,49.426504],[37.636408,49.426686],[37.636702,49.426731]]]}},{"type":"Feature","properties":{"cadnum":"6321055102:01:002:0267"},"geometry":{"type":"Polygon","coordinates":[[[37.637909,49.426176],[37.638107,49.425745],[37.637777,49.425681],[37.637579,49.426112],[37.637909,49.426176]]]}}]}