{"type":"FeatureCollection","features":[{"type":"Feature","properties":{"cadnum":"6321082003:01:001:0026"},"geometry":{"type":"Polygon","coordinates":[[[37.783947,49.217284],[37.784258,49.216796],[37.784482,49.216083],[37.78424,49.215856],[37.783979,49.216059],[37.783698,49.216358],[37.783519,49.216984],[37.783266,49.217409],[37.782959,49.217653],[37.782959540983605,49.217653],[37.782641,49.217907],[37.782064,49.218211],[37.781324,49.218678],[37.781437,49.218851],[37.781897,49.218678226624405],[37.781897,49.218679],[37.782708,49.218372],[37.782935,49.218182],[37.783702,49.217548],[37.783947,49.217284]]]}},{"type":"Feature","properties":{"cadnum":"6321082003:01:001:0017"},"geometry":{"type":"Polygon","coordinates":[[[37.780183,49.208851],[37.780016,49.208639],[37.77985,49.208453],[37.779641,49.208227],[37.776405,49.20909],[37.776567,49.209347],[37.776575,49.209359],[37.776575,49.20935836842106],[37.7767,49.209536],[37.776833,49.209705],[37.780183,49.208851]]]}},{"type":"Feature","properties":{"cadnum":"6321082003:01:001:0009"},"geometry":{"type":"Polygon","coordinates":[[[37.779205,49.207585],[37.779099,49.20743],[37.778893,49.206925],[37.776575,49.20754313333333],[37.776575,49.207543],[37.775581,49.207807],[37.775571,49.207872],[37.775624,49.208046],[37.775931,49.208457],[37.776403,49.20833167080745],[37.776403,49.208332],[37.779205,49.207585]]]}},{"type":"Feature","properties":{"cadnum":"6321082003:01:001:0004"},"geometry":{"type":"Polygon","coordinates":[[[37.779641,49.208227],[37.779205,49.207585],[37.776575,49.20828614561028],[37.776575,49.208286],[37.775931,49.208457],[37.776403,49.209087329113935],[37.776403,49.209088],[37.776405,49.20909],[37.776575,49.209045],[37.776575,49.209044663164406],[37.779641,49.208227]]]}},{"type":"Feature","properties":{"cadnum":"6321082003:01:001:0006"},"geometry":{"type":"Polygon","coordinates":[[[37.77818,49.206331],[37.776403,49.206715],[37.776403,49.20671510199296],[37.77612068478261,49.206776],[37.776119,49.206776],[37.775722,49.206862],[37.775718,49.206888],[37.77571812063492,49.206888],[37.775581,49.207807],[37.776403,49.207588682092556],[37.776403,49.207589],[37.778893,49.206925],[37.77883616666674,49.20678841666685],[37.778812,49.206728],[37.77818,49.206331]]]}},{"type":"Feature","properties":{"cadnum":"6321082003:01:001:0024"},"geometry":{"type":"Polygon","coordinates":[[[37.781191,49.21001],[37.780698,49.209442],[37.778542,49.209997],[37.777266,49.210327],[37.77729140666666,49.210364],[37.777291,49.210364],[37.777315124632025,49.21039854072625],[37.777369,49.210477],[37.7773699237435,49.210477],[37.777694,49.210941],[37.778965,49.210603],[37.77943631380754,49.210477],[37.779438,49.210477],[37.781191,49.21001]]]}},{"type":"Feature","properties":{"cadnum":"6321082003:01:001:0003"},"geometry":{"type":"Polygon","coordinates":[[[37.781191,49.21001],[37.77986217344753,49.210364],[37.779859,49.210364],[37.777694,49.210941],[37.778233,49.211182],[37.778631,49.211445],[37.781771,49.210611],[37.781592,49.210466],[37.781191,49.21001]]]}},{"type":"Feature","properties":{"cadnum":"6321082003:01:001:0011"},"geometry":{"type":"Polygon","coordinates":[[[37.777266,49.210327],[37.780698,49.209442],[37.780183,49.208851],[37.776833,49.209705],[37.777266,49.210327]]]}},{"type":"Feature","properties":{"cadnum":"6321082003:01:001:0023"},"geometry":{"type":"Polygon","coordinates":[[[37.778659,49.213229],[37.778273,49.212944],[37.777038,49.213686],[37.776403,49.213842],[37.776403,49.21384221818182],[37.77595166666667,49.213953],[37.775951,49.213953],[37.775585,49.214043],[37.775597,49.214065],[37.775598168539325,49.214065],[37.776171,49.215022],[37.776575,49.214851],[37.776575,49.214850256916996],[37.777162,49.214602],[37.777851804878054,49.214065],[37.777852,49.214065],[37.777952,49.213987],[37.778659,49.213229]]]}},{"type":"Feature","properties":{"cadnum":"6321082003:01:001:0016"},"geometry":{"type":"Polygon","coordinates":[[[37.776403,49.217090475],[37.776403,49.217091],[37.776424,49.217084],[37.776556,49.216999],[37.776346,49.216551],[37.77596,49.215954],[37.773694,49.2159],[37.774484,49.216432],[37.775104,49.217491],[37.776403,49.217090475]]]}},{"type":"Feature","properties":{"cadnum":"6321082003:01:001:0035"},"geometry":{"type":"Polygon","coordinates":[[[37.7795,49.217038],[37.780458,49.216933],[37.780853,49.216587],[37.78034,49.216054],[37.780053,49.215962],[37.779717,49.216329],[37.779784,49.216464],[37.7792,49.216626],[37.7795,49.217038]]]}},{"type":"Feature","properties":{"cadnum":"6321082003:01:001:0032"},"geometry":{"type":"Polygon","coordinates":[[[37.782068,49.216512],[37.782068,49.216511097826086],[37.782173,49.216478],[37.781897,49.216231],[37.781897,49.216232633093526],[37.781234,49.215638],[37.78034,49.216054],[37.780853,49.216587],[37.781524,49.216681],[37.782068,49.216512]]]}},{"type":"Feature","properties":{"cadnum":"6321082003:01:001:0028"},"geometry":{"type":"Polygon","coordinates":[[[37.777601,49.216598],[37.780128,49.215585],[37.780564,49.215387],[37.779986,49.214562],[37.779591,49.214333],[37.778529,49.21569],[37.77727,49.216191],[37.777601,49.216598]]]}},{"type":"Feature","properties":{"cadnum":"6321082003:01:001:0001"},"geometry":{"type":"Polygon","coordinates":[[[37.77526815789475,49.217541],[37.775266,49.217541],[37.775141,49.217573],[37.775183,49.217653],[37.77518362773722,49.217653],[37.775725,49.218669],[37.776015,49.219029],[37.776403,49.218928535714284],[37.776403,49.218929],[37.777317,49.218691],[37.777235,49.218573],[37.776913,49.218111],[37.777201,49.218037],[37.776943967741936,49.217653],[37.776944,49.217653],[37.77691987096632,49.21761699999787],[37.776869,49.217541],[37.77686893189964,49.217541],[37.77657,49.217095],[37.776047,49.217345],[37.77526815789475,49.217541]]]}},{"type":"Feature","properties":{"cadnum":"6321082003:01:001:0008"},"geometry":{"type":"Polygon","coordinates":[[[37.779585,49.217489],[37.779601,49.217422],[37.779731,49.217359],[37.779534,49.217085],[37.779084,49.216468],[37.778984,49.216333],[37.778902,49.216268],[37.778685,49.216359],[37.778753,49.216549],[37.778665,49.216653],[37.778825,49.216923],[37.778748,49.216995],[37.778587,49.217113],[37.778344,49.217148],[37.778186,49.217063],[37.778095,49.216954],[37.778096,49.21679],[37.777889,49.216844],[37.777842,49.21693],[37.777734,49.216984],[37.777604,49.217027],[37.777459,49.217097],[37.777447,49.217248],[37.777136,49.217375],[37.777058,49.217435],[37.77713142201834,49.217541],[37.77713,49.217541],[37.777209,49.217653],[37.777011,49.217753],[37.777201,49.218037],[37.777342,49.218055],[37.777449,49.218122],[37.777613,49.218144],[37.777809,49.218145],[37.777954,49.218071],[37.77796,49.217954],[37.778147,49.217897],[37.778312,49.217901],[37.778388,49.217993],[37.778893,49.217952],[37.779037,49.217906],[37.77896590909091,49.217653],[37.778966,49.217653],[37.778935,49.217543],[37.778996,49.21728],[37.779205,49.217389],[37.779198,49.217457],[37.779314,49.217653],[37.77931455072464,49.217653],[37.77933,49.217679],[37.77967,49.217603],[37.779585,49.217489]]]}},{"type":"Feature","properties":{"cadnum":"6321082003:01:001:0038"},"geometry":{"type":"Polygon","coordinates":[[[37.782068,49.2163840326087],[37.782173,49.216478],[37.783148,49.216054],[37.783352,49.215558],[37.782033,49.214788],[37.781813,49.215227],[37.781234,49.215638],[37.782068,49.216386],[37.782068,49.2163840326087]]]}},{"type":"Feature","properties":{"cadnum":"6321082003:01:001:0040"},"geometry":{"type":"Polygon","coordinates":[[[37.782059,49.213686],[37.781812,49.214065],[37.78181240740741,49.214065],[37.78164,49.214331],[37.781897,49.214410862149535],[37.781897,49.214411],[37.78191597439987,49.214416758399956],[37.782068,49.214464],[37.782068,49.21446289552239],[37.782098,49.214472],[37.782662,49.214697],[37.783384,49.215114],[37.783682,49.215286],[37.784152,49.215418],[37.784419,49.215553],[37.784631,49.215314],[37.784736,49.21502],[37.784626,49.214889],[37.783966,49.214983],[37.783142,49.214759],[37.782799,49.214633],[37.78307,49.214377],[37.783576,49.214593],[37.784003,49.214719],[37.784583,49.214829],[37.784839,49.214833],[37.784776,49.214436],[37.783026,49.213953],[37.7830255540897,49.213953],[37.782068,49.21368848615161],[37.782068,49.213688],[37.782059,49.213686]]]}},{"type":"Feature","properties":{"cadnum":"6321082003:01:001:0036"},"geometry":{"type":"Polygon","coordinates":[[[37.78087200001254,49.21395300000878],[37.780872,49.213953],[37.780871999999995,49.213953],[37.780822,49.213918],[37.780628,49.213829],[37.780424,49.213645],[37.780201,49.213415],[37.780128,49.213514],[37.779756,49.213651],[37.779464,49.213839],[37.779047,49.213538],[37.778824,49.213842],[37.778662,49.214065],[37.77866254545455,49.214065],[37.77864,49.214096],[37.777893,49.214449],[37.777716,49.214583],[37.777424,49.214891],[37.777306,49.215186],[37.777209,49.215489],[37.777621,49.215459],[37.77783,49.215271],[37.778099,49.215246],[37.778357,49.215106],[37.778604,49.215121],[37.778662,49.214697],[37.778952,49.214584],[37.779079,49.214308],[37.77904,49.214146],[37.779381,49.213969],[37.779406,49.214065],[37.779407366197184,49.214065],[37.77942,49.214111],[37.779657,49.214079],[37.77966702564104,49.21400469230758],[37.77968,49.213918],[37.779567,49.213856],[37.780189,49.21357],[37.780494,49.213876],[37.78055084563758,49.213953],[37.78055,49.213953],[37.780604,49.214025],[37.780621,49.214065],[37.78062232258064,49.214065],[37.780675,49.21418],[37.781113,49.214452],[37.781331,49.214326],[37.781391,49.214448],[37.781265,49.214662],[37.781387,49.214758],[37.781679,49.214415],[37.781434,49.214313],[37.781239,49.21421],[37.781031937743194,49.214065],[37.781032,49.214065],[37.78087200001254,49.21395300000878]]]}},{"type":"Feature","properties":{"cadnum":"6321082003:01:001:0031"},"geometry":{"type":"Polygon","coordinates":[[[37.776403,49.21653930131004],[37.776403,49.21654],[37.777188,49.216377],[37.776575,49.215560968152865],[37.776575,49.21556],[37.776171,49.215022],[37.7758,49.215178],[37.77355,49.215442],[37.773694,49.2159],[37.77596,49.215954],[37.776346,49.216551],[37.776403,49.21653930131004]]]}},{"type":"Feature","properties":{"cadnum":"6321082003:01:001:0002"},"geometry":{"type":"Polygon","coordinates":[[[37.778862,49.219426],[37.778154,49.21837],[37.777235,49.218573],[37.777317,49.218691],[37.776575,49.21888421225383],[37.776575,49.218884],[37.776015,49.219029],[37.776403,49.21952855],[37.776403,49.219529],[37.7764619273746,49.21960441899479],[37.776575,49.21975],[37.776575,49.21974913651877],[37.776696,49.219904],[37.778862,49.219426]]]}},{"type":"Feature","properties":{"cadnum":"6321082003:01:001:0029"},"geometry":{"type":"Polygon","coordinates":[[[37.788282,49.21379],[37.788153,49.213855],[37.788032,49.213917],[37.788053162162164,49.213953],[37.788052,49.213953],[37.788382,49.214507],[37.7889,49.214292],[37.78862,49.214012],[37.788282,49.21379]]]}},{"type":"Feature","properties":{"cadnum":"6321082003:01:001:0030"},"geometry":{"type":"Polygon","coordinates":[[[37.789717,49.213949],[37.78923,49.213285],[37.788724,49.213552],[37.78813,49.213784],[37.788153,49.213855],[37.788282,49.21379],[37.78853017117117,49.213953],[37.788528,49.213953],[37.78862,49.214012],[37.788672,49.214065],[37.788673,49.214065],[37.7889,49.214292],[37.788382,49.214507],[37.788366,49.214589],[37.788335,49.214666],[37.788268,49.214751],[37.788176,49.214824],[37.788035,49.214909],[37.787866,49.214988],[37.788241,49.215245],[37.788897,49.215595],[37.789129,49.21546],[37.789409,49.215303],[37.788884,49.214863],[37.789227,49.214747],[37.789985,49.214509],[37.789737,49.213992],[37.789468,49.21409],[37.789442,49.214074],[37.789428,49.214052],[37.789706,49.213953],[37.789705776699044,49.213953],[37.789717,49.213949]]]}},{"type":"Feature","properties":{"cadnum":"6321082003:01:001:0027"},"geometry":{"type":"Polygon","coordinates":[[[37.778862,49.219426],[37.780741,49.219045],[37.779931,49.217797],[37.778154,49.21837],[37.778862,49.219426]]]}},{"type":"Feature","properties":{"cadnum":"6321082003:01:001:0019"},"geometry":{"type":"Polygon","coordinates":[[[37.790983,49.217577],[37.790971,49.217541],[37.79097093181818,49.217541],[37.790924,49.217401],[37.79083,49.217296],[37.790776,49.217218],[37.790492,49.217024],[37.790186,49.216853],[37.790037,49.216718],[37.789364,49.216333],[37.788715,49.216505],[37.7889,49.216608],[37.788058,49.21688],[37.789257,49.217653],[37.78925828877005,49.217653],[37.789375,49.217728],[37.7901736754967,49.217653],[37.790174,49.217653],[37.790983,49.217577]]]}},{"type":"Feature","properties":{"cadnum":"6321082003:01:001:0041"},"geometry":{"type":"Polygon","coordinates":[[[37.78841,49.217653],[37.7884103022508,49.217653],[37.78872,49.217852],[37.788928,49.218055],[37.791038,49.217602],[37.790983,49.217577],[37.789375,49.217728],[37.789084,49.217541],[37.78908327684346,49.217541],[37.788058,49.21688],[37.78739,49.216535],[37.78739,49.21653553854749],[37.786666,49.216161],[37.786476,49.215921],[37.786208,49.216004],[37.785831,49.216151],[37.787508,49.217073],[37.787561,49.217108],[37.787561,49.21710707982261],[37.78841,49.217653]]]}},{"type":"Feature","properties":{"cadnum":"6321082003:01:001:0007"},"geometry":{"type":"Polygon","coordinates":[[[37.787561,49.21662331586826],[37.788058,49.21688],[37.7889,49.216608],[37.788715,49.216505],[37.78966,49.216254],[37.789128,49.216045],[37.78829,49.215615],[37.787561,49.215860430000006],[37.787561,49.21586],[37.786666,49.216161],[37.787561,49.216624],[37.787561,49.21662331586826]]]}},{"type":"Feature","properties":{"cadnum":"6321082003:01:001:0033"},"geometry":{"type":"Polygon","coordinates":[[[37.787561,49.21553325],[37.787606,49.215567],[37.787396967741984,49.2156357096774],[37.787222,49.215693],[37.786476,49.215921],[37.786666,49.216161],[37.78739,49.2159175094972],[37.78739,49.215918],[37.78829,49.215615],[37.78742796525493,49.21496081141012],[37.786784,49.214471],[37.786357,49.214661],[37.787077,49.215169],[37.787561,49.215534],[37.787561,49.21553325]]]}},{"type":"Feature","properties":{"cadnum":"6321082003:01:001:0037"},"geometry":{"type":"Polygon","coordinates":[[[37.787641,49.21461],[37.787753,49.214561],[37.787796,49.214531],[37.787752,49.214357],[37.787587,49.21411],[37.787441726256496,49.21417563128514],[37.787134,49.214314],[37.786784,49.214471],[37.786788,49.214474],[37.787116,49.214724],[37.78739,49.2146642741573],[37.78739,49.214665],[37.787641,49.21461]]]}},{"type":"Feature","properties":{"cadnum":"6321082003:01:001:0034"},"geometry":{"type":"Polygon","coordinates":[[[37.78739,49.215637991150444],[37.78739,49.215638],[37.787396967741984,49.2156357096774],[37.787561,49.215582],[37.787561,49.215581791666665],[37.787606,49.215567],[37.78739,49.215405],[37.78739,49.21540504338844],[37.787077,49.215169],[37.786357,49.214661],[37.785626,49.214989],[37.784919,49.215371],[37.785,49.215561],[37.785579,49.215358],[37.785994,49.215653],[37.786041,49.215632],[37.786757,49.215329],[37.787222,49.215693],[37.78739,49.215637991150444]]]}},{"type":"Feature","properties":{"cadnum":"6321082003:01:001:0025"},"geometry":{"type":"Polygon","coordinates":[[[37.77355,49.215442],[37.7758,49.215178],[37.776171,49.215022],[37.775585,49.214043],[37.774138,49.2144],[37.773544,49.21464],[37.773425,49.214733],[37.77355,49.215442]]]}},{"type":"Feature","properties":{"cadnum":"6321082003:01:001:0013"},"geometry":{"type":"Polygon","coordinates":[[[37.779464,49.213839],[37.779756,49.213651],[37.779711,49.213567],[37.779454,49.213303],[37.779171,49.213179],[37.779047,49.213538],[37.779464,49.213839]]]}},{"type":"Feature","properties":{"cadnum":"6321082003:01:001:0018"},"geometry":{"type":"Polygon","coordinates":[[[37.783573,49.212668],[37.783275,49.212198],[37.782857,49.211852],[37.781897,49.21233],[37.781897,49.2123301952958],[37.780665,49.212944],[37.781304,49.213396],[37.781875,49.213557],[37.781897,49.21354548704663],[37.781897,49.213546],[37.783573,49.212668]]]}},{"type":"Feature","properties":{"cadnum":"6321082003:01:001:0015"},"geometry":{"type":"Polygon","coordinates":[[[37.784396,49.213924],[37.78424,49.213569],[37.783923,49.213151],[37.783573,49.212668],[37.782068,49.21345641885441],[37.782068,49.213456],[37.781875,49.213557],[37.782068,49.213612],[37.782068,49.21361125840336],[37.78327893548386,49.213953],[37.783278,49.213953],[37.783325,49.213966],[37.783675,49.214065],[37.78367611029411,49.214065],[37.784772,49.214374],[37.784512909738716,49.214065],[37.784513,49.214065],[37.784396,49.213924]]]}},{"type":"Feature","properties":{"cadnum":"6321082003:01:001:0005"},"geometry":{"type":"Polygon","coordinates":[[[37.782857,49.211852],[37.782805,49.211809],[37.782619,49.211272],[37.7822,49.211042],[37.78198,49.211099],[37.780228,49.212044],[37.780695,49.212425],[37.780282,49.212672],[37.780665,49.212944],[37.782068,49.212245],[37.782068,49.21224485625],[37.782857,49.211852]]]}},{"type":"Feature","properties":{"cadnum":"6321082003:01:001:0010"},"geometry":{"type":"Polygon","coordinates":[[[37.781964,49.211078],[37.782068,49.211054],[37.782068,49.211053130434784],[37.782194,49.211023],[37.781969,49.210739],[37.781771,49.210611],[37.780167,49.211037],[37.778631,49.211445],[37.779543,49.212129],[37.77974,49.212252],[37.780179,49.212039],[37.781897,49.21111407114846],[37.781897,49.211115],[37.781964,49.211078]]]}},{"type":"Feature","properties":{"cadnum":"6321082003:01:001:0012"},"geometry":{"type":"Polygon","coordinates":[[[37.779711,49.213567],[37.780053,49.213478],[37.779986,49.213398],[37.779928,49.213041],[37.779897,49.212847],[37.779171,49.213179],[37.779454,49.213303],[37.779711,49.213567]]]}},{"type":"Feature","properties":{"cadnum":"6321082003:01:001:0022"},"geometry":{"type":"Polygon","coordinates":[[[37.783352,49.215558],[37.783617,49.21537],[37.782185,49.214654],[37.782139,49.214659],[37.782033,49.214788],[37.783352,49.215558]]]}},{"type":"Feature","properties":{"cadnum":"6321082003:01:001:0014"},"geometry":{"type":"Polygon","coordinates":[[[37.783966,49.214983],[37.784626,49.214889],[37.784583,49.214829],[37.784003,49.214719],[37.783576,49.214593],[37.78307,49.214377],[37.782799,49.214633],[37.783142,49.214759],[37.783966,49.214983]]]}},{"type":"Feature","properties":{"cadnum":"6321082003:01:001:0021"},"geometry":{"type":"Polygon","coordinates":[[[37.786476,49.215921],[37.787222,49.215693],[37.786757,49.215329],[37.786041,49.215632],[37.786476,49.215921]]]}},{"type":"Feature","properties":{"cadnum":"6321082003:01:001:0020"},"geometry":{"type":"Polygon","coordinates":[[[37.785709,49.216199],[37.786208,49.216004],[37.786476,49.215921],[37.786041,49.215632],[37.78583,49.215722],[37.785357,49.215966],[37.785709,49.216199]]]}}]}