{"type":"FeatureCollection","features":[{"type":"Feature","properties":{"cadnum":"6321885001:00:000:0031"},"geometry":{"type":"Polygon","coordinates":[[[37.607884,49.917476],[37.607117,49.916404],[37.606459,49.916663],[37.60628699999901,49.91668700000014],[37.605831,49.916749],[37.605152,49.916976],[37.605325,49.917122],[37.606287,49.917936],[37.606287,49.917935226415096],[37.606539,49.918148],[37.607884,49.917476]]]}},{"type":"Feature","properties":{"cadnum":"6321885001:00:000:0028"},"geometry":{"type":"Polygon","coordinates":[[[37.611187,49.916711],[37.611245,49.916648],[37.611272,49.916609],[37.611324,49.916526],[37.611338,49.916473],[37.611339,49.916464],[37.611364,49.916365],[37.610644,49.916242],[37.610434,49.916189],[37.610255,49.91641],[37.610456,49.916478],[37.610809,49.916597],[37.611187,49.916711]]]}},{"type":"Feature","properties":{"cadnum":"6321885001:00:000:0073"},"geometry":{"type":"Polygon","coordinates":[[[37.608486,49.915708],[37.609968,49.915289],[37.608575,49.914623],[37.60852,49.914948],[37.607992,49.915111],[37.608012,49.915232],[37.606488,49.915743],[37.606547,49.915917],[37.606548513399154,49.915917],[37.606756,49.916515],[37.607136,49.916369],[37.60808,49.916194],[37.60831059536083,49.915917],[37.608311,49.915917],[37.608486,49.915708]]]}},{"type":"Feature","properties":{"cadnum":"6321885001:00:000:0007"},"geometry":{"type":"Polygon","coordinates":[[[37.614938,49.917311],[37.615078,49.917141],[37.615109,49.917103],[37.61503,49.917075],[37.614811,49.917002],[37.614559,49.916917],[37.614403,49.917116],[37.614643,49.917196],[37.61493,49.917309],[37.614938,49.917311]]]}},{"type":"Feature","properties":{"cadnum":"6321885001:00:000:0022"},"geometry":{"type":"Polygon","coordinates":[[[37.614051,49.918344],[37.614229,49.918128],[37.613733,49.917958],[37.613524,49.918167],[37.613599,49.918196],[37.614051,49.918344]]]}},{"type":"Feature","properties":{"cadnum":"6321885001:00:000:0043"},"geometry":{"type":"Polygon","coordinates":[[[37.613135,49.91856],[37.613335,49.918359],[37.613178,49.918299],[37.612818,49.918175],[37.612588,49.918453],[37.612581,49.918535],[37.612669,49.918546],[37.612679,49.918498],[37.612751,49.918462],[37.612997,49.91852],[37.613005,49.918511],[37.613135,49.91856]]]}},{"type":"Feature","properties":{"cadnum":"6321885001:00:000:0083"},"geometry":{"type":"Polygon","coordinates":[[[37.615437,49.916708],[37.615445,49.916701],[37.615515,49.916625],[37.615547,49.916589],[37.615557,49.916572],[37.615602,49.916519],[37.615606,49.916512],[37.615203,49.916371],[37.615043,49.916308],[37.614885,49.916517],[37.615074,49.916588],[37.615437,49.916708]]]}},{"type":"Feature","properties":{"cadnum":"6321885001:00:000:0061"},"geometry":{"type":"Polygon","coordinates":[[[37.614394,49.917128],[37.614403,49.917116],[37.614559,49.916917],[37.614566,49.916909],[37.614208,49.916797],[37.614006,49.916738],[37.613829,49.916968],[37.614394,49.917128]]]}},{"type":"Feature","properties":{"cadnum":"6321885001:00:000:0047"},"geometry":{"type":"Polygon","coordinates":[[[37.613639,49.917003],[37.613726,49.916896],[37.612286,49.916537],[37.612275,49.916674],[37.613639,49.917003]]]}},{"type":"Feature","properties":{"cadnum":"6321885001:00:000:0037"},"geometry":{"type":"Polygon","coordinates":[[[37.613335,49.918359],[37.61352,49.918157],[37.613371,49.918111],[37.613321,49.918095],[37.612986,49.917973],[37.612954,49.918008],[37.612818,49.918175],[37.613178,49.918299],[37.613335,49.918359]]]}},{"type":"Feature","properties":{"cadnum":"6321885001:00:000:0013"},"geometry":{"type":"Polygon","coordinates":[[[37.61352,49.918157],[37.613718,49.917958],[37.61352,49.917889],[37.613289,49.917809],[37.613159,49.917763],[37.613101,49.917835],[37.613072,49.917872],[37.612986,49.917973],[37.613321,49.918095],[37.613371,49.918111],[37.61352,49.918157]]]}},{"type":"Feature","properties":{"cadnum":"6321885001:00:000:0036"},"geometry":{"type":"Polygon","coordinates":[[[37.612897,49.917944],[37.613061,49.917736],[37.612197,49.917506],[37.612254,49.917765],[37.612897,49.917944]]]}},{"type":"Feature","properties":{"cadnum":"6321885001:00:000:0062"},"geometry":{"type":"Polygon","coordinates":[[[37.615271,49.916908],[37.615437,49.916708],[37.615074,49.916588],[37.614885,49.916517],[37.61472,49.916715],[37.614889,49.916781],[37.615271,49.916908]]]}},{"type":"Feature","properties":{"cadnum":"6321885001:00:000:0018"},"geometry":{"type":"Polygon","coordinates":[[[37.599509,49.922261],[37.599518,49.922252],[37.599763,49.922011],[37.599414,49.921864],[37.599155,49.92175],[37.598958,49.921672],[37.598926,49.92166],[37.598906,49.921683],[37.598869,49.92172],[37.598788,49.921803],[37.598761,49.921829],[37.598672,49.921921],[37.598686,49.921947],[37.598781,49.921987],[37.599001,49.922083],[37.599036,49.922101],[37.599084,49.922124],[37.599093,49.922115],[37.599116,49.922095],[37.599509,49.922261]]]}},{"type":"Feature","properties":{"cadnum":"6321885001:00:000:0066"},"geometry":{"type":"Polygon","coordinates":[[[37.597103,49.919342],[37.597101336734696,49.919343],[37.597099,49.919343],[37.59694,49.91944],[37.596952,49.919454],[37.59695354264972,49.919454],[37.597473,49.919991],[37.597625,49.91983],[37.59711314034986,49.919351543858696],[37.597103,49.919342]]]}},{"type":"Feature","properties":{"cadnum":"6321885001:00:000:0067"},"geometry":{"type":"Polygon","coordinates":[[[37.597103,49.919342],[37.596455,49.918721],[37.596321,49.918801],[37.596846035993735,49.919343],[37.596846,49.919343],[37.59694,49.91944],[37.597103,49.919342]]]}},{"type":"Feature","properties":{"cadnum":"6321885001:00:000:0063"},"geometry":{"type":"Polygon","coordinates":[[[37.59728,49.919235],[37.597103,49.919342],[37.597104062499994,49.919343],[37.597104,49.919343],[37.59711314034986,49.919351543858696],[37.597222,49.919454],[37.59722274948666,49.919454],[37.597625,49.91983],[37.59779,49.919658],[37.59741,49.919343],[37.59740969863013,49.919343],[37.59728,49.919235]]]}},{"type":"Feature","properties":{"cadnum":"6321885001:00:000:0080"},"geometry":{"type":"Polygon","coordinates":[[[37.597758,49.922342],[37.597853,49.922258],[37.598133,49.921987],[37.598197,49.921924],[37.597715,49.92171],[37.597652,49.921758],[37.597335,49.921997],[37.597224,49.922081],[37.597758,49.922342]]]}},{"type":"Feature","properties":{"cadnum":"6321885001:00:000:0035"},"geometry":{"type":"Polygon","coordinates":[[[37.595876,49.919066],[37.595435,49.919303],[37.59546758278145,49.919343],[37.595467,49.919343],[37.596703,49.920853],[37.596862,49.920676],[37.597021,49.920466],[37.596103,49.919343],[37.59610231185567,49.919343],[37.595876,49.919066]]]}},{"type":"Feature","properties":{"cadnum":"6321885001:00:000:0065"},"geometry":{"type":"Polygon","coordinates":[[[37.59722,49.922818],[37.597758,49.922342],[37.597224,49.922081],[37.597715,49.92171],[37.597312,49.921607],[37.597102,49.921677],[37.596734,49.921869],[37.596079,49.922244],[37.59722,49.922818]]]}},{"type":"Feature","properties":{"cadnum":"6321885001:00:000:0044"},"geometry":{"type":"Polygon","coordinates":[[[37.596242,49.91885],[37.595876,49.919066],[37.596193,49.919454],[37.59619358018868,49.919454],[37.596449,49.919767],[37.597021,49.920466],[37.59741,49.920057],[37.59672,49.919343],[37.59671949172185,49.919343],[37.596242,49.91885]]]}},{"type":"Feature","properties":{"cadnum":"6321885001:00:000:0064"},"geometry":{"type":"Polygon","coordinates":[[[37.596321,49.918801],[37.596242,49.91885],[37.596827,49.919454],[37.59682726890757,49.919454],[37.59741,49.920057],[37.597473,49.919991],[37.596846,49.919343],[37.5968455696784,49.919343],[37.596321,49.918801]]]}},{"type":"Feature","properties":{"cadnum":"6321885001:00:000:0056"},"geometry":{"type":"Polygon","coordinates":[[[37.598397,49.919131],[37.597382,49.918253],[37.596575,49.918648],[37.597410552109174,49.919343],[37.59741,49.919343],[37.59779,49.919658],[37.598114463970624,49.91937566256699],[37.598397,49.919131]]]}},{"type":"Feature","properties":{"cadnum":"6321885001:00:000:0079"},"geometry":{"type":"Polygon","coordinates":[[[37.599823,49.922033],[37.599972,49.92185],[37.599555,49.921681],[37.599278,49.92158],[37.599168,49.921537],[37.599108,49.921513],[37.599105,49.921512],[37.599088,49.921506],[37.599084,49.921504],[37.599053,49.921535],[37.599021,49.921568],[37.598926,49.92166],[37.598958,49.921672],[37.599155,49.92175],[37.599414,49.921864],[37.599763,49.922011],[37.599823,49.922033]]]}},{"type":"Feature","properties":{"cadnum":"6321885001:00:000:0049"},"geometry":{"type":"Polygon","coordinates":[[[37.598117,49.922923],[37.598325,49.922738],[37.59853,49.922553],[37.598572,49.922516],[37.598625,49.922467],[37.598809,49.922303],[37.598865,49.922252],[37.598562,49.922102],[37.598501,49.92216],[37.598224,49.922417],[37.597814,49.922801],[37.5981,49.922938],[37.598117,49.922923]]]}},{"type":"Feature","properties":{"cadnum":"6321885001:00:000:0027"},"geometry":{"type":"Polygon","coordinates":[[[37.600252,49.921553],[37.600269,49.921536],[37.600392,49.921421],[37.599878,49.921175],[37.599839,49.921162],[37.599678,49.921097],[37.599533,49.921042],[37.599497,49.921079],[37.599472,49.921106],[37.5994,49.921183],[37.599376,49.921207],[37.599659,49.921313],[37.599714,49.921332],[37.599838,49.921377],[37.600252,49.921553]]]}},{"type":"Feature","properties":{"cadnum":"6321885001:00:000:0024"},"geometry":{"type":"Polygon","coordinates":[[[37.599976,49.921852],[37.600106,49.921701],[37.599525,49.921462],[37.599506,49.921455],[37.599502,49.92146],[37.599445,49.921435],[37.599264,49.921366],[37.599246,49.921359],[37.599211,49.92139],[37.599201,49.921392],[37.599092,49.921501],[37.599088,49.921506],[37.599105,49.921512],[37.599108,49.921513],[37.599278,49.92158],[37.599555,49.921681],[37.599976,49.921852]]]}},{"type":"Feature","properties":{"cadnum":"6321885001:00:000:0017"},"geometry":{"type":"Polygon","coordinates":[[[37.599626,49.920423],[37.599699,49.920342],[37.59973,49.92031],[37.599754,49.920282],[37.599431,49.920145],[37.599239,49.920057],[37.599172,49.920026],[37.599088,49.919988],[37.599013,49.919956],[37.598397,49.919697],[37.598235,49.919859],[37.59882,49.920108],[37.598935,49.920158],[37.599005,49.920189],[37.599052,49.920209],[37.599323,49.920325],[37.599392,49.920353],[37.599555,49.92041],[37.599564,49.920399],[37.599626,49.920423]]]}},{"type":"Feature","properties":{"cadnum":"6321885001:00:000:0012"},"geometry":{"type":"Polygon","coordinates":[[[37.599754,49.920282],[37.599858,49.920168],[37.599887,49.920136],[37.599901,49.920121],[37.599591,49.919991],[37.599414,49.919915],[37.599325,49.919876],[37.599179,49.919812],[37.598479,49.919501],[37.598309,49.919659],[37.599013,49.919956],[37.599088,49.919988],[37.599146,49.919947],[37.599225,49.919983],[37.599172,49.920026],[37.599239,49.920057],[37.599431,49.920145],[37.599754,49.920282]]]}},{"type":"Feature","properties":{"cadnum":"6321885001:00:000:0016"},"geometry":{"type":"Polygon","coordinates":[[[37.598895,49.921232],[37.598981,49.921135],[37.599012,49.921101],[37.599044,49.921066],[37.598948,49.921028],[37.598855,49.920992],[37.598844,49.920987],[37.598821,49.920979],[37.598749,49.92095],[37.598678,49.920924],[37.598631,49.920907],[37.598302,49.920815],[37.598039,49.920738],[37.59754,49.920565],[37.597421,49.920681],[37.597898,49.92085],[37.598141,49.920943],[37.598215,49.92097],[37.598435,49.921053],[37.598462,49.921062],[37.598872,49.921222],[37.598895,49.921232]]]}},{"type":"Feature","properties":{"cadnum":"6321885001:00:000:0082"},"geometry":{"type":"Polygon","coordinates":[[[37.599189,49.920906],[37.599331,49.920753],[37.59873,49.920523],[37.597898,49.920189],[37.597728,49.920355],[37.598505,49.920649],[37.59872,49.920728],[37.599189,49.920906]]]}},{"type":"Feature","properties":{"cadnum":"6321885001:00:000:0019"},"geometry":{"type":"Polygon","coordinates":[[[37.598873,49.922657],[37.598895,49.922637],[37.598927,49.922606],[37.598971,49.922564],[37.599115,49.922439],[37.599162,49.922398],[37.599084,49.922358],[37.599036,49.922334],[37.598865,49.922252],[37.598809,49.922303],[37.598625,49.922467],[37.598593,49.922496],[37.598572,49.922516],[37.598325,49.922738],[37.598165345945944,49.92288],[37.598165,49.92288],[37.598117,49.922923],[37.59827,49.922991],[37.598271164383576,49.922991],[37.598448,49.923069],[37.598644,49.922881],[37.598873,49.922657]]]}},{"type":"Feature","properties":{"cadnum":"6321885001:00:000:0006"},"geometry":{"type":"Polygon","coordinates":[[[37.598832,49.919217],[37.598784,49.919196],[37.598651700000005,49.919343],[37.598651,49.919343],[37.59864,49.919356],[37.599481,49.919726],[37.600044,49.919964],[37.600185,49.919806],[37.599678,49.919584],[37.599667,49.91958],[37.599472,49.919497],[37.59912,49.919343],[37.59911908860759,49.919343],[37.598832,49.919217]]]}},{"type":"Feature","properties":{"cadnum":"6321885001:00:000:0040"},"geometry":{"type":"Polygon","coordinates":[[[37.59864,49.919356],[37.598623,49.919348],[37.598503,49.919454],[37.59850465753425,49.919454],[37.59846,49.919494],[37.598479,49.919501],[37.599179,49.919812],[37.599325,49.919876],[37.599414,49.919915],[37.599591,49.919991],[37.599901,49.920121],[37.599961,49.920062],[37.599995,49.920025],[37.600044,49.919964],[37.599481,49.919726],[37.598862751351355,49.919454],[37.598863,49.919454],[37.59864,49.919356]]]}},{"type":"Feature","properties":{"cadnum":"6321885001:00:000:0005"},"geometry":{"type":"Polygon","coordinates":[[[37.599331,49.920753],[37.599455,49.920616],[37.599463,49.920619],[37.59949,49.92059],[37.599418,49.920561],[37.599411,49.920567],[37.598843,49.920357],[37.598053,49.92002],[37.597898,49.920189],[37.59873,49.920523],[37.599331,49.920753]]]}},{"type":"Feature","properties":{"cadnum":"6321885001:00:000:0025"},"geometry":{"type":"Polygon","coordinates":[[[37.600794,49.92091503806228],[37.600911,49.920962],[37.601106,49.920763],[37.601074,49.920748],[37.600622,49.920557],[37.600622,49.92055716326531],[37.600598,49.920547],[37.600522,49.920529],[37.600461,49.920536],[37.600168,49.920418],[37.600117,49.920471],[37.600079,49.920508],[37.599999,49.920586],[37.600288,49.920712],[37.600324,49.920725],[37.600794,49.920916],[37.600794,49.92091503806228]]]}},{"type":"Feature","properties":{"cadnum":"6321885001:00:000:0010"},"geometry":{"type":"Polygon","coordinates":[[[37.599827,49.919432],[37.599718,49.919376],[37.59965,49.919343],[37.59964925,49.919343],[37.599518,49.91928],[37.599089,49.919086],[37.599001,49.919046],[37.598825,49.919214],[37.599372,49.919454],[37.59937371428572,49.919454],[37.599472,49.919497],[37.599537,49.919525],[37.599771,49.919625],[37.600185,49.919806],[37.600186,49.919806],[37.60028,49.919708],[37.600314,49.919675],[37.600346,49.919641],[37.600252,49.919603],[37.600244,49.919612],[37.599946,49.91948],[37.599914,49.919466],[37.599903,49.919466],[37.599832,49.919435],[37.599827,49.919432]],[[37.599655,49.919553],[37.599682,49.919551],[37.599686,49.919569],[37.599658,49.919571],[37.599655,49.919553]]]}},{"type":"Feature","properties":{"cadnum":"6321885001:00:000:0011"},"geometry":{"type":"Polygon","coordinates":[[[37.600621,49.919343],[37.600642,49.919322],[37.600654,49.919299],[37.600662,49.919118],[37.600471,49.919054],[37.600426,49.91904],[37.600514,49.918878],[37.600582,49.918752],[37.600526,49.918728],[37.600378,49.918665],[37.599961,49.919177],[37.599933,49.91921],[37.600037,49.91926],[37.600087,49.919283],[37.600147,49.919314],[37.600417,49.919454],[37.600419157534255,49.919454],[37.600487,49.919489],[37.60051864383561,49.919454],[37.600519,49.919454],[37.600621,49.919343]],[[37.600177,49.91913],[37.600193,49.919115],[37.600216,49.919126],[37.600198,49.919141],[37.600177,49.91913]]]}},{"type":"Feature","properties":{"cadnum":"6321885001:00:000:0026"},"geometry":{"type":"Polygon","coordinates":[[[37.59949,49.92059],[37.599571,49.920501],[37.599607,49.920462],[37.599638,49.920427],[37.599626,49.920423],[37.599564,49.920399],[37.599555,49.92041],[37.599392,49.920353],[37.599323,49.920325],[37.599052,49.920209],[37.599005,49.920189],[37.598935,49.920158],[37.59882,49.920108],[37.598254,49.919868],[37.598085,49.920034],[37.598627,49.920265],[37.598843,49.920357],[37.59886,49.920363],[37.599411,49.920567],[37.599418,49.920561],[37.59949,49.92059]],[[37.598722,49.920278],[37.598714,49.920241],[37.598847,49.920229],[37.598853,49.920265],[37.598722,49.920278]]]}},{"type":"Feature","properties":{"cadnum":"6321885001:00:000:0058"},"geometry":{"type":"Polygon","coordinates":[[[37.611706,49.920229],[37.61178,49.920178],[37.61178,49.92017656950672],[37.612152,49.919913],[37.611799,49.91971],[37.61166599999918,49.91980380000058],[37.61113,49.920179],[37.611363,49.92039],[37.611505,49.920352],[37.611609,49.92028835820896],[37.611609,49.92029],[37.611706,49.920229]]]}},{"type":"Feature","properties":{"cadnum":"6321885001:00:000:0071"},"geometry":{"type":"Polygon","coordinates":[[[37.61166599999918,49.91980380000058],[37.61178,49.919724],[37.61178,49.919723399999995],[37.611799,49.91971],[37.611702399694174,49.919655598775144],[37.611399,49.919482],[37.610828,49.919905],[37.61113,49.920179],[37.611609,49.9198437],[37.611609,49.919844],[37.61166599999918,49.91980380000058]]]}},{"type":"Feature","properties":{"cadnum":"6321885001:00:000:0069"},"geometry":{"type":"Polygon","coordinates":[[[37.609968,49.915289],[37.610034,49.915271],[37.609932,49.915037],[37.610026,49.914379],[37.610141,49.913918],[37.609685,49.912772],[37.609382,49.912785],[37.608938,49.913344],[37.608846,49.913832],[37.608562,49.914205],[37.608583,49.914577],[37.608575,49.914623],[37.609968,49.915289]]]}},{"type":"Feature","properties":{"cadnum":"6321885001:00:000:0021"},"geometry":{"type":"Polygon","coordinates":[[[37.60101,49.918411],[37.6018,49.918397],[37.601885,49.918392],[37.601727,49.918003],[37.601015,49.918017],[37.60101,49.918411]]]}},{"type":"Feature","properties":{"cadnum":"6321885001:00:000:0050"},"geometry":{"type":"Polygon","coordinates":[[[37.601885,49.918392],[37.601969,49.918388],[37.603097,49.917888],[37.602851,49.917547],[37.602705,49.917403],[37.602559,49.917131],[37.60237,49.916896],[37.600869,49.917064],[37.600898,49.917283],[37.601309,49.917262],[37.601409,49.91711],[37.601687,49.917103],[37.601872,49.917611],[37.601947,49.917965],[37.601727,49.918003],[37.601885,49.918392]]]}},{"type":"Feature","properties":{"cadnum":"6321885001:00:000:0033"},"geometry":{"type":"Polygon","coordinates":[[[37.602462,49.919142],[37.602751,49.919026],[37.602037,49.918583],[37.601884,49.918523],[37.601352,49.918834],[37.602462,49.919142]]]}},{"type":"Feature","properties":{"cadnum":"6321885001:00:000:0038"},"geometry":{"type":"Polygon","coordinates":[[[37.604325,49.918761],[37.606193,49.917856],[37.605325,49.917122],[37.605152,49.916976],[37.603408,49.917814],[37.604325,49.918761]]]}},{"type":"Feature","properties":{"cadnum":"6321885001:00:000:0015"},"geometry":{"type":"Polygon","coordinates":[[[37.604745,49.919196],[37.603408,49.917814],[37.603039,49.917985],[37.602568,49.918176],[37.602738,49.918332],[37.602116,49.918614],[37.602768,49.919019],[37.60317,49.919087],[37.60317,49.919343],[37.60317,49.919454],[37.60317,49.919717],[37.603699,49.919716],[37.603783,49.919714],[37.603758,49.919465],[37.60414041176473,49.919454],[37.604141,49.919454],[37.604349,49.919448],[37.60435,49.919454],[37.6043504,49.919454],[37.604363,49.919508],[37.604628,49.919542],[37.604772,49.919423],[37.604745,49.919196]]]}},{"type":"Feature","properties":{"cadnum":"6321885001:00:000:0009"},"geometry":{"type":"Polygon","coordinates":[[[37.601015,49.918017],[37.601727,49.918003],[37.601947,49.917965],[37.601872,49.917611],[37.601675,49.917662],[37.60102,49.917664],[37.601015,49.918017]]]}},{"type":"Feature","properties":{"cadnum":"6321885001:00:000:0081"},"geometry":{"type":"Polygon","coordinates":[[[37.602549,49.922981],[37.602498,49.922963],[37.602457,49.922948],[37.602449,49.922945],[37.602386,49.922923],[37.602147,49.922824],[37.601919,49.922734],[37.601662,49.922633],[37.601576,49.922707],[37.601493,49.922793],[37.601759,49.922896],[37.60195,49.922978],[37.601965,49.922986],[37.601975,49.922991],[37.60197567567568,49.922991],[37.602044,49.923023],[37.602257,49.923106],[37.602274,49.923105],[37.602303,49.923103],[37.602331,49.923116],[37.602382,49.923138],[37.602453,49.923072],[37.602489,49.923036],[37.60253809090909,49.922991],[37.602539,49.922991],[37.602549,49.922981]]]}},{"type":"Feature","properties":{"cadnum":"6321885001:00:000:0055"},"geometry":{"type":"Polygon","coordinates":[[[37.60073900000052,49.92408843902391],[37.600794,49.924038],[37.600794,49.92403787617261],[37.601155,49.923706],[37.601086,49.923549],[37.600622,49.923967],[37.600622,49.92396712987013],[37.600409,49.924158],[37.600589,49.924226],[37.600622,49.92419573658536],[37.600622,49.924196],[37.60073900000052,49.92408843902391]]]}},{"type":"Feature","properties":{"cadnum":"6321885001:00:000:0078"},"geometry":{"type":"Polygon","coordinates":[[[37.599536,49.91818],[37.599579,49.918141],[37.599639,49.918089],[37.598919,49.917441],[37.598763,49.917527],[37.599536,49.91818]]]}},{"type":"Feature","properties":{"cadnum":"6321885001:00:000:0068"},"geometry":{"type":"Polygon","coordinates":[[[37.597103,49.919342],[37.59728,49.919235],[37.596575,49.918648],[37.596455,49.918721],[37.597103,49.919342]]]}},{"type":"Feature","properties":{"cadnum":"6321885001:00:000:0046"},"geometry":{"type":"Polygon","coordinates":[[[37.600599,49.915689],[37.60036602631578,49.915806],[37.600365,49.915806],[37.599653,49.916164],[37.598839,49.916572],[37.599317,49.917172],[37.599575,49.917028],[37.599895,49.916857],[37.600624,49.916464],[37.6006057112462,49.915917],[37.600606,49.915917],[37.600599,49.915689]]]}},{"type":"Feature","properties":{"cadnum":"6321885001:00:000:0034"},"geometry":{"type":"Polygon","coordinates":[[[37.595837,49.91904],[37.596628,49.918585],[37.596064,49.917972],[37.595129,49.918458],[37.595129,49.91845819702602],[37.594763,49.918648],[37.595129,49.91911788345865],[37.595129,49.919118],[37.595295,49.919331],[37.595301,49.919328],[37.595301,49.91932777859778],[37.595837,49.91904]]]}},{"type":"Feature","properties":{"cadnum":"6321885001:00:000:0051"},"geometry":{"type":"Polygon","coordinates":[[[37.598397,49.919131],[37.598951,49.918698],[37.599205,49.918473],[37.598395,49.917755],[37.598212,49.917849],[37.597957,49.917977],[37.597394,49.918263],[37.598397,49.919131]]]}},{"type":"Feature","properties":{"cadnum":"6321885001:00:000:0048"},"geometry":{"type":"Polygon","coordinates":[[[37.599663,49.919061],[37.6003,49.918573],[37.599579,49.918141],[37.598951,49.918698],[37.599663,49.919061]]]}},{"type":"Feature","properties":{"cadnum":"6321885001:00:000:0054"},"geometry":{"type":"Polygon","coordinates":[[[37.600548,49.918737],[37.600507,49.917382],[37.600194,49.917635],[37.599565,49.917081],[37.598939,49.91743],[37.599661,49.918069],[37.599579,49.918141],[37.6003,49.918573],[37.600548,49.918737]]]}},{"type":"Feature","properties":{"cadnum":"6321885001:00:000:0075"},"geometry":{"type":"Polygon","coordinates":[[[37.599417,49.918285],[37.599536,49.91818],[37.598763,49.917527],[37.598637,49.917597],[37.599417,49.918285]]]}},{"type":"Feature","properties":{"cadnum":"6321885001:00:000:0057"},"geometry":{"type":"Polygon","coordinates":[[[37.596628,49.918585],[37.597924,49.917932],[37.597409,49.917289],[37.596064,49.917972],[37.596628,49.918585]]]}},{"type":"Feature","properties":{"cadnum":"6321885001:00:000:0077"},"geometry":{"type":"Polygon","coordinates":[[[37.599205,49.918473],[37.599311,49.918379],[37.598503,49.917672],[37.598379,49.917741],[37.598395,49.917755],[37.599205,49.918473]]]}},{"type":"Feature","properties":{"cadnum":"6321885001:00:000:0045"},"geometry":{"type":"Polygon","coordinates":[[[37.597924,49.917932],[37.598169,49.917809],[37.598875,49.917418],[37.599317,49.917172],[37.598839,49.916572],[37.597582,49.917203],[37.597409,49.917289],[37.597924,49.917932]]]}},{"type":"Feature","properties":{"cadnum":"6321885001:00:000:0042"},"geometry":{"type":"Polygon","coordinates":[[[37.600194,49.917635],[37.600507,49.917382],[37.600487,49.916585],[37.599565,49.917081],[37.600194,49.917635]]]}},{"type":"Feature","properties":{"cadnum":"6321885001:00:000:0076"},"geometry":{"type":"Polygon","coordinates":[[[37.599311,49.918379],[37.599417,49.918285],[37.598637,49.917597],[37.598503,49.917672],[37.599311,49.918379]]]}},{"type":"Feature","properties":{"cadnum":"6321885001:00:000:0023"},"geometry":{"type":"Polygon","coordinates":[[[37.602049,49.92081],[37.6024,49.920341],[37.602429,49.920287],[37.602414,49.920278],[37.602415,49.920274],[37.602032,49.920203],[37.601969,49.920193],[37.601899,49.92018],[37.601887,49.920177],[37.601836,49.920165],[37.601789,49.920251],[37.601806,49.920254],[37.601798,49.920271],[37.601766,49.920287],[37.601718,49.92038],[37.601633,49.920529],[37.601825,49.920627],[37.601931,49.92071],[37.602049,49.92081]]]}},{"type":"Feature","properties":{"cadnum":"6321885001:00:000:0029"},"geometry":{"type":"Polygon","coordinates":[[[37.601336,49.920861],[37.601633,49.920529],[37.601718,49.92038],[37.601766,49.920287],[37.601798,49.920271],[37.601806,49.920254],[37.601789,49.920251],[37.601836,49.920165],[37.601498,49.920108],[37.601408,49.920249],[37.601364,49.920353],[37.601358,49.920395],[37.601074,49.920748],[37.601106,49.920763],[37.601336,49.920861]]]}},{"type":"Feature","properties":{"cadnum":"6321885001:00:000:0059"},"geometry":{"type":"Polygon","coordinates":[[[37.602064,49.920135],[37.602155,49.919403],[37.601753,49.9194],[37.601671,49.919702],[37.601548,49.920016],[37.602064,49.920135]]]}},{"type":"Feature","properties":{"cadnum":"6321885001:00:000:0041"},"geometry":{"type":"Polygon","coordinates":[[[37.606287,49.92111261466459],[37.606756,49.921207],[37.606815,49.920975],[37.607729,49.921152],[37.607644,49.920884],[37.607367,49.920902],[37.60734,49.920726],[37.607617,49.920708],[37.607458,49.92004],[37.60638,49.920089],[37.606459,49.919928],[37.606286999991966,49.91993200000019],[37.606024,49.919938],[37.605957,49.919743],[37.605413,49.919975],[37.605245,49.920106],[37.60526,49.920185],[37.605846,49.920172],[37.60582,49.920791],[37.605796,49.92087],[37.605725,49.920999],[37.606287,49.921113],[37.606287,49.92111261466459]]]}},{"type":"Feature","properties":{"cadnum":"6321885001:00:000:0020"},"geometry":{"type":"Polygon","coordinates":[[[37.602614,49.92278],[37.602657,49.922733],[37.602687,49.922744],[37.602737,49.922762],[37.602759,49.922733],[37.602789,49.922698],[37.60284,49.922632],[37.602812,49.922621],[37.602777,49.922609],[37.602764,49.922603],[37.602709,49.922581],[37.602458,49.922476],[37.602009,49.922305],[37.601943,49.922369],[37.601855,49.92246],[37.602296,49.922644],[37.602594,49.922771],[37.602614,49.92278]]]}},{"type":"Feature","properties":{"cadnum":"6321885001:00:000:0014"},"geometry":{"type":"Polygon","coordinates":[[[37.601829,49.92105],[37.601916,49.920957],[37.601949,49.920922],[37.601945,49.920919],[37.601969,49.920892],[37.601974,49.920894],[37.602049,49.92081],[37.601931,49.92071],[37.601825,49.920627],[37.601633,49.920529],[37.601336,49.920861],[37.601584,49.920955],[37.601829,49.92105]]]}},{"type":"Feature","properties":{"cadnum":"6321885001:00:000:0060"},"geometry":{"type":"Polygon","coordinates":[[[37.60284,49.922632],[37.602881,49.922582],[37.602824,49.92256],[37.602871,49.922503],[37.602928,49.922441],[37.602988,49.922376],[37.602671,49.922237],[37.602756,49.922144],[37.602692,49.922115],[37.602317,49.921961],[37.602215,49.922065],[37.602009,49.922305],[37.602458,49.922476],[37.602709,49.922581],[37.602764,49.922603],[37.602777,49.922609],[37.602812,49.922621],[37.60284,49.922632]]]}},{"type":"Feature","properties":{"cadnum":"6321885001:00:000:0032"},"geometry":{"type":"Polygon","coordinates":[[[37.602449,49.920979],[37.602779,49.920576],[37.602906,49.92033],[37.602655,49.920304],[37.602627,49.920314],[37.602429,49.920287],[37.6024,49.920341],[37.602049,49.92081],[37.602449,49.920979]]]}},{"type":"Feature","properties":{"cadnum":"6321885001:00:000:0053"},"geometry":{"type":"Polygon","coordinates":[[[37.603123,49.921383],[37.603345,49.921166],[37.60353,49.920975],[37.603515,49.920697],[37.603626,49.920498],[37.602958,49.920342],[37.602831,49.920589],[37.602486,49.921026],[37.603123,49.921383]]]}},{"type":"Feature","properties":{"cadnum":"6321885001:00:000:0030"},"geometry":{"type":"Polygon","coordinates":[[[37.609782,49.920153],[37.610047,49.919928],[37.609714,49.919722],[37.609435,49.919449],[37.608674,49.919742],[37.609176,49.920023],[37.60955,49.920096],[37.609782,49.920153]]]}},{"type":"Feature","properties":{"cadnum":"6321885001:00:000:0002"},"geometry":{"type":"Polygon","coordinates":[[[37.60959,49.920972],[37.609925,49.920861],[37.609909,49.920858],[37.609667,49.920589],[37.609669,49.920586],[37.60962,49.920523],[37.609441,49.920281],[37.609288,49.920102],[37.608993,49.920216],[37.609056,49.92033],[37.609307,49.920645],[37.609396,49.920747],[37.60959,49.920972]]]}},{"type":"Feature","properties":{"cadnum":"6321885001:00:000:0052"},"geometry":{"type":"Polygon","coordinates":[[[37.60773,49.920615],[37.608374,49.920304],[37.60867,49.92005],[37.608462,49.919818],[37.607758,49.919809],[37.607651,49.919901],[37.607623,49.920152],[37.60773,49.920615]]]}},{"type":"Feature","properties":{"cadnum":"6321885001:00:000:0072"},"geometry":{"type":"Polygon","coordinates":[[[37.608493,49.92098],[37.608836,49.92082],[37.608942,49.920779],[37.608753,49.920542],[37.608287,49.920708],[37.60837,49.920843],[37.608417,49.920834],[37.608493,49.92098]]]}},{"type":"Feature","properties":{"cadnum":"6321885001:00:000:0070"},"geometry":{"type":"Polygon","coordinates":[[[37.609042,49.921133],[37.609176,49.921097],[37.608949,49.920787],[37.609235,49.920608],[37.608984,49.920421],[37.608696,49.920471],[37.608942,49.920779],[37.608836,49.92082],[37.609042,49.921133]]]}},{"type":"Feature","properties":{"cadnum":"6321885001:00:000:0074"},"geometry":{"type":"Polygon","coordinates":[[[37.607943,49.921491],[37.608257,49.92139],[37.608662,49.921262],[37.608493,49.92098],[37.608439,49.920877],[37.607808,49.921054],[37.607831,49.921171],[37.60789,49.921311],[37.607902,49.921348],[37.607907,49.921358],[37.607918,49.921398],[37.60795,49.921395],[37.607954,49.921411],[37.607923,49.921416],[37.607927,49.92143],[37.607934,49.921459],[37.607943,49.921491]]]}},{"type":"Feature","properties":{"cadnum":"6321885001:00:000:0008"},"geometry":{"type":"Polygon","coordinates":[[[37.609925,49.920861],[37.610308,49.920733],[37.610174,49.920587],[37.61007,49.920464],[37.60987,49.920353],[37.60951,49.920136],[37.609288,49.920102],[37.609441,49.920281],[37.60962,49.920523],[37.609669,49.920586],[37.609667,49.920589],[37.609909,49.920858],[37.609925,49.920861]]]}}]}