{"type":"FeatureCollection","features":[{"type":"Feature","properties":{"cadnum":"6321082504:01:001:0256"},"geometry":{"type":"Polygon","coordinates":[[[37.800714,49.399711],[37.801553,49.399703],[37.802248,49.400065],[37.802497,49.399926],[37.801913,49.39941],[37.801946,49.399353],[37.801683,49.39899],[37.800525,49.399472],[37.799425,49.399883],[37.79880712466844,49.400194],[37.798807,49.400194],[37.798676,49.40026],[37.79943,49.401015],[37.799916,49.400581],[37.800555,49.400713],[37.800712,49.400626],[37.800354,49.4003],[37.800419,49.400194],[37.80041878777589,49.400194],[37.800714,49.399711]]]}},{"type":"Feature","properties":{"cadnum":"6321082504:01:001:0261"},"geometry":{"type":"Polygon","coordinates":[[[37.795502,49.410485],[37.796153,49.410422],[37.795538,49.409012],[37.795439,49.409077],[37.794984,49.409375],[37.795502,49.410485]]]}},{"type":"Feature","properties":{"cadnum":"6321082504:01:001:0264"},"geometry":{"type":"Polygon","coordinates":[[[37.796153,49.410422],[37.79644,49.410401],[37.795929,49.408843],[37.795971,49.408596],[37.795939,49.408469],[37.794955,49.408541],[37.795092,49.409052],[37.795538,49.409012],[37.796153,49.410422]]]}},{"type":"Feature","properties":{"cadnum":"6321082504:01:001:0003"},"geometry":{"type":"Polygon","coordinates":[[[37.795212,49.407396],[37.794708,49.407426],[37.794683,49.407343],[37.7946826779661,49.407343],[37.794636,49.40719],[37.794538,49.406851],[37.794178,49.406892],[37.794274,49.407228],[37.794482,49.407205],[37.794549,49.407455],[37.794549715719064,49.407455],[37.794601,49.407642],[37.795255,49.407628],[37.795222935344825,49.407455],[37.795223,49.407455],[37.795212,49.407396]]]}},{"type":"Feature","properties":{"cadnum":"6321082504:01:001:0262"},"geometry":{"type":"Polygon","coordinates":[[[37.794869,49.410537],[37.795502,49.410485],[37.794984,49.409375],[37.795439,49.409077],[37.794444,49.409167],[37.794743,49.410477],[37.794869,49.410537]]]}},{"type":"Feature","properties":{"cadnum":"6321082504:01:001:0004"},"geometry":{"type":"Polygon","coordinates":[[[37.795212,49.407396],[37.795255,49.407628],[37.795627,49.40762],[37.795587,49.407373],[37.795212,49.407396]]]}},{"type":"Feature","properties":{"cadnum":"6321082504:01:001:0001"},"geometry":{"type":"Polygon","coordinates":[[[37.791084,49.4036],[37.790666,49.403685],[37.79071785714286,49.403769],[37.790717,49.403769],[37.79085,49.403982],[37.790816,49.404122],[37.790599,49.404191],[37.790296,49.404273],[37.790552,49.404744],[37.790925,49.404655],[37.791198,49.404467],[37.791854,49.404237],[37.79159,49.403963],[37.791349,49.403814],[37.791084,49.4036]]]}},{"type":"Feature","properties":{"cadnum":"6321082504:01:001:0263"},"geometry":{"type":"Polygon","coordinates":[[[37.798548,49.401408526448364],[37.798773,49.40168],[37.799651,49.402739],[37.800557,49.402276],[37.799382,49.401058],[37.79943,49.401015],[37.798676,49.40026],[37.798376,49.400411],[37.798376,49.400411135433075],[37.797913,49.400643],[37.798548,49.401409],[37.798548,49.401408526448364]]]}},{"type":"Feature","properties":{"cadnum":"6321082504:01:001:0254"},"geometry":{"type":"Polygon","coordinates":[[[37.798548,49.401408],[37.797913,49.400643],[37.796891,49.400976],[37.798267,49.402649],[37.798376,49.402659473309605],[37.798376,49.40266],[37.799381,49.402754],[37.799651,49.402739],[37.798548,49.40140847921568],[37.798548,49.401408]]]}},{"type":"Feature","properties":{"cadnum":"6321082504:01:001:0255"},"geometry":{"type":"Polygon","coordinates":[[[37.796118,49.403399],[37.797267,49.403099],[37.795777,49.401309],[37.794657,49.401639],[37.796118,49.403399]]]}},{"type":"Feature","properties":{"cadnum":"6321082504:01:001:0253"},"geometry":{"type":"Polygon","coordinates":[[[37.795238,49.403414],[37.796118,49.403399],[37.794657,49.401639],[37.793418,49.402025],[37.79446,49.403389],[37.794744,49.403305],[37.795238,49.403414]]]}},{"type":"Feature","properties":{"cadnum":"6321082504:01:001:0260"},"geometry":{"type":"Polygon","coordinates":[[[37.78555,49.406053],[37.786773,49.405725],[37.786262,49.405096],[37.785703,49.404598],[37.785331,49.404419],[37.785066,49.404417],[37.784419,49.40458],[37.78555,49.406053]]]}},{"type":"Feature","properties":{"cadnum":"6321082504:01:001:0257"},"geometry":{"type":"Polygon","coordinates":[[[37.785622,49.406148],[37.784419,49.40458],[37.783959,49.40475],[37.783503,49.404987],[37.783856,49.405174],[37.784054,49.405323],[37.78458,49.405439],[37.784901,49.405683],[37.785137,49.406144],[37.785406,49.406081],[37.785622,49.406148]]]}},{"type":"Feature","properties":{"cadnum":"6321082504:01:001:0007"},"geometry":{"type":"Polygon","coordinates":[[[37.791354,49.407109],[37.791877,49.407031],[37.791829,49.406798],[37.791683,49.406464],[37.791157,49.406549],[37.791291,49.406827],[37.791354,49.407109]]]}},{"type":"Feature","properties":{"cadnum":"6321082504:01:001:0251"},"geometry":{"type":"Polygon","coordinates":[[[37.790272,49.407259],[37.790697,49.407204],[37.790594,49.406964],[37.790443,49.40663],[37.789848,49.406775],[37.790052,49.407087],[37.790154,49.407062],[37.790272,49.407259]]]}},{"type":"Feature","properties":{"cadnum":"6321082504:01:001:0008"},"geometry":{"type":"Polygon","coordinates":[[[37.791157,49.406549],[37.791683,49.406464],[37.791527,49.406111],[37.790997,49.40622],[37.791157,49.406549]]]}},{"type":"Feature","properties":{"cadnum":"6321082504:01:001:0002"},"geometry":{"type":"Polygon","coordinates":[[[37.788645,49.405448],[37.789025,49.405366],[37.789596,49.405141],[37.789356,49.404725],[37.789202,49.404457],[37.788298,49.404619],[37.788645,49.405448]]]}},{"type":"Feature","properties":{"cadnum":"6321082504:01:001:0259"},"geometry":{"type":"Polygon","coordinates":[[[37.789596,49.405141],[37.790233,49.40505],[37.790599,49.404878],[37.790297,49.404342],[37.789202,49.404457],[37.789596,49.405141]]]}},{"type":"Feature","properties":{"cadnum":"6321082504:01:001:0252"},"geometry":{"type":"Polygon","coordinates":[[[37.789848,49.406775],[37.790443,49.40663],[37.790296,49.4063],[37.78964,49.406456],[37.789848,49.406775]]]}},{"type":"Feature","properties":{"cadnum":"6321082504:01:001:0006"},"geometry":{"type":"Polygon","coordinates":[[[37.793566,49.40622],[37.794078,49.406149],[37.793844,49.405509],[37.793339,49.405653],[37.793566,49.40622]]]}},{"type":"Feature","properties":{"cadnum":"6321082504:01:001:0005"},"geometry":{"type":"Polygon","coordinates":[[[37.793785,49.406791],[37.794303,49.406731],[37.794164,49.40638],[37.79415,49.406348],[37.794078,49.406149],[37.793566,49.40622],[37.793643,49.406416],[37.793657,49.40645],[37.793785,49.406791]]]}},{"type":"Feature","properties":{"cadnum":"6321082504:01:001:0258"},"geometry":{"type":"Polygon","coordinates":[[[37.791791,49.408379],[37.792306,49.408271],[37.792265,49.408161],[37.792628,49.408085],[37.792415,49.407582],[37.791684,49.407707],[37.791827,49.408016],[37.791689,49.408051],[37.791791,49.408379]]]}}]}