{"type":"FeatureCollection","features":[{"type":"Feature","properties":{"cadnum":"6321886003:00:000:0019"},"geometry":{"type":"Polygon","coordinates":[[[38.007777,49.787264],[38.008055,49.787152],[38.007845,49.786866],[38.007787,49.786778],[38.007728,49.786689],[38.007458,49.786785],[38.007566,49.786964],[38.007572,49.786965],[38.007596,49.787],[38.007777,49.787264]]]}},{"type":"Feature","properties":{"cadnum":"6321886003:00:000:0017"},"geometry":{"type":"Polygon","coordinates":[[[37.996724,49.784374],[37.996692,49.784077],[37.997387,49.783991],[37.997572,49.783899],[37.997259,49.783284],[37.99626462330133,49.78353853929664],[37.995871,49.783639],[37.995292,49.783822],[37.995142,49.783914],[37.995103,49.784159],[37.995234,49.784451],[37.995387,49.784662],[37.996302,49.784465],[37.996302,49.784464936026936],[37.996724,49.784374]]]}},{"type":"Feature","properties":{"cadnum":"6321886003:00:000:0016"},"geometry":{"type":"Polygon","coordinates":[[[37.997173,49.785714],[37.997108,49.785652],[37.996695,49.78544],[37.996216,49.785587],[37.996067,49.785633],[37.996105,49.785695],[37.99613,49.78573734693878],[37.99613,49.785738],[37.996154,49.785778],[37.996302,49.785883],[37.996302,49.78588256521739],[37.996338,49.785908],[37.997173,49.785714]]]}},{"type":"Feature","properties":{"cadnum":"6321886003:00:000:0013"},"geometry":{"type":"Polygon","coordinates":[[[37.998138,49.786634],[37.998191,49.786178],[37.997824,49.786204],[37.997782,49.786584],[37.997679,49.7866],[37.997683,49.786634],[37.998138,49.786634]]]}},{"type":"Feature","properties":{"cadnum":"6321886003:00:000:0012"},"geometry":{"type":"Polygon","coordinates":[[[37.997963,49.787572],[37.99805,49.787563],[37.998037,49.787427],[37.998037,49.787321],[37.998046,49.787318],[37.998046,49.787256],[37.998075,49.78716],[37.998138,49.786634],[37.997683,49.786634],[37.997753,49.787131],[37.997765,49.787333],[37.997789,49.78743],[37.997813,49.787558],[37.997907,49.787572],[37.997963,49.787572]]]}},{"type":"Feature","properties":{"cadnum":"6321886003:00:000:0011"},"geometry":{"type":"Polygon","coordinates":[[[37.999964,49.787271],[38.000168,49.786328],[37.999802,49.786362],[37.999703,49.787257],[37.999964,49.787271]]]}},{"type":"Feature","properties":{"cadnum":"6321886003:00:000:0018"},"geometry":{"type":"Polygon","coordinates":[[[38.003219,49.785364],[38.003108,49.785214],[38.002943,49.785058],[38.002795,49.784877],[38.002712,49.78491],[38.001623,49.78511],[38.001623,49.78511039092873],[38.000869,49.785248],[38.001055,49.785795],[38.001623,49.785926],[38.001795,49.785931],[38.001795,49.78593035663627],[38.00261,49.785951],[38.003219,49.785364]]]}},{"type":"Feature","properties":{"cadnum":"6321886003:00:000:0014"},"geometry":{"type":"Polygon","coordinates":[[[38.006772,49.786902],[38.007099,49.786882],[38.006908,49.786559],[38.006596,49.786305],[38.006391,49.786051],[38.006089,49.78618],[38.006329,49.786455],[38.006407,49.786426],[38.006686,49.786853],[38.006772,49.786902]]]}},{"type":"Feature","properties":{"cadnum":"6321886003:00:000:0015"},"geometry":{"type":"Polygon","coordinates":[[[38.005013,49.7844],[38.00468,49.784625],[38.00481431535269,49.784755],[38.004814,49.784755],[38.00488710476014,49.78482545079194],[38.004929,49.784866],[38.00492918150685,49.784866],[38.005117,49.785047],[38.006089,49.78618],[38.006391,49.786051],[38.006596,49.786305],[38.006691,49.786275],[38.006436,49.786021],[38.005538,49.784858],[38.00542,49.784755],[38.00541993231441,49.784755],[38.005013,49.7844]]]}}]}