{"type":"FeatureCollection","features":[{"type":"Feature","properties":{"cadnum":"6321883303:00:000:0002"},"geometry":{"type":"Polygon","coordinates":[[[37.875068,49.834978],[37.87528,49.8349813125],[37.87528,49.834982],[37.875719,49.834988],[37.87572,49.834814],[37.875397,49.834822],[37.87528,49.834825],[37.87528,49.83482514328358],[37.875062,49.834831],[37.87506,49.834809],[37.875062,49.834749],[37.875001,49.834749],[37.874344,49.834741],[37.874352,49.834948],[37.87444,49.834945],[37.874442,49.834989],[37.874638,49.834985],[37.874637,49.834999],[37.875068,49.834978]]]}},{"type":"Feature","properties":{"cadnum":"6321883303:00:000:0026"},"geometry":{"type":"Polygon","coordinates":[[[37.877645,49.835698],[37.877654,49.835377],[37.877712,49.834866],[37.87726,49.834843],[37.877238,49.835053],[37.877175,49.835675],[37.877645,49.835698]]]}},{"type":"Feature","properties":{"cadnum":"6321883303:00:000:0003"},"geometry":{"type":"Polygon","coordinates":[[[37.87528,49.83573756368563],[37.87528,49.835738],[37.876007,49.835727],[37.87689,49.83571],[37.876993,49.835008],[37.876746,49.835002],[37.876274,49.83499],[37.875719,49.834988],[37.875452,49.834984350797264],[37.875452,49.834984],[37.875068,49.834978],[37.874637,49.834999],[37.874638,49.834985],[37.874442,49.834989],[37.87444,49.834945],[37.874352,49.834948],[37.87437,49.835276],[37.874425,49.835567],[37.874544,49.83569],[37.874714,49.835746],[37.87528,49.83573756368563]]]}},{"type":"Feature","properties":{"cadnum":"6321883303:00:000:0033"},"geometry":{"type":"Polygon","coordinates":[[[37.880009,49.836252],[37.879996,49.836015],[37.879792,49.836009],[37.879612,49.836],[37.879631,49.835734],[37.87929,49.835739],[37.879306,49.835823],[37.879198,49.835833],[37.879195,49.835951],[37.879253,49.836055],[37.879294,49.836112],[37.879402,49.836182],[37.879576,49.836208],[37.879825,49.836249],[37.880009,49.836252]]]}},{"type":"Feature","properties":{"cadnum":"6321883303:00:000:0008"},"geometry":{"type":"Polygon","coordinates":[[[37.880552,49.835055],[37.880563,49.834867],[37.879974,49.834869],[37.879964,49.835041],[37.880552,49.835055]]]}},{"type":"Feature","properties":{"cadnum":"6321883303:00:000:0039"},"geometry":{"type":"Polygon","coordinates":[[[37.874563,49.834145],[37.874627,49.83403],[37.874646,49.833025],[37.873379,49.832818],[37.872826,49.832912],[37.872844,49.83378],[37.873431,49.833773],[37.873448,49.834095],[37.87425,49.834098],[37.87424636132316,49.834384],[37.874246,49.834384],[37.874245,49.834491],[37.874552,49.834507],[37.87455330693069,49.83445341584161],[37.874563,49.834145]]]}},{"type":"Feature","properties":{"cadnum":"6321883303:00:000:0034"},"geometry":{"type":"Polygon","coordinates":[[[37.87124,49.834203],[37.871249,49.834086],[37.871248,49.833903],[37.870695,49.833903],[37.870694134892084,49.834384],[37.870694,49.834384],[37.870694,49.834459],[37.870789,49.834465],[37.870872,49.83447],[37.870918,49.834471],[37.871034,49.834475],[37.871051,49.834475],[37.871242,49.834481],[37.87124,49.834203]]]}},{"type":"Feature","properties":{"cadnum":"6321883303:00:000:0037"},"geometry":{"type":"Polygon","coordinates":[[[37.871248,49.833903],[37.871246,49.833249],[37.870696,49.833362],[37.870695,49.833903],[37.871248,49.833903]]]}},{"type":"Feature","properties":{"cadnum":"6321883303:00:000:0038"},"geometry":{"type":"Polygon","coordinates":[[[37.87425,49.834098],[37.873448,49.834095],[37.873452,49.834164],[37.873452,49.834299],[37.873454,49.834328],[37.873454,49.834384],[37.873454,49.834414],[37.873455,49.834491],[37.873557,49.83449],[37.873627,49.834488],[37.873969,49.834489],[37.874025,49.83449],[37.874245,49.834491],[37.87425,49.834098]]]}},{"type":"Feature","properties":{"cadnum":"6321883303:00:000:0045"},"geometry":{"type":"Polygon","coordinates":[[[37.878461,49.833649],[37.878492,49.833044],[37.877866,49.833059],[37.877289,49.833122],[37.877311,49.833491],[37.877315,49.833628],[37.878461,49.833649]]]}},{"type":"Feature","properties":{"cadnum":"6321883303:00:000:0040"},"geometry":{"type":"Polygon","coordinates":[[[37.880945,49.83360267298578],[37.880985,49.833604],[37.880996,49.833241],[37.880814,49.833187],[37.880795,49.833183],[37.880843,49.83298],[37.880356,49.832975],[37.880229,49.833069],[37.880204,49.833204],[37.880327,49.833404],[37.880456,49.833484],[37.880563,49.833589],[37.880774,49.83359673298429],[37.880774,49.833597],[37.88085086428583,49.83359955],[37.880945,49.833603],[37.880945,49.83360267298578]]]}},{"type":"Feature","properties":{"cadnum":"6321883303:00:000:0010"},"geometry":{"type":"Polygon","coordinates":[[[37.877556,49.832878],[37.877796,49.832856],[37.877792,49.832837],[37.877867,49.832831],[37.877861,49.8328],[37.87779,49.832443],[37.877622,49.832058],[37.877206,49.832164],[37.877556,49.832878]]]}},{"type":"Feature","properties":{"cadnum":"6321883303:00:000:0011"},"geometry":{"type":"Polygon","coordinates":[[[37.876485,49.833067],[37.877464,49.832887],[37.877556,49.832878],[37.877206,49.832164],[37.877079,49.83217],[37.877281,49.832396],[37.877346,49.832553],[37.876853,49.832688],[37.87598,49.832883],[37.876038,49.832941],[37.87628,49.833035],[37.876485,49.833067]]]}},{"type":"Feature","properties":{"cadnum":"6321883303:00:000:0029"},"geometry":{"type":"Polygon","coordinates":[[[37.885407,49.839762],[37.885737,49.839729],[37.885352,49.83859],[37.885033,49.838608],[37.884995,49.83861],[37.885407,49.839762]]]}},{"type":"Feature","properties":{"cadnum":"6321883303:00:000:0030"},"geometry":{"type":"Polygon","coordinates":[[[37.883708,49.839889],[37.884739,49.839817],[37.884327,49.838666],[37.884295,49.838667],[37.883913,49.8387],[37.883296,49.838718],[37.883708,49.839889]]]}},{"type":"Feature","properties":{"cadnum":"6321883303:00:000:0032"},"geometry":{"type":"Polygon","coordinates":[[[37.886438,49.840872],[37.886438,49.84087196240601],[37.886546,49.840861],[37.886267,49.839861],[37.886267,49.83986398113206],[37.886226,49.839717],[37.885977,49.839738],[37.88628,49.840888],[37.886438,49.840872]]]}},{"type":"Feature","properties":{"cadnum":"6321883303:00:000:0016"},"geometry":{"type":"Polygon","coordinates":[[[37.88746,49.839582],[37.887046,49.838387],[37.886489,49.838462],[37.886438,49.83846912162162],[37.886438,49.838469],[37.886087,49.838517],[37.885666,49.838564],[37.885371,49.838589],[37.885352,49.83859],[37.885737,49.839729],[37.886267,49.83968363623395],[37.886267,49.839684],[37.88746,49.839582]]]}},{"type":"Feature","properties":{"cadnum":"6321883303:00:000:0019"},"geometry":{"type":"Polygon","coordinates":[[[37.884405,49.837758],[37.884078,49.837803],[37.8841091319149,49.837927],[37.884109,49.837927],[37.884295,49.838667],[37.884327,49.838666],[37.884594,49.838647],[37.884463741666664,49.838038],[37.884464,49.838038],[37.884405,49.837758]]]}},{"type":"Feature","properties":{"cadnum":"6321883303:00:000:0020"},"geometry":{"type":"Polygon","coordinates":[[[37.88479,49.837715],[37.884405,49.837758],[37.884440610714286,49.837927],[37.88444,49.837927],[37.884594,49.838647],[37.884932,49.838614],[37.884995,49.83861],[37.885033,49.838608],[37.88487648017621,49.838038],[37.884877,49.838038],[37.88479,49.837715]]]}},{"type":"Feature","properties":{"cadnum":"6321883303:00:000:0031"},"geometry":{"type":"Polygon","coordinates":[[[37.884346,49.840921],[37.885113,49.840916],[37.884841,49.83984],[37.884059,49.839885],[37.884346,49.840921]]]}},{"type":"Feature","properties":{"cadnum":"6321883303:00:000:0022"},"geometry":{"type":"Polygon","coordinates":[[[37.885005,49.839799],[37.885407,49.839762],[37.884995,49.83861],[37.884932,49.838614],[37.884594,49.838647],[37.885005,49.839799]]]}},{"type":"Feature","properties":{"cadnum":"6321883303:00:000:0027"},"geometry":{"type":"Polygon","coordinates":[[[37.882946,49.837837],[37.882209,49.837892],[37.882242,49.838038],[37.882243380022956,49.838038],[37.882424,49.838798],[37.883075,49.838732],[37.883225,49.838717],[37.882989480176434,49.83797572246767],[37.882946,49.837837]]]}},{"type":"Feature","properties":{"cadnum":"6321883303:00:000:0023"},"geometry":{"type":"Polygon","coordinates":[[[37.884739,49.839817],[37.885005,49.839799],[37.884594,49.838647],[37.884327,49.838666],[37.884739,49.839817]]]}},{"type":"Feature","properties":{"cadnum":"6321883303:00:000:0017"},"geometry":{"type":"Polygon","coordinates":[[[37.885113,49.840916],[37.88628,49.840888],[37.885977,49.839738],[37.884841,49.83984],[37.885113,49.840916]]]}},{"type":"Feature","properties":{"cadnum":"6321883303:00:000:0015"},"geometry":{"type":"Polygon","coordinates":[[[37.88553,49.838014],[37.885439,49.837651],[37.885121,49.837674],[37.885190505494506,49.837927],[37.88519,49.837927],[37.885371,49.838589],[37.885666,49.838564],[37.88553593454546,49.838038],[37.885536,49.838038],[37.88553,49.838014]]]}},{"type":"Feature","properties":{"cadnum":"6321883303:00:000:0025"},"geometry":{"type":"Polygon","coordinates":[[[37.88586,49.837629],[37.8859345,49.837927],[37.885934,49.837927],[37.885945,49.837969],[37.885962,49.838038],[37.885962879562044,49.838038],[37.886087,49.838517],[37.886267,49.838492384615385],[37.886267,49.838493],[37.886489,49.838462],[37.88634,49.837927],[37.886339183288406,49.837927],[37.886267,49.837667],[37.886267,49.83766884799998],[37.886245,49.83759],[37.88586,49.837629]]]}},{"type":"Feature","properties":{"cadnum":"6321883303:00:000:0013"},"geometry":{"type":"Polygon","coordinates":[[[37.885945,49.837969],[37.885825,49.837486],[37.885748,49.837233],[37.885372,49.83726],[37.885399,49.837487],[37.88550837381404,49.837927],[37.885508,49.837927],[37.88553,49.838014],[37.885945,49.837969]]]}},{"type":"Feature","properties":{"cadnum":"6321883303:00:000:0014"},"geometry":{"type":"Polygon","coordinates":[[[37.882209,49.837892],[37.881868,49.837921],[37.881869487179486,49.837927],[37.881869,49.837927],[37.88187772939644,49.837960253082215],[37.881897,49.838038],[37.881898139043386,49.838038],[37.882105,49.838826],[37.882278,49.838811],[37.882424,49.838798],[37.882217,49.837927],[37.88221691095891,49.837927],[37.882209,49.837892]]]}},{"type":"Feature","properties":{"cadnum":"6321883303:00:000:0024"},"geometry":{"type":"Polygon","coordinates":[[[37.883708,49.837784],[37.883591,49.837785],[37.882946,49.837837],[37.882974208955225,49.837927],[37.882974,49.837927],[37.882989480176434,49.83797572246767],[37.883009,49.838038],[37.8830092670886,49.838038],[37.883225,49.838717],[37.883075,49.838732],[37.883487,49.839911],[37.883708,49.839889],[37.883296,49.838718],[37.883913,49.8387],[37.883763985769725,49.838038],[37.883764,49.838038],[37.883708,49.837784]]]}},{"type":"Feature","properties":{"cadnum":"6321883303:00:000:0018"},"geometry":{"type":"Polygon","coordinates":[[[37.881279,49.838008],[37.881289,49.838038],[37.88128918934911,49.838038],[37.881566,49.838853],[37.881593,49.838877],[37.88204,49.840055],[37.882049,49.840089],[37.882364,49.840987],[37.883374,49.840964],[37.883098,49.839982],[37.88269,49.840022],[37.882278,49.838811],[37.882105,49.838826],[37.881699,49.83884],[37.881425,49.837976],[37.881279,49.838008]]]}},{"type":"Feature","properties":{"cadnum":"6321883303:00:000:0028"},"geometry":{"type":"Polygon","coordinates":[[[37.883374,49.840964],[37.883839,49.840944],[37.88356,49.839934],[37.883264,49.839964],[37.882848,49.838755],[37.882424,49.838798],[37.882278,49.838811],[37.88269,49.840022],[37.883098,49.839982],[37.883374,49.840964]]]}},{"type":"Feature","properties":{"cadnum":"6321883303:00:000:0035"},"geometry":{"type":"Polygon","coordinates":[[[37.888207,49.839481],[37.888604,49.839387],[37.888227,49.838224],[37.888163,49.838233],[37.887804,49.83828],[37.887931,49.838684],[37.88812,49.839235],[37.888207,49.839481]]]}},{"type":"Feature","properties":{"cadnum":"6321883303:00:000:0021"},"geometry":{"type":"Polygon","coordinates":[[[37.888906,49.839291],[37.889213,49.839213],[37.889652,49.839211],[37.889767,49.83921],[37.889236,49.838085],[37.889125,49.838101],[37.888419,49.8382],[37.888906,49.839291]]]}},{"type":"Feature","properties":{"cadnum":"6321883303:00:000:0006"},"geometry":{"type":"Polygon","coordinates":[[[37.885294,49.835139],[37.885306,49.834971],[37.884983,49.83497],[37.884979,49.835131],[37.885294,49.835139]]]}},{"type":"Feature","properties":{"cadnum":"6321883303:00:000:0042"},"geometry":{"type":"Polygon","coordinates":[[[37.884647,49.837182],[37.884783,49.837175],[37.88483,49.837169],[37.884962,49.837156],[37.884885,49.836872],[37.884873,49.836799],[37.884833,49.836622],[37.884545,49.836703],[37.884566,49.836831],[37.884598,49.836978],[37.884647,49.837182]]]}},{"type":"Feature","properties":{"cadnum":"6321883303:00:000:0009"},"geometry":{"type":"Polygon","coordinates":[[[37.885666,49.835039],[37.885646,49.83524],[37.885695,49.835304],[37.885671,49.835601],[37.886267,49.83562819687093],[37.886267,49.835629],[37.886688,49.835647],[37.887105,49.835663],[37.887526,49.835678],[37.887533,49.835271],[37.887067,49.835267],[37.887077,49.835092],[37.887057,49.835076],[37.886267,49.835055],[37.886267,49.83505534844559],[37.885666,49.835039]]]}},{"type":"Feature","properties":{"cadnum":"6321883303:00:000:0044"},"geometry":{"type":"Polygon","coordinates":[[[37.883178,49.837293],[37.88356,49.837277],[37.883528,49.837036],[37.883497,49.836782],[37.883129,49.836789],[37.88315,49.836949],[37.883173,49.837111],[37.883175,49.837213],[37.883178,49.837293]]]}},{"type":"Feature","properties":{"cadnum":"6321883303:00:000:0004"},"geometry":{"type":"Polygon","coordinates":[[[37.884236,49.836674],[37.884719,49.836534],[37.884655,49.836234],[37.88418,49.836249],[37.884181,49.836256],[37.884187,49.836318],[37.884222,49.836662],[37.884236,49.836674]]]}},{"type":"Feature","properties":{"cadnum":"6321883303:00:000:0041"},"geometry":{"type":"Polygon","coordinates":[[[37.883786,49.836737],[37.884219,49.83668],[37.884222,49.836662],[37.884187,49.836318],[37.884181,49.836256],[37.884108,49.836259],[37.884053,49.836262],[37.883728,49.836278],[37.883749,49.836427],[37.883786,49.836737]]]}},{"type":"Feature","properties":{"cadnum":"6321883303:00:000:0043"},"geometry":{"type":"Polygon","coordinates":[[[37.883417,49.83675],[37.883786,49.836737],[37.883749,49.836427],[37.883728,49.836278],[37.883363,49.836297],[37.883371,49.836433],[37.883417,49.83675]]]}},{"type":"Feature","properties":{"cadnum":"6321883303:00:000:0036"},"geometry":{"type":"Polygon","coordinates":[[[37.88177,49.837374],[37.881834,49.837372],[37.881908,49.837367],[37.882128,49.837354],[37.882091,49.837076],[37.882076,49.837015],[37.882081,49.836855],[37.881731,49.836879],[37.881732,49.837015],[37.881746,49.837094],[37.88175,49.837129],[37.88177,49.837374]]]}},{"type":"Feature","properties":{"cadnum":"6321883303:00:000:0007"},"geometry":{"type":"Polygon","coordinates":[[[37.886536,49.833837],[37.886532,49.83377],[37.88633,49.833776],[37.886334,49.833843],[37.886438,49.83384],[37.886438,49.83383991089109],[37.886536,49.833837]]]}},{"type":"Feature","properties":{"cadnum":"6321883303:00:000:0012"},"geometry":{"type":"Polygon","coordinates":[[[37.8839,49.834138],[37.883917,49.833465],[37.883375,49.833465],[37.88343,49.833712],[37.883475,49.833935],[37.883468,49.834125],[37.8839,49.834138]]]}},{"type":"Feature","properties":{"cadnum":"6321883303:00:000:0005"},"geometry":{"type":"Polygon","coordinates":[[[37.887214,49.836532],[37.88808,49.83651],[37.888066,49.83624],[37.888054,49.836041],[37.887601,49.836038],[37.887437,49.83606],[37.887417,49.836093],[37.887263,49.836098],[37.887214,49.836532]]]}}]}