{"type":"FeatureCollection","features":[{"type":"Feature","properties":{"cadnum":"6321082501:01:001:0015"},"geometry":{"type":"Polygon","coordinates":[[[37.848312,49.377296],[37.848212,49.376294],[37.847868,49.376297],[37.847969,49.37731],[37.847986,49.37731],[37.847986,49.37730930612245],[37.848312,49.377296]]]}},{"type":"Feature","properties":{"cadnum":"6321082501:01:001:0352"},"geometry":{"type":"Polygon","coordinates":[[[37.844652,49.378428],[37.845106,49.378409],[37.844998,49.377577],[37.844556,49.377592],[37.844652,49.378428]]]}},{"type":"Feature","properties":{"cadnum":"6321082501:01:001:0010"},"geometry":{"type":"Polygon","coordinates":[[[37.844435,49.377598],[37.844774,49.377553],[37.844672,49.376285],[37.844334,49.376296],[37.844435,49.377598]]]}},{"type":"Feature","properties":{"cadnum":"6321082501:01:001:0078"},"geometry":{"type":"Polygon","coordinates":[[[37.844101,49.37846],[37.844278,49.378445],[37.844176,49.37762],[37.843991,49.377626],[37.844101,49.37846]]]}},{"type":"Feature","properties":{"cadnum":"6321082501:01:001:0085"},"geometry":{"type":"Polygon","coordinates":[[[37.847922,49.378525],[37.847977,49.378522],[37.847986,49.378522],[37.847986,49.3785218125],[37.848025,49.378521],[37.848005,49.378258],[37.847967,49.377717],[37.847581,49.377727],[37.847627,49.37828],[37.847635,49.378535],[37.847815,49.378528728222996],[37.847815,49.378529],[37.847922,49.378525]]]}},{"type":"Feature","properties":{"cadnum":"6321082501:01:001:0081"},"geometry":{"type":"Polygon","coordinates":[[[37.847719,49.374383],[37.847774,49.375276],[37.8477748923077,49.375276],[37.847776,49.375294],[37.847815,49.37529323902439],[37.847815,49.375294],[37.847981,49.37529],[37.84797347457606,49.3751714745729],[37.847925,49.374395],[37.847719,49.374383]]]}},{"type":"Feature","properties":{"cadnum":"6321082501:01:001:0040"},"geometry":{"type":"Polygon","coordinates":[[[37.847719,49.374383],[37.84757,49.374373],[37.847629,49.375276],[37.84763057894737,49.375276],[37.847632,49.375297],[37.847776,49.375294],[37.847768,49.375164],[37.8477671019037,49.375164],[37.847719,49.374383]]]}},{"type":"Feature","properties":{"cadnum":"6321082501:01:001:0039"},"geometry":{"type":"Polygon","coordinates":[[[37.847297,49.37625],[37.847513,49.376242],[37.847434,49.375314],[37.84721,49.375318],[37.847297,49.37625]]]}},{"type":"Feature","properties":{"cadnum":"6321082501:01:001:0321"},"geometry":{"type":"Polygon","coordinates":[[[37.84757,49.374373],[37.846192,49.374363],[37.84626394085433,49.375164],[37.846263,49.375164],[37.8462717237644,49.375250656059755],[37.846274,49.375276],[37.84627427516779,49.375276],[37.846278,49.375313],[37.845933,49.375348],[37.84603,49.376274],[37.84697,49.376228],[37.847297,49.37625],[37.84721,49.375318],[37.847434,49.375314],[37.847632,49.375297],[37.847623,49.375164],[37.84762168217054,49.375164],[37.84757,49.374373]]]}},{"type":"Feature","properties":{"cadnum":"6321082501:01:001:0076"},"geometry":{"type":"Polygon","coordinates":[[[37.847967,49.377717],[37.847945,49.377404],[37.847556,49.377417],[37.847581,49.377727],[37.847815,49.37772093782383],[37.847815,49.377722],[37.847967,49.377717]]]}},{"type":"Feature","properties":{"cadnum":"6321082501:01:001:0350"},"geometry":{"type":"Polygon","coordinates":[[[37.847969,49.37731],[37.847868,49.376297],[37.847986,49.376296],[37.847986,49.37629597093024],[37.848212,49.376294],[37.848222,49.376247],[37.848147,49.375339],[37.847986,49.375341424698796],[37.847986,49.375341],[37.847436,49.375349],[37.847513,49.376242],[37.84755,49.376278],[37.847597,49.377326],[37.847815,49.377316623655915],[37.847815,49.377317],[37.847969,49.37731]]]}},{"type":"Feature","properties":{"cadnum":"6321082501:01:001:0338"},"geometry":{"type":"Polygon","coordinates":[[[37.846192,49.374363],[37.84525,49.37437],[37.844666,49.374378],[37.844777,49.375276],[37.8447777254902,49.375276],[37.844789,49.375368],[37.844592,49.375369],[37.844629,49.376251],[37.845759,49.376287],[37.845653,49.375351],[37.845933,49.375348],[37.846278,49.375313],[37.8462717237644,49.375250656059755],[37.846192,49.374363]]]}},{"type":"Feature","properties":{"cadnum":"6321082501:01:001:0038"},"geometry":{"type":"Polygon","coordinates":[[[37.847051,49.377349],[37.847597,49.377326],[37.84755,49.376278],[37.846995,49.376264],[37.847051,49.377349]]]}},{"type":"Feature","properties":{"cadnum":"6321082501:01:001:0060"},"geometry":{"type":"Polygon","coordinates":[[[37.845759,49.376287],[37.84603,49.376274],[37.845933,49.375348],[37.845653,49.375351],[37.845759,49.376287]]]}},{"type":"Feature","properties":{"cadnum":"6321082501:01:001:0361"},"geometry":{"type":"Polygon","coordinates":[[[37.844278,49.378445],[37.844652,49.378428],[37.844556,49.377592],[37.844998,49.377577],[37.845106,49.378409],[37.84629,49.378349],[37.847026,49.378322],[37.846911,49.377471],[37.846684,49.377497],[37.845033,49.377546],[37.84493,49.376291],[37.844672,49.376285],[37.844774,49.377553],[37.844435,49.377598],[37.844176,49.37762],[37.844278,49.378445]]]}},{"type":"Feature","properties":{"cadnum":"6321082501:01:001:0419"},"geometry":{"type":"Polygon","coordinates":[[[37.843278,49.378472],[37.844019,49.378467],[37.843955,49.377593],[37.843213,49.377586],[37.84326,49.37792],[37.843262,49.378157],[37.843278,49.378472]]]}},{"type":"Feature","properties":{"cadnum":"6321082501:01:001:0351"},"geometry":{"type":"Polygon","coordinates":[[[37.845033,49.377546],[37.846684,49.377497],[37.846911,49.377471],[37.847051,49.377349],[37.846995,49.376264],[37.846142,49.37632],[37.84493,49.376291],[37.845033,49.377546]]]}},{"type":"Feature","properties":{"cadnum":"6321082501:01:001:0335"},"geometry":{"type":"Polygon","coordinates":[[[37.844435,49.377598],[37.844334,49.376296],[37.844454,49.376292],[37.844419,49.375369],[37.843347,49.375359],[37.843304,49.376259],[37.84331,49.376634],[37.843275,49.376953],[37.843213,49.377586],[37.844435,49.377598]]]}},{"type":"Feature","properties":{"cadnum":"6321082501:01:001:0345"},"geometry":{"type":"Polygon","coordinates":[[[37.844371,49.374391],[37.844666,49.374378],[37.844961,49.374374],[37.844957,49.373443],[37.843358,49.373461],[37.843362,49.375276],[37.843362741721855,49.375276],[37.843363,49.375315],[37.844462,49.375328],[37.844446,49.375164],[37.84444524293785,49.375164],[37.844371,49.374391]]]}},{"type":"Feature","properties":{"cadnum":"6321082501:01:001:0413"},"geometry":{"type":"Polygon","coordinates":[[[37.846868,49.378741],[37.846868,49.37838],[37.846291,49.37841],[37.845382,49.378461],[37.844446,49.378512],[37.843153,49.378561],[37.84314124742268,49.378741],[37.843141,49.378741],[37.843131,49.378896],[37.843221,49.378898],[37.844383,49.378918],[37.846868,49.378904],[37.846868,49.378852],[37.846868,49.378741]]]}},{"type":"Feature","properties":{"cadnum":"6321082501:01:001:0264"},"geometry":{"type":"Polygon","coordinates":[[[37.848166,49.386901],[37.848122,49.38664],[37.848107,49.386326],[37.847986,49.386328486301366],[37.847986,49.386328],[37.847581,49.386336],[37.847591,49.386657],[37.847611,49.386916],[37.847815,49.386910560000004],[37.847815,49.386911],[37.848166,49.386901]]]}},{"type":"Feature","properties":{"cadnum":"6321082501:01:001:0364"},"geometry":{"type":"Polygon","coordinates":[[[37.846405,49.387584],[37.846392,49.387068],[37.845979,49.387064],[37.846013,49.387578],[37.846405,49.387584]]]}},{"type":"Feature","properties":{"cadnum":"6321082501:01:001:0098"},"geometry":{"type":"Polygon","coordinates":[[[37.842493,49.38575706153846],[37.842493,49.385757],[37.841133,49.385817],[37.84113744680851,49.385893],[37.841137,49.385893],[37.84114198812349,49.385970615201416],[37.841144,49.386005],[37.84114419794345,49.386005],[37.841187,49.386671],[37.842493,49.386633],[37.842493,49.38663294712103],[37.843172,49.386613],[37.84311969072163,49.38597464948428],[37.843101,49.385729],[37.842493,49.38575706153846]]]}},{"type":"Feature","properties":{"cadnum":"6321082501:01:001:0124"},"geometry":{"type":"Polygon","coordinates":[[[37.847104,49.386299],[37.84758,49.386294],[37.847576,49.38617],[37.847108,49.386174],[37.847104,49.386299]]]}},{"type":"Feature","properties":{"cadnum":"6321082501:01:001:0279"},"geometry":{"type":"Polygon","coordinates":[[[37.847985,49.385829],[37.847676,49.385834],[37.847566,49.385834],[37.847106,49.385841],[37.847106,49.385893],[37.847106,49.386005],[37.847106797153025,49.386005],[37.847108,49.386174],[37.847576,49.38617],[37.847711,49.38617],[37.847815,49.38616962181818],[37.847815,49.38617],[37.84787973156305,49.38616938643068],[37.847986,49.386169],[37.847986,49.386168379146916],[37.848026,49.386168],[37.848027778181816,49.386005],[37.848028,49.386005],[37.84803,49.385827],[37.847985,49.385829]]]}},{"type":"Feature","properties":{"cadnum":"6321082501:01:001:0125"},"geometry":{"type":"Polygon","coordinates":[[[37.847007,49.387613],[37.847623,49.387596],[37.847588,49.387104],[37.84698,49.387097],[37.847007,49.387613]]]}},{"type":"Feature","properties":{"cadnum":"6321082501:01:001:0339"},"geometry":{"type":"Polygon","coordinates":[[[37.844883,49.387616],[37.845647,49.387614],[37.845639,49.38705],[37.845464,49.387053],[37.844867,49.38731],[37.844883,49.387616]]]}},{"type":"Feature","properties":{"cadnum":"6321082501:01:001:0270"},"geometry":{"type":"Polygon","coordinates":[[[37.847941,49.387083],[37.847941,49.387078],[37.847815,49.387078],[37.847815,49.38707837951807],[37.847609,49.387079],[37.847664,49.387596],[37.847815,49.38759648089172],[37.847815,49.387597],[37.847978,49.387597],[37.847941,49.387083]]]}},{"type":"Feature","properties":{"cadnum":"6321082501:01:001:0054"},"geometry":{"type":"Polygon","coordinates":[[[37.845965,49.387023],[37.846326,49.387021],[37.846964,49.387004],[37.846962,49.386688],[37.846284,49.386714],[37.845964,49.386714],[37.845965,49.387023]]]}},{"type":"Feature","properties":{"cadnum":"6321082501:01:001:0311"},"geometry":{"type":"Polygon","coordinates":[[[37.845211,49.388608],[37.846313,49.388596],[37.846323,49.388596],[37.846318,49.38824],[37.84499,49.388256],[37.845211,49.388608]]]}},{"type":"Feature","properties":{"cadnum":"6321082501:01:001:0324"},"geometry":{"type":"Polygon","coordinates":[[[37.84443,49.385648],[37.843101,49.385729],[37.84311347826087,49.385893],[37.843113,49.385893],[37.84311969072163,49.38597464948428],[37.843122,49.386005],[37.84312217777778,49.386005],[37.843172,49.386613],[37.84240995006931,49.386635386895726],[37.84131,49.386667],[37.841349,49.387086],[37.842321,49.38706136013986],[37.842321,49.387062],[37.843346,49.387036],[37.844426,49.386978],[37.84442779354839,49.386005],[37.844428,49.386005],[37.84443,49.385648]]]}},{"type":"Feature","properties":{"cadnum":"6321082501:01:001:0126"},"geometry":{"type":"Polygon","coordinates":[[[37.846313,49.388896],[37.847684,49.388834],[37.847667,49.388583],[37.846313,49.388596],[37.846313,49.388896]]]}},{"type":"Feature","properties":{"cadnum":"6321082501:01:001:0410"},"geometry":{"type":"Polygon","coordinates":[[[37.847599,49.387913],[37.847617,49.388124],[37.847815,49.388124536585366],[37.847815,49.388125],[37.847986,49.388125],[37.84861,49.388125],[37.848674,49.388816],[37.849897,49.388761],[37.849896,49.387614],[37.849283,49.38761],[37.849302,49.387913],[37.848814,49.38793],[37.847815,49.387916],[37.847815,49.38791634883721],[37.847599,49.387913]]]}},{"type":"Feature","properties":{"cadnum":"6321082501:01:001:0123"},"geometry":{"type":"Polygon","coordinates":[[[37.847109,49.38693],[37.847611,49.386916],[37.847591,49.386657],[37.84758,49.386294],[37.847104,49.386299],[37.84709,49.386672],[37.847109,49.38693]]]}},{"type":"Feature","properties":{"cadnum":"6321082501:01:001:0056"},"geometry":{"type":"Polygon","coordinates":[[[37.845091,49.388244],[37.846105,49.38818],[37.846062,49.387828],[37.845042,49.387892],[37.845091,49.388244]]]}},{"type":"Feature","properties":{"cadnum":"6321082501:01:001:0055"},"geometry":{"type":"Polygon","coordinates":[[[37.845081,49.38703],[37.845965,49.387023],[37.845964,49.386714],[37.845067,49.386714],[37.845081,49.38703]]]}},{"type":"Feature","properties":{"cadnum":"6321082501:01:001:0265"},"geometry":{"type":"Polygon","coordinates":[[[37.848107,49.386326],[37.848099,49.386167],[37.847986,49.38616819366197],[37.847986,49.386168],[37.847576,49.38617],[37.847581,49.386336],[37.847815,49.38633137777778],[37.847815,49.386332],[37.848107,49.386326]]]}},{"type":"Feature","properties":{"cadnum":"6321082501:01:001:0024"},"geometry":{"type":"Polygon","coordinates":[[[37.849783,49.384419],[37.849826,49.38412],[37.849857,49.383851],[37.849283,49.383863],[37.84926,49.384133],[37.849229,49.38439],[37.849783,49.384419]]]}},{"type":"Feature","properties":{"cadnum":"6321082501:01:001:0255"},"geometry":{"type":"Polygon","coordinates":[[[37.852373,49.384387],[37.852915,49.384377],[37.852915,49.384038],[37.852913,49.384015],[37.8529,49.383823],[37.852899,49.383801],[37.852334,49.383858],[37.852353,49.384107],[37.852373,49.384387]]]}},{"type":"Feature","properties":{"cadnum":"6321082501:01:001:0256"},"geometry":{"type":"Polygon","coordinates":[[[37.852334,49.383858],[37.852899,49.383801],[37.852888,49.383657],[37.852323,49.383714],[37.852334,49.383858]]]}},{"type":"Feature","properties":{"cadnum":"6321082501:01:001:0065"},"geometry":{"type":"Polygon","coordinates":[[[37.853473,49.384368],[37.853455,49.383999],[37.853443,49.383791],[37.8529,49.383823],[37.852915,49.384038],[37.852915,49.384377],[37.853308,49.384370661290326],[37.853308,49.384371],[37.853473,49.384368]]]}},{"type":"Feature","properties":{"cadnum":"6321082501:01:001:0113"},"geometry":{"type":"Polygon","coordinates":[[[37.851827,49.382554],[37.852006,49.382553],[37.851995,49.382397],[37.851826,49.382399],[37.851827,49.382512],[37.851827,49.382554]]]}},{"type":"Feature","properties":{"cadnum":"6321082501:01:001:0068"},"geometry":{"type":"Polygon","coordinates":[[[37.852825,49.38568],[37.853356,49.385658],[37.853317,49.385069],[37.852773,49.385074],[37.852825,49.38568]]]}},{"type":"Feature","properties":{"cadnum":"6321082501:01:001:0293"},"geometry":{"type":"Polygon","coordinates":[[[37.852366,49.38598],[37.852341,49.38584],[37.852106,49.38451],[37.851942,49.384514],[37.851638,49.38452],[37.850406,49.384547],[37.850524,49.385312],[37.850533,49.385376],[37.850548,49.385474],[37.850841,49.385481],[37.850835,49.385724],[37.851118,49.385726],[37.851187,49.385726],[37.851377,49.385727],[37.85144505363985,49.385893],[37.851444,49.385893],[37.851484,49.385988],[37.852366,49.38598]]]}},{"type":"Feature","properties":{"cadnum":"6321082501:01:001:0261"},"geometry":{"type":"Polygon","coordinates":[[[37.851737,49.382234],[37.851256,49.382245],[37.851261,49.382369],[37.851264,49.382429],[37.8512643201581,49.382429],[37.851275,49.382622],[37.851296,49.382878],[37.851778,49.382879],[37.85174837366548,49.382429],[37.851749,49.382429],[37.851737,49.382234]]]}},{"type":"Feature","properties":{"cadnum":"6321082501:01:001:0368"},"geometry":{"type":"Polygon","coordinates":[[[37.848431,49.385369],[37.848427,49.385217],[37.848421,49.385008],[37.848427,49.384657],[37.847993,49.384655],[37.847986,49.385043],[37.847986,49.385097],[37.847998,49.385367],[37.848431,49.385369]]]}},{"type":"Feature","properties":{"cadnum":"6321082501:01:001:0309"},"geometry":{"type":"Polygon","coordinates":[[[37.848187,49.384513],[37.848727,49.384498],[37.84871,49.384226],[37.848694,49.38394],[37.848132,49.383947],[37.848162,49.384258],[37.848187,49.384513]]]}},{"type":"Feature","properties":{"cadnum":"6321082501:01:001:0288"},"geometry":{"type":"Polygon","coordinates":[[[37.848865,49.385777],[37.84893,49.385676],[37.848969,49.385216],[37.848427,49.385217],[37.848444,49.385777],[37.848865,49.385777]]]}},{"type":"Feature","properties":{"cadnum":"6321082501:01:001:0369"},"geometry":{"type":"Polygon","coordinates":[[[37.848017,49.385814],[37.848444,49.385777],[37.848431,49.385369],[37.847998,49.385367],[37.848017,49.385814]]]}},{"type":"Feature","properties":{"cadnum":"6321082501:01:001:0421"},"geometry":{"type":"Polygon","coordinates":[[[37.847815,49.385371166666665],[37.847815,49.385372],[37.847909655172515,49.3853694137931],[37.847986,49.385368],[37.847986,49.385367327868856],[37.847998,49.385367],[37.847986,49.385097],[37.847986,49.385043],[37.847993,49.384655],[37.84792991139254,49.384653936708865],[37.847564,49.384647],[37.847557,49.385105],[37.847564,49.38537],[37.84777,49.385372],[37.847815,49.385371166666665]]]}},{"type":"Feature","properties":{"cadnum":"6321082501:01:001:0420"},"geometry":{"type":"Polygon","coordinates":[[[37.84790947926289,49.385794119815664],[37.847986,49.385793],[37.847986,49.38579259701493],[37.848016,49.385792],[37.847998,49.385367],[37.847909655172515,49.3853694137931],[37.84777,49.385372],[37.847564,49.38537],[37.847576,49.385799],[37.847815,49.385795502439024],[37.847815,49.385796],[37.84790947926289,49.385794119815664]]]}},{"type":"Feature","properties":{"cadnum":"6321082501:01:001:0002"},"geometry":{"type":"Polygon","coordinates":[[[37.849716,49.383922],[37.850251,49.383901],[37.85023,49.383731],[37.849703,49.383749],[37.849716,49.383922]]]}},{"type":"Feature","properties":{"cadnum":"6321082501:01:001:0067"},"geometry":{"type":"Polygon","coordinates":[[[37.852773,49.385074],[37.853317,49.385069],[37.853304,49.384861],[37.853282,49.384506],[37.852735,49.384506],[37.852754,49.384849],[37.852773,49.385074]]]}},{"type":"Feature","properties":{"cadnum":"6321082501:01:001:0064"},"geometry":{"type":"Polygon","coordinates":[[[37.853443,49.383791],[37.853432,49.383593],[37.852888,49.383657],[37.8529,49.383823],[37.853308,49.383798955801105],[37.853308,49.383799],[37.853443,49.383791]]]}},{"type":"Feature","properties":{"cadnum":"6321082501:01:001:0304"},"geometry":{"type":"Polygon","coordinates":[[[37.851462,49.383845],[37.852032,49.383835],[37.852038,49.383783],[37.851461,49.383794],[37.851462,49.383845]]]}},{"type":"Feature","properties":{"cadnum":"6321082501:01:001:0287"},"geometry":{"type":"Polygon","coordinates":[[[37.848427,49.385217],[37.848969,49.385216],[37.848985,49.385022],[37.848984,49.384666],[37.848427,49.384657],[37.848421,49.385008],[37.848427,49.385217]]]}},{"type":"Feature","properties":{"cadnum":"6321082501:01:001:0001"},"geometry":{"type":"Polygon","coordinates":[[[37.849759,49.384487],[37.850313,49.384465],[37.850289,49.384197],[37.850282,49.384152],[37.850251,49.383901],[37.849716,49.383922],[37.849735,49.384173],[37.849739,49.384218],[37.849759,49.384487]]]}},{"type":"Feature","properties":{"cadnum":"6321082501:01:001:0303"},"geometry":{"type":"Polygon","coordinates":[[[37.851548,49.384453],[37.851956,49.38445],[37.851991,49.384169],[37.852032,49.383835],[37.851462,49.383845],[37.851473,49.384178],[37.851548,49.384453]]]}},{"type":"Feature","properties":{"cadnum":"6321082501:01:001:0280"},"geometry":{"type":"Polygon","coordinates":[[[37.848835,49.385786],[37.848415,49.385807],[37.84803,49.385827],[37.84802925842697,49.385893],[37.848029,49.385893],[37.848026,49.386168],[37.848099,49.386167],[37.848159,49.386167],[37.84815,49.386046],[37.848708,49.386033],[37.848831,49.386033],[37.84883132844575,49.3859870175952],[37.848835,49.385786]]]}},{"type":"Feature","properties":{"cadnum":"6321082501:01:001:0310"},"geometry":{"type":"Polygon","coordinates":[[[37.848132,49.383947],[37.848694,49.38394],[37.848686,49.383814],[37.848119,49.38381],[37.848132,49.383947]]]}},{"type":"Feature","properties":{"cadnum":"6321082501:01:001:0059"},"geometry":{"type":"Polygon","coordinates":[[[37.857271,49.377834],[37.857483,49.377831],[37.857374,49.376891],[37.857162,49.376898],[37.857271,49.377834]]]}},{"type":"Feature","properties":{"cadnum":"6321082501:01:001:0416"},"geometry":{"type":"Polygon","coordinates":[[[37.856821,49.377852],[37.856516,49.377853],[37.85661111111111,49.378741],[37.856611,49.378741],[37.856701,49.379575],[37.857029,49.379551],[37.85693,49.378741],[37.856929458,49.378741],[37.856821,49.377852]]]}},{"type":"Feature","properties":{"cadnum":"6321082501:01:001:0334"},"geometry":{"type":"Polygon","coordinates":[[[37.858801,49.377844],[37.858801,49.37784414776275],[37.858012,49.377854],[37.85813376252505,49.378741],[37.858133,49.378741],[37.858239,49.379503],[37.858801,49.3794876866485],[37.858801,49.379488],[37.859438,49.37947],[37.85931931687243,49.378852],[37.85932,49.378852],[37.859128,49.37784],[37.858801,49.377844]]]}},{"type":"Feature","properties":{"cadnum":"6321082501:01:001:0046"},"geometry":{"type":"Polygon","coordinates":[[[37.856141,49.377862],[37.855943,49.377866],[37.856053,49.378852],[37.85605346594982,49.378852],[37.856135,49.379578],[37.856335,49.379572],[37.85625182310469,49.378852],[37.856253,49.378852],[37.856141,49.377862]]]}},{"type":"Feature","properties":{"cadnum":"6321082501:01:001:0108"},"geometry":{"type":"Polygon","coordinates":[[[37.854444,49.377864],[37.854251,49.377863],[37.85432468452983,49.378741],[37.854324,49.378741],[37.854391,49.379515],[37.854584,49.379512],[37.8545266459144,49.378852],[37.854527,49.378852],[37.854444,49.377864]]]}},{"type":"Feature","properties":{"cadnum":"6321082501:01:001:0103"},"geometry":{"type":"Polygon","coordinates":[[[37.855282,49.377863],[37.855144,49.377863],[37.85522833771486,49.378741],[37.855228,49.378741],[37.85531,49.379578],[37.855449,49.379578],[37.85537700716846,49.378852],[37.855378,49.378852],[37.855282,49.377863]]]}},{"type":"Feature","properties":{"cadnum":"6321082501:01:001:0107"},"geometry":{"type":"Polygon","coordinates":[[[37.855007,49.377862],[37.85479,49.377862],[37.85487168484849,49.378741],[37.854871,49.378741],[37.854944,49.379506],[37.854951,49.379577],[37.855168,49.379578],[37.855089,49.378741],[37.85508868484849,49.378741],[37.855007,49.377862]]]}},{"type":"Feature","properties":{"cadnum":"6321082501:01:001:0415"},"geometry":{"type":"Polygon","coordinates":[[[37.855144,49.377863],[37.855007,49.377862],[37.855099,49.378852],[37.855099476702506,49.378852],[37.855168,49.379578],[37.85531,49.379578],[37.85523887455197,49.378852],[37.855239,49.378852],[37.855144,49.377863]]]}},{"type":"Feature","properties":{"cadnum":"6321082501:01:001:0353"},"geometry":{"type":"Polygon","coordinates":[[[37.858529,49.374948],[37.857351,49.37498],[37.856233,49.375011],[37.855766,49.375024],[37.85579377777778,49.375164],[37.855793,49.375164],[37.855944,49.375915],[37.858706,49.375839],[37.858572,49.375164],[37.85857114634146,49.375164],[37.858529,49.374948]]]}},{"type":"Feature","properties":{"cadnum":"6321082501:01:001:0058"},"geometry":{"type":"Polygon","coordinates":[[[37.856949,49.377789],[37.856848,49.376854],[37.856502,49.376856],[37.856601,49.377788],[37.856949,49.377789]]]}},{"type":"Feature","properties":{"cadnum":"6321082501:01:001:0356"},"geometry":{"type":"Polygon","coordinates":[[[37.855766,49.375024],[37.855283,49.375017],[37.854859,49.375011],[37.854584,49.375006],[37.854348,49.375004],[37.854354470588234,49.375164],[37.854354,49.375164],[37.854387,49.375933],[37.855943,49.37591],[37.855815520107235,49.375276],[37.855816,49.375276],[37.855766,49.375024]]]}},{"type":"Feature","properties":{"cadnum":"6321082501:01:001:0360"},"geometry":{"type":"Polygon","coordinates":[[[37.85696,49.376809],[37.858338,49.376785],[37.858197,49.375892],[37.856809,49.375917],[37.85696,49.376809]]]}},{"type":"Feature","properties":{"cadnum":"6321082501:01:001:0423"},"geometry":{"type":"Polygon","coordinates":[[[37.855366,49.377824],[37.856601,49.377788],[37.856502,49.376856],[37.855252,49.376899],[37.855366,49.377824]]]}},{"type":"Feature","properties":{"cadnum":"6321082501:01:001:0104"},"geometry":{"type":"Polygon","coordinates":[[[37.859025,49.376764],[37.858973,49.37643503546097],[37.858973,49.376433],[37.858884,49.375872],[37.858197,49.375892],[37.858338,49.376785],[37.858973,49.376766],[37.858973,49.376765625],[37.859025,49.376764]]]}},{"type":"Feature","properties":{"cadnum":"6321082501:01:001:0048"},"geometry":{"type":"Polygon","coordinates":[[[37.857174,49.377847],[37.856986,49.377849],[37.857108,49.378852],[37.85710865093168,49.378852],[37.857194,49.379546],[37.857381,49.379539],[37.857283,49.378741],[37.85728252537313,49.378741],[37.857174,49.377847]]]}},{"type":"Feature","properties":{"cadnum":"6321082501:01:001:0408"},"geometry":{"type":"Polygon","coordinates":[[[37.857834,49.377855],[37.857174,49.377847],[37.857296,49.378852],[37.85729663157895,49.378852],[37.857381,49.379539],[37.858039,49.379506],[37.857944,49.378741],[37.85794330591775,49.378741],[37.857834,49.377855]]]}},{"type":"Feature","properties":{"cadnum":"6321082501:01:001:0017"},"geometry":{"type":"Polygon","coordinates":[[[37.856516,49.377853],[37.856313,49.37786],[37.856424,49.378852],[37.856424776978415,49.378852],[37.856508,49.379575],[37.856701,49.379575],[37.85662297841727,49.378852],[37.856623,49.378852],[37.856516,49.377853]]]}},{"type":"Feature","properties":{"cadnum":"6321082501:01:001:0110"},"geometry":{"type":"Polygon","coordinates":[[[37.855943,49.377866],[37.855769,49.377865],[37.85585065349544,49.378741],[37.85585,49.378741],[37.855931,49.379578],[37.856135,49.379578],[37.856041,49.378741],[37.85604061663286,49.378741],[37.855943,49.377866]]]}},{"type":"Feature","properties":{"cadnum":"6321082501:01:001:0035"},"geometry":{"type":"Polygon","coordinates":[[[37.856313,49.37786],[37.856141,49.377862],[37.856240442424244,49.378741],[37.856239,49.378741],[37.856335,49.379573],[37.856506,49.379568],[37.856412,49.378741],[37.8564115796371,49.378741],[37.856313,49.37786]]]}},{"type":"Feature","properties":{"cadnum":"6321082501:01:001:0075"},"geometry":{"type":"Polygon","coordinates":[[[37.85479,49.377862],[37.854622,49.377861],[37.854706,49.378852],[37.8547065390625,49.378852],[37.854763,49.379509],[37.854944,49.379506],[37.854881592156865,49.378852],[37.854882,49.378852],[37.85479,49.377862]]]}},{"type":"Feature","properties":{"cadnum":"6321082501:01:001:0348"},"geometry":{"type":"Polygon","coordinates":[[[37.855101,49.376873],[37.854961,49.375977],[37.85338027502803,49.375996125529],[37.852251,49.376009],[37.852337,49.37692],[37.853308,49.376903845008755],[37.853308,49.376904],[37.855101,49.376873]]]}},{"type":"Feature","properties":{"cadnum":"6321082501:01:001:0340"},"geometry":{"type":"Polygon","coordinates":[[[37.855366,49.377824],[37.855248,49.376868],[37.855101,49.376873],[37.853479,49.376901043502514],[37.853479,49.376901],[37.852644,49.376915],[37.852744,49.377853],[37.853308,49.37784686122449],[37.853308,49.377847],[37.855366,49.377824]]]}},{"type":"Feature","properties":{"cadnum":"6321082501:01:001:0006"},"geometry":{"type":"Polygon","coordinates":[[[37.855101,49.376873],[37.855376,49.376863],[37.855238,49.375968],[37.854961,49.375977],[37.855101,49.376873]]]}},{"type":"Feature","properties":{"cadnum":"6321082501:01:001:0418"},"geometry":{"type":"Polygon","coordinates":[[[37.854251,49.377863],[37.853686,49.377881],[37.85375951184346,49.378741],[37.853758,49.378741],[37.853827,49.379525],[37.854391,49.379515],[37.85433360852713,49.378852],[37.854334,49.378852],[37.854251,49.377863]]]}},{"type":"Feature","properties":{"cadnum":"6321082501:01:001:0317"},"geometry":{"type":"Polygon","coordinates":[[[37.853182,49.375004],[37.852647,49.375039],[37.851969,49.375085],[37.851916,49.375086],[37.851688,49.375098],[37.85169022471911,49.375164],[37.85169,49.375164],[37.851691054216886,49.375188608434215],[37.851694,49.375276],[37.85169479804161,49.375276],[37.851725,49.375981],[37.853479,49.375954],[37.853479,49.37595315263645],[37.854389,49.375938],[37.854355,49.375164],[37.854354470588234,49.375164],[37.854348,49.375004],[37.853427,49.374998],[37.853278,49.375006],[37.853182,49.375004]]]}},{"type":"Feature","properties":{"cadnum":"6321082501:01:001:0092"},"geometry":{"type":"Polygon","coordinates":[[[37.856327,49.376831],[37.85696,49.376809],[37.856809,49.375917],[37.856215,49.375937],[37.856327,49.376831]]]}},{"type":"Feature","properties":{"cadnum":"6321082501:01:001:0049"},"geometry":{"type":"Polygon","coordinates":[[[37.855954,49.376843],[37.856327,49.376831],[37.856215,49.375937],[37.855814,49.37595],[37.855954,49.376843]]]}},{"type":"Feature","properties":{"cadnum":"6321082501:01:001:0007"},"geometry":{"type":"Polygon","coordinates":[[[37.855679,49.376853],[37.855817,49.376849],[37.855677,49.375954],[37.855539,49.375959],[37.855679,49.376853]]]}},{"type":"Feature","properties":{"cadnum":"6321082501:01:001:0044"},"geometry":{"type":"Polygon","coordinates":[[[37.856986,49.377849],[37.856821,49.377852],[37.856943,49.378852],[37.856943566666665,49.378852],[37.857029,49.379551],[37.857194,49.379546],[37.857095,49.378741],[37.85709449850448,49.378741],[37.856986,49.377849]]]}},{"type":"Feature","properties":{"cadnum":"6321082501:01:001:0026"},"geometry":{"type":"Polygon","coordinates":[[[37.86311,49.382157],[37.863023,49.382055],[37.86149216012083,49.382317],[37.861491,49.382317],[37.861089,49.382386],[37.861096,49.382429],[37.86109678448276,49.382429],[37.86111,49.382502],[37.8615334,49.382429],[37.861535,49.382429],[37.86311,49.382157]]]}},{"type":"Feature","properties":{"cadnum":"6321082501:01:001:0069"},"geometry":{"type":"Polygon","coordinates":[[[37.8601,49.382156],[37.8594,49.382223],[37.858947,49.382269],[37.8589587,49.382317],[37.858958,49.382317],[37.858977789473656,49.38239531578935],[37.858986,49.382429],[37.85898630107527,49.382429],[37.859005,49.382503],[37.859014,49.38254],[37.859105,49.38253],[37.859462,49.382491],[37.860159,49.382408],[37.860138,49.382317],[37.86013769444445,49.382317],[37.8601,49.382156]]]}},{"type":"Feature","properties":{"cadnum":"6321082501:01:001:0089"},"geometry":{"type":"Polygon","coordinates":[[[37.859859,49.381418],[37.859001,49.381442],[37.858867,49.381824],[37.858973,49.381828],[37.858973,49.38182685005171],[37.859834,49.38185],[37.859859,49.381418]]]}},{"type":"Feature","properties":{"cadnum":"6321082501:01:001:0087"},"geometry":{"type":"Polygon","coordinates":[[[37.864663,49.380675],[37.864666,49.379767],[37.86437,49.379806],[37.864366,49.380688],[37.864466,49.380684],[37.864466,49.380683622895624],[37.864663,49.380675]]]}},{"type":"Feature","properties":{"cadnum":"6321082501:01:001:0105"},"geometry":{"type":"Polygon","coordinates":[[[37.861067,49.382264],[37.862931,49.38195],[37.862761,49.381776],[37.861022,49.381996],[37.861067,49.382264]]]}},{"type":"Feature","properties":{"cadnum":"6321082501:01:001:0073"},"geometry":{"type":"Polygon","coordinates":[[[37.861283,49.381851],[37.86262,49.381632],[37.862486,49.381284],[37.861151,49.381502],[37.861283,49.381851]]]}},{"type":"Feature","properties":{"cadnum":"6321082501:01:001:0118"},"geometry":{"type":"Polygon","coordinates":[[[37.859634,49.381425],[37.859859,49.381418],[37.859937,49.381417],[37.860048,49.381348],[37.860106,49.381191],[37.859899,49.380932],[37.859615,49.380942],[37.859634,49.381425]]]}},{"type":"Feature","properties":{"cadnum":"6321082501:01:001:0117"},"geometry":{"type":"Polygon","coordinates":[[[37.859001,49.381442],[37.859634,49.381425],[37.859615,49.380942],[37.859564,49.380944],[37.858969,49.380957],[37.858983,49.381182],[37.859001,49.381442]]]}},{"type":"Feature","properties":{"cadnum":"6321082501:01:001:0115"},"geometry":{"type":"Polygon","coordinates":[[[37.863036,49.382429],[37.86303612770561,49.382429],[37.861124,49.38283],[37.861171,49.38293],[37.861314,49.382898],[37.861324,49.382916],[37.863393,49.382447],[37.863327,49.382368],[37.863036,49.382429]]]}},{"type":"Feature","properties":{"cadnum":"6321082501:01:001:0020"},"geometry":{"type":"Polygon","coordinates":[[[37.863023,49.382055],[37.862931,49.38195],[37.861067,49.382264],[37.86107655737705,49.382317],[37.861075,49.382317],[37.861089,49.382386],[37.863023,49.382055]]]}},{"type":"Feature","properties":{"cadnum":"6321082501:01:001:0030"},"geometry":{"type":"Polygon","coordinates":[[[37.863261,49.382289],[37.863123200000004,49.382317],[37.863123,49.382317],[37.8626972727192,49.382403545456185],[37.862572,49.382429],[37.862572058823524,49.382429],[37.861116,49.382725],[37.861124,49.38283],[37.863327,49.382368],[37.863261,49.382289]]]}},{"type":"Feature","properties":{"cadnum":"6321082501:01:001:0070"},"geometry":{"type":"Polygon","coordinates":[[[37.860165,49.382407],[37.860497,49.382322],[37.860496,49.382317],[37.860495919597994,49.382317],[37.860454,49.382123],[37.8601,49.382156],[37.860159,49.382408],[37.860165,49.382407]]]}},{"type":"Feature","properties":{"cadnum":"6321082501:01:001:0095"},"geometry":{"type":"Polygon","coordinates":[[[37.858396,49.380874],[37.858533,49.380867],[37.858522,49.380777],[37.858385,49.380784],[37.858396,49.380874]]]}},{"type":"Feature","properties":{"cadnum":"6321082501:01:001:0346"},"geometry":{"type":"Polygon","coordinates":[[[37.858169,49.380156],[37.858766,49.380152],[37.858742,49.379654],[37.858741,49.379635],[37.858128,49.379651],[37.858129,49.37967],[37.858144,49.379846],[37.858152,49.379943],[37.858169,49.380156]]]}},{"type":"Feature","properties":{"cadnum":"6321082501:01:001:0022"},"geometry":{"type":"Polygon","coordinates":[[[37.855867,49.380865],[37.856225,49.380855],[37.856207,49.380514],[37.856192,49.380235],[37.855816,49.380242],[37.85583,49.38051],[37.855867,49.380865]]]}},{"type":"Feature","properties":{"cadnum":"6321082501:01:001:0406"},"geometry":{"type":"Polygon","coordinates":[[[37.85756,49.380172],[37.858169,49.380156],[37.858152,49.379943],[37.858144,49.379846],[37.858129,49.37967],[37.858128,49.379651],[37.857515,49.379664],[37.857516,49.379682],[37.85754,49.379942],[37.85756,49.380172]]]}},{"type":"Feature","properties":{"cadnum":"6321082501:01:001:0252"},"geometry":{"type":"Polygon","coordinates":[[[37.858275,49.381356],[37.85834,49.381263],[37.858396,49.381263],[37.858395,49.381129],[37.85834,49.381129],[37.858338,49.38106],[37.85825,49.380818],[37.857677,49.38082],[37.857727,49.381052],[37.857762,49.381308],[37.858275,49.381356]]]}},{"type":"Feature","properties":{"cadnum":"6321082501:01:001:0312"},"geometry":{"type":"Polygon","coordinates":[[[37.855625,49.381432],[37.855612,49.381295],[37.855613,49.381209],[37.855624,49.380971],[37.855224,49.380967],[37.85523,49.381214],[37.855227,49.381307],[37.855278,49.381299],[37.855283,49.381426],[37.855625,49.381432]]]}},{"type":"Feature","properties":{"cadnum":"6321082501:01:001:0290"},"geometry":{"type":"Polygon","coordinates":[[[37.855604,49.382072],[37.855346,49.382087],[37.8553426374269,49.382317],[37.855342,49.382317],[37.85534159479554,49.382388315985224],[37.855341,49.382429],[37.85534136363636,49.382429],[37.855341,49.382493],[37.855628,49.382485],[37.855622,49.382398],[37.855604,49.382072]]]}},{"type":"Feature","properties":{"cadnum":"6321082501:01:001:0008"},"geometry":{"type":"Polygon","coordinates":[[[37.854877,49.380243],[37.85526,49.380235],[37.855243,49.380009],[37.855228,49.379733],[37.855227,49.379705],[37.855173,49.379705],[37.854881,49.379712],[37.854874,49.380014],[37.854877,49.380243]]]}},{"type":"Feature","properties":{"cadnum":"6321082501:01:001:0074"},"geometry":{"type":"Polygon","coordinates":[[[37.854159,49.380826],[37.854519,49.38082],[37.854515,49.380572],[37.854513,49.380327],[37.854153,49.380338],[37.854153,49.380565],[37.854159,49.380826]]]}},{"type":"Feature","properties":{"cadnum":"6321082501:01:001:0102"},"geometry":{"type":"Polygon","coordinates":[[[37.85526,49.380235],[37.855687,49.380228],[37.85571,49.380227],[37.855694,49.379989],[37.85568,49.379696],[37.855227,49.379705],[37.855228,49.379733],[37.855243,49.380009],[37.85526,49.380235]]]}},{"type":"Feature","properties":{"cadnum":"6321082501:01:001:0362"},"geometry":{"type":"Polygon","coordinates":[[[37.8547,49.381993],[37.854971,49.38198],[37.854965,49.381937],[37.854956,49.381847],[37.854925,49.381538],[37.854905,49.381335],[37.854618,49.38135],[37.854637,49.381577],[37.8547,49.381993]]]}},{"type":"Feature","properties":{"cadnum":"6321082501:01:001:0088"},"geometry":{"type":"Polygon","coordinates":[[[37.853817,49.382018],[37.854157,49.38201],[37.85411,49.38164],[37.854068,49.381369],[37.853827,49.381374],[37.853742,49.381374],[37.85377,49.381664],[37.853782,49.381746],[37.853793,49.381831],[37.8538,49.381884],[37.853812,49.381974],[37.853817,49.382018]]]}},{"type":"Feature","properties":{"cadnum":"6321082501:01:001:0308"},"geometry":{"type":"Polygon","coordinates":[[[37.854618,49.38135],[37.854905,49.381335],[37.855227,49.381307],[37.85523,49.381214],[37.855224,49.380967],[37.85455,49.380983],[37.854559,49.381234],[37.854564,49.381332],[37.854613,49.381332],[37.854618,49.38135]]]}},{"type":"Feature","properties":{"cadnum":"6321082501:01:001:0363"},"geometry":{"type":"Polygon","coordinates":[[[37.855339,49.381969],[37.855445,49.381969],[37.855475,49.381779],[37.855476,49.381645],[37.855323,49.381659],[37.855333,49.381773],[37.855339,49.381969]]]}},{"type":"Feature","properties":{"cadnum":"6321082501:01:001:0036"},"geometry":{"type":"Polygon","coordinates":[[[37.856622,49.380209],[37.856699,49.380207],[37.857082,49.380191],[37.85707,49.379939],[37.857033,49.379668],[37.856585,49.379678],[37.8566,49.379957],[37.856622,49.380209]]]}},{"type":"Feature","properties":{"cadnum":"6321082501:01:001:0109"},"geometry":{"type":"Polygon","coordinates":[[[37.85571,49.380227],[37.856062,49.38022],[37.856171,49.380214],[37.856159,49.379969],[37.856141,49.379686],[37.85568,49.379696],[37.855694,49.379989],[37.85571,49.380227]]]}},{"type":"Feature","properties":{"cadnum":"6321082501:01:001:0374"},"geometry":{"type":"Polygon","coordinates":[[[37.853827,49.381374],[37.854068,49.381369],[37.854387,49.381335],[37.854564,49.381332],[37.854559,49.381234],[37.85455,49.380983],[37.853817,49.380982],[37.853823,49.38123],[37.853827,49.381374]]]}},{"type":"Feature","properties":{"cadnum":"6321082501:01:001:0106"},"geometry":{"type":"Polygon","coordinates":[[[37.854523,49.38025],[37.854877,49.380243],[37.854874,49.380014],[37.854881,49.379712],[37.854521,49.379719],[37.85452,49.380018],[37.854523,49.38025]]]}},{"type":"Feature","properties":{"cadnum":"6321082501:01:001:0016"},"geometry":{"type":"Polygon","coordinates":[[[37.85654,49.380841],[37.856902,49.380832],[37.856879,49.380514],[37.856854,49.380215],[37.856492,49.380222],[37.856506,49.38051],[37.85654,49.380841]]]}},{"type":"Feature","properties":{"cadnum":"6321082501:01:001:0043"},"geometry":{"type":"Polygon","coordinates":[[[37.857249,49.380829],[37.857634,49.38082],[37.85763,49.38055],[37.857619,49.380198],[37.857394,49.380203],[37.857252,49.380206],[37.857257,49.380542],[37.857249,49.380829]]]}},{"type":"Feature","properties":{"cadnum":"6321082501:01:001:0025"},"geometry":{"type":"Polygon","coordinates":[[[37.856878,49.381394],[37.857357,49.381343],[37.857762,49.381307],[37.857727,49.381052],[37.857361,49.381083],[37.856867,49.381128],[37.856878,49.381394]]]}},{"type":"Feature","properties":{"cadnum":"6321082501:01:001:0061"},"geometry":{"type":"Polygon","coordinates":[[[37.857884,49.382096],[37.858282,49.38207],[37.858691,49.382036],[37.858617,49.381741],[37.858301,49.381729],[37.858299,49.381671],[37.857795,49.381645],[37.857884,49.382096]]]}},{"type":"Feature","properties":{"cadnum":"6321082501:01:001:0101"},"geometry":{"type":"Polygon","coordinates":[[[37.85337641379342,49.38139168965515],[37.853479,49.381387],[37.853479,49.38138672580645],[37.853742,49.381374],[37.853827,49.381374],[37.853823,49.38123],[37.853817,49.380982],[37.853479,49.38098532023576],[37.853479,49.380985],[37.85309,49.380989],[37.853109,49.381257],[37.853129,49.381403],[37.853308,49.381394817142855],[37.853308,49.381395],[37.85337641379342,49.38139168965515]]]}},{"type":"Feature","properties":{"cadnum":"6321082501:01:001:0114"},"geometry":{"type":"Polygon","coordinates":[[[37.854157,49.38201],[37.854462,49.382002],[37.854414,49.381586],[37.854387,49.381335],[37.854068,49.381369],[37.85411,49.38164],[37.854157,49.38201]]]}},{"type":"Feature","properties":{"cadnum":"6321082501:01:001:0079"},"geometry":{"type":"Polygon","coordinates":[[[37.853431,49.38029],[37.853786,49.380286],[37.853784,49.380037],[37.85378,49.379746],[37.853424,49.379753],[37.853436,49.38006],[37.853431,49.38029]]]}},{"type":"Feature","properties":{"cadnum":"6321082501:01:001:0269"},"geometry":{"type":"Polygon","coordinates":[[[37.856942,49.381651],[37.857233,49.381618],[37.857441,49.381602],[37.857834,49.381565],[37.857963,49.38156],[37.858046,49.381556],[37.858055,49.381418],[37.857952,49.381391],[37.857854,49.38134],[37.857762,49.381308],[37.857357,49.381343],[37.856878,49.381394],[37.856931,49.381607],[37.856953,49.381604],[37.856968,49.381631],[37.856939,49.381639],[37.856942,49.381651]]]}},{"type":"Feature","properties":{"cadnum":"6321082501:01:001:0019"},"geometry":{"type":"Polygon","coordinates":[[[37.856867,49.381128],[37.857361,49.381083],[37.857727,49.381052],[37.857677,49.38082],[37.857268,49.380842],[37.856809,49.380864],[37.856867,49.381128]]]}},{"type":"Feature","properties":{"cadnum":"6321082501:01:001:0260"},"geometry":{"type":"Polygon","coordinates":[[[37.858336,49.382338],[37.858755,49.382299],[37.858691,49.382036],[37.858282,49.38207],[37.857884,49.382096],[37.85792725622776,49.382317],[37.857926,49.382317],[37.857939,49.382377],[37.858336,49.382338]]]}},{"type":"Feature","properties":{"cadnum":"6321082501:01:001:0045"},"geometry":{"type":"Polygon","coordinates":[[[37.856336,49.380214],[37.856622,49.380209],[37.8566,49.379957],[37.856585,49.379678],[37.856141,49.379686],[37.856159,49.379968],[37.856171,49.380214],[37.856336,49.380214]]]}},{"type":"Feature","properties":{"cadnum":"6321082501:01:001:0029"},"geometry":{"type":"Polygon","coordinates":[[[37.856596,49.382277],[37.857102,49.382263],[37.857527,49.382245],[37.857503,49.381968],[37.85702,49.381986],[37.856567,49.382003],[37.856596,49.382277]]]}},{"type":"Feature","properties":{"cadnum":"6321082501:01:001:0289"},"geometry":{"type":"Polygon","coordinates":[[[37.855346,49.382087],[37.855019,49.382106],[37.854554,49.382125],[37.85456,49.382429],[37.854560916666664,49.382429],[37.854563,49.382509],[37.855066,49.382501],[37.855341,49.382493],[37.85534159479554,49.382388315985224],[37.855346,49.382087]]]}},{"type":"Feature","properties":{"cadnum":"6321082501:01:001:0427"},"geometry":{"type":"Polygon","coordinates":[[[37.85144,49.388904],[37.851198,49.3884],[37.851132,49.388292],[37.849896,49.38832],[37.849897,49.388761],[37.850046,49.388772],[37.850094,49.389274],[37.85011502941176,49.389469],[37.850115,49.389469],[37.85011622916655,49.38948012499891],[37.850127,49.38958],[37.85012726404495,49.38958],[37.850174,49.390003],[37.85018,49.390054],[37.850772,49.390021],[37.851639,49.389985],[37.85176,49.38998],[37.851668,49.389622],[37.851645504726015,49.38955316446162],[37.85144,49.388904]]]}},{"type":"Feature","properties":{"cadnum":"6321082501:01:001:0296"},"geometry":{"type":"Polygon","coordinates":[[[37.852488,49.388072],[37.852457,49.38793],[37.852251,49.38794],[37.850994,49.388005],[37.851067,49.388185],[37.851198,49.3884],[37.85144,49.388904],[37.85161886094674,49.389469],[37.851618,49.389469],[37.851645504726015,49.38955316446162],[37.851654,49.38958],[37.851654274509805,49.38958],[37.851668,49.389622],[37.85176,49.38998],[37.852645,49.389942],[37.852852,49.389933],[37.852761,49.389469],[37.85276035941644,49.389469],[37.852488,49.388072]]]}},{"type":"Feature","properties":{"cadnum":"6321082501:01:001:0297"},"geometry":{"type":"Polygon","coordinates":[[[37.848794,49.378642],[37.848427,49.378639],[37.84842316901408,49.378741],[37.848423,49.378741],[37.84842248717948,49.378759153846474],[37.848419,49.378852],[37.84841986440678,49.378852],[37.848418,49.378918],[37.848415,49.379145],[37.848781,49.379147],[37.848787,49.378921],[37.8487904,49.37876799999996],[37.848794,49.378642]]]}},{"type":"Feature","properties":{"cadnum":"6321082501:01:001:0272"},"geometry":{"type":"Polygon","coordinates":[[[37.848025,49.378521],[37.848375,49.378511],[37.848358,49.378252],[37.848323,49.377691],[37.847963,49.377668],[37.847967,49.377717],[37.848005,49.378258],[37.848025,49.378521]]]}},{"type":"Feature","properties":{"cadnum":"6321082501:01:001:0080"},"geometry":{"type":"Polygon","coordinates":[[[37.850251,49.378485],[37.850648,49.378477],[37.850615,49.378165],[37.850581,49.377911],[37.850216,49.377924],[37.850226,49.378182],[37.850251,49.378485]]]}},{"type":"Feature","properties":{"cadnum":"6321082501:01:001:0329"},"geometry":{"type":"Polygon","coordinates":[[[37.850183,49.377247],[37.850554,49.377242],[37.850418,49.376274],[37.850047,49.376282],[37.850174,49.377177],[37.850183,49.377247]]]}},{"type":"Feature","properties":{"cadnum":"6321082501:01:001:0336"},"geometry":{"type":"Polygon","coordinates":[[[37.84942,49.377224],[37.849817,49.377199],[37.849691,49.376303],[37.849317,49.376301],[37.84942,49.377224]]]}},{"type":"Feature","properties":{"cadnum":"6321082501:01:001:0414"},"geometry":{"type":"Polygon","coordinates":[[[37.851182,49.377901],[37.852744,49.377853],[37.852644,49.376915],[37.852337,49.37692],[37.851989,49.376924],[37.851713,49.376933],[37.851081,49.376942],[37.851182,49.377901]]]}},{"type":"Feature","properties":{"cadnum":"6321082501:01:001:0342"},"geometry":{"type":"Polygon","coordinates":[[[37.851688,49.375098],[37.851916,49.375086],[37.85189,49.373656],[37.850733,49.373674],[37.85076648314607,49.375164],[37.850766,49.375164],[37.850785,49.375983],[37.851725,49.375981],[37.851691054216886,49.375188608434215],[37.851688,49.375098]]]}},{"type":"Feature","properties":{"cadnum":"6321082501:01:001:0417"},"geometry":{"type":"Polygon","coordinates":[[[37.852904,49.377893],[37.852692,49.377902],[37.85277943263158,49.378741],[37.852779,49.378741],[37.852864,49.379541],[37.85307,49.379538],[37.85300028105395,49.378852],[37.853001,49.378852],[37.852904,49.377893]]]}},{"type":"Feature","properties":{"cadnum":"6321082501:01:001:0012"},"geometry":{"type":"Polygon","coordinates":[[[37.851713,49.376933],[37.851989,49.376924],[37.851957,49.376036],[37.851676,49.37605],[37.851713,49.376933]]]}},{"type":"Feature","properties":{"cadnum":"6321082501:01:001:0412"},"geometry":{"type":"Polygon","coordinates":[[[37.852284,49.377914],[37.85171,49.377921],[37.850874,49.377959],[37.850973,49.378852],[37.85097355595668,49.378852],[37.851055,49.379572],[37.851611,49.379563],[37.852457,49.379548],[37.852383691449816,49.378852],[37.852384,49.378852],[37.852284,49.377914]]]}},{"type":"Feature","properties":{"cadnum":"6321082501:01:001:0084"},"geometry":{"type":"Polygon","coordinates":[[[37.850216,49.377924],[37.850581,49.377911],[37.850556,49.377658],[37.850526,49.377343],[37.850184,49.377353],[37.850194,49.377679],[37.850216,49.377924]]]}},{"type":"Feature","properties":{"cadnum":"6321082501:01:001:0082"},"geometry":{"type":"Polygon","coordinates":[[[37.849848,49.377937],[37.850216,49.377924],[37.850194,49.377679],[37.850184,49.377353],[37.849825,49.377368],[37.849844,49.377702],[37.849848,49.377937]]]}},{"type":"Feature","properties":{"cadnum":"6321082501:01:001:0053"},"geometry":{"type":"Polygon","coordinates":[[[37.849488,49.3785],[37.84986,49.378494],[37.849824,49.378198],[37.849807,49.377938],[37.849439,49.377948],[37.849455,49.37821],[37.849488,49.3785]]]}},{"type":"Feature","properties":{"cadnum":"6321082501:01:001:0129"},"geometry":{"type":"Polygon","coordinates":[[[37.849136,49.378506],[37.849109,49.378221],[37.849101,49.377778],[37.848729,49.377781],[37.848737,49.378228],[37.84876,49.378505],[37.849136,49.378506]]]}},{"type":"Feature","properties":{"cadnum":"6321082501:01:001:0083"},"geometry":{"type":"Polygon","coordinates":[[[37.849817,49.377199],[37.850174,49.377177],[37.850047,49.376282],[37.849691,49.376303],[37.849817,49.377199]]]}},{"type":"Feature","properties":{"cadnum":"6321082501:01:001:0328"},"geometry":{"type":"Polygon","coordinates":[[[37.848312,49.377296],[37.84942,49.377224],[37.849317,49.376301],[37.849691,49.376303],[37.849869,49.376292],[37.849864,49.376264],[37.849758,49.375363],[37.848541,49.375336],[37.848607,49.376234],[37.84834,49.376242],[37.848222,49.376247],[37.848212,49.376294],[37.848312,49.377296]]]}},{"type":"Feature","properties":{"cadnum":"6321082501:01:001:0330"},"geometry":{"type":"Polygon","coordinates":[[[37.850254,49.374384],[37.847925,49.374395],[37.84797300794551,49.375164],[37.847973,49.375164],[37.84797347457606,49.3751714745729],[37.84798,49.375276],[37.847980111111106,49.375276],[37.847981,49.37529],[37.850263,49.375287],[37.850262,49.375164],[37.8502609955157,49.375164],[37.850254,49.374384]]]}},{"type":"Feature","properties":{"cadnum":"6321082501:01:001:0077"},"geometry":{"type":"Polygon","coordinates":[[[37.848222,49.376247],[37.84834,49.376242],[37.848267,49.375336],[37.848147,49.375339],[37.848222,49.376247]]]}},{"type":"Feature","properties":{"cadnum":"6321082501:01:001:0013"},"geometry":{"type":"Polygon","coordinates":[[[37.84834,49.376242],[37.848607,49.376234],[37.848541,49.375336],[37.848267,49.375336],[37.84834,49.376242]]]}},{"type":"Feature","properties":{"cadnum":"6321082501:01:001:0050"},"geometry":{"type":"Polygon","coordinates":[[[37.849864,49.376264],[37.850068,49.376257],[37.849963,49.375359],[37.849758,49.375363],[37.849864,49.376264]]]}},{"type":"Feature","properties":{"cadnum":"6321082501:01:001:0066"},"geometry":{"type":"Polygon","coordinates":[[[37.850363,49.376257],[37.850239,49.3754],[37.849966,49.375389],[37.850068,49.376257],[37.850363,49.376257]]]}},{"type":"Feature","properties":{"cadnum":"6321082501:01:001:0373"},"geometry":{"type":"Polygon","coordinates":[[[37.84573,49.374322],[37.846165,49.374318],[37.846093,49.373444],[37.845651,49.37344],[37.84573,49.374322]]]}},{"type":"Feature","properties":{"cadnum":"6321082501:01:001:0331"},"geometry":{"type":"Polygon","coordinates":[[[37.847986,49.37435248659384],[37.848946,49.374342],[37.848949,49.373468],[37.847815,49.373459],[37.847815,49.37345946434231],[37.846093,49.373444],[37.846165,49.374318],[37.847579,49.374331],[37.847815,49.37434542222222],[37.847815,49.374346],[37.847939,49.374353],[37.847986,49.374353],[37.847986,49.37435248659384]]]}},{"type":"Feature","properties":{"cadnum":"6321082501:01:001:0332"},"geometry":{"type":"Polygon","coordinates":[[[37.844226,49.373421],[37.844195,49.37209],[37.843274,49.371999],[37.843345,49.373419],[37.844226,49.373421]]]}},{"type":"Feature","properties":{"cadnum":"6321082501:01:001:0355"},"geometry":{"type":"Polygon","coordinates":[[[37.845029,49.373424],[37.845068,49.372097],[37.844195,49.37209],[37.844226,49.373421],[37.845029,49.373424]]]}},{"type":"Feature","properties":{"cadnum":"6321082501:01:001:0393"},"geometry":{"type":"Polygon","coordinates":[[[37.845945,49.374202],[37.846156,49.3742],[37.84615,49.374142],[37.84594,49.374143],[37.84594,49.374155],[37.845945,49.374202]]]}},{"type":"Feature","properties":{"cadnum":"6321082501:01:001:0397"},"geometry":{"type":"Polygon","coordinates":[[[37.845924,49.373968],[37.846135,49.373966],[37.846131,49.373908],[37.845918,49.373909],[37.845921,49.373935],[37.845924,49.373968]]]}},{"type":"Feature","properties":{"cadnum":"6321082501:01:001:0402"},"geometry":{"type":"Polygon","coordinates":[[[37.845898,49.373678],[37.846111,49.373675],[37.846107,49.373618],[37.845893,49.373619],[37.845895,49.37366],[37.845898,49.373678]]]}},{"type":"Feature","properties":{"cadnum":"6321082501:01:001:0404"},"geometry":{"type":"Polygon","coordinates":[[[37.845887,49.373563],[37.846102,49.37356],[37.846098,49.373502],[37.845882,49.373505],[37.845886,49.37355],[37.845887,49.373563]]]}},{"type":"Feature","properties":{"cadnum":"6321082501:01:001:0395"},"geometry":{"type":"Polygon","coordinates":[[[37.845934,49.374085],[37.846145,49.374083],[37.846141,49.374025],[37.845929,49.374026],[37.84593,49.374045],[37.845934,49.374085]]]}},{"type":"Feature","properties":{"cadnum":"6321082501:01:001:0396"},"geometry":{"type":"Polygon","coordinates":[[[37.845929,49.374026],[37.846141,49.374025],[37.846135,49.373966],[37.845924,49.373968],[37.845925,49.37399],[37.845929,49.374026]]]}},{"type":"Feature","properties":{"cadnum":"6321082501:01:001:0405"},"geometry":{"type":"Polygon","coordinates":[[[37.845882,49.373505],[37.846098,49.373502],[37.846093,49.373444],[37.845877,49.373442],[37.845881,49.373495],[37.845882,49.373505]]]}},{"type":"Feature","properties":{"cadnum":"6321082501:01:001:0400"},"geometry":{"type":"Polygon","coordinates":[[[37.845908,49.373793],[37.846121,49.373791],[37.846117,49.373734],[37.845902,49.373736],[37.845906,49.37377],[37.845908,49.373793]]]}},{"type":"Feature","properties":{"cadnum":"6321082501:01:001:0399"},"geometry":{"type":"Polygon","coordinates":[[[37.845913,49.373852],[37.846126,49.373849],[37.846121,49.373791],[37.845908,49.373793],[37.84591,49.373825],[37.845913,49.373852]]]}},{"type":"Feature","properties":{"cadnum":"6321082501:01:001:0375"},"geometry":{"type":"Polygon","coordinates":[[[37.84573,49.374322],[37.845954,49.37432],[37.84595,49.374265],[37.845725,49.374267],[37.84573,49.374322]]]}},{"type":"Feature","properties":{"cadnum":"6321082501:01:001:0389"},"geometry":{"type":"Polygon","coordinates":[[[37.845661,49.373551],[37.845886,49.37355],[37.845882,49.373505],[37.845881,49.373495],[37.845657,49.373496],[37.845661,49.373551]]]}},{"type":"Feature","properties":{"cadnum":"6321082501:01:001:0381"},"geometry":{"type":"Polygon","coordinates":[[[37.845701,49.373991],[37.845925,49.37399],[37.845924,49.373968],[37.845921,49.373935],[37.845696,49.373936],[37.845701,49.373991]]]}},{"type":"Feature","properties":{"cadnum":"6321082501:01:001:0379"},"geometry":{"type":"Polygon","coordinates":[[[37.84571,49.374101],[37.845936,49.3741],[37.845934,49.374085],[37.84593,49.374045],[37.845705,49.374046],[37.84571,49.374101]]]}},{"type":"Feature","properties":{"cadnum":"6321082501:01:001:0387"},"geometry":{"type":"Polygon","coordinates":[[[37.845671,49.373661],[37.845895,49.37366],[37.845893,49.373619],[37.845891,49.373605],[37.845666,49.373606],[37.845671,49.373661]]]}},{"type":"Feature","properties":{"cadnum":"6321082501:01:001:0385"},"geometry":{"type":"Polygon","coordinates":[[[37.845681,49.373771],[37.845906,49.37377],[37.845902,49.373736],[37.845901,49.373715],[37.845675,49.373716],[37.845681,49.373771]]]}},{"type":"Feature","properties":{"cadnum":"6321082501:01:001:0377"},"geometry":{"type":"Polygon","coordinates":[[[37.84572,49.374212],[37.845945,49.37421],[37.845945,49.374202],[37.84594,49.374155],[37.845716,49.374156],[37.84572,49.374212]]]}},{"type":"Feature","properties":{"cadnum":"6321082501:01:001:0388"},"geometry":{"type":"Polygon","coordinates":[[[37.845666,49.373606],[37.845891,49.373605],[37.845887,49.373563],[37.845886,49.37355],[37.845661,49.373551],[37.845666,49.373606]]]}},{"type":"Feature","properties":{"cadnum":"6321082501:01:001:0380"},"geometry":{"type":"Polygon","coordinates":[[[37.845705,49.374046],[37.84593,49.374045],[37.845929,49.374026],[37.845925,49.37399],[37.845701,49.373991],[37.845705,49.374046]]]}},{"type":"Feature","properties":{"cadnum":"6321082501:01:001:0376"},"geometry":{"type":"Polygon","coordinates":[[[37.845725,49.374267],[37.84595,49.374265],[37.84595,49.37426],[37.845945,49.37421],[37.84572,49.374212],[37.845725,49.374267]]]}},{"type":"Feature","properties":{"cadnum":"6321082501:01:001:0382"},"geometry":{"type":"Polygon","coordinates":[[[37.845696,49.373936],[37.845921,49.373935],[37.845918,49.373909],[37.845916,49.37388],[37.84569,49.373881],[37.845696,49.373936]]]}},{"type":"Feature","properties":{"cadnum":"6321082501:01:001:0390"},"geometry":{"type":"Polygon","coordinates":[[[37.845657,49.373496],[37.845881,49.373495],[37.845877,49.373442],[37.845651,49.37344],[37.845657,49.373496]]]}},{"type":"Feature","properties":{"cadnum":"6321082501:01:001:0384"},"geometry":{"type":"Polygon","coordinates":[[[37.845686,49.373826],[37.84591,49.373825],[37.845908,49.373793],[37.845906,49.37377],[37.845681,49.373771],[37.845686,49.373826]]]}},{"type":"Feature","properties":{"cadnum":"6321082501:01:001:0378"},"geometry":{"type":"Polygon","coordinates":[[[37.845716,49.374156],[37.84594,49.374155],[37.84594,49.374143],[37.845936,49.3741],[37.84571,49.374101],[37.845716,49.374156]]]}},{"type":"Feature","properties":{"cadnum":"6321082501:01:001:0386"},"geometry":{"type":"Polygon","coordinates":[[[37.845675,49.373716],[37.845901,49.373715],[37.845898,49.373678],[37.845895,49.37366],[37.845671,49.373661],[37.845675,49.373716]]]}},{"type":"Feature","properties":{"cadnum":"6321082501:01:001:0383"},"geometry":{"type":"Polygon","coordinates":[[[37.84569,49.373881],[37.845916,49.37388],[37.845913,49.373852],[37.84591,49.373825],[37.845686,49.373826],[37.84569,49.373881]]]}},{"type":"Feature","properties":{"cadnum":"6321082501:01:001:0354"},"geometry":{"type":"Polygon","coordinates":[[[37.847833,49.373419],[37.847836,49.372252],[37.846758,49.372126],[37.846751,49.37341],[37.847833,49.373419]]]}},{"type":"Feature","properties":{"cadnum":"6321082501:01:001:0357"},"geometry":{"type":"Polygon","coordinates":[[[37.847986,49.37342064516129],[37.848949,49.373431],[37.848952,49.372381],[37.847986,49.37226933870968],[37.847986,49.372269],[37.847836,49.372252],[37.847833,49.373419],[37.847986,49.373421],[37.847986,49.37342064516129]]]}},{"type":"Feature","properties":{"cadnum":"6321082501:01:001:0401"},"geometry":{"type":"Polygon","coordinates":[[[37.845902,49.373736],[37.846117,49.373734],[37.846111,49.373675],[37.845898,49.373678],[37.845901,49.373715],[37.845902,49.373736]]]}},{"type":"Feature","properties":{"cadnum":"6321082501:01:001:0398"},"geometry":{"type":"Polygon","coordinates":[[[37.845918,49.373909],[37.846131,49.373908],[37.846126,49.373849],[37.845913,49.373852],[37.845916,49.37388],[37.845918,49.373909]]]}},{"type":"Feature","properties":{"cadnum":"6321082501:01:001:0391"},"geometry":{"type":"Polygon","coordinates":[[[37.845954,49.37432],[37.846165,49.374318],[37.84616,49.374259],[37.84595,49.37426],[37.84595,49.374265],[37.845954,49.37432]]]}},{"type":"Feature","properties":{"cadnum":"6321082501:01:001:0392"},"geometry":{"type":"Polygon","coordinates":[[[37.84595,49.37426],[37.84616,49.374259],[37.846156,49.3742],[37.845945,49.374202],[37.845945,49.37421],[37.84595,49.37426]]]}},{"type":"Feature","properties":{"cadnum":"6321082501:01:001:0403"},"geometry":{"type":"Polygon","coordinates":[[[37.845893,49.373619],[37.846107,49.373618],[37.846102,49.37356],[37.845887,49.373563],[37.845891,49.373605],[37.845893,49.373619]]]}},{"type":"Feature","properties":{"cadnum":"6321082501:01:001:0394"},"geometry":{"type":"Polygon","coordinates":[[[37.84594,49.374143],[37.84615,49.374142],[37.846145,49.374083],[37.845934,49.374085],[37.845936,49.3741],[37.84594,49.374143]]]}},{"type":"Feature","properties":{"cadnum":"6321082501:01:001:0370"},"geometry":{"type":"Polygon","coordinates":[[[37.842861,49.381672],[37.844792,49.381654],[37.844784,49.381391],[37.842387,49.381425],[37.842405,49.381689],[37.842493,49.381687],[37.842493,49.38168571929825],[37.842861,49.381672]]]}},{"type":"Feature","properties":{"cadnum":"6321082501:01:001:0325"},"geometry":{"type":"Polygon","coordinates":[[[37.842493,49.38174291866913],[37.842493,49.381742],[37.841856,49.381786],[37.84186,49.382429],[37.84186084977238,49.382429],[37.841865,49.382976],[37.842321,49.382976],[37.842493,49.382976],[37.842493,49.38297569340463],[37.842882,49.382975],[37.84287287234043,49.382429],[37.842873,49.382429],[37.842862,49.381717],[37.842493,49.38174291866913]]]}},{"type":"Feature","properties":{"cadnum":"6321082501:01:001:0295"},"geometry":{"type":"Polygon","coordinates":[[[37.84306,49.38093],[37.844269,49.380909],[37.844326,49.37991],[37.844384,49.378918],[37.843131,49.378896],[37.843109,49.379297],[37.843103,49.379796],[37.84309,49.380218],[37.84306,49.38093]]]}},{"type":"Feature","properties":{"cadnum":"6321082501:01:001:0276"},"geometry":{"type":"Polygon","coordinates":[[[37.845773,49.382414],[37.845775,49.382317],[37.845774351916376,49.382317],[37.845777,49.382127],[37.844933,49.382127],[37.844951,49.382422],[37.845773,49.382414]]]}},{"type":"Feature","properties":{"cadnum":"6321082501:01:001:0121"},"geometry":{"type":"Polygon","coordinates":[[[37.84790140476201,49.38202383333333],[37.847986,49.382021],[37.847986,49.382020732984294],[37.848197,49.382013],[37.848158,49.381576],[37.848126,49.38128],[37.84787719999972,49.38128960000001],[37.847714,49.381295],[37.847729,49.38154],[37.847777,49.382028],[37.847815,49.382026727272724],[37.847815,49.382027],[37.84790140476201,49.38202383333333]]]}},{"type":"Feature","properties":{"cadnum":"6321082501:01:001:0281"},"geometry":{"type":"Polygon","coordinates":[[[37.847627,49.379648],[37.847654,49.379159],[37.847086,49.379145],[37.84707,49.379335],[37.847156,49.379343],[37.847151,49.379448],[37.847119,49.379448],[37.847131,49.379639],[37.847627,49.379648]]]}},{"type":"Feature","properties":{"cadnum":"6321082501:01:001:0318"},"geometry":{"type":"Polygon","coordinates":[[[37.844793,49.3817],[37.842862,49.381717],[37.84287126966292,49.382317],[37.842871,49.382317],[37.842882,49.382975],[37.844859,49.382975],[37.84482995744681,49.382429],[37.844831,49.382429],[37.844793,49.3817]]]}},{"type":"Feature","properties":{"cadnum":"6321082501:01:001:0292"},"geometry":{"type":"Polygon","coordinates":[[[37.846283,49.382127],[37.846866,49.382121],[37.846861,49.381895],[37.846278,49.381901],[37.84549,49.381901],[37.845494,49.382127],[37.846283,49.382127]]]}},{"type":"Feature","properties":{"cadnum":"6321082501:01:001:0275"},"geometry":{"type":"Polygon","coordinates":[[[37.846276,49.382409],[37.846873,49.382402],[37.846866,49.382121],[37.846283,49.382127],[37.845777,49.382127],[37.845773,49.382414],[37.846276,49.382409]]]}},{"type":"Feature","properties":{"cadnum":"6321082501:01:001:0302"},"geometry":{"type":"Polygon","coordinates":[[[37.844326,49.37991],[37.846811,49.379905],[37.846868,49.378904],[37.844383,49.378918],[37.844326,49.37991]]]}},{"type":"Feature","properties":{"cadnum":"6321082501:01:001:0314"},"geometry":{"type":"Polygon","coordinates":[[[37.847065,49.380874],[37.847604,49.38087],[37.847592,49.380538],[37.847585,49.380351],[37.847072,49.380348],[37.847069,49.380532],[37.847065,49.380874]]]}},{"type":"Feature","properties":{"cadnum":"6321082501:01:001:0301"},"geometry":{"type":"Polygon","coordinates":[[[37.844269,49.380909],[37.846756,49.380897],[37.846811,49.379905],[37.844326,49.37991],[37.844269,49.380909]]]}},{"type":"Feature","properties":{"cadnum":"6321082501:01:001:0122"},"geometry":{"type":"Polygon","coordinates":[[[37.84787719999972,49.38128960000001],[37.847986,49.381286],[37.847986,49.38128540192926],[37.848126,49.38128],[37.848104,49.381087],[37.847986,49.38108863321799],[37.847986,49.381088],[37.847702,49.381092],[37.847714,49.381295],[37.847815,49.38129165808824],[37.847815,49.381292],[37.84787719999972,49.38128960000001]]]}},{"type":"Feature","properties":{"cadnum":"6321082501:01:001:0037"},"geometry":{"type":"Polygon","coordinates":[[[37.847946,49.380135],[37.848323,49.380128],[37.848304,49.379919],[37.848245,49.379564],[37.84821,49.379565],[37.847902,49.379574],[37.84793,49.379913],[37.847946,49.380135]]]}},{"type":"Feature","properties":{"cadnum":"6321082501:01:001:0315"},"geometry":{"type":"Polygon","coordinates":[[[37.849943,49.382072],[37.850654,49.382044],[37.850634,49.381923],[37.850686,49.38192],[37.850681,49.381893],[37.850797,49.381885],[37.8508,49.381903],[37.850804,49.381929],[37.850832,49.381928],[37.850848,49.38203],[37.850942,49.382023],[37.850895,49.381711],[37.850328,49.381748],[37.850133,49.381821],[37.850023,49.381827],[37.850029,49.381875],[37.849912,49.38188],[37.849943,49.382072]]]}},{"type":"Feature","properties":{"cadnum":"6321082501:01:001:0282"},"geometry":{"type":"Polygon","coordinates":[[[37.85212,49.38211],[37.852514,49.382107],[37.852511,49.382064],[37.852507,49.381992],[37.852491,49.381734],[37.852492,49.381432],[37.852162,49.381439],[37.852136,49.381439],[37.852124,49.381775],[37.85212,49.38211]]]}},{"type":"Feature","properties":{"cadnum":"6321082501:01:001:0298"},"geometry":{"type":"Polygon","coordinates":[[[37.851339,49.380847],[37.85168,49.380847],[37.85166,49.380545],[37.851643,49.380303],[37.851299,49.380305],[37.851319,49.380555],[37.851339,49.380847]]]}},{"type":"Feature","properties":{"cadnum":"6321082501:01:001:0305"},"geometry":{"type":"Polygon","coordinates":[[[37.850623,49.381544],[37.850953,49.381533],[37.850937,49.381347],[37.850607,49.381358],[37.850623,49.381544]]]}},{"type":"Feature","properties":{"cadnum":"6321082501:01:001:0283"},"geometry":{"type":"Polygon","coordinates":[[[37.85168,49.380847],[37.852024,49.380835],[37.852003,49.380532],[37.851988,49.3803],[37.851643,49.380303],[37.85166,49.380545],[37.85168,49.380847]]]}},{"type":"Feature","properties":{"cadnum":"6321082501:01:001:0267"},"geometry":{"type":"Polygon","coordinates":[[[37.851169,49.382093],[37.851578,49.382069],[37.851556,49.381908],[37.851554,49.381889],[37.85156,49.381889],[37.851555,49.381854],[37.851252,49.381873],[37.851177,49.381877],[37.851154,49.381878],[37.851159,49.381913],[37.851139,49.381914],[37.851161,49.382045],[37.851162,49.382058],[37.851169,49.382093]]]}},{"type":"Feature","properties":{"cadnum":"6321082501:01:001:0011"},"geometry":{"type":"Polygon","coordinates":[[[37.850255,49.379394],[37.850718,49.379379],[37.850679,49.379086],[37.850642,49.378858],[37.850215,49.378863],[37.850241,49.379104],[37.850255,49.379394]]]}},{"type":"Feature","properties":{"cadnum":"6321082501:01:001:0071"},"geometry":{"type":"Polygon","coordinates":[[[37.849043,49.381985],[37.849471,49.381971],[37.849463,49.381554],[37.849428,49.381261],[37.849009,49.38128],[37.849014,49.381568],[37.849043,49.381985]]]}},{"type":"Feature","properties":{"cadnum":"6321082501:01:001:0014"},"geometry":{"type":"Polygon","coordinates":[[[37.849018,49.380637],[37.849368,49.380624],[37.849345,49.380337],[37.849299,49.380107],[37.848973,49.380118],[37.848989,49.380331],[37.849018,49.380637]]]}},{"type":"Feature","properties":{"cadnum":"6321082501:01:001:0072"},"geometry":{"type":"Polygon","coordinates":[[[37.849009,49.38128],[37.849428,49.381261],[37.849405,49.381081],[37.849008,49.381117],[37.849009,49.38128]]]}},{"type":"Feature","properties":{"cadnum":"6321082501:01:001:0263"},"geometry":{"type":"Polygon","coordinates":[[[37.849534,49.382146],[37.849655,49.382141],[37.849917,49.382113],[37.849938,49.382108],[37.849888,49.381849],[37.849858,49.381852],[37.849853,49.381824],[37.849826,49.381827],[37.849832,49.381853],[37.849758,49.38186],[37.849748,49.381818],[37.849668,49.381825],[37.849676,49.381867],[37.849581,49.381875],[37.849575,49.381848],[37.849573,49.381835],[37.849541,49.381838],[37.849528,49.381839],[37.849528,49.38188],[37.849534,49.382146]]]}},{"type":"Feature","properties":{"cadnum":"6321082501:01:001:0034"},"geometry":{"type":"Polygon","coordinates":[[[37.851142,49.381223],[37.851238,49.381216],[37.851221,49.381112],[37.851124,49.381119],[37.851142,49.381223]]]}},{"type":"Feature","properties":{"cadnum":"6321082501:01:001:0271"},"geometry":{"type":"Polygon","coordinates":[[[37.850654,49.382044],[37.850848,49.38203],[37.850832,49.381928],[37.850804,49.381929],[37.8508,49.381903],[37.850797,49.381885],[37.850681,49.381893],[37.850686,49.38192],[37.850634,49.381923],[37.850654,49.382044]]]}},{"type":"Feature","properties":{"cadnum":"6321082501:01:001:0021"},"geometry":{"type":"Polygon","coordinates":[[[37.849845,49.380574],[37.850133,49.380565],[37.850204,49.380563],[37.850263,49.38029],[37.850313,49.380064],[37.849955,49.380037],[37.849917,49.380232],[37.849891,49.38036],[37.849884,49.380393],[37.849845,49.380574]]]}},{"type":"Feature","properties":{"cadnum":"6321082501:01:001:0286"},"geometry":{"type":"Polygon","coordinates":[[[37.852162,49.381439],[37.852492,49.381432],[37.852703,49.381427],[37.852971,49.381422],[37.852956,49.381298],[37.852146,49.381313],[37.852162,49.381439]]]}},{"type":"Feature","properties":{"cadnum":"6321082501:01:001:0009"},"geometry":{"type":"Polygon","coordinates":[[[37.850313,49.380064],[37.850801,49.380044],[37.850773,49.37979],[37.850729,49.37949],[37.850288,49.379503],[37.850296,49.379775],[37.850313,49.380064]]]}},{"type":"Feature","properties":{"cadnum":"6321082501:01:001:0284"},"geometry":{"type":"Polygon","coordinates":[[[37.852146,49.381313],[37.852956,49.381298],[37.852947,49.38123],[37.852916,49.381016],[37.852242,49.38103],[37.852247,49.381048],[37.852133,49.381054],[37.852141,49.381269],[37.852146,49.381313]]]}},{"type":"Feature","properties":{"cadnum":"6321082501:01:001:0094"},"geometry":{"type":"Polygon","coordinates":[[[37.861818,49.382964],[37.86357,49.382709],[37.863449,49.382529],[37.861848,49.382884],[37.861818,49.382964]]]}},{"type":"Feature","properties":{"cadnum":"6321082501:01:001:0294"},"geometry":{"type":"Polygon","coordinates":[[[37.859253,49.384339],[37.859249,49.384287],[37.859817,49.384264],[37.859804,49.38398],[37.85923,49.383999],[37.858814,49.384021],[37.858864,49.384402],[37.859253,49.384339]]]}},{"type":"Feature","properties":{"cadnum":"6321082501:01:001:0251"},"geometry":{"type":"Polygon","coordinates":[[[37.858932,49.385465],[37.858801,49.385448],[37.858801,49.3854485037037],[37.858797,49.385448],[37.85877,49.385536],[37.858801,49.38553990370371],[37.858801,49.38554],[37.858905,49.385553],[37.858932,49.385465]]]}},{"type":"Feature","properties":{"cadnum":"6321082501:01:001:0093"},"geometry":{"type":"Polygon","coordinates":[[[37.86181,49.383123],[37.863484,49.382994],[37.863546,49.382846],[37.861808,49.383054],[37.86181,49.383123]]]}},{"type":"Feature","properties":{"cadnum":"6321082501:01:001:0091"},"geometry":{"type":"Polygon","coordinates":[[[37.858947,49.383078],[37.858884,49.382824],[37.858502,49.382862],[37.858012,49.382902],[37.858078,49.383156],[37.85855,49.383114],[37.858801,49.38309123929471],[37.858801,49.383092],[37.858947,49.383078]]]}},{"type":"Feature","properties":{"cadnum":"6321082501:01:001:0274"},"geometry":{"type":"Polygon","coordinates":[[[37.84561,49.382932],[37.845602,49.382712],[37.845009,49.382713],[37.845017,49.382915],[37.84561,49.382932]]]}},{"type":"Feature","properties":{"cadnum":"6321082501:01:001:0343"},"geometry":{"type":"Polygon","coordinates":[[[37.841856,49.381786],[37.841191,49.381951],[37.841267,49.382429],[37.84126818512899,49.382429],[37.841357,49.382976],[37.840118,49.383406],[37.842493,49.383363],[37.842493,49.38336281982691],[37.844863,49.383319],[37.844859,49.382975],[37.842882,49.382975],[37.842321,49.382976],[37.841865,49.382976],[37.84186,49.382317],[37.84185930326594,49.382317],[37.841856,49.381786]]]}},{"type":"Feature","properties":{"cadnum":"6321082501:01:001:0096"},"geometry":{"type":"Polygon","coordinates":[[[37.84239769112394,49.38459942084922],[37.842493,49.384595],[37.842493,49.38459497281377],[37.844528,49.3845],[37.844528,49.384327],[37.842493,49.38441920661532],[37.842493,49.384419],[37.837544,49.384642],[37.837556,49.384824],[37.842321,49.38460297812436],[37.842321,49.384603],[37.84239769112394,49.38459942084922]]]}},{"type":"Feature","properties":{"cadnum":"6321082501:01:001:0100"},"geometry":{"type":"Polygon","coordinates":[[[37.844941,49.384066],[37.844904,49.383725],[37.842493,49.38382207471932],[37.842493,49.383822],[37.837569,49.384019],[37.83757,49.38435],[37.842493,49.384161],[37.842493,49.38416036946565],[37.844941,49.384066]]]}},{"type":"Feature","properties":{"cadnum":"6321082501:01:001:0371"},"geometry":{"type":"Polygon","coordinates":[[[37.846113,49.385644],[37.846357,49.385638],[37.846984,49.38562],[37.846962,49.385257],[37.846366,49.385284],[37.846098,49.385294],[37.846113,49.385644]]]}},{"type":"Feature","properties":{"cadnum":"6321082501:01:001:0253"},"geometry":{"type":"Polygon","coordinates":[[[37.846013,49.384664],[37.846207,49.384657],[37.846927,49.38463],[37.8469,49.38428],[37.846134,49.384334],[37.845975,49.384341],[37.846013,49.384664]]]}},{"type":"Feature","properties":{"cadnum":"6321082501:01:001:0052"},"geometry":{"type":"Polygon","coordinates":[[[37.843727,49.385624],[37.844868,49.385598],[37.844828,49.385059],[37.843676,49.385085],[37.843727,49.385624]]]}},{"type":"Feature","properties":{"cadnum":"6321082501:01:001:0326"},"geometry":{"type":"Polygon","coordinates":[[[37.844812,49.384843],[37.8449,49.384482],[37.844528,49.3845],[37.84239769112394,49.38459942084922],[37.837556,49.384824],[37.837571,49.384976],[37.841371,49.384923],[37.842493,49.384898],[37.842493,49.38489699518266],[37.844812,49.384843]]]}},{"type":"Feature","properties":{"cadnum":"6321082501:01:001:0422"},"geometry":{"type":"Polygon","coordinates":[[[37.843823,49.384197],[37.84384,49.384108],[37.842493,49.38416120605662],[37.842493,49.384161],[37.83757,49.38435],[37.83757,49.384439],[37.842321,49.38425563822872],[37.842321,49.384256],[37.843823,49.384197]]]}},{"type":"Feature","properties":{"cadnum":"6321082501:01:001:0273"},"geometry":{"type":"Polygon","coordinates":[[[37.846887,49.382953],[37.846881,49.38269],[37.846276,49.382709],[37.845602,49.382712],[37.84561,49.382932],[37.846292,49.382952],[37.846887,49.382953]]]}},{"type":"Feature","properties":{"cadnum":"6321082501:01:001:0341"},"geometry":{"type":"Polygon","coordinates":[[[37.843098,49.385689],[37.843727,49.385624],[37.843676,49.385085],[37.842493,49.385113811070106],[37.842493,49.385113],[37.841387,49.385139],[37.839674,49.385179],[37.839728,49.385843],[37.839878,49.385836],[37.842321,49.38572482715105],[37.842321,49.385725],[37.843098,49.385689]]]}},{"type":"Feature","properties":{"cadnum":"6321082501:01:001:0027"},"geometry":{"type":"Polygon","coordinates":[[[37.844906,49.383725],[37.844882,49.38349],[37.842321,49.383599],[37.842321,49.38359920874671],[37.837554,49.383799],[37.837569,49.384019],[37.842321,49.38382888139724],[37.842321,49.383829],[37.844906,49.383725]]]}},{"type":"Feature","properties":{"cadnum":"6321082501:01:001:0299"},"geometry":{"type":"Polygon","coordinates":[[[37.844882,49.38349],[37.844863,49.383319],[37.842321,49.383366],[37.842321,49.383366114105264],[37.840118,49.383406],[37.838723,49.383619],[37.838117,49.383692],[37.837559,49.383727],[37.837554,49.383799],[37.842493,49.383592],[37.842493,49.383591679422096],[37.844882,49.38349]]]}},{"type":"Feature","properties":{"cadnum":"6321082501:01:001:0372"},"geometry":{"type":"Polygon","coordinates":[[[37.845118,49.385671],[37.846113,49.385644],[37.846098,49.385294],[37.845092,49.38533],[37.845118,49.385671]]]}},{"type":"Feature","properties":{"cadnum":"6321082501:01:001:0254"},"geometry":{"type":"Polygon","coordinates":[[[37.845032,49.3847],[37.846013,49.384664],[37.845975,49.384341],[37.844988,49.384379],[37.845032,49.3847]]]}},{"type":"Feature","properties":{"cadnum":"6321082501:01:001:0132"},"geometry":{"type":"Polygon","coordinates":[[[37.847125,49.385385],[37.847564,49.38537],[37.847557,49.385105],[37.847564,49.384647],[37.847136,49.384668],[37.847128,49.385163],[37.847125,49.385385]]]}},{"type":"Feature","properties":{"cadnum":"6321082501:01:001:0133"},"geometry":{"type":"Polygon","coordinates":[[[37.84712,49.385829],[37.847577,49.385812],[37.847564,49.38537],[37.847125,49.385385],[37.84712,49.385829]]]}},{"type":"Feature","properties":{"cadnum":"6321082501:01:001:0320"},"geometry":{"type":"Polygon","coordinates":[[[37.848946,49.374342],[37.850225,49.374336],[37.850239,49.372434],[37.848952,49.372381],[37.848949,49.373431],[37.848949,49.373468],[37.848946,49.374342]]]}},{"type":"Feature","properties":{"cadnum":"6321082501:01:001:0063"},"geometry":{"type":"Polygon","coordinates":[[[37.853278,49.375006],[37.85321,49.373632],[37.853127,49.373631],[37.853182,49.375004],[37.853278,49.375006]]]}},{"type":"Feature","properties":{"cadnum":"6321082501:01:001:0424"},"geometry":{"type":"Polygon","coordinates":[[[37.854499,49.373605],[37.853367,49.37363],[37.853427,49.374998],[37.853479,49.374999],[37.853479,49.37499833876221],[37.854348,49.375004],[37.854584,49.375006],[37.854499,49.373605]]]}},{"type":"Feature","properties":{"cadnum":"6321082501:01:001:0337"},"geometry":{"type":"Polygon","coordinates":[[[37.850723,49.373607],[37.851749,49.373599],[37.851688,49.372484],[37.850656,49.372427],[37.850723,49.373607]]]}},{"type":"Feature","properties":{"cadnum":"6321082501:01:001:0349"},"geometry":{"type":"Polygon","coordinates":[[[37.852647,49.375039],[37.853182,49.375004],[37.853127,49.373631],[37.852592,49.373641],[37.852647,49.375039]]]}},{"type":"Feature","properties":{"cadnum":"6321082501:01:001:0322"},"geometry":{"type":"Polygon","coordinates":[[[37.851916,49.375086],[37.851969,49.375085],[37.852647,49.375039],[37.852592,49.373641],[37.85189,49.373656],[37.851916,49.375086]]]}},{"type":"Feature","properties":{"cadnum":"6321082501:01:001:0031"},"geometry":{"type":"Polygon","coordinates":[[[37.853427,49.374998],[37.853367,49.37363],[37.85321,49.373631],[37.853278,49.375006],[37.853308,49.37500438926175],[37.853308,49.375005],[37.853427,49.374998]]]}},{"type":"Feature","properties":{"cadnum":"6321082501:01:001:0327"},"geometry":{"type":"Polygon","coordinates":[[[37.853308,49.3735872849711],[37.853308,49.373588],[37.854128,49.373581],[37.854075,49.372616],[37.853308,49.372574],[37.853308,49.37257445226131],[37.851688,49.372484],[37.851749,49.373599],[37.853308,49.3735872849711]]]}},{"type":"Feature","properties":{"cadnum":"6321082501:01:001:0285"},"geometry":{"type":"Polygon","coordinates":[[[37.848814,49.38793],[37.849302,49.387913],[37.849282,49.38759],[37.848794,49.387607],[37.848814,49.38793]]]}},{"type":"Feature","properties":{"cadnum":"6321082501:01:001:0266"},"geometry":{"type":"Polygon","coordinates":[[[37.848213,49.387597],[37.848179,49.387069],[37.847941,49.387083],[37.847978,49.387597],[37.848213,49.387597]]]}},{"type":"Feature","properties":{"cadnum":"6321082501:01:001:0257"},"geometry":{"type":"Polygon","coordinates":[[[37.849853,49.386855],[37.850435,49.386848],[37.850377,49.386577],[37.850357,49.386315],[37.849834,49.386239],[37.849849,49.386531],[37.849853,49.386855]]]}},{"type":"Feature","properties":{"cadnum":"6321082501:01:001:0259"},"geometry":{"type":"Polygon","coordinates":[[[37.849923,49.387563],[37.850439,49.387556],[37.850438,49.387421],[37.850439,49.386992],[37.84988,49.386999],[37.849905,49.387428],[37.849923,49.387563]]]}},{"type":"Feature","properties":{"cadnum":"6321082501:01:001:0426"},"geometry":{"type":"Polygon","coordinates":[[[37.848767,49.386311],[37.849303,49.386298],[37.849314,49.386094],[37.848928,49.386081],[37.848924,49.386033],[37.848776,49.386033],[37.848767,49.386311]]]}},{"type":"Feature","properties":{"cadnum":"6321082501:01:001:0258"},"geometry":{"type":"Polygon","coordinates":[[[37.850357,49.386315],[37.850356,49.386291],[37.849833,49.386198],[37.849834,49.386239],[37.850357,49.386315]]]}},{"type":"Feature","properties":{"cadnum":"6321082501:01:001:0428"},"geometry":{"type":"Polygon","coordinates":[[[37.848948,49.387575],[37.849291,49.387573],[37.849244,49.387033],[37.848914,49.387059],[37.84892,49.387139],[37.848948,49.387575]]]}},{"type":"Feature","properties":{"cadnum":"6321082501:01:001:0099"},"geometry":{"type":"Polygon","coordinates":[[[37.848213,49.387597],[37.848948,49.387575],[37.84892,49.387139],[37.848713,49.387145],[37.848706,49.387046],[37.848179,49.387069],[37.848213,49.387597]]]}},{"type":"Feature","properties":{"cadnum":"6321082501:01:001:0367"},"geometry":{"type":"Polygon","coordinates":[[[37.851419,49.387983],[37.852457,49.38793],[37.852326,49.38692],[37.851289,49.386935],[37.851419,49.387983]]]}},{"type":"Feature","properties":{"cadnum":"6321082501:01:001:0425"},"geometry":{"type":"Polygon","coordinates":[[[37.848744,49.386885],[37.849299,49.386872],[37.849287,49.386606],[37.849303,49.386298],[37.848767,49.386311],[37.848753,49.386632],[37.848744,49.386885]]]}},{"type":"Feature","properties":{"cadnum":"6321082501:01:001:0097"},"geometry":{"type":"Polygon","coordinates":[[[37.841133,49.385817],[37.839882,49.385872],[37.839883736842104,49.385893],[37.839883,49.385893],[37.839952,49.386706],[37.841187,49.386671],[37.84114198812349,49.385970615201416],[37.841133,49.385817]]]}},{"type":"Feature","properties":{"cadnum":"6321082501:01:001:0344"},"geometry":{"type":"Polygon","coordinates":[[[37.839882,49.385872],[37.839878,49.385836],[37.839728,49.385843],[37.839674,49.385179],[37.837567,49.385227],[37.837543647966335,49.385893],[37.837543,49.385893],[37.837542,49.38594],[37.837536,49.386005],[37.837536639175255,49.386005],[37.83751,49.386328],[37.839917,49.386288],[37.83989264050633,49.386005],[37.839893,49.386005],[37.839882,49.385872]]]}},{"type":"Feature","properties":{"cadnum":"6321082501:01:001:0313"},"geometry":{"type":"Polygon","coordinates":[[[37.837712,49.387129],[37.841349,49.387086],[37.84131,49.386667],[37.841185,49.386671],[37.839952,49.386706],[37.839917,49.386288],[37.83751,49.386328],[37.837555,49.386786],[37.837712,49.387129]]]}},{"type":"Feature","properties":{"cadnum":"6321082501:01:001:0018"},"geometry":{"type":"Polygon","coordinates":[[[37.854859,49.375011],[37.854774,49.373607],[37.854499,49.373605],[37.854584,49.375006],[37.854859,49.375011]]]}},{"type":"Feature","properties":{"cadnum":"6321082501:01:001:0411"},"geometry":{"type":"Polygon","coordinates":[[[37.855766,49.375024],[37.856233,49.375011],[37.856005,49.372695],[37.854737,49.372644],[37.854829,49.373576],[37.855195,49.373573],[37.855197,49.373609],[37.855283,49.375017],[37.855766,49.375024]]]}},{"type":"Feature","properties":{"cadnum":"6321082501:01:001:0347"},"geometry":{"type":"Polygon","coordinates":[[[37.856233,49.375011],[37.857351,49.37498],[37.85706,49.372737],[37.856005,49.372695],[37.856233,49.375011]]]}},{"type":"Feature","properties":{"cadnum":"6321082501:01:001:0333"},"geometry":{"type":"Polygon","coordinates":[[[37.857351,49.37498],[37.858529,49.374948],[37.858129,49.372779],[37.85706,49.372737],[37.857351,49.37498]]]}},{"type":"Feature","properties":{"cadnum":"6321082501:01:001:0004"},"geometry":{"type":"Polygon","coordinates":[[[37.855506,49.384204],[37.855447,49.383813],[37.855242,49.383816],[37.854623,49.383838],[37.854631,49.384193],[37.855208,49.38418],[37.855506,49.384204]]]}},{"type":"Feature","properties":{"cadnum":"6321082501:01:001:0291"},"geometry":{"type":"Polygon","coordinates":[[[37.856905,49.384163],[37.857328,49.384124],[37.85779,49.38409],[37.857732,49.383841],[37.85731,49.383874],[37.85686,49.383908],[37.856905,49.384163]]]}},{"type":"Feature","properties":{"cadnum":"6321082501:01:001:0090"},"geometry":{"type":"Polygon","coordinates":[[[37.855633,49.383049],[37.856085,49.383035],[37.856538,49.383014],[37.856508,49.382748],[37.856046,49.382774],[37.855593,49.382787],[37.855633,49.383049]]]}},{"type":"Feature","properties":{"cadnum":"6321082501:01:001:0086"},"geometry":{"type":"Polygon","coordinates":[[[37.855712,49.383561],[37.856151,49.383544],[37.856596,49.383525],[37.856567,49.383267],[37.856124,49.38328],[37.855671,49.383295],[37.855699,49.383478],[37.855712,49.383561]]]}},{"type":"Feature","properties":{"cadnum":"6321082501:01:001:0005"},"geometry":{"type":"Polygon","coordinates":[[[37.855816,49.384228],[37.855791,49.384072],[37.85575,49.38381],[37.855447,49.383813],[37.855506,49.384204],[37.855816,49.384228]]]}},{"type":"Feature","properties":{"cadnum":"6321082501:01:001:0359"},"geometry":{"type":"Polygon","coordinates":[[[37.85711,49.384902],[37.857585,49.384899],[37.857582,49.384727],[37.857107,49.384731],[37.85711,49.384902]]]}},{"type":"Feature","properties":{"cadnum":"6321082501:01:001:0300"},"geometry":{"type":"Polygon","coordinates":[[[37.85779,49.38409],[37.858227,49.384054],[37.85861,49.384023],[37.858562,49.383773],[37.858177,49.383797],[37.857728,49.383825],[37.857732,49.383841],[37.85779,49.38409]]]}},{"type":"Feature","properties":{"cadnum":"6321082501:01:001:0306"},"geometry":{"type":"Polygon","coordinates":[[[37.853968,49.3838],[37.854519,49.383791],[37.854513,49.38355],[37.853966,49.383576],[37.853968,49.3838]]]}},{"type":"Feature","properties":{"cadnum":"6321082501:01:001:0277"},"geometry":{"type":"Polygon","coordinates":[[[37.856779,49.383347],[37.857631,49.383298],[37.857576,49.382967],[37.857147,49.382982],[37.856725,49.383002],[37.856779,49.383347]]]}},{"type":"Feature","properties":{"cadnum":"6321082501:01:001:0365"},"geometry":{"type":"Polygon","coordinates":[[[37.854373,49.385086],[37.854884,49.385073],[37.854855,49.384822],[37.854808,49.384481],[37.854285,49.384494],[37.854328,49.384818],[37.854373,49.385086]]]}},{"type":"Feature","properties":{"cadnum":"6321082501:01:001:0366"},"geometry":{"type":"Polygon","coordinates":[[[37.854457,49.38561],[37.854945,49.385597],[37.854884,49.385073],[37.854373,49.385086],[37.854457,49.38561]]]}},{"type":"Feature","properties":{"cadnum":"6321082501:01:001:0057"},"geometry":{"type":"Polygon","coordinates":[[[37.85575,49.38381],[37.856209,49.383802],[37.856626,49.383787],[37.856596,49.383525],[37.856151,49.383544],[37.855712,49.383561],[37.85575,49.38381]]]}},{"type":"Feature","properties":{"cadnum":"6321082501:01:001:0278"},"geometry":{"type":"Polygon","coordinates":[[[37.857676,49.383563],[37.858142,49.383537],[37.858547,49.383513],[37.858507,49.383254],[37.858106,49.383275],[37.857631,49.383298],[37.857676,49.383563]]]}},{"type":"Feature","properties":{"cadnum":"6321082501:01:001:0307"},"geometry":{"type":"Polygon","coordinates":[[[37.853976,49.38436],[37.854496,49.38435],[37.854531,49.384282],[37.854519,49.383791],[37.853968,49.3838],[37.853968,49.384008],[37.853976,49.38436]]]}},{"type":"Feature","properties":{"cadnum":"6321082501:01:001:0358"},"geometry":{"type":"Polygon","coordinates":[[[37.856717,49.385439],[37.857037,49.385398],[37.856902,49.384922],[37.856859,49.384743],[37.856855,49.384726],[37.856022,49.384755],[37.856068,49.385304],[37.85667,49.385283],[37.856717,49.385439]]]}},{"type":"Feature","properties":{"cadnum":"6321082501:01:001:0323"},"geometry":{"type":"Polygon","coordinates":[[[37.83952,49.382055],[37.83959766123778,49.382317],[37.839596,49.382317],[37.839611,49.382362],[37.839788,49.382317],[37.83978737096774,49.382317],[37.839854,49.3823],[37.840488,49.382134],[37.841191,49.381951],[37.841856,49.381786],[37.842405,49.381689],[37.842387,49.381425],[37.84149,49.381614],[37.838765,49.381688],[37.837519,49.381742],[37.83749221688501,49.382317],[37.837492,49.382317],[37.837477,49.382642],[37.838018,49.38248],[37.83819822085889,49.382429],[37.838199,49.382429],[37.83952,49.382055]]]}},{"type":"Feature","properties":{"cadnum":"6321082501:01:001:0409"},"geometry":{"type":"Polygon","coordinates":[[[37.841191,49.381951],[37.840488,49.382134],[37.84052646101695,49.382317],[37.840526,49.382317],[37.840713,49.383199],[37.841357,49.382976],[37.84125,49.382317],[37.841249192468624,49.382317],[37.841191,49.381951]]]}},{"type":"Feature","properties":{"cadnum":"6321082501:01:001:0041"},"geometry":{"type":"Polygon","coordinates":[[[37.837567,49.385227],[37.841387,49.385139],[37.841371,49.384923],[37.837571,49.384976],[37.837567,49.385227]]]}},{"type":"Feature","properties":{"cadnum":"6321082501:01:001:0319"},"geometry":{"type":"Polygon","coordinates":[[[37.839854,49.3823],[37.839611,49.382362],[37.837518,49.3829],[37.837559,49.383727],[37.838117,49.383692],[37.838723,49.383619],[37.840088,49.38341],[37.83987977310155,49.382429],[37.839881,49.382429],[37.839854,49.3823]]]}},{"type":"Feature","properties":{"cadnum":"6321082501:01:001:0062"},"geometry":{"type":"Polygon","coordinates":[[[37.865713,49.381703],[37.865706,49.380656],[37.865557,49.380662],[37.865576,49.381689],[37.865713,49.381703]]]}},{"type":"Feature","properties":{"cadnum":"6321082501:01:001:0023"},"geometry":{"type":"Polygon","coordinates":[[[37.864998,49.380643],[37.865268,49.380631],[37.865222,49.379719],[37.864949,49.37974],[37.864998,49.380643]]]}}]}