{"type":"FeatureCollection","features":[{"type":"Feature","properties":{"cadnum":"6321081502:01:001:0276"},"geometry":{"type":"Polygon","coordinates":[[[37.547701,49.321273],[37.547512,49.321244],[37.546932,49.321069],[37.546781,49.321598],[37.54678104,49.321598],[37.546014,49.324286],[37.546891,49.324086],[37.547606778461535,49.321598],[37.547607,49.321598],[37.547701,49.321273]]]}},{"type":"Feature","properties":{"cadnum":"6321081502:01:001:0090"},"geometry":{"type":"Polygon","coordinates":[[[37.548607,49.321392],[37.548158,49.321344],[37.547701,49.321273],[37.547639393846154,49.321486],[37.547639,49.321486],[37.546891,49.324086],[37.547894,49.323859],[37.54854666961651,49.321598],[37.548547,49.321598],[37.548607,49.321392]]]}},{"type":"Feature","properties":{"cadnum":"6321081502:01:001:0089"},"geometry":{"type":"Polygon","coordinates":[[[37.549884,49.321464],[37.549139,49.321449],[37.548607,49.321392],[37.548579621359224,49.321486],[37.548579,49.321486],[37.547894,49.323859],[37.548811,49.32365],[37.54982772092919,49.321578263568014],[37.549884,49.321464]]]}},{"type":"Feature","properties":{"cadnum":"6321081502:01:001:0275"},"geometry":{"type":"Polygon","coordinates":[[[37.546932,49.321069],[37.546263,49.320865],[37.54605,49.321598],[37.54605064444445,49.321598],[37.54581,49.322431],[37.545691,49.322843],[37.545691,49.324328],[37.545908,49.32431],[37.546014,49.324286],[37.546813,49.321486],[37.54681296975426,49.321486],[37.546932,49.321069]]]}},{"type":"Feature","properties":{"cadnum":"6321081502:01:001:0311"},"geometry":{"type":"Polygon","coordinates":[[[37.546263,49.320865],[37.545733,49.320705],[37.545691,49.320676],[37.545691,49.321486],[37.545691,49.321598],[37.545691,49.32241],[37.54581,49.322431],[37.546083,49.321486],[37.546082545702596,49.321486],[37.546263,49.320865]]]}},{"type":"Feature","properties":{"cadnum":"6321081502:01:001:0299"},"geometry":{"type":"Polygon","coordinates":[[[37.545691,49.322843],[37.54581,49.322431],[37.545691,49.32241],[37.545691,49.322843]]]}},{"type":"Feature","properties":{"cadnum":"6321081502:01:001:0317"},"geometry":{"type":"Polygon","coordinates":[[[37.546419,49.327187],[37.546706,49.326891],[37.546745,49.326547],[37.546804,49.326104],[37.546635,49.32603],[37.546105,49.325771],[37.545717,49.325626],[37.545691,49.325611],[37.545691,49.326905],[37.546419,49.327187]],[[37.546043,49.326565],[37.545893,49.326518],[37.545837,49.326416],[37.545909,49.326317],[37.546065,49.32628],[37.546215,49.326327],[37.546271,49.32643],[37.5462,49.326528],[37.546043,49.326565]],[[37.54601,49.32699],[37.545884,49.326951],[37.545839,49.326866],[37.545897,49.326784],[37.546028,49.326753],[37.546153,49.326792],[37.546199,49.326878],[37.546141,49.32696],[37.54601,49.32699]]]}},{"type":"Feature","properties":{"cadnum":"6321081502:01:001:0292"},"geometry":{"type":"Polygon","coordinates":[[[37.545691,49.327935],[37.545791,49.327831],[37.546381,49.327224],[37.545691,49.326955],[37.545691,49.327935]]]}}]}