{"type":"FeatureCollection","features":[{"type":"Feature","properties":{"cadnum":"6321883307:00:000:0008"},"geometry":{"type":"Polygon","coordinates":[[[38.033393,49.883061],[38.033276,49.882957],[38.032701,49.883324],[38.033187,49.883716],[38.033588,49.883518],[38.033684,49.88357],[38.033607,49.884073],[38.03360833226837,49.884073],[38.033578,49.884275],[38.033623,49.884715],[38.033594,49.885671],[38.033123,49.885701],[38.033077,49.886112],[38.032992,49.886317],[38.033393,49.8863],[38.033462,49.886105],[38.033794,49.886101],[38.033942,49.886285],[38.034311,49.886256],[38.033959,49.885767],[38.034152,49.884803],[38.034252,49.88482],[38.034582,49.88452878486056],[38.034582,49.884529],[38.0347539999991,49.8843770000008],[38.034754,49.884377],[38.034883,49.884263],[38.03470352173862,49.88412347204929],[38.034565,49.884015],[38.033393,49.883061]]]}},{"type":"Feature","properties":{"cadnum":"6321883307:00:000:0010"},"geometry":{"type":"Polygon","coordinates":[[[38.029089,49.880412],[38.029106,49.8804],[38.029261,49.880461],[38.029261,49.88046099112426],[38.029444,49.880533],[38.02944569476743,49.880533],[38.030037,49.880766],[38.030073,49.88093],[38.029746,49.881631],[38.030273,49.881712],[38.030747,49.880803],[38.030521,49.880676],[38.029843,49.880422],[38.02984245985402,49.880422],[38.029407,49.880259],[38.029261,49.88023420754717],[38.029261,49.880234],[38.028956,49.880181],[38.02860271590909,49.880422],[38.028602,49.880422],[38.028168,49.880719],[38.028418,49.880871],[38.02891107349666,49.880533],[38.028912,49.880533],[38.029089,49.880411654639175],[38.029089,49.880412]]]}},{"type":"Feature","properties":{"cadnum":"6321883307:00:000:0009"},"geometry":{"type":"Polygon","coordinates":[[[38.024612,49.887409],[38.024413,49.887256],[38.024374,49.887227],[38.024323,49.887191],[38.024282,49.887178],[38.024088,49.887321],[38.023926,49.887183],[38.023825,49.887228],[38.024061,49.887375],[38.024117,49.887415],[38.02413,49.887427],[38.024178,49.887462],[38.02423026,49.887501],[38.02423,49.887501],[38.02425410679621,49.88751879611657],[38.024379,49.887612],[38.02438036170212,49.887612],[38.024421,49.887642],[38.02452,49.88769],[38.024623,49.887731],[38.02467,49.887827],[38.024712,49.888021],[38.024964,49.888022],[38.024942,49.88793],[38.024887,49.88775],[38.024686,49.887501],[38.024685871921186,49.887501],[38.024612,49.887409]]]}},{"type":"Feature","properties":{"cadnum":"6321883307:00:000:0005"},"geometry":{"type":"Polygon","coordinates":[[[38.020631,49.88649],[38.021426,49.885824],[38.021859,49.88564],[38.021371,49.885546],[38.021113,49.885782],[38.02045,49.886406],[38.020631,49.88649]]]}},{"type":"Feature","properties":{"cadnum":"6321883307:00:000:0002"},"geometry":{"type":"Polygon","coordinates":[[[38.021113,49.885782],[38.021394,49.885525],[38.021567,49.885116],[38.021441,49.885107],[38.021344,49.88509],[38.021097,49.885058],[38.020942,49.885442],[38.020761,49.885668],[38.021113,49.885782]]]}},{"type":"Feature","properties":{"cadnum":"6321883307:00:000:0003"},"geometry":{"type":"Polygon","coordinates":[[[38.022091,49.886092],[38.022613,49.885752],[38.022945,49.885536],[38.023189,49.885406],[38.023181,49.8854],[38.023137,49.885375],[38.022944,49.885268],[38.022801,49.885262],[38.022746,49.88526],[38.022687,49.885268],[38.022342,49.885487],[38.022523,49.885614],[38.02198,49.885981],[38.022021,49.886043],[38.022091,49.886092]]]}},{"type":"Feature","properties":{"cadnum":"6321883307:00:000:0007"},"geometry":{"type":"Polygon","coordinates":[[[38.020081,49.887404],[38.019732,49.887264],[38.019504,49.887111],[38.019239,49.887046],[38.019096,49.887236],[38.01891205053192,49.887501],[38.018911,49.887501],[38.018677,49.88784],[38.01858,49.888006],[38.018595,49.888211],[38.018789,49.888309],[38.019066,49.887999],[38.019546,49.888158],[38.01996858312034,49.887560930946094],[38.020081,49.887404]]]}},{"type":"Feature","properties":{"cadnum":"6321883307:00:000:0006"},"geometry":{"type":"Polygon","coordinates":[[[38.030521,49.883075],[38.030816,49.882463],[38.030948,49.882318],[38.031582,49.881372],[38.030798,49.880787],[38.030033,49.882337],[38.030237,49.882729],[38.030228,49.883035],[38.030521,49.883075]]]}},{"type":"Feature","properties":{"cadnum":"6321883307:00:000:0011"},"geometry":{"type":"Polygon","coordinates":[[[38.032701,49.883324],[38.033276,49.882957],[38.033069,49.882764],[38.032888,49.882597],[38.032725,49.882426],[38.032599,49.882312],[38.032482,49.882191],[38.032333,49.882039],[38.032288,49.882027],[38.032062,49.881798],[38.031853,49.881573],[38.031582,49.881372],[38.030948,49.882318],[38.030816,49.882463],[38.031113,49.882483],[38.031298,49.882607],[38.031227,49.882682],[38.031735,49.882874],[38.031795,49.882794],[38.031889,49.882823],[38.0321,49.882961],[38.032292,49.882927],[38.032349,49.883107],[38.032515,49.883216],[38.032701,49.883324]]]}},{"type":"Feature","properties":{"cadnum":"6321883307:00:000:0004"},"geometry":{"type":"Polygon","coordinates":[[[38.018302,49.889472],[38.01898,49.889379],[38.019552,49.889216],[38.019539,49.889002],[38.019594,49.888942],[38.019782,49.888923],[38.019837,49.888581],[38.019094,49.888494],[38.018591,49.88824],[38.018589,49.888286],[38.018383,49.888588],[38.01819,49.888687],[38.018312,49.888898],[38.018302,49.889472]]]}}]}