{"type":"FeatureCollection","features":[{"type":"Feature","properties":{"cadnum":"6322887001:01:001:0002"},"geometry":{"type":"Polygon","coordinates":[[[37.210779,49.10892466],[37.210908,49.109027],[37.211206,49.109263],[37.211651,49.109084],[37.21127,49.108813],[37.210779,49.10859913430127],[37.210779,49.108599],[37.210719,49.108573],[37.210487,49.108692],[37.210608,49.10878896575342],[37.210608,49.108789],[37.210612261364226,49.10879238068228],[37.210779,49.108926],[37.210779,49.10892466]]]}},{"type":"Feature","properties":{"cadnum":"6322887001:01:001:0001"},"geometry":{"type":"Polygon","coordinates":[[[37.210779,49.109435],[37.210779,49.1094349006772],[37.211167,49.109279],[37.211206,49.109263],[37.210908,49.109027],[37.210612261364226,49.10879238068228],[37.210487,49.108692],[37.210275,49.108803],[37.210424,49.109041],[37.210491,49.109148],[37.210724,49.109457],[37.210779,49.109435]]]}},{"type":"Feature","properties":{"cadnum":"6322887001:01:001:0107"},"geometry":{"type":"Polygon","coordinates":[[[37.219743,49.091896],[37.219743,49.091911],[37.21974353571429,49.091911],[37.219759,49.092344],[37.219479,49.092374],[37.219404,49.093066],[37.219692,49.093233],[37.219802,49.093642],[37.219267,49.093942],[37.220605,49.094201],[37.220659,49.094053],[37.220741,49.093659],[37.220793,49.092732],[37.220766,49.092501],[37.220644,49.092283],[37.220235,49.091823],[37.219743,49.091896]]]}},{"type":"Feature","properties":{"cadnum":"6322887001:01:001:0021"},"geometry":{"type":"Polygon","coordinates":[[[37.216272,49.09653475],[37.216321,49.096547],[37.217195,49.096857],[37.217293,49.096687],[37.216333,49.096303],[37.216101,49.09623],[37.216101,49.09623030514706],[37.216,49.096198],[37.21589,49.096437],[37.216101,49.09649113089006],[37.216101,49.096492],[37.21623379999937,49.096525199999846],[37.216272,49.096535],[37.216272,49.09653475]]]}},{"type":"Feature","properties":{"cadnum":"6322887001:01:001:0096"},"geometry":{"type":"Polygon","coordinates":[[[37.216203,49.095897],[37.215842,49.095579],[37.215252,49.095889],[37.215579,49.096224],[37.216101,49.09595045192307],[37.216101,49.095951],[37.216203,49.095897]]]}},{"type":"Feature","properties":{"cadnum":"6322887001:01:001:0023"},"geometry":{"type":"Polygon","coordinates":[[[37.216272,49.0970732160804],[37.216999,49.097223],[37.217038,49.097034],[37.216246,49.096772],[37.216101,49.096764],[37.216101,49.09676409090909],[37.215861,49.096751],[37.215835,49.097041],[37.216101,49.09705401086956],[37.216101,49.097055],[37.216203,49.097059],[37.216272,49.097074],[37.216272,49.0970732160804]]]}},{"type":"Feature","properties":{"cadnum":"6322887001:01:001:0097"},"geometry":{"type":"Polygon","coordinates":[[[37.215568,49.095339],[37.21545872189349,49.095396],[37.215458,49.095396],[37.21537998873213,49.09543706760577],[37.215244,49.095508],[37.21524524686192,49.095508],[37.215004,49.095635],[37.215252,49.095889],[37.215842,49.095579],[37.215633,49.095396],[37.21563275739645,49.095396],[37.215568,49.095339]]]}},{"type":"Feature","properties":{"cadnum":"6322887001:01:001:0016"},"geometry":{"type":"Polygon","coordinates":[[[37.210752,49.09775],[37.210779,49.09771],[37.210779,49.09770933333333],[37.210995,49.097384],[37.210779,49.097318139534885],[37.210779,49.097318],[37.210573,49.097255],[37.210322,49.097626],[37.210184,49.097827],[37.210398,49.097882],[37.210437,49.097892],[37.210488,49.097904],[37.210608,49.0979415],[37.210608,49.097943],[37.210616,49.097944],[37.210752,49.09775]]]}},{"type":"Feature","properties":{"cadnum":"6322887001:01:001:0017"},"geometry":{"type":"Polygon","coordinates":[[[37.212501,49.09747],[37.212647,49.097341],[37.212665,49.097179],[37.21267,49.097074],[37.212673,49.096998],[37.212504,49.096792],[37.212158,49.096898],[37.212059,49.096928],[37.21187,49.097001],[37.212008,49.097175],[37.212075,49.097155],[37.212501,49.09747]]]}},{"type":"Feature","properties":{"cadnum":"6322887001:01:001:0018"},"geometry":{"type":"Polygon","coordinates":[[[37.212163,49.097674],[37.212501,49.09747],[37.212075,49.097155],[37.212008,49.097175],[37.21187,49.097001],[37.211593,49.097138],[37.211853,49.097362],[37.212163,49.097674]]]}},{"type":"Feature","properties":{"cadnum":"6322887001:01:001:0003"},"geometry":{"type":"Polygon","coordinates":[[[37.222431,49.101191],[37.222459,49.101176],[37.222672,49.100978],[37.223217,49.100544],[37.223038,49.100426],[37.222463,49.100896],[37.222231,49.101128],[37.222431,49.101191]]]}},{"type":"Feature","properties":{"cadnum":"6322887001:01:001:0005"},"geometry":{"type":"Polygon","coordinates":[[[37.221709,49.10079],[37.221766,49.100736],[37.221766,49.10073461320754],[37.221815,49.100687],[37.222023,49.10042],[37.222239,49.100144],[37.222145,49.100125],[37.22181,49.100046],[37.221602,49.100463],[37.22155,49.100593],[37.221473,49.100663],[37.221335,49.100836],[37.221615,49.100924],[37.221709,49.10079]]]}},{"type":"Feature","properties":{"cadnum":"6322887001:01:001:0006"},"geometry":{"type":"Polygon","coordinates":[[[37.222239,49.100144],[37.22229,49.100084],[37.221833,49.1],[37.22181,49.100046],[37.222145,49.100125],[37.222239,49.100144]]]}},{"type":"Feature","properties":{"cadnum":"6322887001:01:001:0111"},"geometry":{"type":"Polygon","coordinates":[[[37.224446,49.101661],[37.224697,49.101393],[37.223795,49.101062],[37.223597,49.101326],[37.224446,49.101661]]]}},{"type":"Feature","properties":{"cadnum":"6322887001:01:001:0105"},"geometry":{"type":"Polygon","coordinates":[[[37.222814,49.102658],[37.222735,49.102589],[37.22273456302521,49.102589],[37.222677,49.102539],[37.222631,49.102501],[37.222581,49.102458],[37.22246,49.102365],[37.222037983999996,49.102589],[37.222036,49.102589],[37.221989,49.102615],[37.22211,49.102702],[37.22211099772728,49.102702],[37.222606,49.103055],[37.222731,49.103061],[37.22280493796526,49.102702],[37.222805,49.102702],[37.222814,49.102658]]]}},{"type":"Feature","properties":{"cadnum":"6322887001:01:001:0104"},"geometry":{"type":"Polygon","coordinates":[[[37.225958,49.098692],[37.225401,49.098697],[37.225452,49.098793],[37.225555401360545,49.098993],[37.225554,49.098993],[37.225604,49.099087],[37.225625,49.099129],[37.225915,49.099132],[37.225915,49.099126],[37.22592393333334,49.09902698888882],[37.225958,49.098692]]]}},{"type":"Feature","properties":{"cadnum":"6322887001:01:001:0099"},"geometry":{"type":"Polygon","coordinates":[[[37.227762,49.100662],[37.22759,49.100539],[37.227087,49.100817],[37.227087,49.10081717704918],[37.226954,49.10089],[37.227123,49.101038],[37.227259,49.100959],[37.227259,49.10095797496088],[37.227762,49.100662]]]}},{"type":"Feature","properties":{"cadnum":"6322887001:01:001:0040"},"geometry":{"type":"Polygon","coordinates":[[[37.227184685279845,49.1005250456849],[37.227259,49.100482],[37.227259,49.10048171731449],[37.22737,49.100417],[37.227259,49.1003391160221],[37.227259,49.100339],[37.227189,49.10029],[37.22696,49.100414],[37.226933,49.100434],[37.226732,49.100519],[37.226407,49.100701],[37.22656,49.100877],[37.226956,49.100663],[37.227076,49.100588],[37.227087,49.1005816284153],[37.227087,49.100582],[37.227184685279845,49.1005250456849]]]}},{"type":"Feature","properties":{"cadnum":"6322887001:01:001:0008"},"geometry":{"type":"Polygon","coordinates":[[[37.221766,49.100135],[37.221766,49.100133102040814],[37.22181,49.100046],[37.221833,49.1],[37.221894,49.099806],[37.221605,49.099803],[37.22148,49.099849],[37.221374,49.100049],[37.221594,49.10010243669251],[37.221594,49.100103],[37.221761,49.100143],[37.221766,49.100135]]]}},{"type":"Feature","properties":{"cadnum":"6322887001:01:001:0004"},"geometry":{"type":"Polygon","coordinates":[[[37.222231,49.101128],[37.222463,49.100896],[37.223038,49.100426],[37.222769,49.100247],[37.222266,49.100799],[37.222027,49.101059],[37.222231,49.101128]]]}},{"type":"Feature","properties":{"cadnum":"6322887001:01:001:0108"},"geometry":{"type":"Polygon","coordinates":[[[37.225039,49.100338],[37.225419,49.100337],[37.225836,49.100288],[37.225728,49.100133],[37.225696,49.100095],[37.225678,49.100053],[37.224452,49.100139],[37.224303,49.100274],[37.225039,49.100338]]]}},{"type":"Feature","properties":{"cadnum":"6322887001:01:001:0007"},"geometry":{"type":"Polygon","coordinates":[[[37.221602,49.100463],[37.221761,49.100143],[37.221374,49.100049],[37.221367,49.10006],[37.221104,49.100549],[37.220989,49.100739],[37.221335,49.100836],[37.221473,49.100663],[37.22155,49.100593],[37.221594,49.10048299999998],[37.221594,49.100483],[37.221602,49.100463]]]}},{"type":"Feature","properties":{"cadnum":"6322887001:01:001:0029"},"geometry":{"type":"Polygon","coordinates":[[[37.222003,49.101421],[37.221678,49.101282],[37.221314,49.101568],[37.220875,49.101934],[37.221163,49.102059],[37.221311,49.101938],[37.221605,49.101723],[37.221766,49.101601],[37.221766,49.10160083417085],[37.222003,49.101421]]]}},{"type":"Feature","properties":{"cadnum":"6322887001:01:001:0049"},"geometry":{"type":"Polygon","coordinates":[[[37.217127,49.106171],[37.216707,49.105684],[37.216428,49.105776],[37.216704,49.10616],[37.216721710144924,49.106186],[37.21672,49.106186],[37.216822,49.106333],[37.216974,49.106554],[37.21732,49.106445],[37.217229,49.106306],[37.217174,49.106233],[37.217127,49.106171]]]}},{"type":"Feature","properties":{"cadnum":"6322887001:01:001:0100"},"geometry":{"type":"Polygon","coordinates":[[[37.227813,49.09896],[37.228144,49.098685],[37.227602,49.098607],[37.227468,49.098751],[37.227387,49.098899],[37.227813,49.09896]]]}},{"type":"Feature","properties":{"cadnum":"6322887001:01:001:0024"},"geometry":{"type":"Polygon","coordinates":[[[37.21824,49.097594],[37.218338,49.097461],[37.217038,49.097034],[37.216999,49.097223],[37.217019,49.097228],[37.21824,49.097594]]]}},{"type":"Feature","properties":{"cadnum":"6322887001:01:001:0022"},"geometry":{"type":"Polygon","coordinates":[[[37.218432,49.097294],[37.218613,49.097213],[37.217293,49.096687],[37.217195,49.096857],[37.218432,49.097294]]]}},{"type":"Feature","properties":{"cadnum":"6322887001:01:001:0019"},"geometry":{"type":"Polygon","coordinates":[[[37.218153,49.096297],[37.218369,49.096037],[37.217864,49.095777],[37.217695,49.095692],[37.217533,49.095609],[37.217344,49.09588],[37.217506,49.095967],[37.217682,49.096062],[37.218153,49.096297]]]}},{"type":"Feature","properties":{"cadnum":"6322887001:01:001:0041"},"geometry":{"type":"Polygon","coordinates":[[[37.220678,49.097496],[37.220608,49.097186],[37.220537,49.09689],[37.220274,49.096849],[37.220278,49.096989],[37.220302,49.097124],[37.220372,49.097456],[37.220678,49.097496]]]}},{"type":"Feature","properties":{"cadnum":"6322887001:01:001:0106"},"geometry":{"type":"Polygon","coordinates":[[[37.219411,49.095216],[37.219917,49.095405],[37.22036,49.094772],[37.220486,49.094533],[37.220605,49.094201],[37.219267,49.093942],[37.218168360204736,49.095396],[37.218167,49.095396],[37.218086,49.095505],[37.218877,49.09584],[37.21921692783484,49.09544177319613],[37.219411,49.095216]]]}},{"type":"Feature","properties":{"cadnum":"6322887001:01:001:0020"},"geometry":{"type":"Polygon","coordinates":[[[37.218477,49.096458],[37.218725,49.096222],[37.218369,49.096037],[37.218153,49.096297],[37.218477,49.096458]]]}},{"type":"Feature","properties":{"cadnum":"6322887001:01:001:0027"},"geometry":{"type":"Polygon","coordinates":[[[37.21971,49.096671],[37.219948,49.096557],[37.220022,49.096288],[37.219797,49.096233],[37.219688,49.096472],[37.21971,49.096671]]]}},{"type":"Feature","properties":{"cadnum":"6322887001:01:001:0025"},"geometry":{"type":"Polygon","coordinates":[[[37.218158,49.096588],[37.218237,49.096515],[37.216538,49.095726],[37.216449,49.095787],[37.218158,49.096588]]]}},{"type":"Feature","properties":{"cadnum":"6322887001:01:001:0109"},"geometry":{"type":"Polygon","coordinates":[[[37.220175,49.098051],[37.220498,49.098048],[37.220372,49.097456],[37.220302,49.097124],[37.220278,49.096989],[37.220274,49.096848],[37.220038,49.09684],[37.220078,49.097146],[37.220119,49.097338],[37.220175,49.098051]]]}},{"type":"Feature","properties":{"cadnum":"6322887001:01:001:0026"},"geometry":{"type":"Polygon","coordinates":[[[37.219719,49.097354],[37.219997,49.097349],[37.220003,49.097155],[37.22004,49.096848],[37.219799,49.096842],[37.21972,49.09689],[37.219728,49.097013],[37.21972,49.09718],[37.219719,49.097354]]]}},{"type":"Feature","properties":{"cadnum":"6322887001:01:001:0044"},"geometry":{"type":"Polygon","coordinates":[[[37.221086,49.097648],[37.221556,49.097562],[37.221437,49.097183],[37.221398,49.097023],[37.22128,49.097],[37.220938,49.096934],[37.220925,49.097053],[37.220939,49.097135],[37.220973,49.09729],[37.221086,49.097648]]]}},{"type":"Feature","properties":{"cadnum":"6322887001:01:001:0036"},"geometry":{"type":"Polygon","coordinates":[[[37.475182,49.097622],[37.475198,49.097601],[37.474946,49.097103],[37.474734,49.097118],[37.474806,49.097607],[37.475182,49.097622]]]}},{"type":"Feature","properties":{"cadnum":"6322887001:01:001:0009"},"geometry":{"type":"Polygon","coordinates":[[[37.216272,49.099703],[37.216098,49.099671],[37.215964,49.099923],[37.21593,49.099988],[37.21579,49.100253],[37.216101,49.10031107053942],[37.216101,49.100312],[37.216287,49.100346],[37.216345,49.100222],[37.216376,49.100154],[37.21644,49.100004],[37.216569,49.099757],[37.216272,49.0997030576923],[37.216272,49.099703]]]}},{"type":"Feature","properties":{"cadnum":"6322887001:01:001:0110"},"geometry":{"type":"Polygon","coordinates":[[[37.215655,49.100611],[37.21545,49.100993],[37.216101,49.10105960982265],[37.216101,49.10106],[37.216183,49.101068],[37.216318,49.101082],[37.216401,49.101088],[37.216432,49.10109],[37.216531,49.100861],[37.216507,49.100856],[37.216212,49.100779],[37.216101,49.100745],[37.216101,49.10074552064632],[37.215655,49.100611]]]}},{"type":"Feature","properties":{"cadnum":"6322887001:01:001:0011"},"geometry":{"type":"Polygon","coordinates":[[[37.21579,49.100253],[37.21593,49.099988],[37.215964,49.099923],[37.216119,49.099631],[37.21567,49.099543],[37.215517,49.09984],[37.215423,49.099989],[37.215342,49.100162],[37.21571,49.100237],[37.21579,49.100253]]]}},{"type":"Feature","properties":{"cadnum":"6322887001:01:001:0103"},"geometry":{"type":"Polygon","coordinates":[[[37.215419,49.099999],[37.215423,49.099989],[37.215517,49.09984],[37.21567,49.099543],[37.215769,49.099349],[37.21537,49.099248],[37.215289,49.099396],[37.214982,49.09986],[37.215419,49.099999]]]}},{"type":"Feature","properties":{"cadnum":"6322887001:01:001:0013"},"geometry":{"type":"Polygon","coordinates":[[[37.21498,49.100683],[37.215501,49.100663],[37.215665,49.100548],[37.215114,49.100424],[37.21498,49.100683]]]}},{"type":"Feature","properties":{"cadnum":"6322887001:01:001:0012"},"geometry":{"type":"Polygon","coordinates":[[[37.216251,49.099386],[37.216278,49.099335],[37.216101,49.099285],[37.216101,49.09928519953596],[37.215841,49.099211],[37.21567,49.099543],[37.216101,49.09962747216036],[37.216101,49.099628],[37.216119,49.099631],[37.216251,49.099386]]]}},{"type":"Feature","properties":{"cadnum":"6322887001:01:001:0010"},"geometry":{"type":"Polygon","coordinates":[[[37.216119,49.099631],[37.216098,49.099671],[37.216101,49.099671551724136],[37.216101,49.099672],[37.216569,49.099757],[37.216657,49.099587],[37.216428,49.09952],[37.216433,49.099421],[37.216251,49.099386],[37.216119,49.099631]]]}},{"type":"Feature","properties":{"cadnum":"6322887001:01:001:0038"},"geometry":{"type":"Polygon","coordinates":[[[37.231419,49.100321],[37.231883,49.10014],[37.231924,49.100135],[37.231949,49.100075],[37.232069,49.099976],[37.232122,49.099884],[37.231594,49.099801],[37.231416,49.099772],[37.231155,49.100113],[37.231419,49.100321]]]}},{"type":"Feature","properties":{"cadnum":"6322887001:01:001:0045"},"geometry":{"type":"Polygon","coordinates":[[[37.228647,49.099637],[37.228743,49.099499],[37.22888,49.09954],[37.229054,49.099305],[37.228562,49.099157],[37.228274,49.099085],[37.228196,49.099066],[37.228039,49.099288],[37.228396,49.099395],[37.228216,49.099534],[37.228647,49.099637]]]}},{"type":"Feature","properties":{"cadnum":"6322887001:01:001:0046"},"geometry":{"type":"Polygon","coordinates":[[[37.228602,49.099838],[37.22888,49.09954],[37.228743,49.099499],[37.228647,49.099637],[37.228216,49.099534],[37.228396,49.099395],[37.228039,49.099288],[37.227979,49.099513],[37.228142,49.099581],[37.228602,49.099838]]]}},{"type":"Feature","properties":{"cadnum":"6322887001:01:001:0102"},"geometry":{"type":"Polygon","coordinates":[[[37.227747,49.101061],[37.228083,49.100917],[37.227762,49.100662],[37.227471,49.100833],[37.227747,49.101061]]]}},{"type":"Feature","properties":{"cadnum":"6322887001:01:001:0101"},"geometry":{"type":"Polygon","coordinates":[[[37.228053,49.101607],[37.228715,49.10139],[37.228649,49.101316],[37.228526,49.101208],[37.228265,49.101065],[37.227776,49.101224],[37.228053,49.101607]]]}},{"type":"Feature","properties":{"cadnum":"6322887001:01:001:0015"},"geometry":{"type":"Polygon","coordinates":[[[37.209532,49.09706],[37.209771,49.096543],[37.209391,49.09642],[37.209044,49.096964],[37.209532,49.09706]]]}},{"type":"Feature","properties":{"cadnum":"6322887001:01:001:0014"},"geometry":{"type":"Polygon","coordinates":[[[37.209276,49.097608],[37.209399,49.09735],[37.209532,49.09706],[37.209044,49.096964],[37.208852,49.097265],[37.208802,49.097531],[37.209276,49.097608]]]}},{"type":"Feature","properties":{"cadnum":"6322887001:01:001:0048"},"geometry":{"type":"Polygon","coordinates":[[[37.216272,49.10555941284403],[37.216428,49.105776],[37.216707,49.105684],[37.216207,49.105105],[37.21602,49.105209],[37.216101,49.105321821428575],[37.216101,49.105322],[37.21614087804802,49.105377365852604],[37.216272,49.10556],[37.216272,49.10555941284403]]]}},{"type":"Feature","properties":{"cadnum":"6322887001:01:001:0047"},"geometry":{"type":"Polygon","coordinates":[[[37.217654,49.101219],[37.217706,49.101126],[37.217455,49.101064],[37.217431,49.101106],[37.217428,49.101112],[37.217412,49.101141],[37.217408,49.101147],[37.217402,49.101158],[37.217516,49.101185],[37.217654,49.101219]]]}},{"type":"Feature","properties":{"cadnum":"6322887001:01:001:0028"},"geometry":{"type":"Polygon","coordinates":[[[37.220635,49.100647],[37.22074,49.100507],[37.220799,49.100428],[37.220978,49.100053],[37.220596,49.09998],[37.2205,49.100309],[37.220419,49.100585],[37.220635,49.100647]]]}}]}