{"type":"FeatureCollection","features":[{"type":"Feature","properties":{"cadnum":"6322880803:01:001:0073"},"geometry":{"type":"Polygon","coordinates":[[[37.249191,49.030568],[37.249000642857155,49.030609],[37.248998,49.030609],[37.248264,49.030767],[37.248401,49.031028],[37.24906,49.03092240120482],[37.24906,49.030923],[37.24920205382872,49.030899638362385],[37.249231,49.030895],[37.249231,49.03089487798409],[37.249437,49.030861],[37.24923148979587,49.03061671428565],[37.249231,49.030616125],[37.249231,49.030616],[37.249191,49.030568]]]}},{"type":"Feature","properties":{"cadnum":"6322880803:01:001:0059"},"geometry":{"type":"Polygon","coordinates":[[[37.250488,49.033086],[37.250483,49.033026],[37.250479,49.032966],[37.250473,49.032906],[37.250469,49.032847],[37.250464,49.032787],[37.25046,49.032728],[37.250456,49.032672],[37.2491,49.032778],[37.249154,49.033146],[37.249231,49.033143],[37.249231,49.03314253673164],[37.250488,49.033086]]]}},{"type":"Feature","properties":{"cadnum":"6322880803:01:001:0069"},"geometry":{"type":"Polygon","coordinates":[[[37.23687,49.02209],[37.237975,49.021981],[37.237549,49.02087],[37.236726,49.020896],[37.236011,49.020951],[37.236009,49.021276],[37.236527,49.02138],[37.23687,49.02209]]]}},{"type":"Feature","properties":{"cadnum":"6322880803:01:001:0070"},"geometry":{"type":"Polygon","coordinates":[[[37.239554,49.026586],[37.239943,49.026395],[37.240756,49.025998],[37.240617,49.025875],[37.240108,49.026066],[37.239334,49.02638],[37.239554,49.026586]]]}},{"type":"Feature","properties":{"cadnum":"6322880803:01:001:0072"},"geometry":{"type":"Polygon","coordinates":[[[37.240182,49.026608],[37.240616,49.026331],[37.240672,49.026215],[37.241478,49.025804],[37.241094,49.025695],[37.240617,49.025875],[37.240756,49.025998],[37.239943,49.026395],[37.240182,49.026608]]]}},{"type":"Feature","properties":{"cadnum":"6322880803:01:001:0071"},"geometry":{"type":"Polygon","coordinates":[[[37.2519,49.035774],[37.252087,49.035553],[37.252202,49.035277],[37.252269,49.035033],[37.252662,49.034727],[37.252608,49.034497],[37.252583,49.034436],[37.251049,49.034297],[37.249997,49.03476],[37.250526,49.035346],[37.250854,49.035514],[37.251104,49.035537],[37.251413,49.035629],[37.2519,49.035774]]]}},{"type":"Feature","properties":{"cadnum":"6322880803:01:001:0065"},"geometry":{"type":"Polygon","coordinates":[[[37.250464,49.032787],[37.25067,49.032778],[37.250665,49.032718],[37.25046,49.032728],[37.250464,49.032787]]]}},{"type":"Feature","properties":{"cadnum":"6322880803:01:001:0063"},"geometry":{"type":"Polygon","coordinates":[[[37.250479,49.032966],[37.250684,49.032957],[37.250678,49.032898],[37.250473,49.032906],[37.250479,49.032966]]]}},{"type":"Feature","properties":{"cadnum":"6322880803:01:001:0060"},"geometry":{"type":"Polygon","coordinates":[[[37.250483,49.033026],[37.250688,49.033016],[37.250684,49.032957],[37.250479,49.032966],[37.250483,49.033026]]]}},{"type":"Feature","properties":{"cadnum":"6322880803:01:001:0066"},"geometry":{"type":"Polygon","coordinates":[[[37.250473,49.032906],[37.250678,49.032898],[37.250674,49.032838],[37.250469,49.032847],[37.250473,49.032906]]]}},{"type":"Feature","properties":{"cadnum":"6322880803:01:001:0061"},"geometry":{"type":"Polygon","coordinates":[[[37.25046,49.032728],[37.250665,49.032718],[37.25066,49.032655],[37.250456,49.032672],[37.25046,49.032728]]]}},{"type":"Feature","properties":{"cadnum":"6322880803:01:001:0064"},"geometry":{"type":"Polygon","coordinates":[[[37.250469,49.032847],[37.250674,49.032838],[37.25067,49.032778],[37.250464,49.032787],[37.250469,49.032847]]]}},{"type":"Feature","properties":{"cadnum":"6322880803:01:001:0062"},"geometry":{"type":"Polygon","coordinates":[[[37.250488,49.033086],[37.250693,49.033076],[37.250688,49.033016],[37.250483,49.033026],[37.250488,49.033086]]]}},{"type":"Feature","properties":{"cadnum":"6322880803:01:001:0068"},"geometry":{"type":"Polygon","coordinates":[[[37.239508,49.022857],[37.240061,49.022265],[37.239708,49.022094],[37.23914,49.022709],[37.239508,49.022857]]]}},{"type":"Feature","properties":{"cadnum":"6322880803:01:001:0001"},"geometry":{"type":"Polygon","coordinates":[[[37.240057,49.028432],[37.240288,49.028373],[37.24018,49.028186],[37.239962,49.028245],[37.240057,49.028432]]]}},{"type":"Feature","properties":{"cadnum":"6322880803:01:001:0058"},"geometry":{"type":"Polygon","coordinates":[[[37.241406,49.029581],[37.241449,49.02957],[37.242185,49.029293],[37.24187,49.029016],[37.241104,49.029289],[37.241406,49.029581]]]}},{"type":"Feature","properties":{"cadnum":"6322880803:01:001:0067"},"geometry":{"type":"Polygon","coordinates":[[[37.240631,49.029796],[37.241406,49.029581],[37.241104,49.029289],[37.24187,49.029016],[37.241613,49.028785],[37.240863,49.028282],[37.239947,49.028564],[37.239865,49.02859],[37.240093,49.028949],[37.240631,49.029796]]]}}]}