{"type":"FeatureCollection","features":[{"type":"Feature","properties":{"cadnum":"6322882201:01:001:1148"},"geometry":{"type":"Polygon","coordinates":[[[37.103267,49.031944],[37.103455,49.031879],[37.10313,49.031209],[37.103211,49.031188],[37.102995,49.030854],[37.102311,49.031085],[37.102591,49.031588],[37.102806,49.031901],[37.103034,49.031868],[37.103267,49.031944]]]}},{"type":"Feature","properties":{"cadnum":"6322882201:01:001:0131"},"geometry":{"type":"Polygon","coordinates":[[[37.10442,49.030722],[37.104420250000004,49.030722],[37.104317,49.030742],[37.104487,49.031178],[37.104489,49.031182],[37.104534,49.031378],[37.104541,49.031434],[37.104886,49.031429],[37.104852,49.031147],[37.10473,49.030662],[37.10442,49.030722]]]}},{"type":"Feature","properties":{"cadnum":"6322882201:01:001:0147"},"geometry":{"type":"Polygon","coordinates":[[[37.102571,49.032436],[37.103031,49.032305],[37.102806,49.031901],[37.102591,49.031588],[37.102311,49.031085],[37.10199,49.031187],[37.102478,49.03223],[37.102571,49.032436]]]}},{"type":"Feature","properties":{"cadnum":"6322882201:01:001:0146"},"geometry":{"type":"Polygon","coordinates":[[[37.101977,49.032331],[37.102478,49.03223],[37.10199,49.031187],[37.101372,49.031281],[37.101977,49.032331]]]}},{"type":"Feature","properties":{"cadnum":"6322882201:01:001:0144"},"geometry":{"type":"Polygon","coordinates":[[[37.139305,49.032213],[37.139203,49.031576],[37.138699,49.031633],[37.13885,49.032254],[37.139196,49.032222821978024],[37.139196,49.032223],[37.139305,49.032213]]]}},{"type":"Feature","properties":{"cadnum":"6322882201:01:001:0128"},"geometry":{"type":"Polygon","coordinates":[[[37.111902,49.029372],[37.111902,49.02937193959732],[37.112011,49.029211],[37.112055,49.029024],[37.111831198645966,49.02902330925508],[37.111697,49.029022],[37.111662,49.029159],[37.111686,49.029417],[37.111731,49.02942057954546],[37.111731,49.029421],[37.111862,49.029431],[37.111902,49.029372]]]}},{"type":"Feature","properties":{"cadnum":"6322882201:01:001:0127"},"geometry":{"type":"Polygon","coordinates":[[[37.111902,49.02902352777778],[37.112055,49.029024],[37.112115,49.028776],[37.111953,49.028762],[37.111961,49.028685],[37.112133,49.028698],[37.112176,49.028523],[37.112173,49.028433],[37.112162,49.028102],[37.111838,49.028099],[37.111827,49.028502],[37.111697,49.029022],[37.111731,49.02902233170732],[37.111731,49.029023],[37.111831198645966,49.02902330925508],[37.111902,49.029024],[37.111902,49.02902352777778]]]}},{"type":"Feature","properties":{"cadnum":"6322882201:01:001:0122"},"geometry":{"type":"Polygon","coordinates":[[[37.116986,49.027802],[37.116989,49.027777],[37.117116,49.027789],[37.117214,49.02729],[37.116986,49.027308],[37.116702,49.027414],[37.116686,49.027439],[37.11636,49.027582],[37.116353,49.027698],[37.116344,49.027779],[37.116986,49.027802]]]}},{"type":"Feature","properties":{"cadnum":"6322882201:01:001:0148"},"geometry":{"type":"Polygon","coordinates":[[[37.126046,49.030258],[37.126542,49.029276],[37.126735,49.029184],[37.126945,49.028861],[37.125958,49.028687],[37.125738,49.029186],[37.125354,49.030062],[37.126046,49.030258]]]}},{"type":"Feature","properties":{"cadnum":"6322882201:01:001:0139"},"geometry":{"type":"Polygon","coordinates":[[[37.125738,49.029186],[37.125981,49.028635],[37.125954,49.02863],[37.126173,49.028199],[37.126181,49.028184],[37.125899,49.028127],[37.125893,49.028142],[37.125768,49.028422],[37.125441,49.029123],[37.125738,49.029186]]]}},{"type":"Feature","properties":{"cadnum":"6322882201:01:001:0140"},"geometry":{"type":"Polygon","coordinates":[[[37.127706,49.029345],[37.127914,49.029062],[37.128264,49.028658],[37.127877,49.028579],[37.127812,49.028565],[37.127777,49.028637],[37.127773,49.028637],[37.127566,49.028961],[37.127368,49.029278],[37.127706,49.029345]]]}},{"type":"Feature","properties":{"cadnum":"6322882201:01:001:0133"},"geometry":{"type":"Polygon","coordinates":[[[37.129138,49.034247],[37.12916,49.03421],[37.12915979452055,49.03421],[37.129181,49.034174],[37.129196,49.034144],[37.129207,49.034145],[37.129239,49.034084],[37.129271,49.034023],[37.129276,49.034013],[37.129217,49.033999],[37.129224,49.033984],[37.12889,49.033936],[37.128854,49.033934],[37.128832,49.033953],[37.128818,49.033992],[37.128783,49.033986],[37.128704,49.034174],[37.128694,49.034198],[37.128987,49.034259],[37.129043,49.03427],[37.129047,49.034264],[37.129118,49.034282],[37.129138,49.034247]]]}},{"type":"Feature","properties":{"cadnum":"6322882201:01:001:0138"},"geometry":{"type":"Polygon","coordinates":[[[37.118714,49.029047],[37.119108,49.028018],[37.11809,49.027938],[37.117783,49.028914],[37.118714,49.029047]]]}},{"type":"Feature","properties":{"cadnum":"6322882201:01:001:0132"},"geometry":{"type":"Polygon","coordinates":[[[37.119768,49.02859],[37.120088,49.027587],[37.119776,49.02755],[37.11949,49.028557],[37.119768,49.02859]]]}},{"type":"Feature","properties":{"cadnum":"6322882201:01:001:0125"},"geometry":{"type":"Polygon","coordinates":[[[37.137889,49.030711],[37.137956,49.030174],[37.137983,49.029993],[37.137548,49.030011],[37.137531,49.030139],[37.137482,49.030446],[37.137482,49.030609],[37.137482,49.030722],[37.13748389915966,49.030722],[37.137484,49.030728],[37.13762694117656,49.030722],[37.137633,49.030722],[37.137889,49.030711]]]}},{"type":"Feature","properties":{"cadnum":"6322882201:01:001:0136"},"geometry":{"type":"Polygon","coordinates":[[[37.134849,49.032508],[37.135036,49.032506],[37.135248,49.032502],[37.135248,49.03249],[37.135246,49.032307],[37.135244,49.032172],[37.13518,49.031773],[37.134996,49.031817],[37.13481,49.031926],[37.134834,49.032231],[37.13484,49.032339],[37.134853,49.032452],[37.134847,49.032493],[37.134849,49.032508]]]}},{"type":"Feature","properties":{"cadnum":"6322882201:01:001:0142"},"geometry":{"type":"Polygon","coordinates":[[[37.134932,49.030605],[37.13493,49.030538],[37.13493,49.030489],[37.13495,49.03037],[37.134981,49.029927],[37.134599,49.029922],[37.134571,49.030722],[37.13457190410959,49.030722],[37.134571,49.030755],[37.13457,49.030772],[37.134912,49.030765],[37.134914,49.030747],[37.13491689855073,49.030722],[37.134917,49.030722],[37.134932,49.030605]]]}},{"type":"Feature","properties":{"cadnum":"6322882201:01:001:0290"},"geometry":{"type":"Polygon","coordinates":[[[37.110829,49.032412],[37.110811,49.032321],[37.1108,49.032275],[37.110769,49.032076],[37.110647,49.032079],[37.110757,49.032279],[37.110829,49.032412]]]}},{"type":"Feature","properties":{"cadnum":"6322882201:01:001:0137"},"geometry":{"type":"Polygon","coordinates":[[[37.10835,49.031421],[37.108407,49.03142],[37.108924,49.031405],[37.108926,49.031371],[37.108956,49.031083],[37.108976,49.03089],[37.108409,49.030861],[37.108383,49.031079],[37.108354,49.031384],[37.10835,49.031421]]]}},{"type":"Feature","properties":{"cadnum":"6322882201:01:001:0130"},"geometry":{"type":"Polygon","coordinates":[[[37.118154,49.032717],[37.118164,49.032641],[37.118209,49.032295],[37.118251,49.032058],[37.118254,49.03204],[37.117994,49.032018],[37.117991,49.032037],[37.117941,49.03233],[37.117882,49.032636],[37.117869,49.03271],[37.118154,49.032717]]]}},{"type":"Feature","properties":{"cadnum":"6322882201:01:001:0143"},"geometry":{"type":"Polygon","coordinates":[[[37.120252,49.034092],[37.120476,49.034087],[37.120547,49.033753],[37.120547,49.033746],[37.120555,49.033654],[37.120577,49.033434],[37.120577,49.033429],[37.120429,49.033431],[37.120294,49.033433],[37.120261,49.033454],[37.120256,49.033533],[37.120264,49.033533],[37.120261,49.033566],[37.120241,49.033867],[37.11978,49.033867],[37.119911,49.033998],[37.120252,49.034092]]]}},{"type":"Feature","properties":{"cadnum":"6322882201:01:001:0149"},"geometry":{"type":"Polygon","coordinates":[[[37.119243,49.032829],[37.119285,49.032554],[37.119302,49.032411],[37.119304,49.032383],[37.11931,49.032294],[37.119315,49.032242],[37.119304,49.032242],[37.119321,49.032083],[37.119167,49.032073],[37.119115,49.03207],[37.119032,49.032064],[37.118987,49.032364],[37.118982,49.032397],[37.118985,49.032825],[37.119243,49.032829]]]}},{"type":"Feature","properties":{"cadnum":"6322882201:01:001:0003"},"geometry":{"type":"Polygon","coordinates":[[[37.113612,49.031974],[37.113658,49.031853],[37.113475,49.031829],[37.113434,49.031947],[37.113612,49.031974]]]}},{"type":"Feature","properties":{"cadnum":"6322882201:01:001:0151"},"geometry":{"type":"Polygon","coordinates":[[[37.109589,49.028796],[37.109602,49.028153],[37.109117,49.028159],[37.10911,49.028792],[37.109589,49.028796]]]}},{"type":"Feature","properties":{"cadnum":"6322882201:01:001:0145"},"geometry":{"type":"Polygon","coordinates":[[[37.106409,49.029118741935484],[37.10757,49.029144],[37.107611,49.028791],[37.107086,49.028762],[37.107116,49.028489],[37.106237,49.028535],[37.106237,49.0285355497076],[37.106067,49.028544],[37.106047,49.028246],[37.105386,49.028294],[37.104361,49.028844],[37.104376,49.028929],[37.105087,49.029089],[37.106409,49.029119],[37.106409,49.029118741935484]]]}},{"type":"Feature","properties":{"cadnum":"6322882201:01:001:0134"},"geometry":{"type":"Polygon","coordinates":[[[37.129021,49.033145],[37.129052,49.032982],[37.128755,49.032957],[37.128722,49.033119],[37.129021,49.033145]]]}},{"type":"Feature","properties":{"cadnum":"6322882201:01:001:0135"},"geometry":{"type":"Polygon","coordinates":[[[37.132365,49.033843],[37.132398,49.033762],[37.132417,49.033713],[37.132523,49.033416],[37.132317,49.033388],[37.132076,49.033359],[37.131975,49.033596],[37.13195,49.03365],[37.131905,49.033761],[37.132079,49.033787],[37.132115,49.033796],[37.132114,49.033802],[37.132208,49.033815],[37.132365,49.033843]]]}},{"type":"Feature","properties":{"cadnum":"6322882201:01:001:0129"},"geometry":{"type":"Polygon","coordinates":[[[37.129074,49.033863],[37.129105,49.033764],[37.129127,49.033767],[37.129141,49.033725],[37.129118,49.033722],[37.129157,49.033598],[37.12917,49.033561],[37.129173,49.033555],[37.129202,49.033479],[37.128954,49.033438],[37.12892,49.033535],[37.128928,49.033543],[37.128838,49.033836],[37.129074,49.033863]]]}},{"type":"Feature","properties":{"cadnum":"6322882201:01:001:0141"},"geometry":{"type":"Polygon","coordinates":[[[37.123843,49.032028],[37.124156,49.031393],[37.124199,49.031282],[37.124224,49.031126],[37.124075,49.031042],[37.123995,49.031032],[37.123649,49.031996],[37.123843,49.032028]]]}},{"type":"Feature","properties":{"cadnum":"6322882201:01:001:0005"},"geometry":{"type":"Polygon","coordinates":[[[37.126473,49.031778],[37.126532,49.031678],[37.126479,49.031661],[37.126465,49.031657],[37.126381,49.031632],[37.126328,49.031617],[37.126319,49.031613],[37.126249,49.031707],[37.126259,49.031711],[37.126473,49.031778]]]}},{"type":"Feature","properties":{"cadnum":"6322882201:01:001:0150"},"geometry":{"type":"Polygon","coordinates":[[[37.124808,49.032295],[37.124852,49.032153],[37.125057,49.031713],[37.124548,49.031657],[37.124376,49.032072],[37.124299,49.032257],[37.124808,49.032295]]]}},{"type":"Feature","properties":{"cadnum":"6322882201:01:001:0126"},"geometry":{"type":"Polygon","coordinates":[[[37.137548,49.030011],[37.137983,49.029993],[37.138026,49.029705],[37.137599,49.029638],[37.137548,49.030011]]]}}]}