{"type":"FeatureCollection","features":[{"type":"Feature","properties":{"cadnum":"6322887003:01:001:0210"},"geometry":{"type":"Polygon","coordinates":[[[37.264971,49.148375],[37.265325,49.148202],[37.265243,49.148132],[37.26511,49.148018],[37.265062,49.147976],[37.264851,49.148075],[37.264709,49.148143],[37.264889,49.148302],[37.264971,49.148375]]]}},{"type":"Feature","properties":{"cadnum":"6322887003:01:001:0066"},"geometry":{"type":"Polygon","coordinates":[[[37.253641,49.151873],[37.253648,49.151592],[37.253701,49.151377],[37.253779,49.151231],[37.253307,49.151127],[37.253142,49.151722],[37.253181,49.15177],[37.253311,49.151805],[37.253641,49.151873]]]}},{"type":"Feature","properties":{"cadnum":"6322887003:01:001:0060"},"geometry":{"type":"Polygon","coordinates":[[[37.254725,49.15036226415094],[37.254977,49.150411],[37.255005,49.150416],[37.2551,49.150435],[37.25516,49.150258],[37.255206,49.150126],[37.255092,49.150098],[37.254936,49.15006],[37.25461721556836,49.14998259281425],[37.254525,49.14996],[37.254337,49.149915],[37.254307,49.15],[37.25426,49.150165],[37.254227,49.150266],[37.254505,49.15032],[37.254725,49.150363],[37.254725,49.15036226415094]]]}},{"type":"Feature","properties":{"cadnum":"6322887003:01:001:0231"},"geometry":{"type":"Polygon","coordinates":[[[37.253049,49.151614],[37.253197,49.151343],[37.253017,49.151291],[37.252776,49.151245],[37.2525,49.151176],[37.252329,49.151403],[37.25263,49.1515],[37.253049,49.151614]]]}},{"type":"Feature","properties":{"cadnum":"6322887003:01:001:0080"},"geometry":{"type":"Polygon","coordinates":[[[37.25394,49.150881],[37.254087,49.150369],[37.254067,49.150321],[37.253704,49.15025],[37.253362,49.150785],[37.25394,49.150881]]]}},{"type":"Feature","properties":{"cadnum":"6322887003:01:001:0285"},"geometry":{"type":"Polygon","coordinates":[[[37.249167,49.150724],[37.249262,49.150407],[37.249373,49.150042],[37.249394,49.149978],[37.249158,49.149929],[37.249065,49.150121],[37.249052,49.150147],[37.249019,49.150219],[37.249015,49.150231],[37.248994,49.150279],[37.24906,49.15029069620253],[37.24906,49.150291],[37.249073,49.150293],[37.248867,49.150875],[37.249103,49.150934],[37.249167,49.150724]]]}},{"type":"Feature","properties":{"cadnum":"6322887003:01:001:0077"},"geometry":{"type":"Polygon","coordinates":[[[37.252501,49.150957],[37.252571,49.150851],[37.252674,49.150693],[37.252726,49.150616],[37.251948,49.150507],[37.251698,49.150895],[37.252501,49.150957]]]}},{"type":"Feature","properties":{"cadnum":"6322887003:01:001:0234"},"geometry":{"type":"Polygon","coordinates":[[[37.249231,49.151388098712445],[37.249526,49.151459],[37.249575,49.151164],[37.249591,49.151045],[37.249612,49.150897],[37.249623,49.150821],[37.249167,49.150724],[37.248983,49.151328],[37.24906,49.15134693951613],[37.24906,49.151347],[37.249070753846425,49.15134958461545],[37.249231,49.151389],[37.249231,49.151388098712445]]]}},{"type":"Feature","properties":{"cadnum":"6322887003:01:001:0082"},"geometry":{"type":"Polygon","coordinates":[[[37.252801,49.150503],[37.252956,49.150268],[37.253055,49.150115],[37.252547,49.150043],[37.252522,49.150108],[37.25243,49.150108],[37.252309,49.150324],[37.252289,49.150383],[37.252801,49.150503]]]}},{"type":"Feature","properties":{"cadnum":"6322887003:01:001:0153"},"geometry":{"type":"Polygon","coordinates":[[[37.252792,49.149267],[37.25175,49.14936],[37.251632,49.149395],[37.251633,49.149433],[37.251634518072294,49.149433],[37.251643,49.149561],[37.251661,49.149619],[37.252142,49.149603],[37.252282,49.149598],[37.252603,49.149564],[37.252756,49.149547],[37.252757,49.149531],[37.252768,49.149453],[37.252781,49.149346],[37.252792,49.149267]]]}},{"type":"Feature","properties":{"cadnum":"6322887003:01:001:0233"},"geometry":{"type":"Polygon","coordinates":[[[37.249623,49.150821],[37.249632,49.150781],[37.249683,49.150555],[37.249697,49.150499],[37.249772,49.150149],[37.249373,49.150042],[37.249262,49.150407],[37.249167,49.150724],[37.249623,49.150821]]]}},{"type":"Feature","properties":{"cadnum":"6322887003:01:001:0079"},"geometry":{"type":"Polygon","coordinates":[[[37.253362,49.150785],[37.253704,49.15025],[37.253192,49.150148],[37.252852,49.150667],[37.253284,49.150771],[37.253362,49.150785]]]}},{"type":"Feature","properties":{"cadnum":"6322887003:01:001:0067"},"geometry":{"type":"Polygon","coordinates":[[[37.253142,49.151722],[37.253307,49.151127],[37.253122,49.151085],[37.253017,49.151291],[37.253197,49.151343],[37.253049,49.151614],[37.253142,49.151722]]]}},{"type":"Feature","properties":{"cadnum":"6322887003:01:001:0070"},"geometry":{"type":"Polygon","coordinates":[[[37.253956,49.151775],[37.254093,49.151705],[37.254189,49.151557],[37.254307,49.151372],[37.254478,49.151246],[37.254242,49.151175],[37.253967,49.151093],[37.253854,49.151305],[37.253835,49.151343],[37.253763,49.151472],[37.253756,49.151529],[37.253876,49.151724],[37.253956,49.151775]]]}},{"type":"Feature","properties":{"cadnum":"6322887003:01:001:0295"},"geometry":{"type":"Polygon","coordinates":[[[37.249874,49.151518],[37.250106,49.151514],[37.250445,49.151501],[37.250783,49.151456],[37.250751,49.151173],[37.249847,49.151166],[37.249823,49.151509],[37.249874,49.151518]]]}},{"type":"Feature","properties":{"cadnum":"6322887003:01:001:0078"},"geometry":{"type":"Polygon","coordinates":[[[37.251698,49.150895],[37.251948,49.150507],[37.251852,49.150493],[37.251657,49.150471],[37.251476,49.150441],[37.251071,49.150419],[37.251393,49.150736],[37.251475,49.150878],[37.251698,49.150895]]]}},{"type":"Feature","properties":{"cadnum":"6322887003:01:001:0151"},"geometry":{"type":"Polygon","coordinates":[[[37.255494,49.149228],[37.25543956097561,49.149321],[37.255439,49.149321],[37.255222,49.149694],[37.255836,49.149821],[37.256064,49.149355],[37.255494,49.149228]]]}},{"type":"Feature","properties":{"cadnum":"6322887003:01:001:0135"},"geometry":{"type":"Polygon","coordinates":[[[37.255407,49.15152],[37.255537,49.15145],[37.25596,49.151233],[37.255628,49.151036],[37.254971,49.151065],[37.254948,49.151102],[37.254883,49.151208],[37.255407,49.15152]]]}},{"type":"Feature","properties":{"cadnum":"6322887003:01:001:0130"},"geometry":{"type":"Polygon","coordinates":[[[37.260239,49.151612],[37.260553,49.151447],[37.260814,49.151201],[37.260576,49.151056],[37.260218,49.151257290566036],[37.260218,49.151257],[37.259772,49.151507],[37.260026,49.151725],[37.26018223529488,49.1516419999996],[37.260239,49.151612]]]}},{"type":"Feature","properties":{"cadnum":"6322887003:01:001:0140"},"geometry":{"type":"Polygon","coordinates":[[[37.259219,49.150968],[37.259772,49.150464],[37.259697,49.150453],[37.259463,49.150518],[37.259157,49.150653],[37.258946,49.150792],[37.259219,49.150968]]]}},{"type":"Feature","properties":{"cadnum":"6322887003:01:001:0061"},"geometry":{"type":"Polygon","coordinates":[[[37.255689,49.150548],[37.255826,49.15031],[37.255368,49.150164],[37.255206,49.150126],[37.25516,49.150258],[37.2551,49.150435],[37.255689,49.150548]]]}},{"type":"Feature","properties":{"cadnum":"6322887003:01:001:0224"},"geometry":{"type":"Polygon","coordinates":[[[37.256067,49.151857],[37.256461,49.15161],[37.256133,49.151424],[37.255931,49.151304],[37.255395,49.151597],[37.255832,49.151812],[37.256067,49.151857]]]}},{"type":"Feature","properties":{"cadnum":"6322887003:01:001:0297"},"geometry":{"type":"Polygon","coordinates":[[[37.259414,49.152309],[37.260042,49.151924],[37.259712,49.151657],[37.259036,49.152057],[37.259414,49.152309]]]}},{"type":"Feature","properties":{"cadnum":"6322887003:01:001:0277"},"geometry":{"type":"Polygon","coordinates":[[[37.257741,49.151427],[37.258485,49.15065],[37.258256,49.150581],[37.258117,49.150543],[37.258068,49.150605],[37.257502,49.151326],[37.257741,49.151427]]]}},{"type":"Feature","properties":{"cadnum":"6322887003:01:001:0085"},"geometry":{"type":"Polygon","coordinates":[[[37.258411,49.151824],[37.25863,49.151689],[37.259101,49.151399],[37.259339,49.151251],[37.259103,49.151064],[37.258262,49.151763],[37.258411,49.151824]]]}},{"type":"Feature","properties":{"cadnum":"6322887003:01:001:0136"},"geometry":{"type":"Polygon","coordinates":[[[37.254971,49.151065],[37.255628,49.151036],[37.25558,49.151007],[37.255438,49.150922],[37.255286,49.150832],[37.255032,49.15097],[37.254971,49.151065]]]}},{"type":"Feature","properties":{"cadnum":"6322887003:01:001:0230"},"geometry":{"type":"Polygon","coordinates":[[[37.260576,49.151056],[37.26029,49.1509],[37.260046,49.15103],[37.260046,49.15103024390244],[37.259562,49.151287],[37.259772,49.151507],[37.260046,49.151353412556055],[37.260046,49.151354],[37.260576,49.151056]]]}},{"type":"Feature","properties":{"cadnum":"6322887003:01:001:0139"},"geometry":{"type":"Polygon","coordinates":[[[37.258445,49.151551],[37.259056,49.151035],[37.258856,49.150881],[37.258206,49.151428],[37.258445,49.151551]]]}},{"type":"Feature","properties":{"cadnum":"6322887003:01:001:0101"},"geometry":{"type":"Polygon","coordinates":[[[37.261945,49.153026],[37.262054,49.152909],[37.261303,49.152522],[37.261136,49.152633],[37.261008,49.152721],[37.260959,49.152754],[37.261535,49.153026],[37.261945,49.153026]]]}},{"type":"Feature","properties":{"cadnum":"6322887003:01:001:0102"},"geometry":{"type":"MultiPolygon","coordinates":[[[[37.261535,49.153026],[37.260959,49.152754],[37.260625,49.152982],[37.260733,49.153026],[37.261535,49.153026]]],[[[37.262267,49.153026],[37.262054,49.152909],[37.261945,49.153026],[37.262267,49.153026]]]]}},{"type":"Feature","properties":{"cadnum":"6322887003:01:001:0107"},"geometry":{"type":"Polygon","coordinates":[[[37.260581,49.151819],[37.260981,49.151298],[37.260814,49.151201],[37.260553,49.151447],[37.260239,49.151612],[37.260581,49.151819]]]}},{"type":"Feature","properties":{"cadnum":"6322887003:01:001:0218"},"geometry":{"type":"Polygon","coordinates":[[[37.241277,49.14781],[37.241362,49.147578],[37.240929,49.147442],[37.240619,49.147345],[37.240575,49.147583],[37.241277,49.14781]]]}},{"type":"Feature","properties":{"cadnum":"6322887003:01:001:0236"},"geometry":{"type":"Polygon","coordinates":[[[37.241146,49.14817],[37.241195,49.148031],[37.240478,49.147792],[37.239176,49.147357],[37.23914,49.147424],[37.23911,49.147477],[37.239107,49.147481],[37.240416,49.147918],[37.240719,49.148026],[37.241146,49.14817]]]}},{"type":"Feature","properties":{"cadnum":"6322887003:01:001:0235"},"geometry":{"type":"Polygon","coordinates":[[[37.238245,49.147403],[37.237792,49.147307],[37.237695,49.147548],[37.238073,49.147626349090906],[37.238073,49.147627],[37.238705,49.147757],[37.238827,49.147525],[37.238245,49.147403042440324],[37.238245,49.147403]]]}},{"type":"Feature","properties":{"cadnum":"6322887003:01:001:0212"},"geometry":{"type":"Polygon","coordinates":[[[37.23968,49.148964],[37.239857,49.148717],[37.239714,49.148671],[37.239527,49.148916],[37.23968,49.148964]]]}},{"type":"Feature","properties":{"cadnum":"6322887003:01:001:0242"},"geometry":{"type":"Polygon","coordinates":[[[37.2403,49.148118],[37.240452,49.14793],[37.240416,49.147918],[37.239421,49.147585],[37.239107,49.147481],[37.23898,49.147661],[37.239004,49.147669],[37.239291,49.147769],[37.239441,49.147821],[37.240245,49.148099],[37.2403,49.148118]]]}},{"type":"Feature","properties":{"cadnum":"6322887003:01:001:0300"},"geometry":{"type":"Polygon","coordinates":[[[37.243084,49.148888],[37.243017,49.148874],[37.242841,49.149092],[37.24275,49.149206],[37.2426593939394,49.149321],[37.242659,49.149321],[37.24262,49.149371],[37.242349,49.14935],[37.242543,49.149014],[37.242667,49.1488],[37.242448,49.14875],[37.24218,49.149192],[37.242165,49.149216],[37.242212,49.149346],[37.24246,49.149435],[37.24277,49.14937],[37.243084,49.148888]]]}},{"type":"Feature","properties":{"cadnum":"6322887003:01:001:0031"},"geometry":{"type":"Polygon","coordinates":[[[37.241216,49.149033],[37.241482,49.148721],[37.241623,49.148559],[37.241495,49.148532],[37.24136,49.148514],[37.241183,49.148487],[37.241077,49.148484],[37.241024,49.148515],[37.24062,49.148911],[37.241216,49.149033]]]}},{"type":"Feature","properties":{"cadnum":"6322887003:01:001:0211"},"geometry":{"type":"Polygon","coordinates":[[[37.239527,49.148916],[37.239714,49.148671],[37.238979,49.148432],[37.238667,49.14833],[37.238646,49.148361],[37.238571,49.148472],[37.238516,49.148555],[37.238897,49.148672],[37.238867,49.148713],[37.239527,49.148916]]]}},{"type":"Feature","properties":{"cadnum":"6322887003:01:001:0216"},"geometry":{"type":"Polygon","coordinates":[[[37.241195,49.148031],[37.241277,49.14781],[37.240575,49.147583],[37.240549,49.147717],[37.240536,49.147731],[37.240478,49.147792],[37.241195,49.148031]]]}},{"type":"Feature","properties":{"cadnum":"6322887003:01:001:0025"},"geometry":{"type":"Polygon","coordinates":[[[37.24262,49.149371],[37.24275,49.149206],[37.242841,49.149092],[37.243035,49.14885],[37.242803,49.148799],[37.242683,49.148772],[37.242543,49.149014],[37.242349,49.14935],[37.24262,49.149371]]]}},{"type":"Feature","properties":{"cadnum":"6322887003:01:001:0215"},"geometry":{"type":"Polygon","coordinates":[[[37.240478,49.147792],[37.240536,49.147731],[37.240549,49.147717],[37.240575,49.147583],[37.240305,49.147495],[37.239282,49.147164],[37.239221,49.147273],[37.239176,49.147357],[37.240478,49.147792]]]}},{"type":"Feature","properties":{"cadnum":"6322887003:01:001:0243"},"geometry":{"type":"Polygon","coordinates":[[[37.239857,49.148717],[37.23997,49.148586],[37.239082,49.148296],[37.238777,49.148196],[37.238667,49.14833],[37.238979,49.148432],[37.239714,49.148671],[37.239857,49.148717]]]}},{"type":"Feature","properties":{"cadnum":"6322887003:01:001:0292"},"geometry":{"type":"Polygon","coordinates":[[[37.241473,49.149332],[37.241885,49.148637],[37.241894,49.14862],[37.241623,49.148559],[37.241607,49.148578],[37.241482,49.148721],[37.241216,49.149033],[37.241169,49.149086],[37.24112,49.149136],[37.240981,49.149278],[37.240945,49.149315],[37.241473,49.149332]]]}},{"type":"Feature","properties":{"cadnum":"6322887003:01:001:0217"},"geometry":{"type":"Polygon","coordinates":[[[37.240575,49.147583],[37.240619,49.147345],[37.240203,49.147215],[37.240019,49.147157],[37.239393,49.146962],[37.239282,49.147164],[37.240305,49.147495],[37.240575,49.147583]]]}},{"type":"Feature","properties":{"cadnum":"6322887003:01:001:0032"},"geometry":{"type":"Polygon","coordinates":[[[37.240981,49.149278],[37.24112,49.149136],[37.241169,49.149086],[37.241216,49.149033],[37.24062,49.148911],[37.240599,49.148932],[37.240302,49.149223],[37.240533,49.149321],[37.240532,49.149321],[37.24082,49.149443],[37.24087807086606,49.14938296063001],[37.240981,49.149278]]]}},{"type":"Feature","properties":{"cadnum":"6322887003:01:001:0035"},"geometry":{"type":"Polygon","coordinates":[[[37.240399,49.146799],[37.240589,49.146456],[37.240203,49.146314],[37.239858,49.146189],[37.23965,49.146534],[37.239946,49.146639],[37.240399,49.146799]]]}},{"type":"Feature","properties":{"cadnum":"6322887003:01:001:0036"},"geometry":{"type":"Polygon","coordinates":[[[37.240872,49.146968],[37.241088,49.146637],[37.240589,49.146456],[37.240399,49.146799],[37.240872,49.146968]]]}},{"type":"Feature","properties":{"cadnum":"6322887003:01:001:0059"},"geometry":{"type":"Polygon","coordinates":[[[37.240161,49.148259],[37.240245,49.148099],[37.239441,49.147821],[37.239291,49.147769],[37.239004,49.147669],[37.23898,49.147922],[37.239158,49.147973],[37.239296,49.148013],[37.239767,49.148147],[37.240161,49.148259]]]}},{"type":"Feature","properties":{"cadnum":"6322887003:01:001:0220"},"geometry":{"type":"Polygon","coordinates":[[[37.242178,49.145619],[37.242007,49.145562],[37.241523,49.145401],[37.241382,49.145656],[37.241814,49.145796],[37.241912,49.14583],[37.241941,49.14584],[37.24194270833334,49.14584],[37.242649,49.14607],[37.242912,49.145863],[37.242504,49.145727],[37.242502488687784,49.145727],[37.242178,49.145619]]]}},{"type":"Feature","properties":{"cadnum":"6322887003:01:001:0284"},"geometry":{"type":"Polygon","coordinates":[[[37.243681,49.149006],[37.243399,49.148946],[37.243345,49.148936],[37.24329,49.148921],[37.24317,49.148904],[37.24294419709543,49.149321],[37.242944,49.149321],[37.242909,49.149386],[37.24307,49.149433],[37.2430728411215,49.149433],[37.243282,49.149493],[37.243422,49.149321],[37.243421235955054,49.149321],[37.243475,49.149255],[37.243567,49.149143796116505],[37.243567,49.149144],[37.243681,49.149006]]]}},{"type":"Feature","properties":{"cadnum":"6322887003:01:001:0166"},"geometry":{"type":"Polygon","coordinates":[[[37.254725,49.14835],[37.254263,49.148247],[37.254096,49.148525],[37.254416,49.14859],[37.254674,49.148641],[37.255117,49.148731],[37.255278,49.148473],[37.254725,49.148350195862065],[37.254725,49.14835]]]}},{"type":"Feature","properties":{"cadnum":"6322887003:01:001:0290"},"geometry":{"type":"Polygon","coordinates":[[[37.253681,49.14897],[37.253846,49.148667],[37.253269,49.148408],[37.253078,49.1483],[37.252919,49.148667],[37.253178,49.148781],[37.253681,49.14897]]]}},{"type":"Feature","properties":{"cadnum":"6322887003:01:001:0154"},"geometry":{"type":"Polygon","coordinates":[[[37.25175,49.14936],[37.252792,49.149267],[37.252796,49.149229],[37.252113,49.149252],[37.25175,49.14936]]]}},{"type":"Feature","properties":{"cadnum":"6322887003:01:001:0293"},"geometry":{"type":"Polygon","coordinates":[[[37.249493,49.148818],[37.249349,49.148478],[37.24906,49.148543],[37.248718,49.148619],[37.248613,49.148657],[37.248513,49.148692],[37.248362,49.148734],[37.248488,49.148861],[37.24858,49.148952],[37.24862,49.148944],[37.248683,49.148932],[37.249231,49.148855],[37.249231,49.14885490993072],[37.249493,49.148818]]]}},{"type":"Feature","properties":{"cadnum":"6322887003:01:001:0159"},"geometry":{"type":"Polygon","coordinates":[[[37.254556,49.147441],[37.254675,49.147196],[37.254553,49.147145],[37.254553,49.14714511658457],[37.254066,49.146942],[37.25381,49.147121],[37.253864,49.147181],[37.254012,49.147396],[37.25434,49.147529],[37.254484,49.147588],[37.254556,49.147441]]]}},{"type":"Feature","properties":{"cadnum":"6322887003:01:001:0202"},"geometry":{"type":"Polygon","coordinates":[[[37.25032,49.149093],[37.250823,49.14905],[37.250821,49.149045],[37.250931,49.14887],[37.251086,49.148757],[37.251073,49.148586],[37.250295,49.14864],[37.250302,49.149063],[37.25032,49.149093]]]}},{"type":"Feature","properties":{"cadnum":"6322887003:01:001:0296"},"geometry":{"type":"Polygon","coordinates":[[[37.249349,49.148478],[37.24941,49.148465],[37.249314,49.148264],[37.249147923076144,49.14829538461553],[37.248502,49.148415],[37.248429,49.148322],[37.248102,49.148406],[37.248362,49.148734],[37.248513,49.148692],[37.248613,49.148657],[37.248718,49.148619],[37.249231,49.148505],[37.249231,49.148504539792384],[37.249349,49.148478]]]}},{"type":"Feature","properties":{"cadnum":"6322887003:01:001:0165"},"geometry":{"type":"Polygon","coordinates":[[[37.254674,49.148641],[37.254553,49.148617],[37.254553,49.14861708139535],[37.254416,49.14859],[37.254311,49.148808],[37.254231,49.148789],[37.253995,49.148733],[37.253827,49.149007],[37.254399,49.14916],[37.254479,49.149007],[37.254553,49.14886810769231],[37.254553,49.148869],[37.254674,49.148641]]]}},{"type":"Feature","properties":{"cadnum":"6322887003:01:001:0160"},"geometry":{"type":"Polygon","coordinates":[[[37.254694,49.147157],[37.254676,49.147087],[37.254267,49.146801],[37.254066,49.146942],[37.254675,49.147196],[37.254694,49.147157]]]}},{"type":"Feature","properties":{"cadnum":"6322887003:01:001:0291"},"geometry":{"type":"Polygon","coordinates":[[[37.252919,49.148667],[37.253078,49.1483],[37.252974,49.148241],[37.252504,49.148025],[37.252392,49.148041],[37.252398,49.148435],[37.252812,49.14862],[37.252919,49.148667]]]}},{"type":"Feature","properties":{"cadnum":"6322887003:01:001:0155"},"geometry":{"type":"Polygon","coordinates":[[[37.254169,49.148132],[37.254195,49.148089],[37.254306,49.147902],[37.254018,49.147799],[37.253534,49.147624],[37.253252,49.147821],[37.253873,49.148061],[37.254169,49.148132]]]}},{"type":"Feature","properties":{"cadnum":"6322887003:01:001:0156"},"geometry":{"type":"Polygon","coordinates":[[[37.254447,49.147896],[37.254263,49.148247],[37.254553,49.148311726477026],[37.254553,49.148312],[37.25472,49.148349],[37.255144,49.148443],[37.255272,49.148155],[37.254553,49.147929],[37.254553,49.147929553956835],[37.254447,49.147896]]]}},{"type":"Feature","properties":{"cadnum":"6322887003:01:001:0287"},"geometry":{"type":"Polygon","coordinates":[[[37.237156,49.147772],[37.237329,49.147447],[37.237438,49.147242],[37.237097,49.147178],[37.237006,49.147387],[37.236885,49.147665],[37.236864,49.147717],[37.237156,49.147772]]]}},{"type":"Feature","properties":{"cadnum":"6322887003:01:001:0286"},"geometry":{"type":"Polygon","coordinates":[[[37.237127,49.147123],[37.237184,49.147002],[37.237296,49.147023],[37.237393,49.146803],[37.236885,49.146685],[37.236705,49.147031],[37.237127,49.147123]]]}},{"type":"Feature","properties":{"cadnum":"6322887003:01:001:0213"},"geometry":{"type":"Polygon","coordinates":[[[37.235839,49.146886],[37.236121,49.146378],[37.235832,49.146284],[37.235504,49.146817],[37.235755,49.146868],[37.235832,49.146885],[37.235839,49.146886]]]}},{"type":"Feature","properties":{"cadnum":"6322887003:01:001:0237"},"geometry":{"type":"Polygon","coordinates":[[[37.236705,49.147031],[37.236885,49.146685],[37.236456,49.146568],[37.236235,49.146958],[37.236705,49.147031]]]}},{"type":"Feature","properties":{"cadnum":"6322887003:01:001:0232"},"geometry":{"type":"Polygon","coordinates":[[[37.235777,49.147545],[37.235992,49.146969],[37.235606,49.14693],[37.235395,49.147458],[37.235777,49.147545]]]}},{"type":"Feature","properties":{"cadnum":"6322887003:01:001:0214"},"geometry":{"type":"Polygon","coordinates":[[[37.236235,49.146958],[37.236494,49.1465],[37.236121,49.146378],[37.235839,49.146886],[37.236185,49.146949],[37.236235,49.146958]]]}},{"type":"Feature","properties":{"cadnum":"6322887003:01:001:0239"},"geometry":{"type":"Polygon","coordinates":[[[37.236885,49.147665],[37.237006,49.147387],[37.237097,49.147178],[37.236742,49.147108],[37.236654,49.147321],[37.236542,49.147599],[37.236885,49.147665]]]}},{"type":"Feature","properties":{"cadnum":"6322887003:01:001:0163"},"geometry":{"type":"Polygon","coordinates":[[[37.256111,49.147721],[37.256269,49.14752],[37.256119,49.147465],[37.25597,49.147672],[37.256111,49.147721]]]}},{"type":"Feature","properties":{"cadnum":"6322887003:01:001:0158"},"geometry":{"type":"Polygon","coordinates":[[[37.255922,49.147949],[37.255986,49.147867],[37.254706,49.147428],[37.254676,49.147484],[37.255922,49.147949]]]}},{"type":"Feature","properties":{"cadnum":"6322887003:01:001:0203"},"geometry":{"type":"Polygon","coordinates":[[[37.257416,49.148042],[37.257641,49.147557],[37.256971,49.147332],[37.256507,49.147925],[37.256617,49.147941],[37.257416,49.148042]]]}},{"type":"Feature","properties":{"cadnum":"6322887003:01:001:0157"},"geometry":{"type":"Polygon","coordinates":[[[37.255478,49.148518],[37.255594,49.148257],[37.255272,49.148155],[37.255144,49.148443],[37.255278,49.148473],[37.255478,49.148518]]]}},{"type":"Feature","properties":{"cadnum":"6322887003:01:001:0161"},"geometry":{"type":"Polygon","coordinates":[[[37.255986,49.147867],[37.256111,49.147721],[37.25597,49.147672],[37.254817,49.147269],[37.254706,49.147428],[37.255986,49.147867]]]}},{"type":"Feature","properties":{"cadnum":"6322887003:01:001:0167"},"geometry":{"type":"Polygon","coordinates":[[[37.255359,49.148779],[37.255478,49.148518],[37.255278,49.148473],[37.255117,49.148731],[37.255359,49.148779]]]}},{"type":"Feature","properties":{"cadnum":"6322887003:01:001:0152"},"geometry":{"type":"Polygon","coordinates":[[[37.256064,49.149355],[37.25613,49.149217],[37.256241,49.148988],[37.255722,49.148837],[37.255494,49.149228],[37.256064,49.149355]]]}},{"type":"Feature","properties":{"cadnum":"6322887003:01:001:0164"},"geometry":{"type":"Polygon","coordinates":[[[37.257313,49.148319],[37.257416,49.148042],[37.256617,49.147941],[37.256586,49.148178],[37.257313,49.148319]]]}},{"type":"Feature","properties":{"cadnum":"6322887003:01:001:0162"},"geometry":{"type":"Polygon","coordinates":[[[37.25597,49.147672],[37.256119,49.147465],[37.255508,49.147244],[37.254961,49.147047],[37.254867,49.147192],[37.254817,49.147269],[37.25597,49.147672]]]}},{"type":"Feature","properties":{"cadnum":"6322887003:01:001:0003"},"geometry":{"type":"Polygon","coordinates":[[[37.246674,49.1493],[37.246761,49.149125],[37.246172,49.148989],[37.246148,49.149041],[37.246092,49.149161],[37.24601716129032,49.149321],[37.246017,49.149321],[37.246005,49.149347],[37.246371,49.149423],[37.246418,49.149433],[37.24641944444446,49.149433],[37.246589,49.149468],[37.24660661904762,49.149433],[37.246607,49.149433],[37.246674,49.1493]]]}},{"type":"Feature","properties":{"cadnum":"6322887003:01:001:0301"},"geometry":{"type":"Polygon","coordinates":[[[37.244173,49.144243],[37.244261,49.144194],[37.244248,49.144176],[37.244547,49.144023],[37.244385,49.143872],[37.244183,49.14377],[37.244056,49.143775],[37.243982,49.143796],[37.243874,49.143853],[37.243738,49.14394173442623],[37.243738,49.143941],[37.243569,49.144052],[37.243549,49.14407],[37.243567,49.14408028571428],[37.243567,49.144081],[37.24370606250099,49.14415975000056],[37.243738,49.144178],[37.243738,49.144177835955055],[37.244012,49.144333],[37.244173,49.144243]]]}},{"type":"Feature","properties":{"cadnum":"6322887003:01:000:0042"},"geometry":{"type":"Polygon","coordinates":[[[37.242372,49.145341],[37.242451,49.145015],[37.241709,49.144779],[37.241552,49.145079],[37.241623,49.145103],[37.242372,49.145341]]]}},{"type":"Feature","properties":{"cadnum":"6322887003:01:001:0042"},"geometry":{"type":"Polygon","coordinates":[[[37.242373,49.145342],[37.242449,49.145016],[37.241708,49.144778],[37.241551,49.145081],[37.242373,49.145342]]]}},{"type":"Feature","properties":{"cadnum":"6322887003:01:001:0041"},"geometry":{"type":"Polygon","coordinates":[[[37.241551,49.145081],[37.241708,49.144778],[37.241331,49.144657],[37.240837,49.144502],[37.240778,49.144593],[37.240778,49.144598],[37.240666,49.144796],[37.240985,49.144898],[37.241551,49.145081]]]}},{"type":"Feature","properties":{"cadnum":"6322887003:01:001:0039"},"geometry":{"type":"Polygon","coordinates":[[[37.241468,49.145384],[37.241623,49.145103],[37.241085,49.144931],[37.240986,49.144899],[37.240667,49.144797],[37.240664,49.144806],[37.240642,49.144859],[37.240561,49.145002],[37.240524,49.145069],[37.241468,49.145384]]]}},{"type":"Feature","properties":{"cadnum":"6322887003:01:001:0219"},"geometry":{"type":"Polygon","coordinates":[[[37.241382,49.145656],[37.241523,49.145401],[37.241469,49.145384],[37.240524,49.145069],[37.240368,49.145329],[37.241382,49.145656]]]}},{"type":"Feature","properties":{"cadnum":"6322887003:01:000:0041"},"geometry":{"type":"Polygon","coordinates":[[[37.241552,49.145079],[37.241709,49.144779],[37.241331,49.144659],[37.240837,49.144502],[37.240778,49.144598],[37.240667,49.144797],[37.240986,49.144899],[37.241085,49.144931],[37.241552,49.145079]]]}},{"type":"Feature","properties":{"cadnum":"6322887003:01:001:0040"},"geometry":{"type":"Polygon","coordinates":[[[37.242178,49.145619],[37.242372,49.145341],[37.241623,49.145103],[37.241468,49.145384],[37.241523,49.145401],[37.242007,49.145562],[37.242178,49.145619]]]}},{"type":"Feature","properties":{"cadnum":"6322887003:01:001:0189"},"geometry":{"type":"Polygon","coordinates":[[[37.246081,49.148085],[37.246404,49.147922],[37.246473,49.147859],[37.246608,49.147732],[37.246281,49.147342],[37.246125,49.147496],[37.245825,49.147797],[37.246011,49.148037],[37.246081,49.148085]]]}},{"type":"Feature","properties":{"cadnum":"6322887003:01:001:0180"},"geometry":{"type":"Polygon","coordinates":[[[37.2469,49.148509],[37.247275,49.148322],[37.247693,49.148113],[37.247597,49.148014],[37.247469,49.147854],[37.246998,49.148072],[37.246639,49.148239],[37.2469,49.148509]]]}},{"type":"Feature","properties":{"cadnum":"6322887003:01:001:0298"},"geometry":{"type":"Polygon","coordinates":[[[37.246614,49.149051],[37.24678,49.148707],[37.246745,49.148615],[37.246643,49.14866],[37.246449,49.14858],[37.246262,49.148966],[37.246614,49.149051]]]}},{"type":"Feature","properties":{"cadnum":"6322887003:01:001:0181"},"geometry":{"type":"Polygon","coordinates":[[[37.246643,49.14866],[37.246745,49.148615],[37.246773,49.148573],[37.2469,49.148509],[37.246639,49.148239],[37.246457,49.148323],[37.246178,49.148443],[37.246379,49.148552],[37.246643,49.14866]]]}},{"type":"Feature","properties":{"cadnum":"6322887003:01:001:0222"},"geometry":{"type":"Polygon","coordinates":[[[37.244798,49.148597],[37.245014,49.148131],[37.244873,49.148],[37.244487,49.147871],[37.244214,49.148448],[37.244798,49.148597]]]}},{"type":"Feature","properties":{"cadnum":"6322887003:01:001:0221"},"geometry":{"type":"Polygon","coordinates":[[[37.244658,49.149048],[37.244822,49.148709],[37.244755,49.14869],[37.244798,49.148597],[37.244214,49.148448],[37.244143,49.148599],[37.244032,49.148835],[37.244149,49.148886],[37.244213,49.148902],[37.244183,49.148952],[37.244658,49.149048]]]}},{"type":"Feature","properties":{"cadnum":"6322887003:01:001:0294"},"geometry":{"type":"Polygon","coordinates":[[[37.245507,49.148958],[37.245757,49.148433],[37.245457,49.148378],[37.245153,49.148418],[37.245063,49.148596],[37.24494,49.148845],[37.244961,49.14885],[37.245507,49.148958]]]}},{"type":"Feature","properties":{"cadnum":"6322887003:01:001:0188"},"geometry":{"type":"Polygon","coordinates":[[[37.246608,49.147732],[37.246756,49.147593],[37.247033,49.147392],[37.247035,49.147331],[37.246984,49.147221],[37.246793,49.146968],[37.246479,49.147165],[37.246317,49.147305],[37.246281,49.147342],[37.246608,49.147732]]]}}]}