{"type":"FeatureCollection","features":[{"type":"Feature","properties":{"cadnum":"6322884002:01:001:0012"},"geometry":{"type":"Polygon","coordinates":[[[37.367448,49.109278],[37.367949,49.109079],[37.367924,49.109056],[37.367743,49.108887],[37.367679,49.108915],[37.367444,49.109013],[37.367506,49.109078],[37.36753,49.109081],[37.367581,49.109115],[37.367523,49.109138],[37.367454,49.109128],[37.367369,49.109171],[37.367438,49.109264],[37.367448,49.109278]]]}},{"type":"Feature","properties":{"cadnum":"6322884002:01:001:0251"},"geometry":{"type":"Polygon","coordinates":[[[37.367947,49.109078],[37.368376,49.108873],[37.368154,49.10866],[37.367973,49.108802],[37.367743,49.108887],[37.367924,49.109056],[37.367947,49.109078]]]}},{"type":"Feature","properties":{"cadnum":"6322884002:01:001:0011"},"geometry":{"type":"Polygon","coordinates":[[[37.368376,49.108873],[37.368897,49.108653],[37.368826,49.108581],[37.368622,49.108431],[37.368599,49.108416],[37.368363,49.108544],[37.368154,49.10866],[37.368376,49.108873]]]}},{"type":"Feature","properties":{"cadnum":"6322884002:01:001:0250"},"geometry":{"type":"Polygon","coordinates":[[[37.368431,49.109531],[37.36891,49.109375],[37.368804,49.109282],[37.368745,49.109232],[37.368427,49.108952],[37.36845,49.108942],[37.368376,49.108873],[37.367947,49.109078],[37.367949,49.109079],[37.368305,49.109448],[37.368329,49.109437],[37.368431,49.109531]]]}},{"type":"Feature","properties":{"cadnum":"6322884002:01:001:0248"},"geometry":{"type":"Polygon","coordinates":[[[37.368745,49.109232],[37.369341,49.109008],[37.36895,49.108631],[37.368897,49.108653],[37.368376,49.108873],[37.36845,49.108942],[37.368427,49.108952],[37.368745,49.109232]]]}},{"type":"Feature","properties":{"cadnum":"6322884002:01:001:0204"},"geometry":{"type":"Polygon","coordinates":[[[37.369431,49.10899],[37.369807,49.108838],[37.369465,49.108492],[37.369329,49.108444],[37.36907,49.108278],[37.368769,49.10844],[37.368973,49.10859],[37.369044,49.108661],[37.369097,49.10864],[37.369431,49.10899]]]}},{"type":"Feature","properties":{"cadnum":"6322884002:01:001:0009"},"geometry":{"type":"Polygon","coordinates":[[[37.370081,49.108246],[37.370081,49.10824552380952],[37.370308,49.108105],[37.370081,49.107935461152884],[37.370081,49.107935],[37.369833,49.107749],[37.369361,49.108063],[37.369409,49.108095],[37.369832,49.108401],[37.370081,49.108246]]]}},{"type":"Feature","properties":{"cadnum":"6322884002:01:001:0007"},"geometry":{"type":"Polygon","coordinates":[[[37.369833,49.107749],[37.369909,49.107806],[37.369909,49.107807],[37.370365,49.108147],[37.370781,49.107885],[37.370237,49.10748],[37.369909,49.107698],[37.369909,49.10769843548387],[37.369833,49.107749]]]}},{"type":"Feature","properties":{"cadnum":"6322884002:01:001:0249"},"geometry":{"type":"Polygon","coordinates":[[[37.367742,49.109721],[37.368305,49.109448],[37.367949,49.109079],[37.367448,49.109278],[37.367393,49.1093],[37.367742,49.109721]]]}},{"type":"Feature","properties":{"cadnum":"6322884002:01:001:0010"},"geometry":{"type":"Polygon","coordinates":[[[37.369253,49.109663],[37.369754,49.109432],[37.369341,49.109008],[37.368745,49.109232],[37.368804,49.109282],[37.36891,49.109375],[37.368431,49.109531],[37.368329,49.109437],[37.367742,49.109721],[37.367788,49.109775],[37.36779352941176,49.109782],[37.367792,49.109782],[37.367872009662115,49.109881352657354],[37.367882,49.109894],[37.36788219469026,49.109894],[37.367883,49.109895],[37.367946,49.109975],[37.367996,49.11004],[37.368095,49.110172],[37.368142,49.110155],[37.36878,49.109875],[37.368988,49.109782],[37.368987495283015,49.109782],[37.369253,49.109663]]]}},{"type":"Feature","properties":{"cadnum":"6322884002:01:001:0247"},"geometry":{"type":"Polygon","coordinates":[[[37.38737,49.10589],[37.387983,49.105646],[37.388592,49.105503],[37.388301,49.1047],[37.38795,49.104732],[37.387317,49.104725],[37.386509,49.104977],[37.385835,49.105124],[37.386117,49.105556],[37.386389,49.105988298666674],[37.386389,49.105989],[37.386492,49.106152],[37.38656,49.106132],[37.38656,49.106131708428244],[37.38737,49.10589]]]}},{"type":"Feature","properties":{"cadnum":"6322884002:01:001:0019"},"geometry":{"type":"Polygon","coordinates":[[[37.3868,49.104445],[37.387208,49.104348],[37.387165,49.104242],[37.387034,49.103918],[37.386912,49.103613],[37.386555,49.103701],[37.38663,49.10393],[37.386699,49.104138],[37.3868,49.104445]]]}},{"type":"Feature","properties":{"cadnum":"6322884002:01:001:0014"},"geometry":{"type":"Polygon","coordinates":[[[37.38656,49.104207],[37.38656,49.104206329966324],[37.386699,49.104138],[37.38663,49.10393],[37.386555,49.103701],[37.385972,49.103831],[37.386049,49.104271],[37.386389,49.10425708187134],[37.386389,49.104258],[37.386391,49.104257],[37.386402,49.104284],[37.38656,49.104207]]]}},{"type":"Feature","properties":{"cadnum":"6322884002:01:001:0055"},"geometry":{"type":"Polygon","coordinates":[[[37.385812,49.10235],[37.385128460000004,49.102589],[37.385127,49.102589],[37.385097,49.1026],[37.385072,49.102605],[37.384629,49.102705],[37.384433,49.102733],[37.384454,49.102844],[37.384513,49.102981],[37.384641,49.103164],[37.385285,49.103027],[37.385093,49.102648],[37.385762,49.102435],[37.385899,49.102702],[37.38590001532567,49.102702],[37.385976,49.10285],[37.386248,49.102784],[37.386389,49.10274694230769],[37.386389,49.102747],[37.38640400000004,49.10274299999999],[37.38656,49.102702],[37.38656,49.10270146629213],[37.386914,49.102607],[37.386898,49.102589],[37.386897971428574,49.102589],[37.386727,49.102397],[37.386408,49.102252],[37.386244,49.102268],[37.385812,49.10235]]]}},{"type":"Feature","properties":{"cadnum":"6322884002:01:001:0218"},"geometry":{"type":"Polygon","coordinates":[[[37.390479,49.103794],[37.390802,49.10367],[37.390431,49.103298],[37.390077,49.102948],[37.38977,49.10306],[37.389959,49.103226],[37.390224,49.103529],[37.390479,49.103794]]]}},{"type":"Feature","properties":{"cadnum":"6322884002:01:001:0048"},"geometry":{"type":"Polygon","coordinates":[[[37.388099,49.104231],[37.388458,49.104145],[37.388038,49.103366],[37.387692,49.103429],[37.387739,49.103516],[37.387833,49.103698],[37.388099,49.104231]]]}},{"type":"Feature","properties":{"cadnum":"6322884002:01:001:0017"},"geometry":{"type":"Polygon","coordinates":[[[37.3872,49.103147],[37.387144,49.10304],[37.386914,49.102607],[37.38640400000004,49.10274299999999],[37.386248,49.102784],[37.386402,49.103275],[37.385891,49.103358],[37.385917,49.10341],[37.386389,49.10330796578538],[37.386389,49.103308],[37.386405020512576,49.10330450256416],[37.38656,49.103271],[37.38656,49.10327066901408],[37.386673,49.103246],[37.387062,49.103162],[37.387187,49.103394],[37.387315,49.103365],[37.3872,49.103147]]]}},{"type":"Feature","properties":{"cadnum":"6322884002:01:001:0021"},"geometry":{"type":"Polygon","coordinates":[[[37.389849,49.103671],[37.390224,49.103528],[37.389959,49.103226],[37.38977,49.10306],[37.389452,49.103139],[37.389632,49.103353],[37.389849,49.103671]]]}},{"type":"Feature","properties":{"cadnum":"6322884002:01:001:0028"},"geometry":{"type":"Polygon","coordinates":[[[37.387187,49.103394],[37.387062,49.103162],[37.386673,49.103246],[37.386405020512576,49.10330450256416],[37.385917,49.10341],[37.386035,49.10366],[37.386389,49.10357841142857],[37.386389,49.103579],[37.387187,49.103394]]]}},{"type":"Feature","properties":{"cadnum":"6322884002:01:001:0022"},"geometry":{"type":"Polygon","coordinates":[[[37.387165,49.104242],[37.387651,49.104144],[37.387455,49.103795],[37.38733,49.10351],[37.386912,49.103613],[37.387034,49.103918],[37.387165,49.104242]]]}},{"type":"Feature","properties":{"cadnum":"6322884002:01:001:0210"},"geometry":{"type":"Polygon","coordinates":[[[37.38794,49.104669],[37.388332,49.104613],[37.388297,49.104541],[37.388099,49.104231],[37.388076,49.104186],[37.387704,49.104239],[37.387895,49.104579],[37.38794,49.104669]]]}},{"type":"Feature","properties":{"cadnum":"6322884002:01:001:0023"},"geometry":{"type":"Polygon","coordinates":[[[37.387895,49.104579],[37.387651,49.104144],[37.387165,49.104242],[37.387208,49.104348],[37.38727,49.1045],[37.387895,49.104579]]]}},{"type":"Feature","properties":{"cadnum":"6322884002:01:001:0049"},"geometry":{"type":"Polygon","coordinates":[[[37.388636,49.105402],[37.389001,49.105323],[37.388591,49.104494],[37.388458,49.104145],[37.388099,49.104231],[37.388297,49.104541],[37.388455,49.104862],[37.388636,49.105402]]]}},{"type":"Feature","properties":{"cadnum":"6322884002:01:001:0079"},"geometry":{"type":"Polygon","coordinates":[[[37.389908,49.102001],[37.389593,49.102094],[37.38990970230263,49.102589],[37.389909,49.102589],[37.39012,49.102917],[37.390436,49.10283],[37.39030635042791,49.10262710683849],[37.389908,49.102001]]]}},{"type":"Feature","properties":{"cadnum":"6322884002:01:001:0024"},"geometry":{"type":"Polygon","coordinates":[[[37.387315,49.103365],[37.388159,49.103193],[37.388003,49.102863],[37.387144,49.10304],[37.3872,49.103147],[37.387315,49.103365]]]}},{"type":"Feature","properties":{"cadnum":"6322884002:01:001:0020"},"geometry":{"type":"Polygon","coordinates":[[[37.386884,49.104701],[37.387302,49.104581],[37.38727,49.1045],[37.387208,49.104348],[37.3868,49.104445],[37.386884,49.104701]]]}},{"type":"Feature","properties":{"cadnum":"6322884002:01:001:0041"},"geometry":{"type":"Polygon","coordinates":[[[37.389593,49.102094],[37.389284,49.102168],[37.389607,49.102702],[37.389607759433964,49.102702],[37.389797,49.103013],[37.39012,49.102917],[37.38998169207317,49.102702],[37.389982,49.102702],[37.389593,49.102094]]]}},{"type":"Feature","properties":{"cadnum":"6322884002:01:001:0207"},"geometry":{"type":"Polygon","coordinates":[[[37.387704,49.104239],[37.388076,49.104186],[37.387833,49.103698],[37.387739,49.103516],[37.387692,49.103429],[37.38733,49.10351],[37.387455,49.103795],[37.387651,49.104144],[37.387704,49.104239]]]}},{"type":"Feature","properties":{"cadnum":"6322884002:01:001:0225"},"geometry":{"type":"Polygon","coordinates":[[[37.375325,49.106661],[37.375372,49.106621],[37.375275,49.106388],[37.375232,49.106328],[37.37481,49.106366],[37.374252,49.106381],[37.374245,49.106628],[37.374524,49.106644],[37.375219,49.10666],[37.375325,49.106661]]]}},{"type":"Feature","properties":{"cadnum":"6322884002:01:001:0226"},"geometry":{"type":"Polygon","coordinates":[[[37.374761,49.107231],[37.374905,49.10722],[37.375046,49.107224],[37.375203,49.107214],[37.375251,49.107198],[37.375321,49.107127],[37.375343,49.107092],[37.37538,49.107043],[37.37542,49.106996],[37.375417,49.10698],[37.375433,49.106957],[37.375433,49.10691],[37.375427,49.106889],[37.375417,49.106825],[37.375393,49.106765],[37.375397,49.10674],[37.375132,49.106724],[37.374853,49.106714],[37.374757,49.106711],[37.374761,49.107231]]]}},{"type":"Feature","properties":{"cadnum":"6322884002:01:001:0008"},"geometry":{"type":"Polygon","coordinates":[[[37.371045,49.108654],[37.371281,49.10859],[37.371607,49.108502],[37.370781,49.107885],[37.370365,49.108147],[37.371045,49.108654]]]}},{"type":"Feature","properties":{"cadnum":"6322884002:01:001:0006"},"geometry":{"type":"Polygon","coordinates":[[[37.371607,49.108502],[37.371655,49.108489],[37.371722,49.108155],[37.371136,49.107532],[37.370683,49.107812],[37.371607,49.108502]]]}},{"type":"Feature","properties":{"cadnum":"6322884002:01:001:0035"},"geometry":{"type":"Polygon","coordinates":[[[37.372873,49.108503],[37.373164,49.108473],[37.373344,49.108441],[37.373241,49.108262],[37.373202,49.108171],[37.373171,49.108095],[37.37314,49.108031],[37.373069,49.107878],[37.372459,49.10804],[37.372543,49.108205],[37.372638,49.108183],[37.372684,49.10822],[37.372873,49.108503]]]}},{"type":"Feature","properties":{"cadnum":"6322884002:01:001:0005"},"geometry":{"type":"Polygon","coordinates":[[[37.370683,49.107812],[37.371136,49.107532],[37.370758,49.107132],[37.370237,49.10748],[37.370683,49.107812]]]}},{"type":"Feature","properties":{"cadnum":"6322884002:01:001:0057"},"geometry":{"type":"Polygon","coordinates":[[[37.371273,49.107518],[37.371808,49.107371],[37.3718,49.107337],[37.371649,49.107163],[37.371696,49.107104],[37.371614,49.106876],[37.371604,49.106857],[37.371142,49.106963],[37.371123,49.106986],[37.371037,49.107005],[37.371143,49.107219],[37.371189,49.107313],[37.371268,49.107513],[37.371273,49.107518]]]}},{"type":"Feature","properties":{"cadnum":"6322884002:01:001:0081"},"geometry":{"type":"Polygon","coordinates":[[[37.37417,49.108102],[37.37434,49.108064],[37.374394,49.108053],[37.374584,49.108011],[37.37457,49.107531],[37.374559,49.107279],[37.374431,49.107279],[37.374312,49.107279],[37.374102,49.10777],[37.37414,49.108001],[37.37417,49.108102]]]}},{"type":"Feature","properties":{"cadnum":"6322884002:01:001:0229"},"geometry":{"type":"Polygon","coordinates":[[[37.373752,49.108187],[37.373907,49.108152],[37.374057,49.108102],[37.374138,49.108083],[37.374132,49.108058],[37.374112,49.10802],[37.37409,49.107969],[37.374071,49.107835],[37.37389,49.107326],[37.373596,49.107399],[37.37354,49.107413],[37.373556,49.107439],[37.373588,49.107495],[37.373593,49.107531],[37.373616,49.1077],[37.373662,49.10792],[37.373746,49.108151],[37.373752,49.108187]]]}},{"type":"Feature","properties":{"cadnum":"6322884002:01:001:0206"},"geometry":{"type":"Polygon","coordinates":[[[37.375493647999974,49.108113664],[37.375574,49.108102],[37.375574,49.10810109497206],[37.375581,49.1081],[37.376595,49.107891],[37.376545,49.107755],[37.375675,49.107884],[37.375657,49.10784],[37.375488,49.107862],[37.375452,49.10787],[37.375402,49.107877],[37.375402,49.10787700636943],[37.375295,49.107892],[37.375321,49.108007],[37.375297,49.10801],[37.375314,49.10807],[37.375305,49.108074],[37.375307,49.108096],[37.375343,49.108092],[37.375388,49.108129],[37.375402,49.10812696774193],[37.375402,49.108128],[37.375493647999974,49.108113664]]]}},{"type":"Feature","properties":{"cadnum":"6322884002:01:001:0238"},"geometry":{"type":"Polygon","coordinates":[[[37.372435,49.106164],[37.37217,49.10574],[37.371796,49.105835],[37.37199538012959,49.106186],[37.371995,49.106186],[37.372146,49.106451],[37.372633,49.106502],[37.37247402027029,49.10623190540544],[37.372435,49.106164]]]}},{"type":"Feature","properties":{"cadnum":"6322884002:01:001:0060"},"geometry":{"type":"Polygon","coordinates":[[[37.371838,49.10751],[37.372676,49.107304],[37.372802,49.107273],[37.372878,49.107255],[37.372813,49.107137],[37.372789,49.107095],[37.3718,49.107337],[37.371838,49.10751]]]}},{"type":"Feature","properties":{"cadnum":"6322884002:01:001:0228"},"geometry":{"type":"Polygon","coordinates":[[[37.374267,49.107254],[37.374525,49.107251],[37.374761,49.107231],[37.374757,49.106711],[37.374523,49.106702],[37.374276,49.106696],[37.374308,49.107013],[37.374267,49.107029],[37.374277,49.107194],[37.374267,49.107254]]]}},{"type":"Feature","properties":{"cadnum":"6322884002:01:001:0086"},"geometry":{"type":"Polygon","coordinates":[[[37.375999,49.107353],[37.375924,49.107136],[37.375785,49.106897],[37.375775,49.106884],[37.375767,49.106869],[37.375641,49.106916],[37.375625,49.106935],[37.375602,49.106974],[37.375491,49.107126],[37.375484,49.107404],[37.375999,49.107353]]]}},{"type":"Feature","properties":{"cadnum":"6322884002:01:001:0075"},"geometry":{"type":"Polygon","coordinates":[[[37.38243,49.104097],[37.382225,49.103448],[37.382196,49.103357],[37.381755,49.103389],[37.381952,49.103902],[37.382021,49.104088],[37.38243,49.104097]]]}},{"type":"Feature","properties":{"cadnum":"6322884002:01:001:0227"},"geometry":{"type":"Polygon","coordinates":[[[37.381074,49.104463],[37.3819,49.104434],[37.381922,49.10415],[37.381653,49.104134],[37.381034,49.104142],[37.381074,49.104463]]]}},{"type":"Feature","properties":{"cadnum":"6322884002:01:001:0246"},"geometry":{"type":"Polygon","coordinates":[[[37.384374,49.106173],[37.38427,49.106193],[37.384297,49.106261],[37.384314,49.106298],[37.384314411764706,49.106298],[37.384329,49.106329],[37.384419,49.106713],[37.384546,49.106701],[37.384435,49.106318],[37.38440164122139,49.10624074809163],[37.384374,49.106173]]]}},{"type":"Feature","properties":{"cadnum":"6322884002:01:001:0241"},"geometry":{"type":"Polygon","coordinates":[[[37.38537,49.105919],[37.385179,49.105969],[37.385297,49.106298],[37.38529723592494,49.106298],[37.385391,49.106559],[37.385581,49.106509],[37.385477924790884,49.10622198885737],[37.38537,49.105919]]]}},{"type":"Feature","properties":{"cadnum":"6322884002:01:001:0066"},"geometry":{"type":"Polygon","coordinates":[[[37.384624,49.104032],[37.38492,49.103971],[37.385486,49.103855],[37.385512,49.103771],[37.385462,49.103683],[37.384576,49.103865],[37.384558,49.103897],[37.384624,49.104032]]]}},{"type":"Feature","properties":{"cadnum":"6322884002:01:001:0059"},"geometry":{"type":"Polygon","coordinates":[[[37.383032,49.103875],[37.383287,49.103834],[37.383567,49.103751],[37.383519,49.103635],[37.383924,49.103494],[37.38379,49.1033],[37.383025,49.103448],[37.383021,49.103561],[37.383019,49.103677],[37.383021,49.103792],[37.383032,49.103875]]]}},{"type":"Feature","properties":{"cadnum":"6322884002:01:001:0026"},"geometry":{"type":"Polygon","coordinates":[[[37.384479,49.104645],[37.384848,49.104488],[37.384659,49.104102],[37.384558,49.103897],[37.384074,49.104032],[37.384222,49.104256],[37.384479,49.104645]]]}},{"type":"Feature","properties":{"cadnum":"6322884002:01:001:0025"},"geometry":{"type":"Polygon","coordinates":[[[37.385647,49.103737],[37.386035,49.10366],[37.385933,49.103444],[37.385917,49.10341],[37.385891,49.103358],[37.385874,49.103315],[37.385488,49.103393],[37.385647,49.103737]]]}},{"type":"Feature","properties":{"cadnum":"6322884002:01:001:0065"},"geometry":{"type":"Polygon","coordinates":[[[37.384576,49.103865],[37.385462,49.103683],[37.385395,49.103563],[37.385374,49.103495],[37.384665,49.10364],[37.384687,49.103663],[37.384576,49.103865]]]}},{"type":"Feature","properties":{"cadnum":"6322884002:01:001:0062"},"geometry":{"type":"Polygon","coordinates":[[[37.384535,49.103454],[37.385312,49.103295],[37.385258,49.103085],[37.384471,49.103247],[37.384535,49.103454]]]}},{"type":"Feature","properties":{"cadnum":"6322884002:01:001:0018"},"geometry":{"type":"Polygon","coordinates":[[[37.385454,49.104761],[37.386001,49.104716],[37.385994,49.104627],[37.385942,49.104588],[37.386298,49.1045],[37.386283,49.104364],[37.386086,49.104382],[37.38607,49.104339],[37.386059,49.10434],[37.385441,49.104365],[37.385423,49.10455],[37.385454,49.104761]]]}},{"type":"Feature","properties":{"cadnum":"6322884002:01:001:0211"},"geometry":{"type":"Polygon","coordinates":[[[37.385395,49.103253],[37.385415,49.103247],[37.38631,49.102978],[37.386248,49.102784],[37.385976,49.10285],[37.385677,49.102921],[37.385317,49.10302],[37.385302,49.103024],[37.385395,49.103253]]]}},{"type":"Feature","properties":{"cadnum":"6322884002:01:001:0016"},"geometry":{"type":"Polygon","coordinates":[[[37.385441,49.104365],[37.386059,49.10434],[37.386049,49.104271],[37.385972,49.103831],[37.385686,49.103888],[37.385517,49.104065],[37.385406,49.104178],[37.385441,49.104365]]]}},{"type":"Feature","properties":{"cadnum":"6322884002:01:001:0205"},"geometry":{"type":"Polygon","coordinates":[[[37.384248,49.105768],[37.384616,49.105596],[37.384474,49.105339],[37.384311,49.105118],[37.384184,49.10496],[37.383841,49.105121],[37.38391,49.105225],[37.384145,49.105603],[37.384248,49.105768]]]}},{"type":"Feature","properties":{"cadnum":"6322884002:01:001:0232"},"geometry":{"type":"Polygon","coordinates":[[[37.383863,49.104965],[37.384216,49.104786],[37.384421,49.104678],[37.384303,49.104496],[37.384028,49.10459],[37.383855,49.104352],[37.384104,49.104297],[37.384051,49.104201],[37.38353,49.104324],[37.383581,49.104438],[37.383711,49.104682],[37.383863,49.104965]]]}},{"type":"Feature","properties":{"cadnum":"6322884002:01:001:0087"},"geometry":{"type":"Polygon","coordinates":[[[37.38243,49.104097],[37.382819,49.104065],[37.382757,49.103401],[37.382225,49.103448],[37.38243,49.104097]]]}},{"type":"Feature","properties":{"cadnum":"6322884002:01:001:0040"},"geometry":{"type":"Polygon","coordinates":[[[37.3819,49.104434],[37.382486,49.104409],[37.382796,49.104393],[37.382709,49.104167],[37.382619,49.104156],[37.382403,49.104154],[37.381922,49.10415],[37.3819,49.104434]]]}},{"type":"Feature","properties":{"cadnum":"6322884002:01:001:0088"},"geometry":{"type":"Polygon","coordinates":[[[37.382225,49.103448],[37.382757,49.103401],[37.382742,49.103245],[37.382176,49.103295],[37.382196,49.103357],[37.382225,49.103448]]]}},{"type":"Feature","properties":{"cadnum":"6322884002:01:001:0034"},"geometry":{"type":"Polygon","coordinates":[[[37.381904,49.104956],[37.382147,49.104943],[37.382777,49.104856],[37.382744,49.104694],[37.382711,49.104538],[37.38247,49.104559],[37.382402,49.104569],[37.381724,49.104667],[37.381904,49.104956]]]}},{"type":"Feature","properties":{"cadnum":"6322884002:01:001:0212"},"geometry":{"type":"Polygon","coordinates":[[[37.381415,49.105811],[37.381853,49.105746],[37.381777,49.105603],[37.381746,49.105543],[37.38171,49.105452],[37.381093,49.105503],[37.381082,49.105586],[37.381299,49.105726],[37.381415,49.105811]]]}},{"type":"Feature","properties":{"cadnum":"6322884002:01:001:0061"},"geometry":{"type":"Polygon","coordinates":[[[37.384665,49.10364],[37.385374,49.103495],[37.385327,49.103349],[37.385312,49.103295],[37.384535,49.103454],[37.384555,49.103519],[37.384665,49.10364]]]}},{"type":"Feature","properties":{"cadnum":"6322884002:01:001:0240"},"geometry":{"type":"Polygon","coordinates":[[[37.385942,49.105769],[37.385752,49.105819],[37.385882250521924,49.106186],[37.385882,49.106186],[37.385905414634,49.10625126829228],[37.385922,49.106298],[37.3859221793722,49.106298],[37.385962,49.106409],[37.386154,49.106359],[37.386091,49.106186],[37.38609098487713,49.106186],[37.385942,49.105769]]]}},{"type":"Feature","properties":{"cadnum":"6322884002:01:001:0054"},"geometry":{"type":"Polygon","coordinates":[[[37.385762,49.102435],[37.38527830985915,49.102589],[37.385277,49.102589],[37.385093,49.102648],[37.38512,49.102702],[37.385120356200524,49.102702],[37.385285,49.103027],[37.385317,49.10302],[37.385677,49.102921],[37.385976,49.10285],[37.385842,49.102589],[37.385841018726595,49.102589],[37.385762,49.102435]]]}},{"type":"Feature","properties":{"cadnum":"6322884002:01:001:0064"},"geometry":{"type":"Polygon","coordinates":[[[37.385109,49.104357],[37.385316,49.104151],[37.38545,49.103976],[37.385486,49.103855],[37.38492,49.103971],[37.385109,49.104357]]]}},{"type":"Feature","properties":{"cadnum":"6322884002:01:001:0030"},"geometry":{"type":"Polygon","coordinates":[[[37.381074,49.104894],[37.380977069307676,49.10491687128695],[37.380774,49.104964],[37.380681,49.104985],[37.380445,49.10504],[37.380339,49.10506],[37.380216,49.105096],[37.380257,49.105134],[37.380287,49.105174],[37.380405,49.105254],[37.380524,49.105277],[37.380572,49.105293],[37.380648,49.105318],[37.38066,49.105323],[37.380766,49.105396],[37.380896,49.10540139792387],[37.380896,49.105402],[37.381055,49.105408],[37.381074,49.104894]],[[37.380682,49.10506],[37.380689,49.105042],[37.380716,49.105047],[37.380709,49.105064],[37.380682,49.10506]]]}},{"type":"Feature","properties":{"cadnum":"6322884002:01:001:0216"},"geometry":{"type":"Polygon","coordinates":[[[37.381067,49.106061],[37.381176,49.106039],[37.381382,49.10597],[37.381315,49.105901],[37.381287,49.10587],[37.381138,49.105751],[37.381035,49.105697],[37.380328,49.10584],[37.380395,49.106039],[37.380456,49.106173],[37.380881,49.106095],[37.380896,49.10609225806452],[37.380896,49.106093],[37.381067,49.106061]],[[37.380833,49.105847],[37.380859,49.105844],[37.380863,49.105862],[37.380837,49.105864],[37.380833,49.105847]]]}},{"type":"Feature","properties":{"cadnum":"6322884002:01:001:0253"},"geometry":{"type":"Polygon","coordinates":[[[37.384848,49.104488],[37.385091,49.104375],[37.385109,49.104357],[37.38492,49.103971],[37.384624,49.104032],[37.384659,49.104102],[37.384848,49.104488]]]}},{"type":"Feature","properties":{"cadnum":"6322884002:01:001:0003"},"geometry":{"type":"Polygon","coordinates":[[[37.382115,49.105759],[37.382392,49.105686],[37.382627,49.10562],[37.382675,49.105575],[37.382651,49.105476],[37.382593,49.105457],[37.382576,49.105421],[37.381794,49.105436],[37.381899,49.105737],[37.38207,49.105699],[37.382115,49.105759]]]}},{"type":"Feature","properties":{"cadnum":"6322884002:01:001:0233"},"geometry":{"type":"Polygon","coordinates":[[[37.382623,49.105985],[37.383078,49.105958],[37.383079,49.105759],[37.38306,49.105639],[37.383053,49.105607],[37.383039,49.105515],[37.38286,49.105504],[37.382734,49.105461],[37.382721,49.105467],[37.382667,49.105472],[37.382655,49.105467],[37.382675,49.105579],[37.382643,49.105623],[37.382404,49.105682],[37.382623,49.105985]]]}},{"type":"Feature","properties":{"cadnum":"6322884002:01:001:0219"},"geometry":{"type":"Polygon","coordinates":[[[37.381584,49.105325],[37.382241,49.105207],[37.382147,49.104943],[37.381904,49.104956],[37.381798,49.104784],[37.381295,49.104876],[37.381584,49.105325]]]}},{"type":"Feature","properties":{"cadnum":"6322884002:01:001:0217"},"geometry":{"type":"Polygon","coordinates":[[[37.381035,49.105697],[37.380823,49.105586],[37.3807,49.105604],[37.380261,49.10567],[37.380328,49.10584],[37.380896,49.1057251145686],[37.380896,49.105726],[37.381035,49.105697]]]}},{"type":"Feature","properties":{"cadnum":"6322884002:01:001:0237"},"geometry":{"type":"Polygon","coordinates":[[[37.382113,49.10626],[37.382158,49.106234],[37.38223,49.106184],[37.382285,49.106129],[37.382308,49.106087],[37.38232,49.106011],[37.382623,49.105985],[37.382404,49.105682],[37.382117,49.105769],[37.382218,49.105879],[37.381987,49.10597],[37.381742,49.106074],[37.381746,49.106078],[37.38177,49.106105],[37.381743,49.106121],[37.38182923762376,49.106186],[37.381829,49.106186],[37.381877,49.106222],[37.382041,49.106289],[37.382113,49.10626]]]}},{"type":"Feature","properties":{"cadnum":"6322884002:01:001:0220"},"geometry":{"type":"Polygon","coordinates":[[[37.384175,49.105958],[37.383192,49.106103],[37.383202215384614,49.106186],[37.383201,49.106186],[37.383221,49.10634],[37.384036,49.106278],[37.384039,49.106298],[37.38403983838384,49.106298],[37.384055,49.106377],[37.384329,49.106329],[37.384297,49.106261],[37.384175,49.105958]]]}},{"type":"Feature","properties":{"cadnum":"6322884002:01:001:0243"},"geometry":{"type":"Polygon","coordinates":[[[37.385561,49.105869],[37.38537,49.105919],[37.3854651055409,49.106186],[37.385465,49.106186],[37.385477924790884,49.10622198885737],[37.385505,49.106298],[37.38550522291022,49.106298],[37.385581,49.106509],[37.385772,49.106459],[37.38568261538441,49.106209999999436],[37.385561,49.105869]]]}},{"type":"Feature","properties":{"cadnum":"6322884002:01:001:0242"},"geometry":{"type":"Polygon","coordinates":[[[37.385752,49.105819],[37.385561,49.105869],[37.38567405594406,49.106186],[37.385674,49.106186],[37.38568261538441,49.106209999999436],[37.385714,49.106298],[37.38571420512821,49.106298],[37.385772,49.106459],[37.385962,49.106409],[37.385905414634,49.10625126829228],[37.385752,49.105819]]]}},{"type":"Feature","properties":{"cadnum":"6322884002:01:001:0244"},"geometry":{"type":"Polygon","coordinates":[[[37.385179,49.105969],[37.384989,49.106019],[37.385048258064515,49.106186],[37.385048,49.106186],[37.385199,49.106609],[37.385391,49.106559],[37.385257,49.106186],[37.38525682978724,49.106186],[37.385179,49.105969]]]}},{"type":"Feature","properties":{"cadnum":"6322884002:01:001:0042"},"geometry":{"type":"Polygon","coordinates":[[[37.389284,49.102168],[37.389593,49.102094],[37.389468,49.1019],[37.389131,49.101916],[37.389284,49.102168]]]}},{"type":"Feature","properties":{"cadnum":"6322884002:01:001:0230"},"geometry":{"type":"Polygon","coordinates":[[[37.379123,49.106029],[37.379046,49.105551],[37.379036,49.105474],[37.379034,49.105471],[37.37874,49.105501],[37.378668,49.105537],[37.378649,49.105567],[37.378506,49.105973],[37.379123,49.106029]]]}},{"type":"Feature","properties":{"cadnum":"6322884002:01:001:0222"},"geometry":{"type":"Polygon","coordinates":[[[37.375853,49.104595],[37.376133,49.104524],[37.376601,49.10442],[37.376343,49.103984],[37.375629,49.104369],[37.375853,49.104595]]]}},{"type":"Feature","properties":{"cadnum":"6322884002:01:001:0231"},"geometry":{"type":"Polygon","coordinates":[[[37.37882,49.105418],[37.379376,49.105356],[37.379325,49.105252],[37.379335,49.104876],[37.378739,49.104869],[37.378708,49.105301],[37.378817,49.105309],[37.37882,49.105418]]]}},{"type":"Feature","properties":{"cadnum":"6322884002:01:001:0239"},"geometry":{"type":"Polygon","coordinates":[[[37.376359,49.105016],[37.376524,49.104941],[37.376526,49.104915],[37.376512,49.10488],[37.376517,49.10478],[37.376506,49.104663],[37.376481,49.10456],[37.3764,49.104465],[37.376133,49.104524],[37.375893,49.104584],[37.375853,49.104595],[37.376202,49.104919],[37.37628,49.104967],[37.376359,49.105016]]]}},{"type":"Feature","properties":{"cadnum":"6322884002:01:001:0208"},"geometry":{"type":"Polygon","coordinates":[[[37.376681,49.105204],[37.377382,49.105078],[37.377356,49.105006],[37.377307,49.104889],[37.377226,49.104905],[37.376609,49.105038],[37.376681,49.105204]]]}},{"type":"Feature","properties":{"cadnum":"6322884002:01:001:0223"},"geometry":{"type":"Polygon","coordinates":[[[37.378651,49.104857],[37.378679,49.104606],[37.377948,49.10457],[37.37792,49.104821],[37.378651,49.104857]]]}},{"type":"Feature","properties":{"cadnum":"6322884002:01:001:0245"},"geometry":{"type":"Polygon","coordinates":[[[37.380731,49.106122],[37.380456,49.106173],[37.380458496,49.106186],[37.380457,49.106186],[37.380534,49.106562],[37.380595,49.10686],[37.38089,49.106839],[37.38076904134763,49.106298],[37.38077,49.106298],[37.380731,49.106122]]]}},{"type":"Feature","properties":{"cadnum":"6322884002:01:001:0036"},"geometry":{"type":"Polygon","coordinates":[[[37.375861,49.105482],[37.37568,49.105085],[37.375402,49.105153],[37.375402,49.10515318309859],[37.375148,49.105214],[37.374955,49.10526],[37.375089,49.105481],[37.375189,49.105644],[37.375369,49.105601],[37.375574,49.105552],[37.375574,49.10555140522876],[37.375861,49.105482]]]}},{"type":"Feature","properties":{"cadnum":"6322884002:01:001:0221"},"geometry":{"type":"Polygon","coordinates":[[[37.375470269230966,49.10613042307688],[37.375574,49.106107],[37.375574,49.10610675492958],[37.375757,49.106065],[37.375712,49.105967],[37.375608,49.105736],[37.375529,49.105562],[37.375369,49.105601],[37.375189,49.105644],[37.375043,49.105682],[37.375264,49.106177],[37.375402,49.10614583870968],[37.375402,49.106146],[37.375470269230966,49.10613042307688]]]}},{"type":"Feature","properties":{"cadnum":"6322884002:01:001:0037"},"geometry":{"type":"Polygon","coordinates":[[[37.375861,49.105482],[37.376318,49.105372],[37.376094,49.10497],[37.37568,49.105085],[37.375861,49.105482]]]}},{"type":"Feature","properties":{"cadnum":"6322884002:01:001:0209"},"geometry":{"type":"Polygon","coordinates":[[[37.37862,49.105474],[37.37862,49.105286],[37.378609,49.105286],[37.378616,49.10513],[37.37769,49.105078],[37.377779,49.105437],[37.37862,49.105474]]]}},{"type":"Feature","properties":{"cadnum":"6322884002:01:001:0203"},"geometry":{"type":"Polygon","coordinates":[[[37.380304,49.105603],[37.380513,49.105584],[37.380489,49.105468],[37.380476,49.105469],[37.380308,49.105484],[37.38028,49.105487],[37.380304,49.105603]]]}},{"type":"Feature","properties":{"cadnum":"6322884002:01:001:0089"},"geometry":{"type":"Polygon","coordinates":[[[37.381199,49.10733],[37.381172,49.107143],[37.381129,49.106917],[37.380943,49.106928],[37.380618,49.106947],[37.380629,49.107066],[37.380638,49.107151],[37.38066,49.107367],[37.381035,49.107342],[37.381067,49.10734],[37.381067,49.10733965853659],[37.381199,49.10733]]]}},{"type":"Feature","properties":{"cadnum":"6322884002:01:001:0027"},"geometry":{"type":"Polygon","coordinates":[[[37.382206,49.107376],[37.382497,49.10736],[37.382399,49.107006],[37.382337,49.106786],[37.382132,49.106821],[37.38205,49.106836],[37.382077,49.106935],[37.382097,49.107012],[37.382107,49.107048],[37.382206,49.107376]]]}},{"type":"Feature","properties":{"cadnum":"6322884002:01:001:0213"},"geometry":{"type":"Polygon","coordinates":[[[37.382497,49.10736],[37.383029,49.107275],[37.38288,49.106741],[37.382337,49.106786],[37.382399,49.107006],[37.382497,49.10736]]]}},{"type":"Feature","properties":{"cadnum":"6322884002:01:001:0050"},"geometry":{"type":"Polygon","coordinates":[[[37.383198,49.107258],[37.383661,49.107208],[37.383778,49.107181],[37.383716,49.106835],[37.383666,49.106835],[37.38341,49.106737],[37.382962,49.106775],[37.383036,49.106934],[37.383121,49.107114],[37.383198,49.107258]]]}},{"type":"Feature","properties":{"cadnum":"6322884002:01:001:0214"},"geometry":{"type":"Polygon","coordinates":[[[37.384116,49.106732],[37.384055,49.106377],[37.384036,49.106278],[37.383221,49.10634],[37.383236,49.106452],[37.383239,49.106469],[37.383251,49.106524],[37.38324,49.106539],[37.383251,49.106591],[37.383265,49.106637],[37.383437,49.106654],[37.383606,49.106664],[37.38377,49.106682],[37.384116,49.106732]]]}},{"type":"Feature","properties":{"cadnum":"6322884002:01:001:0051"},"geometry":{"type":"Polygon","coordinates":[[[37.383778,49.107181],[37.384372,49.107047],[37.384404,49.107017],[37.384413,49.106842],[37.383716,49.106835],[37.383778,49.107181]]]}},{"type":"Feature","properties":{"cadnum":"6322884002:01:001:0252"},"geometry":{"type":"Polygon","coordinates":[[[37.379719,49.106812],[37.379713,49.106631],[37.37966,49.106244],[37.3792,49.106283],[37.379249,49.106647],[37.379231,49.106766],[37.379719,49.106812]]]}},{"type":"Feature","properties":{"cadnum":"6322884002:01:001:0201"},"geometry":{"type":"Polygon","coordinates":[[[37.376049,49.107682],[37.376471,49.107622],[37.376064,49.106768],[37.376056,49.106759],[37.375798,49.106855],[37.375767,49.106869],[37.375775,49.106884],[37.375785,49.106897],[37.375924,49.107136],[37.376031,49.107445],[37.376049,49.107682]]]}},{"type":"Feature","properties":{"cadnum":"6322884002:01:001:0202"},"geometry":{"type":"Polygon","coordinates":[[[37.376978,49.10758],[37.378181,49.107197],[37.378075,49.107068],[37.378055,49.107047],[37.378028,49.107017],[37.377995,49.106982],[37.377913,49.107015],[37.377716,49.107081],[37.377377,49.107198],[37.37682,49.107391],[37.376978,49.10758]]]}},{"type":"Feature","properties":{"cadnum":"6322884002:01:001:0200"},"geometry":{"type":"Polygon","coordinates":[[[37.379327,49.107523],[37.379583,49.107518],[37.379631,49.106942],[37.379147,49.106848],[37.379327,49.107523]]]}},{"type":"Feature","properties":{"cadnum":"6322884002:01:001:0234"},"geometry":{"type":"Polygon","coordinates":[[[37.376394,49.107457],[37.376815,49.107323],[37.376705,49.107144],[37.376478,49.106787],[37.376466,49.106764],[37.376428,49.106718],[37.376415,49.106702],[37.376369,49.106639],[37.376056,49.106759],[37.376064,49.106768],[37.376394,49.107457]]]}},{"type":"Feature","properties":{"cadnum":"6322884002:01:001:0235"},"geometry":{"type":"Polygon","coordinates":[[[37.37685,49.10738],[37.377128,49.107284],[37.37704,49.107119],[37.376896,49.106862],[37.376674,49.106503],[37.376638,49.106517],[37.376534,49.106553],[37.376487,49.106568],[37.376395,49.106601],[37.376359,49.106616],[37.376355,49.106618],[37.376415,49.106702],[37.376428,49.106718],[37.376466,49.106764],[37.376478,49.106787],[37.376705,49.107144],[37.37685,49.10738]]]}},{"type":"Feature","properties":{"cadnum":"6322884002:01:001:0029"},"geometry":{"type":"Polygon","coordinates":[[[37.37881,49.10738],[37.379277,49.107338],[37.379171,49.106937],[37.379147,49.106848],[37.378569,49.106764],[37.378578,49.106982],[37.378743,49.107262],[37.37881,49.10738]]]}},{"type":"Feature","properties":{"cadnum":"6322884002:01:001:0043"},"geometry":{"type":"Polygon","coordinates":[[[37.379796,49.107342],[37.380095,49.107318],[37.380273,49.107295],[37.380698,49.107267],[37.380709,49.107071],[37.3801,49.107036],[37.379796,49.107013],[37.379796,49.107342]]]}},{"type":"Feature","properties":{"cadnum":"6322884002:01:001:0224"},"geometry":{"type":"Polygon","coordinates":[[[37.374743,49.105149],[37.375219,49.105031],[37.375149,49.10484],[37.375089,49.104678],[37.37503,49.104559],[37.374627,49.10473],[37.374677,49.10498],[37.374743,49.105149]]]}},{"type":"Feature","properties":{"cadnum":"6322884002:01:001:0215"},"geometry":{"type":"Polygon","coordinates":[[[37.374627,49.10473],[37.37503,49.104559],[37.375329,49.104431],[37.375463,49.104337],[37.375295,49.104157],[37.375244,49.104109],[37.374468,49.104382],[37.374513,49.104473],[37.374627,49.10473]]]}},{"type":"Feature","properties":{"cadnum":"6322884002:01:001:0015"},"geometry":{"type":"Polygon","coordinates":[[[37.3736,49.105659],[37.374124,49.105582],[37.37448,49.105532],[37.374942,49.105463],[37.374875,49.105336],[37.374803,49.105199],[37.374464,49.1053],[37.374022,49.105398],[37.373517,49.105496],[37.3736,49.105659]]]}},{"type":"Feature","properties":{"cadnum":"6322884002:01:001:0039"},"geometry":{"type":"Polygon","coordinates":[[[37.373902,49.106214],[37.374354,49.106178],[37.374233,49.105777],[37.373719,49.105819],[37.373902,49.106214]]]}},{"type":"Feature","properties":{"cadnum":"6322884002:01:001:0038"},"geometry":{"type":"Polygon","coordinates":[[[37.374354,49.106178],[37.374855,49.106137],[37.375128,49.106115],[37.375109,49.106077],[37.375062,49.105954],[37.37505,49.10593],[37.37495,49.105716],[37.374678,49.10574],[37.374233,49.105777],[37.374354,49.106178]]]}}]}