{"type":"FeatureCollection","features":[{"type":"Feature","properties":{"cadnum":"6322887009:01:001:0009"},"geometry":{"type":"Polygon","coordinates":[[[37.20485,49.141793],[37.204673101545254,49.142134],[37.204673,49.142134],[37.20466381873738,49.142151894093466],[37.204615,49.142246],[37.20461553403141,49.142246],[37.204575,49.142325],[37.205286,49.142553],[37.205286,49.142552021505374],[37.205486,49.142616],[37.205542,49.142183],[37.205586,49.141907],[37.205286,49.141860601694916],[37.205286,49.14186],[37.20485,49.141793]]]}},{"type":"Feature","properties":{"cadnum":"6322887009:01:001:0031"},"geometry":{"type":"Polygon","coordinates":[[[37.208212,49.141483],[37.208212,49.141441],[37.20821,49.141409],[37.208208,49.141399],[37.208057,49.141395],[37.207838,49.14139],[37.207841,49.14157],[37.207861,49.142127],[37.2078615,49.142134],[37.207861,49.142134],[37.207866,49.142197],[37.208257,49.142203],[37.208212,49.141483]]]}},{"type":"Feature","properties":{"cadnum":"6322887009:01:001:0012"},"geometry":{"type":"Polygon","coordinates":[[[37.205502,49.140633],[37.205967,49.140557],[37.205919,49.140294],[37.205482,49.140373],[37.205502,49.140633]]]}},{"type":"Feature","properties":{"cadnum":"6322887009:01:001:0008"},"geometry":{"type":"Polygon","coordinates":[[[37.205027,49.141397],[37.20503,49.141445],[37.204964,49.141573],[37.20485,49.141793],[37.205114,49.14183356880734],[37.205114,49.141834],[37.205586,49.141907],[37.205629,49.141632],[37.20566,49.141415],[37.2052,49.141401],[37.205027,49.141397]]]}},{"type":"Feature","properties":{"cadnum":"6322887009:01:001:0030"},"geometry":{"type":"Polygon","coordinates":[[[37.206088,49.1412],[37.206358,49.141133],[37.206222,49.140882],[37.206048,49.13997],[37.205832,49.139994],[37.205919,49.140294],[37.205967,49.140557],[37.206048,49.140985],[37.206088,49.1412]]]}},{"type":"Feature","properties":{"cadnum":"6322887009:01:001:0033"},"geometry":{"type":"Polygon","coordinates":[[[37.207866,49.142197],[37.207861,49.142127],[37.207856,49.141979],[37.207331,49.141964],[37.20734004255319,49.142134],[37.207339,49.142134],[37.20737,49.142697],[37.207886,49.142715],[37.207867891891894,49.142246],[37.207868,49.142246],[37.207866,49.142197]]]}},{"type":"Feature","properties":{"cadnum":"6322887009:01:001:0025"},"geometry":{"type":"Polygon","coordinates":[[[37.208596,49.142073],[37.208574,49.141412],[37.208552,49.141409],[37.208517,49.141408],[37.208495,49.141407],[37.208294,49.14139],[37.208286,49.141491],[37.208354,49.142066],[37.208596,49.142073]]]}},{"type":"Feature","properties":{"cadnum":"6322887009:01:001:0026"},"geometry":{"type":"Polygon","coordinates":[[[37.205482,49.140373],[37.205919,49.140294],[37.20578,49.139809],[37.205369,49.139849],[37.205424,49.140064],[37.205383,49.140083],[37.205482,49.140373]]]}},{"type":"Feature","properties":{"cadnum":"6322887009:01:001:0027"},"geometry":{"type":"Polygon","coordinates":[[[37.207271,49.140794],[37.20786,49.140631],[37.207775,49.140197],[37.207135,49.140269],[37.207202,49.140528],[37.207271,49.140794]]]}},{"type":"Feature","properties":{"cadnum":"6322887009:01:001:0028"},"geometry":{"type":"Polygon","coordinates":[[[37.206358,49.141133],[37.206533,49.141088],[37.206532,49.141082],[37.206284,49.139891],[37.206036,49.139906],[37.206046,49.139956],[37.206222,49.140882],[37.206358,49.141132],[37.206358,49.141133]]]}},{"type":"Feature","properties":{"cadnum":"6322887009:01:001:0011"},"geometry":{"type":"Polygon","coordinates":[[[37.205649,49.141258],[37.206088,49.1412],[37.206048,49.140985],[37.205967,49.140557],[37.205502,49.140633],[37.205533,49.141051],[37.205612,49.141036],[37.205649,49.141258]]]}},{"type":"Feature","properties":{"cadnum":"6322887009:01:001:0034"},"geometry":{"type":"Polygon","coordinates":[[[37.208757,49.140195],[37.208855,49.140165],[37.20915,49.140074],[37.209148,49.140057],[37.20914,49.139863],[37.209151,49.139373],[37.208755,49.139375],[37.208729,49.139841],[37.208757,49.140195]]]}},{"type":"Feature","properties":{"cadnum":"6322887009:01:001:0005"},"geometry":{"type":"Polygon","coordinates":[[[37.208764,49.142081],[37.208856,49.14142],[37.208574,49.141412],[37.208596,49.142073],[37.208764,49.142081]]]}},{"type":"Feature","properties":{"cadnum":"6322887009:01:001:0032"},"geometry":{"type":"Polygon","coordinates":[[[37.207856,49.141979],[37.207841,49.14157],[37.207838,49.14139],[37.20731,49.141379],[37.207322,49.141569],[37.207318,49.141706],[37.207331,49.141964],[37.207856,49.141979]]]}},{"type":"Feature","properties":{"cadnum":"6322887009:01:001:0001"},"geometry":{"type":"Polygon","coordinates":[[[37.204853,49.141108],[37.20485,49.140749],[37.204687,49.14075],[37.204696,49.140617],[37.204166,49.140614],[37.204168,49.141086],[37.204853,49.141108]]]}},{"type":"Feature","properties":{"cadnum":"6322887009:01:001:0029"},"geometry":{"type":"Polygon","coordinates":[[[37.203855,49.141696],[37.204025,49.141353],[37.203718,49.141299],[37.203565,49.141639],[37.203855,49.141696]]]}},{"type":"Feature","properties":{"cadnum":"6322887009:01:001:0007"},"geometry":{"type":"Polygon","coordinates":[[[37.202395,49.141742],[37.202817,49.14125],[37.202926,49.141122],[37.202597,49.140998],[37.202474,49.141066],[37.202455,49.14109],[37.202431,49.141122],[37.202397,49.141165],[37.202244,49.141373],[37.202049,49.141592],[37.202395,49.141742]]]}},{"type":"Feature","properties":{"cadnum":"6322887009:01:001:0010"},"geometry":{"type":"Polygon","coordinates":[[[37.202611,49.141851],[37.203136,49.141199],[37.202926,49.141122],[37.202817,49.14125],[37.202395,49.141742],[37.202611,49.141851]]]}}]}