{"type":"FeatureCollection","features":[{"type":"Feature","properties":{"cadnum":"6322880801:01:001:0012"},"geometry":{"type":"Polygon","coordinates":[[[37.208624,49.044083],[37.209417,49.043801],[37.209273,49.043562],[37.208471,49.043831],[37.208624,49.044083]]]}},{"type":"Feature","properties":{"cadnum":"6322880801:01:001:0011"},"geometry":{"type":"Polygon","coordinates":[[[37.209417,49.043801],[37.209836,49.043652],[37.210354,49.043467],[37.210628,49.043398],[37.21052,49.043228],[37.210036,49.04334],[37.209988,49.043322],[37.209273,49.043562],[37.209417,49.043801]]]}},{"type":"Feature","properties":{"cadnum":"6322880801:01:001:0017"},"geometry":{"type":"Polygon","coordinates":[[[37.211324,49.043239],[37.212501,49.042897],[37.212411,49.042767],[37.211231,49.043071],[37.210779,49.043174146567715],[37.210779,49.043174],[37.210692,49.043194],[37.210779,49.043347],[37.210779,49.04334468041238],[37.210789,49.043362],[37.211324,49.043239]]]}},{"type":"Feature","properties":{"cadnum":"6322880801:01:001:0007"},"geometry":{"type":"Polygon","coordinates":[[[37.21568711811023,49.048614],[37.215686,49.048614],[37.21561,49.048673],[37.215661,49.048726],[37.21566126229508,49.048726],[37.216023,49.0491],[37.216101,49.049028891566266],[37.216101,49.04903],[37.216258714286305,49.048885111875535],[37.216272,49.048873],[37.216272,49.048872906626514],[37.216431911475404,49.048726],[37.216432,49.048726],[37.216433,49.048725],[37.216109,49.048376],[37.216101,49.04838],[37.216101,49.04838008408408],[37.215776,49.048546],[37.21568711811023,49.048614]]]}},{"type":"Feature","properties":{"cadnum":"6322880801:01:001:0001"},"geometry":{"type":"Polygon","coordinates":[[[37.216429,49.04533],[37.216647,49.045303],[37.216628,49.045219],[37.216471,49.045116],[37.216374,49.045139],[37.216429,49.04533]]]}},{"type":"Feature","properties":{"cadnum":"6322880801:01:001:0043"},"geometry":{"type":"Polygon","coordinates":[[[37.216272,49.04694897727273],[37.216629,49.047141],[37.217391,49.047345],[37.217454,49.047297],[37.216934,49.047006],[37.217148,49.04684],[37.216813,49.046652],[37.216271,49.046259],[37.215896,49.04604],[37.215756,49.046204],[37.215747,49.046603],[37.215956,49.046778],[37.216101,49.046856465189876],[37.216101,49.046857],[37.216265029412625,49.04694522794164],[37.216272,49.046949],[37.216272,49.04694897727273]]]}},{"type":"Feature","properties":{"cadnum":"6322880801:01:001:0041"},"geometry":{"type":"Polygon","coordinates":[[[37.216272,49.04618282889734],[37.216364,49.046236],[37.216938,49.0462],[37.21717,49.046437],[37.217318,49.046517],[37.217784,49.046603],[37.217789,49.04682],[37.218531,49.046785],[37.218857,49.046792],[37.218999,49.046349],[37.218106,49.0461],[37.21731,49.046049],[37.216272,49.0460052133995],[37.216272,49.046005],[37.215941,49.045991],[37.216101,49.04608380966768],[37.216101,49.046084],[37.216191048912556,49.04613604347798],[37.216272,49.046183],[37.216272,49.04618282889734]]]}},{"type":"Feature","properties":{"cadnum":"6322880801:01:001:0042"},"geometry":{"type":"Polygon","coordinates":[[[37.215598,49.048473],[37.215603,49.048203],[37.215867,49.04804],[37.215413,49.047462],[37.215307,49.047407],[37.21486,49.047852],[37.214368,49.048407],[37.21447931132075,49.048614],[37.214478,49.048614],[37.214482,49.048619],[37.214479,49.048726],[37.214479786206894,49.048726],[37.214479,49.048764],[37.214569,49.048914],[37.21469,49.049045],[37.215021,49.048949],[37.215283,49.048749],[37.215437,49.048614],[37.21543637944664,49.048614],[37.215598,49.048473]]]}},{"type":"Feature","properties":{"cadnum":"6322880801:01:001:0005"},"geometry":{"type":"Polygon","coordinates":[[[37.212595,49.045846],[37.212572,49.045748],[37.213038,49.045629],[37.212568,49.045056],[37.212595,49.045332],[37.21234,49.045371],[37.212401,49.045457],[37.212448,49.045525],[37.212379,49.045541],[37.212335,49.045476],[37.212166,49.045521],[37.212312,49.045874],[37.212595,49.045846]]]}},{"type":"Feature","properties":{"cadnum":"6322880801:01:001:0006"},"geometry":{"type":"Polygon","coordinates":[[[37.212568,49.045056],[37.212625,49.045126],[37.21262541710296,49.045126],[37.213038,49.045629],[37.213027,49.045315],[37.212905,49.045167],[37.212791,49.0451],[37.212568,49.045056]]]}},{"type":"Feature","properties":{"cadnum":"6322880801:01:001:0039"},"geometry":{"type":"Polygon","coordinates":[[[37.218979,49.041367],[37.219137,49.041306],[37.219164,49.04115],[37.219144,49.040896],[37.21898,49.040647],[37.218804,49.040406],[37.218698,49.040348],[37.218558,49.040242],[37.218371,49.040165],[37.218214,49.040319],[37.218177,49.040415],[37.21833,49.040543],[37.218319,49.040581],[37.218112,49.040755],[37.218558,49.041083],[37.218979,49.041367]]]}},{"type":"Feature","properties":{"cadnum":"6322880801:01:001:0030"},"geometry":{"type":"Polygon","coordinates":[[[37.221263,49.041406],[37.220648,49.041525],[37.220649,49.041525],[37.220317,49.041589],[37.220454,49.041992],[37.2212,49.0418],[37.221483,49.041736],[37.221341897832815,49.041525],[37.221342,49.041525],[37.221263,49.041406]]]}},{"type":"Feature","properties":{"cadnum":"6322880801:01:001:0013"},"geometry":{"type":"Polygon","coordinates":[[[37.21617237236821,49.043857534210545],[37.216272,49.043849],[37.216272,49.0438485087108],[37.216388,49.043838],[37.216392,49.043695],[37.216101,49.043721],[37.216101,49.043721132743364],[37.216046,49.043726],[37.216046,49.043749],[37.215167,49.043842],[37.215198,49.043941],[37.216101,49.04386364804469],[37.216101,49.043864],[37.21617237236821,49.043857534210545]]]}},{"type":"Feature","properties":{"cadnum":"6322880801:01:001:0014"},"geometry":{"type":"Polygon","coordinates":[[[37.216392,49.043695],[37.216401,49.043293],[37.216272,49.0433274],[37.216272,49.043327],[37.215509,49.04353],[37.215454,49.043811],[37.216046,49.043749],[37.216046,49.043726],[37.216272,49.043706],[37.216272,49.04370572164948],[37.216392,49.043695]]]}},{"type":"Feature","properties":{"cadnum":"6322880801:01:001:0018"},"geometry":{"type":"Polygon","coordinates":[[[37.212501,49.042897],[37.212992,49.042755],[37.212862,49.042651],[37.212411,49.042767],[37.212501,49.042897]]]}},{"type":"Feature","properties":{"cadnum":"6322880801:01:001:0008"},"geometry":{"type":"Polygon","coordinates":[[[37.215665,49.049426],[37.216023,49.0491],[37.21561,49.048673],[37.215205,49.048983],[37.215665,49.049426]]]}},{"type":"Feature","properties":{"cadnum":"6322880801:01:001:0038"},"geometry":{"type":"Polygon","coordinates":[[[37.218285,49.043991],[37.218566,49.043985],[37.219208,49.043902],[37.219584,49.043872],[37.219565,49.043771],[37.219471,49.043251],[37.218428,49.043426],[37.218067,49.043503],[37.218181,49.043701],[37.218229,49.043866],[37.218285,49.043991]]]}},{"type":"Feature","properties":{"cadnum":"6322880801:01:001:0010"},"geometry":{"type":"Polygon","coordinates":[[[37.21837,49.043211],[37.219022,49.043151],[37.218666,49.042593],[37.217892,49.042842],[37.21837,49.043211]]]}},{"type":"Feature","properties":{"cadnum":"6322880801:01:001:0019"},"geometry":{"type":"Polygon","coordinates":[[[37.216519,49.04357],[37.217077,49.043416],[37.217021,49.042787],[37.216642,49.042911],[37.216569,49.043128],[37.216519,49.04357]]]}},{"type":"Feature","properties":{"cadnum":"6322880801:01:001:0009"},"geometry":{"type":"Polygon","coordinates":[[[37.217892,49.042842],[37.218666,49.042593],[37.218469,49.042282],[37.217569,49.042592],[37.217892,49.042842]]]}},{"type":"Feature","properties":{"cadnum":"6322880801:01:001:0015"},"geometry":{"type":"Polygon","coordinates":[[[37.220162,49.042347],[37.221415,49.042166],[37.2212,49.0418],[37.220454,49.041992],[37.220139,49.042134],[37.220162,49.042347]]]}},{"type":"Feature","properties":{"cadnum":"6322880801:01:001:0044"},"geometry":{"type":"Polygon","coordinates":[[[37.217795,49.050436],[37.217984,49.050304],[37.218037,49.050266],[37.219555,49.049208],[37.218784,49.04887],[37.217852,49.049616],[37.218311,49.049998],[37.21802,49.05014],[37.218028,49.050169],[37.218005,49.050178],[37.217942,49.050201],[37.217699,49.050294],[37.217729,49.050337],[37.217795,49.050436]]]}}]}