{"type":"FeatureCollection","features":[{"type":"Feature","properties":{"cadnum":"6322883002:01:001:0153"},"geometry":{"type":"Polygon","coordinates":[[[37.115077,49.122548],[37.115625,49.122411],[37.115596,49.122222],[37.115327,49.121955],[37.114763,49.122165],[37.115077,49.122548]]]}},{"type":"Feature","properties":{"cadnum":"6322883002:01:001:0154"},"geometry":{"type":"Polygon","coordinates":[[[37.110576,49.122835],[37.111297,49.122632],[37.111092,49.122231],[37.110399,49.122491],[37.110576,49.122835]]]}},{"type":"Feature","properties":{"cadnum":"6322883002:01:001:0155"},"geometry":{"type":"Polygon","coordinates":[[[37.107678,49.122438],[37.108092,49.122422],[37.108991,49.122385],[37.109836,49.122351],[37.110246,49.122334],[37.110249,49.122334],[37.110246,49.12233],[37.110179,49.122194],[37.108532,49.122286],[37.108382,49.121634],[37.109618,49.121478],[37.109684,49.121254],[37.109562,49.121011],[37.107904,49.12124],[37.10753,49.121266],[37.107678,49.122438]]]}}]}