{"type":"FeatureCollection","features":[{"type":"Feature","properties":{"cadnum":"6323783007:00:001:0011"},"geometry":{"type":"Polygon","coordinates":[[[37.56639883333214,49.70675233333377],[37.566639,49.706665],[37.56663807746479,49.706665],[37.566723,49.706634],[37.566504,49.706349],[37.566003,49.706333],[37.565743,49.706325],[37.566016,49.706776],[37.56601683333333,49.706776],[37.566026,49.706791],[37.566287,49.706793],[37.566333750000005,49.706776],[37.566334,49.706776],[37.56639883333214,49.70675233333377]]]}},{"type":"Feature","properties":{"cadnum":"6323783007:00:001:0014"},"geometry":{"type":"Polygon","coordinates":[[[37.564812,49.706739],[37.564609,49.706303],[37.564125,49.706416],[37.563934,49.706484],[37.56407160958904,49.706665],[37.56407,49.706665],[37.564246,49.706894],[37.56467689032259,49.706776],[37.564678,49.706776],[37.564812,49.706739]]]}},{"type":"Feature","properties":{"cadnum":"6323783007:00:001:0013"},"geometry":{"type":"Polygon","coordinates":[[[37.556849,49.704795],[37.556849,49.704794425],[37.557284,49.704611],[37.557126,49.704421],[37.557534,49.704262],[37.557443,49.70408],[37.557602,49.703882],[37.556849,49.70367523027027],[37.556849,49.703675],[37.555816,49.703391],[37.555254,49.703391],[37.555296,49.703542],[37.555861,49.703983],[37.556312,49.704494],[37.556677,49.70485703763441],[37.556677,49.704858],[37.556684,49.704864],[37.556849,49.704795]]]}},{"type":"Feature","properties":{"cadnum":"6323783007:00:004:0013"},"geometry":{"type":"Polygon","coordinates":[[[37.558616,49.704235],[37.558832,49.704198],[37.559072,49.704131],[37.55878,49.703754],[37.558825,49.703738],[37.558718,49.70359],[37.558157,49.703783],[37.558242,49.703908],[37.558439,49.704052],[37.558616,49.704235]]]}},{"type":"Feature","properties":{"cadnum":"6323783007:00:001:0010"},"geometry":{"type":"Polygon","coordinates":[[[37.562296,49.706013],[37.56217,49.705922],[37.56217,49.70592234841629],[37.562075,49.705854],[37.561729,49.705645],[37.561352,49.705698],[37.561265,49.705719],[37.56138,49.705947],[37.561509,49.706148],[37.561524,49.706173],[37.562296,49.706013]]]}},{"type":"Feature","properties":{"cadnum":"6323783007:00:001:0008"},"geometry":{"type":"Polygon","coordinates":[[[37.56375,49.705426],[37.564231,49.705319],[37.56416,49.705116],[37.56359,49.705259],[37.56375,49.705426]]]}},{"type":"Feature","properties":{"cadnum":"6323783007:00:001:0007"},"geometry":{"type":"Polygon","coordinates":[[[37.566767,49.705963],[37.567128,49.705671],[37.567402,49.705427],[37.567352,49.705401],[37.567124,49.705309],[37.566986,49.705454],[37.566928,49.705523],[37.566561,49.705868],[37.566767,49.705963]]]}},{"type":"Feature","properties":{"cadnum":"6323783007:00:001:0009"},"geometry":{"type":"Polygon","coordinates":[[[37.56359,49.705259],[37.56416,49.705116],[37.564099,49.704937],[37.56392,49.704667],[37.563617,49.704666],[37.563561,49.704746],[37.563368,49.705024],[37.563403,49.705059],[37.56359,49.705259]]]}},{"type":"Feature","properties":{"cadnum":"6323783007:00:001:0012"},"geometry":{"type":"Polygon","coordinates":[[[37.556075,49.70307],[37.556307,49.702966],[37.556343,49.702945],[37.55636,49.702894],[37.556505,49.702442],[37.55603,49.702385],[37.555802,49.703038],[37.556075,49.70307]]]}}]}