{"type":"FeatureCollection","features":[{"type":"Feature","properties":{"cadnum":"6323986000:01:000:0257"},"geometry":{"type":"Polygon","coordinates":[[[36.562586,49.050797],[36.560457,49.05066],[36.560213,49.051784],[36.562414,49.05192591024021],[36.562414,49.051926],[36.566069,49.05216],[36.566266,49.051034],[36.562586,49.05079802907581],[36.562586,49.050797]]]}},{"type":"Feature","properties":{"cadnum":"6323986000:02:000:0696"},"geometry":{"type":"Polygon","coordinates":[[[36.560197,49.051094],[36.560526,49.049548],[36.559795,49.049555],[36.55896526154401,49.052214],[36.558965,49.052214],[36.558388,49.054067],[36.559566,49.05421],[36.559619,49.054052],[36.55995499020675,49.052327],[36.559956,49.052327],[36.560197,49.051094]]]}},{"type":"Feature","properties":{"cadnum":"6323986000:02:000:0794"},"geometry":{"type":"Polygon","coordinates":[[[36.560677,49.049648],[36.560703,49.049535],[36.560526,49.049548],[36.560197,49.051094],[36.55997808678021,49.052214],[36.559977,49.052214],[36.559619,49.054052],[36.559566,49.05421],[36.559503,49.054341],[36.55947,49.054525],[36.55924,49.055599],[36.559193318042816,49.055814],[36.559193,49.055814],[36.55916919579478,49.055925098240934],[36.559169,49.055926],[36.55916900258148,49.055926],[36.558529,49.058913],[36.55852,49.058957],[36.55842040773287,49.059414],[36.55842,49.059414],[36.557648023713284,49.063013],[36.557648,49.063013],[36.557345,49.064424],[36.557309,49.064473],[36.55704833288493,49.0656842958981],[36.55684746672013,49.066612],[36.556847,49.066612],[36.55682419591123,49.06671947666182],[36.556823,49.066725],[36.55682302398524,49.066725],[36.556732,49.067154],[36.556496,49.068247],[36.556275,49.069277],[36.556073286591605,49.070211],[36.556072,49.070211],[36.556064,49.070254],[36.556048,49.070324],[36.55604886486486,49.070324],[36.555864,49.071179],[36.555675,49.07206],[36.555494,49.072902],[36.55532,49.07371],[36.55529783018868,49.07381],[36.555297,49.07381],[36.555273812095116,49.07391833693268],[36.555273,49.073922],[36.555273028070175,49.073922],[36.555053,49.07495],[36.555172,49.074967],[36.555388,49.073993],[36.5554259310345,49.073819465517175],[36.555613,49.072983],[36.55584,49.071966],[36.556067,49.07096],[36.55620880507343,49.070324],[36.556209,49.070324],[36.556293,49.069949],[36.55652,49.068936],[36.556748,49.067919],[36.556921,49.067146165938865],[36.556921,49.067147],[36.556977,49.066896],[36.55701493309859,49.066725],[36.557015,49.066725],[36.557093,49.066383],[36.557093,49.06637905181346],[36.557208,49.065869],[36.557439,49.064837],[36.557525,49.064458],[36.557668,49.063798],[36.55781288789809,49.063125],[36.557813,49.063125],[36.557895,49.062752],[36.558123,49.061698],[36.558353,49.060638],[36.558585,49.059569],[36.558619,49.059414],[36.55861758536586,49.059414],[36.558791,49.058624],[36.558817,49.058493],[36.559039,49.05741],[36.55926,49.056321],[36.55935982378845,49.05582963436169],[36.559484,49.055226],[36.559717,49.054083],[36.55976,49.053874],[36.559968,49.052913],[36.56012,49.052214],[36.560119556169425,49.052214],[36.560213,49.051784],[36.560457,49.05066],[36.560677,49.049648]]]}},{"type":"Feature","properties":{"cadnum":"6323986000:02:000:0260"},"geometry":{"type":"Polygon","coordinates":[[[36.56077,49.049541],[36.560703,49.049535],[36.560677,49.049648],[36.560457,49.05066],[36.562414,49.05078593189291],[36.562414,49.050787],[36.566266,49.051034],[36.566467,49.049887],[36.562414,49.049641],[36.562414,49.04964148678414],[36.56077,49.049541]]]}},{"type":"Feature","properties":{"cadnum":"6323986000:01:000:0255"},"geometry":{"type":"Polygon","coordinates":[[[36.560213,49.051784],[36.560095,49.052327],[36.56009542775393,49.052327],[36.559968,49.052913],[36.562414,49.053069962566845],[36.562414,49.05307],[36.56587,49.053292],[36.566038293135435,49.052327],[36.566039,49.052327],[36.566069,49.05216],[36.562586,49.05193701176471],[36.562586,49.051937],[36.560213,49.051784]]]}},{"type":"Feature","properties":{"cadnum":"6323986000:02:000:0175"},"geometry":{"type":"Polygon","coordinates":[[[36.547405,49.062058],[36.547256,49.062002],[36.545935,49.061509],[36.545935,49.063013],[36.545935,49.063125],[36.545935,49.063513],[36.546439,49.063013],[36.546438364573575,49.063013],[36.547405,49.062058]]]}},{"type":"Feature","properties":{"cadnum":"6323986000:02:000:0578"},"geometry":{"type":"Polygon","coordinates":[[[36.548607,49.062506],[36.547405,49.062058],[36.546325,49.063125],[36.546326104,49.063125],[36.545935,49.063513],[36.545935,49.064344],[36.546932,49.064274],[36.548019950832675,49.063125],[36.54802,49.063125],[36.548607,49.062506]]]}},{"type":"Feature","properties":{"cadnum":"6323986000:02:000:0177"},"geometry":{"type":"Polygon","coordinates":[[[36.551677,49.058754],[36.552039282608696,49.059414],[36.552038,49.059414],[36.552081,49.05949],[36.552057,49.059526],[36.55205813229572,49.059526],[36.551428,49.060518],[36.551428,49.06051815217391],[36.551416,49.060537],[36.551295,49.061748],[36.551428,49.06219769262295],[36.551428,49.062198],[36.551539,49.062573],[36.551402,49.063125],[36.551403370044056,49.063125],[36.551207,49.063921],[36.551428,49.06393899491094],[36.551428,49.063939],[36.55145191303749,49.063940942028495],[36.5516,49.063953],[36.5516,49.06395296848485],[36.552253,49.064006],[36.552481,49.063013],[36.55247974400431,49.063013],[36.553307,49.059414],[36.55330697777778,49.059414],[36.553448,49.058806],[36.551677,49.058754]]]}},{"type":"Feature","properties":{"cadnum":"6323986000:02:000:0208"},"geometry":{"type":"Polygon","coordinates":[[[36.55067,49.058623],[36.549757,49.059526],[36.549757831530144,49.059526],[36.547256,49.062002],[36.547405,49.062058],[36.54996568884723,49.063013],[36.549965,49.063013],[36.550411,49.063179],[36.55041685542169,49.063125],[36.550417,49.063125],[36.550452,49.062811],[36.550309,49.060407],[36.550883,49.059453],[36.550873,49.059414],[36.550872991566266,49.059414],[36.55067,49.058623]]]}},{"type":"Feature","properties":{"cadnum":"6323986000:02:000:0579"},"geometry":{"type":"Polygon","coordinates":[[[36.548607,49.062506],[36.54812621001616,49.063013],[36.548126,49.063013],[36.546932,49.064274],[36.550139,49.064051],[36.550409,49.063212],[36.550411,49.063179],[36.549966,49.063013],[36.549965825525035,49.063013],[36.548607,49.062506]]]}},{"type":"Feature","properties":{"cadnum":"6323986000:02:000:0147"},"geometry":{"type":"Polygon","coordinates":[[[36.547852,49.064601],[36.545935,49.06471],[36.545935,49.066612],[36.545935,49.066725],[36.545935,49.067613],[36.545944,49.067614],[36.546578,49.066612],[36.546577609227874,49.066612],[36.547852,49.064601]]]}},{"type":"Feature","properties":{"cadnum":"6323986000:02:000:0156"},"geometry":{"type":"Polygon","coordinates":[[[36.55079969944342,49.066612],[36.550799,49.066612],[36.550422,49.067209],[36.5516,49.067411],[36.5516,49.06741039068666],[36.556496,49.068247],[36.556732,49.067154],[36.553771,49.066648],[36.551428,49.066247],[36.551428,49.066247467924526],[36.55107,49.066186],[36.55079969944342,49.066612]]]}},{"type":"Feature","properties":{"cadnum":"6323986000:02:000:0149"},"geometry":{"type":"Polygon","coordinates":[[[36.552338,49.064066],[36.552097,49.064045],[36.551428,49.064467],[36.551428,49.06446736717664],[36.550881,49.064812],[36.550512,49.06487],[36.549954,49.06479],[36.54879959586563,49.066612],[36.548799,49.066612],[36.547949,49.067956],[36.549687,49.068253],[36.549746,49.06816],[36.550356,49.067197],[36.55065372307693,49.066725],[36.550654,49.066725],[36.551003,49.066175],[36.5516,49.065233],[36.5516,49.0652322021978],[36.552338,49.064066]]]}},{"type":"Feature","properties":{"cadnum":"6323986000:02:000:0159"},"geometry":{"type":"Polygon","coordinates":[[[36.555254,49.064305],[36.55241,49.064071],[36.551428,49.065621],[36.551428,49.06562130566038],[36.55107,49.066186],[36.5516,49.066277],[36.5516,49.06627643747332],[36.553771,49.066648],[36.555254,49.064305]]]}},{"type":"Feature","properties":{"cadnum":"6323986000:02:000:0148"},"geometry":{"type":"Polygon","coordinates":[[[36.549954,49.06479],[36.548412,49.064569],[36.547852,49.064601],[36.546506,49.066725],[36.546506500998,49.066725],[36.545944,49.067614],[36.547949,49.067956],[36.548727534226195,49.066725],[36.548728,49.066725],[36.549954,49.06479]]]}},{"type":"Feature","properties":{"cadnum":"6323986000:02:000:0195"},"geometry":{"type":"Polygon","coordinates":[[[36.57074,49.061823],[36.570598,49.062763],[36.570564160221,49.063013],[36.570564,49.063013],[36.570559211009126,49.06304956356525],[36.570549,49.063125],[36.57054933056133,49.063125],[36.570501,49.063494],[36.5734,49.06367902246825],[36.5734,49.06368],[36.574443,49.063746],[36.57453536774186,49.06308866451664],[36.574569,49.062861],[36.574684,49.062076],[36.573572,49.062005850467294],[36.573572,49.062005],[36.57074,49.061823]]]}},{"type":"Feature","properties":{"cadnum":"6323986000:02:000:0235"},"geometry":{"type":"Polygon","coordinates":[[[36.571249,49.058477],[36.571197,49.058817],[36.571088,49.059526],[36.571089154471544,49.059526],[36.570995,49.060152],[36.573572,49.060318],[36.573572,49.06031702419882],[36.574929,49.060404],[36.5750575959596,49.059526],[36.575058,49.059526],[36.575176,49.058729],[36.573572,49.058626943693696],[36.573572,49.058626],[36.571249,49.058477]]]}},{"type":"Feature","properties":{"cadnum":"6323986000:02:000:0200"},"geometry":{"type":"Polygon","coordinates":[[[36.570995,49.060152],[36.57074,49.061823],[36.5734,49.06199394632768],[36.5734,49.061995],[36.574684,49.062076],[36.574929,49.060404],[36.5734,49.060306],[36.5734,49.06030692045014],[36.570995,49.060152]]]}},{"type":"Feature","properties":{"cadnum":"6323986000:02:000:0182"},"geometry":{"type":"Polygon","coordinates":[[[36.557093,49.06794105172109],[36.562414,49.068282948278906],[36.562414,49.068283],[36.56249924964295,49.068288425925864],[36.562586,49.068294],[36.562586,49.068293947368424],[36.563231,49.068335],[36.563411,49.06731],[36.562586,49.06725786860582],[36.562586,49.067257],[36.556977,49.066896],[36.556748,49.067919],[36.557093,49.067942],[36.557093,49.06794105172109]]]}},{"type":"Feature","properties":{"cadnum":"6323986000:02:000:0157"},"geometry":{"type":"Polygon","coordinates":[[[36.55652,49.068936],[36.556293,49.069949],[36.556921,49.069989819999996],[36.556921,49.06999],[36.56212,49.070324],[36.56213343661971,49.070324],[36.562414,49.07034197833935],[36.562414,49.070343],[36.562874,49.070372],[36.562902,49.070211],[36.56290196177686,49.070211],[36.563053,49.069356],[36.562586,49.06932676682316],[36.562586,49.069326],[36.557093,49.06897402135922],[36.557093,49.068973],[36.55652,49.068936]]]}},{"type":"Feature","properties":{"cadnum":"6323986000:02:000:0154"},"geometry":{"type":"Polygon","coordinates":[[[36.556293,49.069949],[36.556234312,49.070211],[36.556234,49.070211],[36.556067,49.07096],[36.556921,49.071014103313836],[36.556921,49.071015],[36.562414,49.07136697864078],[36.562414,49.071367],[36.562500166661756,49.07137249999969],[36.562586,49.071378],[36.562586,49.071377978723405],[36.562696,49.071385],[36.562874,49.070372],[36.562586,49.07035384347826],[36.562586,49.070353],[36.56037,49.070211],[36.560361056886244,49.070211],[36.557093,49.07000104981727],[36.557093,49.070001],[36.556293,49.069949]]]}},{"type":"Feature","properties":{"cadnum":"6323986000:02:000:0161"},"geometry":{"type":"Polygon","coordinates":[[[36.556748,49.067919],[36.55652,49.068936],[36.556921,49.068961893542756],[36.556921,49.068963],[36.562414,49.069314978640776],[36.562414,49.069316],[36.563053,49.069356],[36.563231,49.068335],[36.56249924964295,49.068288425925864],[36.556921,49.06793],[36.556921,49.06793053333334],[36.556748,49.067919]]]}},{"type":"Feature","properties":{"cadnum":"6323986000:02:000:0185"},"geometry":{"type":"Polygon","coordinates":[[[36.55704047780374,49.066612],[36.55704,49.066612],[36.556977,49.066896],[36.557093,49.066904],[36.557093,49.06690346585844],[36.562414,49.06724592993403],[36.562414,49.067247],[36.563411,49.06731],[36.563531830136945,49.06661869315092],[36.563592,49.066279],[36.56251239830101,49.06621026474752],[36.557208,49.065869],[36.55704047780374,49.066612]]]}},{"type":"Feature","properties":{"cadnum":"6323986000:02:000:0142"},"geometry":{"type":"Polygon","coordinates":[[[36.549234,49.069086],[36.548687,49.069952],[36.550859,49.070324],[36.5508629790795,49.070324],[36.551428,49.07042059513591],[36.551428,49.070421],[36.555864,49.071179],[36.556064,49.070254],[36.5516,49.069491383951686],[36.5516,49.069491],[36.549234,49.069086]]]}},{"type":"Feature","properties":{"cadnum":"6323986000:02:000:0150"},"geometry":{"type":"Polygon","coordinates":[[[36.5516,49.068478],[36.549813,49.068172],[36.549234,49.069086],[36.551428,49.06946155790364],[36.551428,49.069462],[36.556064,49.070254],[36.556275,49.069277],[36.5516,49.06847838229833],[36.5516,49.068478]]]}},{"type":"Feature","properties":{"cadnum":"6323986000:02:000:0153"},"geometry":{"type":"Polygon","coordinates":[[[36.550422,49.067209],[36.549813,49.068172],[36.551428,49.06844854728595],[36.551428,49.068449],[36.556275,49.069277],[36.556496,49.068247],[36.551428,49.067381],[36.551428,49.06738150594227],[36.550422,49.067209]]]}},{"type":"Feature","properties":{"cadnum":"6323986000:02:000:0160"},"geometry":{"type":"Polygon","coordinates":[[[36.55704833288498,49.065684295897874],[36.557093,49.065478],[36.557093,49.06547673195875],[36.557309,49.064473],[36.55697653388218,49.064446436985435],[36.555254,49.064305],[36.553771,49.066648],[36.554217,49.066725],[36.5542215869565,49.066725],[36.556732,49.067154],[36.55682419591123,49.06671947666182],[36.556921,49.06627238518517],[36.556921,49.066276],[36.55704833288498,49.065684295897874]]]}},{"type":"Feature","properties":{"cadnum":"6323986000:02:000:0237"},"geometry":{"type":"Polygon","coordinates":[[[36.568079,49.05914504642234],[36.570772,49.059318],[36.570938,49.058161],[36.568079,49.05797800890795],[36.568079,49.057978],[36.56515,49.05779],[36.565147,49.057802],[36.564958,49.058887],[36.564948,49.058944],[36.568079,49.059146],[36.568079,49.05914504642234]]]}},{"type":"Feature","properties":{"cadnum":"6323986000:02:000:0244"},"geometry":{"type":"Polygon","coordinates":[[[36.559484,49.055226],[36.55936304,49.055814],[36.559363,49.055814],[36.55935982378845,49.05582963436169],[36.55934,49.055926],[36.559340246548324,49.055926],[36.55926,49.056321],[36.562414,49.05652393325315],[36.562414,49.056524],[36.565271,49.056707],[36.565428,49.055814],[36.565427848101265,49.055814],[36.565464,49.05561],[36.562586,49.05542599672132],[36.562586,49.055425],[36.559484,49.055226]]]}},{"type":"Feature","properties":{"cadnum":"6323986000:02:000:0241"},"geometry":{"type":"Polygon","coordinates":[[[36.562586,49.056535],[36.55926,49.056321],[36.559039,49.05741],[36.562414,49.05762599238793],[36.562414,49.057627],[36.56508,49.057797],[36.565271,49.056707],[36.562586,49.056535017150864],[36.562586,49.056535]]]}},{"type":"Feature","properties":{"cadnum":"6323986000:02:000:0238"},"geometry":{"type":"Polygon","coordinates":[[[36.562586,49.057637],[36.559039,49.05741],[36.558817,49.058493],[36.562414,49.058723956221804],[36.562414,49.058724],[36.56489,49.058883],[36.56508,49.057797],[36.562586,49.05763796774193],[36.562586,49.057637]]]}},{"type":"Feature","properties":{"cadnum":"6323986000:02:000:0236"},"geometry":{"type":"Polygon","coordinates":[[[36.558817,49.058493],[36.558791,49.058624],[36.558593,49.059526],[36.55859443225807,49.059526],[36.558585,49.059569],[36.562586,49.059827],[36.562586,49.05982605553127],[36.564701,49.059962],[36.564796,49.059414],[36.56479585692069,49.059414],[36.56489,49.058883],[36.562586,49.05873504523425],[36.562586,49.058735],[36.558817,49.058493]]]}},{"type":"Feature","properties":{"cadnum":"6323986000:02:000:0242"},"geometry":{"type":"Polygon","coordinates":[[[36.565558,49.055467],[36.565532,49.055614],[36.56549674358974,49.055814],[36.565496,49.055814],[36.565354,49.056629],[36.567907,49.05679295412844],[36.567907,49.056793],[36.571105,49.056998],[36.571261,49.055905],[36.571272,49.055833],[36.568079,49.055628989598816],[36.568079,49.055628],[36.565558,49.055467]]]}},{"type":"Feature","properties":{"cadnum":"6323986000:02:000:0239"},"geometry":{"type":"Polygon","coordinates":[[[36.568079,49.056804],[36.565354,49.056629],[36.565339,49.056711],[36.56515,49.05779],[36.567907,49.05796696005462],[36.567907,49.057967],[36.570938,49.058161],[36.571105,49.056998],[36.568079,49.05680402564102],[36.568079,49.056804]]]}},{"type":"Feature","properties":{"cadnum":"6323986000:02:000:0234"},"geometry":{"type":"Polygon","coordinates":[[[36.564864013745705,49.059414],[36.564864,49.059414],[36.564863499999966,49.05941687500021],[36.564844,49.059526],[36.56484452173913,49.059526],[36.564768,49.059966],[36.564746,49.060088],[36.568079,49.060303],[36.568079,49.06030208034061],[36.570608,49.060465],[36.570743497168074,49.05950924480777],[36.570772,49.059318],[36.567907,49.059134],[36.567907,49.059134903225804],[36.564948,49.058944],[36.564864013745705,49.059414]]]}},{"type":"Feature","properties":{"cadnum":"6323986000:02:000:0249"},"geometry":{"type":"Polygon","coordinates":[[[36.572166844375964,49.052214],[36.572165,49.052214],[36.572002,49.053386],[36.5734,49.05347682547771],[36.5734,49.053477],[36.57355107124054,49.05348664029716],[36.573572,49.053488],[36.573572,49.053487975822435],[36.575923,49.053638],[36.57611541502809,49.052327],[36.576116,49.052327],[36.576175,49.05193],[36.57353874999914,49.05176184999994],[36.572242,49.051678],[36.572166844375964,49.052214]]]}},{"type":"Feature","properties":{"cadnum":"6323986000:02:000:0258"},"geometry":{"type":"Polygon","coordinates":[[[36.566374,49.050806],[36.566334,49.051038],[36.566169,49.051979],[36.567907,49.05209092356021],[36.567907,49.052091],[36.571583,49.052327],[36.57158767460314,49.052327],[36.57179,49.05234],[36.57179921532214,49.05227169820062],[36.57194,49.051324],[36.571963,49.051165],[36.567907,49.050904],[36.567907,49.050904903225806],[36.566374,49.050806]]]}},{"type":"Feature","properties":{"cadnum":"6323986000:02:000:0246"},"geometry":{"type":"Polygon","coordinates":[[[36.573572,49.055220981946285],[36.575671,49.055355],[36.575923,49.053638],[36.57355107124054,49.05348664029716],[36.572002,49.053386],[36.571759,49.055105],[36.573572,49.055222],[36.573572,49.055220981946285]]]}},{"type":"Feature","properties":{"cadnum":"6323986000:02:000:0243"},"geometry":{"type":"Polygon","coordinates":[[[36.571674,49.055703],[36.57165707623319,49.055814],[36.571657,49.055814],[36.571507,49.056798],[36.573572,49.056931],[36.573572,49.056930052891744],[36.575423,49.057049],[36.575603,49.055814],[36.57560267250438,49.055814],[36.575671,49.055355],[36.5734,49.05521],[36.5734,49.05521090016547],[36.571759,49.055105],[36.571674,49.055703]]]}},{"type":"Feature","properties":{"cadnum":"6323986000:01:000:0245"},"geometry":{"type":"Polygon","coordinates":[[[36.565762,49.054306],[36.565732,49.054469],[36.565558,49.055467],[36.567907,49.05561701547005],[36.567907,49.055618],[36.571272,49.055833],[36.571444,49.05467],[36.56805494333905,49.05445345298123],[36.565762,49.054306]]]}},{"type":"Feature","properties":{"cadnum":"6323986000:01:000:0248"},"geometry":{"type":"Polygon","coordinates":[[[36.568079,49.0544549901046],[36.571444,49.05467],[36.571617,49.053508],[36.567907,49.05327],[36.567907,49.05327093995272],[36.565964,49.053146],[36.565939,49.053296],[36.565762,49.054306],[36.567907,49.05444393914544],[36.567907,49.054444],[36.56805494333905,49.05445345298123],[36.568079,49.054455],[36.568079,49.0544549901046]]]}},{"type":"Feature","properties":{"cadnum":"6323986000:02:000:0256"},"geometry":{"type":"Polygon","coordinates":[[[36.566169,49.051979],[36.566137,49.052165],[36.56612822839506,49.052214],[36.566128,49.052214],[36.566114808695644,49.05228896521742],[36.566108,49.052327],[36.56610811587983,49.052327],[36.565964,49.053146],[36.568079,49.053282],[36.568079,49.053281033962264],[36.571617,49.053508],[36.57179,49.05234],[36.569829,49.052214],[36.56982288135598,49.052214],[36.568079,49.052102042437426],[36.568079,49.052102],[36.566169,49.051979]]]}},{"type":"Feature","properties":{"cadnum":"6323986000:02:000:0792"},"geometry":{"type":"Polygon","coordinates":[[[36.57229,49.051299],[36.572448,49.05027],[36.572101,49.050248],[36.571963,49.051165],[36.5718077263339,49.052214],[36.571807,49.052214],[36.571799519290956,49.05226944525527],[36.571791,49.052327],[36.571791753968256,49.052327],[36.57179,49.05234],[36.571617,49.053508],[36.571444,49.05467],[36.571272,49.055833],[36.571261,49.055905],[36.571257,49.055926],[36.57125800274474,49.055926],[36.571105,49.056998],[36.570938,49.058161],[36.570772,49.059318],[36.57075769230769,49.059414],[36.570757,49.059414],[36.570743497168074,49.05950924480777],[36.570741,49.059526],[36.57074112178877,49.059526],[36.570608,49.060465],[36.570595,49.06055],[36.570442,49.061602],[36.570276,49.062734],[36.57023461381074,49.063013],[36.570234,49.063013],[36.570111,49.063859],[36.569947,49.064979],[36.569785,49.066092],[36.569691,49.066725],[36.56969158119658,49.066725],[36.569623,49.067197],[36.569463,49.068292],[36.569448,49.068394],[36.569455,49.068596],[36.569352,49.069373],[36.569291,49.069828],[36.569636,49.069861],[36.569847,49.068612],[36.570014,49.068206],[36.570126,49.067536],[36.570085,49.067347],[36.569947,49.067139],[36.57000199051233,49.066725],[36.570002,49.066725],[36.57000642446152,49.066691618696865],[36.570017,49.066612],[36.57001697737069,49.066612],[36.57047915517241,49.063125],[36.57048,49.063125],[36.570529,49.062759],[36.571019024215246,49.059526],[36.57102,49.059526],[36.571129,49.058812],[36.571589,49.055814],[36.57158876211454,49.055814],[36.571607,49.055699],[36.57209672928208,49.05221592541212],[36.572227,49.051296],[36.57229,49.051299]]]}},{"type":"Feature","properties":{"cadnum":"6323986000:02:000:0268"},"geometry":{"type":"Polygon","coordinates":[[[36.554699,49.076468],[36.554785,49.076225],[36.554849,49.07585],[36.554671,49.075732],[36.5546,49.075767],[36.554449,49.075708],[36.554447,49.075696],[36.552982,49.07752],[36.55298325815879,49.07752],[36.551428,49.079461],[36.551428,49.07946122754491],[36.550187725961536,49.081006],[36.550187,49.081006],[36.549403,49.081986],[36.549466,49.081958],[36.550839,49.081251],[36.55096184081633,49.081119],[36.550962,49.081119],[36.551346,49.080707],[36.5516,49.080584],[36.5516,49.080582977011495],[36.551602,49.080582],[36.552243,49.080501],[36.552372,49.080449],[36.552731,49.079788],[36.553372,49.078728],[36.553613,49.078337],[36.55416936166743,49.07741403573386],[36.554368,49.077087],[36.554699,49.076468]]]}},{"type":"Feature","properties":{"cadnum":"6323986000:02:000:0723"},"geometry":{"type":"Polygon","coordinates":[[[36.55205,49.080673],[36.551428,49.080703],[36.551428,49.08070312598425],[36.551346,49.080707],[36.55106732038835,49.081006],[36.551067,49.081006],[36.550839,49.081251],[36.549466,49.081958],[36.549403,49.081986],[36.549187,49.08208],[36.548759,49.082177],[36.54852,49.082276],[36.549298,49.082403],[36.550005,49.082543],[36.551428,49.08279994294671],[36.551428,49.0828],[36.551474273570136,49.08280829829981],[36.5516,49.082831],[36.5516,49.0828308449848],[36.552086,49.082918],[36.553875,49.083114],[36.554432,49.083192],[36.554339,49.08331],[36.554343,49.083493],[36.554916,49.083547],[36.554948,49.083454],[36.555265,49.083502],[36.555238,49.083645],[36.555532,49.083687],[36.555804,49.08341],[36.555844,49.082446],[36.555674,49.082251],[36.554467,49.081725],[36.553423,49.081473],[36.551976,49.081126],[36.551825,49.081098],[36.55205,49.080673]]]}},{"type":"Feature","properties":{"cadnum":"6323986000:02:000:0105"},"geometry":{"type":"Polygon","coordinates":[[[36.556432,49.080114],[36.556367,49.079963],[36.552706,49.079981],[36.55205208963093,49.081006],[36.552051,49.081006],[36.551998457627136,49.08109006779658],[36.55198,49.081119],[36.551980375,49.081119],[36.551976,49.081126],[36.553423,49.081473],[36.556921,49.08145774986376],[36.556921,49.081458],[36.55706441926118,49.08145712460268],[36.557093,49.081457],[36.557093,49.08145695015259],[36.557904,49.081452],[36.557413,49.081006],[36.55741270000001,49.081006],[36.557093,49.080715363636365],[36.557093,49.080715],[36.556432,49.080114]]]}},{"type":"Feature","properties":{"cadnum":"6323986000:02:000:0270"},"geometry":{"type":"Polygon","coordinates":[[[36.552872,49.075146],[36.551467254369015,49.07689804077659],[36.550967,49.07752],[36.550968122338986,49.07752],[36.54808,49.081119],[36.5480813795122,49.081119],[36.54735,49.082031],[36.547441,49.082031],[36.548283,49.082101],[36.549069496803654,49.081119],[36.54907,49.081119],[36.5516,49.077966],[36.5516,49.07796441747573],[36.552046,49.077408],[36.55204489612842,49.077408],[36.553655,49.075402],[36.552872,49.075146]]]}},{"type":"Feature","properties":{"cadnum":"6323986000:02:000:0269"},"geometry":{"type":"Polygon","coordinates":[[[36.554441,49.075653],[36.554339,49.075625],[36.553655,49.075402],[36.551955,49.07752],[36.55195622568093,49.07752],[36.551428,49.078179],[36.551428,49.0781803541502],[36.549160672375514,49.081006],[36.54916,49.081006],[36.548283,49.082101],[36.548734,49.082138],[36.549187,49.08208],[36.549403,49.081986],[36.5500966,49.081119],[36.550097,49.081119],[36.5516,49.079247],[36.5516,49.07924633981763],[36.553073,49.077408],[36.55307195614035,49.077408],[36.554447,49.075696],[36.554441,49.075653]]]}},{"type":"Feature","properties":{"cadnum":"6323986000:02:000:0108"},"geometry":{"type":"Polygon","coordinates":[[[36.555198,49.076732],[36.554806,49.076734],[36.554785,49.076803],[36.55437744769875,49.077408],[36.554377,49.077408],[36.553755,49.078334],[36.552706,49.079981],[36.556367,49.079963],[36.55617,49.0795],[36.555448,49.078117],[36.55532,49.077408],[36.555319817258884,49.077408],[36.555198,49.076732]]]}},{"type":"Feature","properties":{"cadnum":"6323986000:02:000:0266"},"geometry":{"type":"Polygon","coordinates":[[[36.556921,49.077116],[36.556921,49.077116147859925],[36.556065,49.07752],[36.55606659493671,49.07752],[36.555636,49.077724],[36.555685,49.077822],[36.556234,49.078596],[36.55646,49.078894],[36.556845,49.079182],[36.556921,49.079227354838714],[36.556921,49.079228],[36.55705444537831,49.07930699159673],[36.557093,49.07933],[36.557093,49.079329813602016],[36.557715,49.079698],[36.560566,49.078347],[36.559631,49.077955],[36.558562983546615,49.07752],[36.558564,49.07752],[36.557221,49.076973],[36.556921,49.077116]]]}},{"type":"Feature","properties":{"cadnum":"6323986000:02:000:0189"},"geometry":{"type":"Polygon","coordinates":[[[36.570278,49.065169],[36.570086032776345,49.066612],[36.570085,49.066612],[36.570054,49.066852],[36.573572,49.067078],[36.573572,49.06707695929203],[36.573965,49.067102],[36.57402686206903,49.066656229208434],[36.574204,49.065421],[36.573572,49.065380910447765],[36.573572,49.06538],[36.570278,49.065169]]]}},{"type":"Feature","properties":{"cadnum":"6323986000:02:000:0192"},"geometry":{"type":"Polygon","coordinates":[[[36.573572,49.06369],[36.570501,49.063494],[36.570278,49.065169],[36.5734,49.06536898239223],[36.5734,49.06537],[36.574204,49.065421],[36.574443,49.063746],[36.573572,49.06369088398849],[36.573572,49.06369]]]}},{"type":"Feature","properties":{"cadnum":"6323986000:02:000:0188"},"geometry":{"type":"Polygon","coordinates":[[[36.568079,49.065982990415336],[36.569785,49.066092],[36.569947,49.064979],[36.568079,49.06485996078432],[36.568079,49.064859],[36.563956,49.064595],[36.563841,49.065248],[36.563762,49.065705],[36.567907,49.06597192378967],[36.567907,49.065972],[36.56805978486428,49.06598176261114],[36.568079,49.065983],[36.568079,49.065982990415336]]]}},{"type":"Feature","properties":{"cadnum":"6323986000:02:000:0194"},"geometry":{"type":"Polygon","coordinates":[[[36.564349,49.062353],[36.564233585492225,49.063013],[36.564233,49.063013],[36.56422110526315,49.06308436842109],[36.564214,49.063125],[36.56421433333333,49.063125],[36.564209,49.063157],[36.564152,49.063477],[36.567907,49.06371796256685],[36.567907,49.063719],[36.570111,49.063859],[36.57021771631206,49.063125],[36.570218,49.063125],[36.570276,49.062734],[36.568079,49.06259303588012],[36.568079,49.062593],[36.564349,49.062353]]]}},{"type":"Feature","properties":{"cadnum":"6323986000:02:000:0186"},"geometry":{"type":"Polygon","coordinates":[[[36.56366,49.066284],[36.56360198639455,49.066612],[36.563601,49.066612],[36.56358334317344,49.066717405903965],[36.563582,49.066725],[36.56358207106599,49.066725],[36.563568,49.066809],[36.567907,49.06708794258479],[36.567907,49.067088],[36.567981809627184,49.06709275189357],[36.568079,49.067099],[36.568079,49.067098925407926],[36.569623,49.067197],[36.569708,49.066612],[36.569707780410745,49.066612],[36.569785,49.066092],[36.56805978486428,49.06598176261114],[36.563762,49.065705],[36.56366,49.066284]]]}},{"type":"Feature","properties":{"cadnum":"6323986000:02:000:0191"},"geometry":{"type":"Polygon","coordinates":[[[36.568079,49.063729],[36.564152,49.063477],[36.564025,49.064206],[36.563956,49.064595],[36.567907,49.0648479866602],[36.567907,49.064849],[36.569947,49.064979],[36.570111,49.063859],[36.568079,49.06372992558983],[36.568079,49.063729]]]}},{"type":"Feature","properties":{"cadnum":"6323986000:02:000:0144"},"geometry":{"type":"Polygon","coordinates":[[[36.562444,49.073217],[36.562407,49.073419],[36.5623385944334,49.07381],[36.562338,49.07381],[36.562247,49.074335],[36.562414,49.07434583775811],[36.562414,49.074346],[36.567907,49.07469797864078],[36.567907,49.074699],[36.568833,49.074758],[36.568838,49.074729],[36.568272,49.074348],[36.568001,49.073862],[36.568079,49.073707],[36.568079,49.073579],[36.562586,49.073226122271514],[36.562586,49.073226],[36.562444,49.073217]]]}},{"type":"Feature","properties":{"cadnum":"6323986000:02:000:0436"},"geometry":{"type":"Polygon","coordinates":[[[36.569902,49.076219],[36.570506,49.075778],[36.57034,49.075738],[36.570285,49.075636],[36.5703,49.07555],[36.569627,49.075352],[36.569608,49.075665],[36.56975,49.07615],[36.569754,49.076207],[36.569902,49.076219]]]}},{"type":"Feature","properties":{"cadnum":"6323986000:02:000:0135"},"geometry":{"type":"Polygon","coordinates":[[[36.562586,49.075377],[36.562071,49.075342],[36.562053,49.075438],[36.561883,49.076412],[36.562414,49.07644599004267],[36.562414,49.076446],[36.568079,49.07681],[36.568079,49.076808973293765],[36.568581,49.076841],[36.568695,49.076514],[36.56791,49.076321],[36.568037,49.075741],[36.562586,49.07537747074516],[36.562586,49.075377]]]}},{"type":"Feature","properties":{"cadnum":"6323986000:02:000:0131"},"geometry":{"type":"Polygon","coordinates":[[[36.561883,49.076412],[36.561879,49.076435],[36.56170831516353,49.077408],[36.561707,49.077408],[36.561702,49.077444],[36.562414,49.07748990950226],[36.562414,49.07749],[36.567552,49.077819],[36.567666,49.077516],[36.568079,49.0776],[36.568079,49.0775994],[36.568302,49.077644],[36.568344559322036,49.07752],[36.568345,49.07752],[36.568581,49.076841],[36.567907,49.076798],[36.567907,49.076798948278906],[36.562586,49.07645705172109],[36.562586,49.076457],[36.561883,49.076412]]]}},{"type":"Feature","properties":{"cadnum":"6323986000:02:000:0139"},"geometry":{"type":"Polygon","coordinates":[[[36.562586,49.074357],[36.562247,49.074335],[36.56223,49.074433],[36.562071,49.075342],[36.562414,49.075365310679615],[36.562414,49.075366],[36.567907,49.07573233025076],[36.567907,49.075733],[36.568037,49.075741],[36.568079,49.075741],[36.568079,49.07574050753769],[36.568634,49.075734],[36.568833,49.074758],[36.568079,49.07470995896328],[36.568079,49.074709],[36.562586,49.07435702135922],[36.562586,49.074357]]]}},{"type":"Feature","properties":{"cadnum":"6323986000:02:000:0184"},"geometry":{"type":"Polygon","coordinates":[[[36.570054,49.066852],[36.570017,49.067132],[36.570151,49.067334],[36.570194,49.067536],[36.570081,49.068215],[36.569914,49.068621],[36.5734,49.068843997266264],[36.5734,49.068845],[36.573714,49.068864],[36.573965,49.067102],[36.5734,49.067066],[36.5734,49.06706695054008],[36.570054,49.066852]]]}},{"type":"Feature","properties":{"cadnum":"6323986000:02:000:0223"},"geometry":{"type":"Polygon","coordinates":[[[36.545935,49.051811],[36.545935,49.052214],[36.545935,49.052327],[36.545935,49.053032],[36.546502,49.053243],[36.547458,49.052297],[36.547198,49.052214],[36.54719789917694,49.052214],[36.545935,49.051811]]]}},{"type":"Feature","properties":{"cadnum":"6323986000:02:000:0796"},"geometry":{"type":"Polygon","coordinates":[[[36.545935,49.051541],[36.545935,49.051811],[36.547458,49.052297],[36.547549,49.052327],[36.54755135593219,49.052327],[36.549,49.052789],[36.550494,49.053264],[36.551428,49.05356164835165],[36.551428,49.053562],[36.551495,49.053583],[36.5516,49.05354],[36.5516,49.05353935802469],[36.551738,49.053482],[36.551565,49.053356],[36.548854,49.052475],[36.548039,49.052214],[36.54803705470738,49.052214],[36.545935,49.051541]]]}},{"type":"Feature","properties":{"cadnum":"6323986000:02:000:0181"},"geometry":{"type":"Polygon","coordinates":[[[36.557341,49.058922],[36.557201,49.059526],[36.55720134730539,49.059526],[36.556921,49.06075],[36.556921,49.0607501281337],[36.556375,49.063125],[36.55637524598931,49.063125],[36.5561,49.064322],[36.556921,49.06438979657604],[36.556921,49.06439],[36.55700613717704,49.06439682703778],[36.557093,49.064404],[36.557093,49.064403792452836],[36.557345,49.064424],[36.55762394897236,49.063125],[36.557624,49.063125],[36.55839597628671,49.059526],[36.558396,49.059526],[36.55852,49.058957],[36.557341,49.058922]]]}},{"type":"Feature","properties":{"cadnum":"6323986000:02:000:0231"},"geometry":{"type":"Polygon","coordinates":[[[36.55924,49.055599],[36.557238,49.055541],[36.55717418181818,49.055814],[36.557174,49.055814],[36.55716533985355,49.05585182395981],[36.557148,49.055926],[36.557148356561086,49.055926],[36.556921,49.056919],[36.556921,49.056920032467524],[36.556477,49.058851],[36.556921,49.058864694805195],[36.556921,49.058865],[36.558529,49.058913],[36.55916919579478,49.055925098240934],[36.55924,49.055599]]]}},{"type":"Feature","properties":{"cadnum":"6323986000:02:000:0230"},"geometry":{"type":"Polygon","coordinates":[[[36.557516,49.054324],[36.556921,49.054391],[36.556921,49.05439114193548],[36.555853,49.05451],[36.555553706214695,49.055814],[36.555553,49.055814],[36.554866,49.058804],[36.556477,49.058851],[36.557093,49.056172],[36.557093,49.05616777470356],[36.55716533985355,49.05585182395983],[36.557238,49.055541],[36.557516,49.054324]]]}},{"type":"Feature","properties":{"cadnum":"6323986000:02:000:0180"},"geometry":{"type":"Polygon","coordinates":[[[36.556083,49.058885],[36.555935,49.059526],[36.555935286176236,49.059526],[36.555109,49.063125],[36.55510929660315,49.063125],[36.554858,49.06422],[36.5561,49.064322],[36.556401,49.063013],[36.556400749599746,49.063013],[36.557093,49.060002],[36.557093,49.059999045751624],[36.557227,49.059414],[36.5572269602649,49.059414],[36.557341,49.058922],[36.557046125000056,49.058913575],[36.556468,49.058896],[36.556083,49.058885]]]}},{"type":"Feature","properties":{"cadnum":"6323986000:02:000:0143"},"geometry":{"type":"Polygon","coordinates":[[[36.557093,49.072047],[36.55584,49.071966],[36.555613,49.072983],[36.556921,49.07306695945946],[36.556921,49.073067],[36.56234,49.073414],[36.562414,49.072992737430184],[36.562414,49.072993],[36.562519,49.072395],[36.557093,49.07204703036798],[36.557093,49.072047]]]}},{"type":"Feature","properties":{"cadnum":"6323986000:02:000:0138"},"geometry":{"type":"Polygon","coordinates":[[[36.555613,49.072983],[36.55542804792332,49.07381],[36.555428,49.07381],[36.5554259310345,49.073819465517175],[36.555403,49.073922],[36.55540351912568,49.073922],[36.555388,49.073993],[36.556921,49.074091903225806],[36.556921,49.074093],[36.562162,49.074428],[36.562271,49.07381],[36.562270622047244,49.07381],[36.56234,49.073414],[36.557093,49.073078013840195],[36.557093,49.073078],[36.555613,49.072983]]]}},{"type":"Feature","properties":{"cadnum":"6323986000:02:000:0137"},"geometry":{"type":"Polygon","coordinates":[[[36.548687,49.069952],[36.54852268817204,49.070211],[36.548522,49.070211],[36.548165,49.070775],[36.551428,49.071333557205236],[36.551428,49.071334],[36.555675,49.07206],[36.555864,49.071179],[36.5516,49.07045039044184],[36.5516,49.07045],[36.550202,49.070211],[36.55019922580646,49.070211],[36.548687,49.069952]]]}},{"type":"Feature","properties":{"cadnum":"6323986000:02:000:0743"},"geometry":{"type":"Polygon","coordinates":[[[36.5516,49.072236],[36.547666,49.071563],[36.547187,49.072319],[36.551428,49.07304361228189],[36.551428,49.073044],[36.551933,49.073131],[36.55532,49.07371],[36.555494,49.072902],[36.5516,49.07223639990162],[36.5516,49.072236]]]}},{"type":"Feature","properties":{"cadnum":"6323986000:02:000:0133"},"geometry":{"type":"Polygon","coordinates":[[[36.5516,49.071363],[36.548165,49.070775],[36.547666,49.071563],[36.551428,49.07220657549568],[36.551428,49.072207],[36.555494,49.072902],[36.555675,49.07206],[36.5516,49.071363402401694],[36.5516,49.071363]]]}},{"type":"Feature","properties":{"cadnum":"6323986000:02:000:0123"},"geometry":{"type":"Polygon","coordinates":[[[36.551933,49.073131],[36.5515277406343,49.07377212031655],[36.551503543726234,49.07381],[36.551503,49.07381],[36.551444782608414,49.07390198913088],[36.551432,49.073922],[36.551432118279564,49.073922],[36.551091,49.074461],[36.5516,49.07464],[36.5516,49.07463949690174],[36.554817,49.075771],[36.555053,49.07495],[36.555273812095116,49.07391833693268],[36.55532,49.07371],[36.551933,49.073131]]]}},{"type":"Feature","properties":{"cadnum":"6323986000:02:000:0122"},"geometry":{"type":"Polygon","coordinates":[[[36.5516,49.073659],[36.5516,49.073657806],[36.551933,49.073131],[36.5516,49.07307363168317],[36.5516,49.073073],[36.547187,49.072319],[36.546383,49.07359],[36.54771293975902,49.07381],[36.54771,49.07381],[36.55039,49.074252],[36.550808,49.074361],[36.551091,49.074461],[36.551432118279564,49.073922],[36.551433,49.073922],[36.5515277406343,49.07377212031655],[36.5516,49.073659]]]}},{"type":"Feature","properties":{"cadnum":"6323986000:02:000:0717"},"geometry":{"type":"Polygon","coordinates":[[[36.554351,49.091425],[36.554145,49.091347],[36.553657,49.090557],[36.553625,49.089991],[36.553857,49.089638],[36.55301,49.088697],[36.55288,49.089326],[36.552481,49.089537],[36.552401,49.090251],[36.552262,49.090903],[36.552305,49.091369],[36.55262551660517,49.091799],[36.552625,49.091799],[36.55267061085977,49.091859497737616],[36.552709,49.091911],[36.552709439790576,49.091911],[36.552769,49.09199],[36.55361,49.092254],[36.554063,49.091881],[36.554476,49.091795],[36.55466483783747,49.0918482972972],[36.554893,49.091913],[36.555349,49.09225],[36.554929,49.092809],[36.554579,49.092801],[36.554354,49.093049],[36.554585,49.09331],[36.555718,49.091941],[36.55563835211269,49.091911],[36.555639,49.091911],[36.554351,49.091425]]]}},{"type":"Feature","properties":{"cadnum":"6323986000:02:000:0718"},"geometry":{"type":"Polygon","coordinates":[[[36.550512,49.087382],[36.551428,49.08784168382353],[36.551428,49.087842],[36.551869,49.088063],[36.55214533864543,49.088202],[36.552144,49.088202],[36.553057,49.08866],[36.553933,49.089634],[36.553693,49.09],[36.553725,49.090547],[36.5542,49.091315],[36.55548845283019,49.091799],[36.555487,49.091799],[36.555752,49.091898],[36.55639,49.091076],[36.555631,49.089767],[36.556921,49.08908526243691],[36.556921,49.089086],[36.557018,49.089034],[36.557093,49.088995],[36.557093,49.08899445825771],[36.55812,49.088453],[36.558593,49.088202],[36.55859262790696,49.088202],[36.559681,49.087626],[36.557968,49.087579],[36.557093,49.08755643553009],[36.557093,49.087556],[36.556363,49.087537],[36.554431,49.087486],[36.552473,49.087434],[36.5516,49.08741144401914],[36.5516,49.087411],[36.550512,49.087382]]]}},{"type":"Feature","properties":{"cadnum":"6323986000:02:000:0297"},"geometry":{"type":"Polygon","coordinates":[[[36.548904,49.088102],[36.54861,49.088314],[36.548610890025586,49.088314],[36.547683,49.088984],[36.547571,49.089091],[36.546297,49.090294],[36.545935,49.090625],[36.545935,49.091799],[36.545935,49.091911],[36.545935,49.093131],[36.545986,49.093165],[36.547531,49.093801],[36.548329,49.093731],[36.548789,49.094542],[36.54889,49.095381],[36.54891503937007,49.095396],[36.548915,49.095396],[36.551164,49.096745],[36.551428,49.09644433333333],[36.551428,49.096445],[36.551488,49.096376],[36.5516,49.096249],[36.5516,49.096248520325204],[36.552349,49.095396],[36.55234879115479,49.095396],[36.552609,49.095101],[36.553909,49.093574],[36.554243,49.093181],[36.553682,49.092757],[36.553116,49.092649],[36.552423,49.092458],[36.552066,49.092023],[36.55177150000001,49.091911],[36.551773,49.091911],[36.5516,49.09184531014493],[36.5516,49.091845],[36.55105,49.091636],[36.551024,49.090844],[36.551217,49.090317],[36.5516,49.089742],[36.5516,49.08974074146342],[36.551633,49.089691],[36.552817,49.089296],[36.552947,49.088666],[36.55224755172413,49.088314],[36.552249,49.088314],[36.551428,49.0879],[36.551428,49.08790037793852],[36.550494,49.08743],[36.549577,49.087528],[36.548904,49.088102]]]}},{"type":"Feature","properties":{"cadnum":"6323986000:02:000:0711"},"geometry":{"type":"Polygon","coordinates":[[[36.568328,49.082685],[36.568334,49.082636],[36.568079,49.08263181967213],[36.568079,49.082631],[36.56596,49.082592],[36.563585,49.082548],[36.563137,49.08254],[36.562935,49.082536],[36.562894,49.082665],[36.562807,49.082951],[36.562776,49.083049],[36.564769,49.083086],[36.566761,49.083123],[36.568079,49.082755],[36.568079,49.08275479097387],[36.568328,49.082685]]]}},{"type":"Feature","properties":{"cadnum":"6323986000:02:000:0724"},"geometry":{"type":"Polygon","coordinates":[[[36.568079,49.08217092144374],[36.568378,49.082176],[36.568408,49.081873],[36.568251,49.081695],[36.568079,49.0816925],[36.568079,49.081692],[36.56668,49.08167],[36.565108,49.081646],[36.563216,49.081617],[36.563074,49.082079],[36.563995,49.082095],[36.564445,49.082103],[36.566411,49.08214],[36.567907,49.082167803357315],[36.567907,49.082168],[36.568029902147266,49.08217008750994],[36.568079,49.082171],[36.568079,49.08217092144374]],[[36.564459,49.081965],[36.564479,49.081955],[36.564494,49.081968],[36.564475,49.081979],[36.564459,49.081965]]]}},{"type":"Feature","properties":{"cadnum":"6323986000:02:000:0628"},"geometry":{"type":"Polygon","coordinates":[[[36.567883,49.081294],[36.567791,49.081267],[36.567678,49.081246],[36.567213,49.081301],[36.566593,49.081362],[36.566243,49.081365],[36.565924,49.08135],[36.56553,49.081274],[36.56526,49.081179],[36.56498,49.081209],[36.564142,49.081266],[36.56372,49.081327],[36.563357,49.081394],[36.563301,49.081417],[36.563216,49.081617],[36.565108,49.081646],[36.56668,49.08167],[36.567907,49.081689295210865],[36.567907,49.08169],[36.568251,49.081695],[36.5684,49.081562],[36.568398,49.081561],[36.568071765101564,49.081392234899795],[36.567883,49.081294]],[[36.5676,49.081341],[36.567627,49.081339],[36.56763,49.081357],[36.567602,49.081359],[36.5676,49.081341]],[[36.566653,49.081389],[36.56668,49.081388],[36.566682,49.081406],[36.566655,49.081407],[36.566653,49.081389]],[[36.565428,49.081444],[36.565436,49.081426],[36.565461,49.081432],[36.565453,49.081449],[36.565428,49.081444]]]}},{"type":"Feature","properties":{"cadnum":"6323986000:02:000:0712"},"geometry":{"type":"Polygon","coordinates":[[[36.566411,49.08214],[36.564445,49.082103],[36.563995,49.082095],[36.563074,49.082079],[36.562935,49.082536],[36.563137,49.08254],[36.563585,49.082548],[36.56596,49.082592],[36.567907,49.082627834355826],[36.567907,49.082629],[36.568334,49.082636],[36.568378,49.082176],[36.568029902147266,49.08217008750994],[36.566411,49.08214]],[[36.563441,49.082492],[36.56346,49.082482],[36.563476,49.082495],[36.563458,49.082506],[36.563441,49.082492]]]}},{"type":"Feature","properties":{"cadnum":"6323986000:02:000:0736"},"geometry":{"type":"Polygon","coordinates":[[[36.547583,49.094694],[36.546435,49.093897],[36.545935,49.09355],[36.545935,49.094905],[36.54738845771144,49.095396],[36.547387,49.095396],[36.547928,49.095579],[36.548177,49.09578],[36.548216,49.096209],[36.548166,49.096566],[36.547898,49.096906],[36.547508,49.097165],[36.547002,49.097332],[36.545935,49.097346],[36.545935,49.097868],[36.547363,49.098251],[36.548274,49.098258],[36.549078,49.098679],[36.549758,49.098948],[36.550167,49.098514],[36.550949,49.097685],[36.549827,49.096688],[36.548705,49.095691],[36.548373,49.095396],[36.54837296560196,49.095396],[36.547583,49.094694]]]}},{"type":"Feature","properties":{"cadnum":"6323986000:02:000:0735"},"geometry":{"type":"MultiPolygon","coordinates":[[[[36.547399,49.089254],[36.546745,49.089128],[36.545935,49.08989],[36.545935,49.090625],[36.546297,49.090294],[36.547399,49.089254]]],[[[36.548329,49.093731],[36.547531,49.093801],[36.545986,49.093165],[36.545935,49.093131],[36.545935,49.09355],[36.546435,49.093897],[36.547583,49.094694],[36.548499,49.095508],[36.548499047457625,49.095508],[36.548705,49.095691],[36.549827,49.096688],[36.550949,49.097685],[36.550167,49.098514],[36.549758,49.098948],[36.549715292993625,49.098993],[36.549715,49.098993],[36.549670352941384,49.09904035294096],[36.549609,49.099105],[36.549609399999994,49.099105],[36.549385,49.099343],[36.548988,49.099938],[36.54872,49.100283],[36.54813,49.100681],[36.546671,49.101649],[36.545935,49.102081],[36.545935,49.102589],[36.545935,49.102702],[36.545935,49.103792],[36.54608,49.10374],[36.546464,49.103495],[36.54724347404861,49.1026078096884],[36.547308,49.102535],[36.5485,49.101386],[36.5504206916005,49.099105],[36.550421,49.099105],[36.551031,49.098381],[36.551428,49.09788971249999],[36.551428,49.097891],[36.551511,49.097787],[36.5516,49.097608],[36.5516,49.0976064858757],[36.551865,49.097069],[36.551428,49.096867],[36.551428,49.09686731192661],[36.551164,49.096745],[36.54910172201631,49.095508],[36.549102,49.095508],[36.54889,49.095381],[36.548789,49.094542],[36.548329,49.093731]],[[36.551221,49.097803],[36.551204,49.09782],[36.55118,49.097808],[36.551196,49.097791],[36.551221,49.097803]],[[36.549495,49.099527],[36.549481,49.099544],[36.549454,49.099535],[36.549468,49.099517],[36.549495,49.099527]],[[36.54924,49.099847],[36.549224,49.099865],[36.549198,49.099855],[36.549214,49.099837],[36.54924,49.099847]],[[36.547201,49.102366],[36.547186,49.102384],[36.547159,49.102374],[36.547174,49.102357],[36.547201,49.102366]],[[36.546126,49.103675],[36.546096,49.103692],[36.546069,49.103672],[36.5461,49.103654],[36.546126,49.103675]]]]}},{"type":"Feature","properties":{"cadnum":"6323986000:02:000:0716"},"geometry":{"type":"Polygon","coordinates":[[[36.545935,49.094905],[36.545935,49.095396],[36.545935,49.095508],[36.545935,49.097346],[36.547002,49.097332],[36.547508,49.097165],[36.547898,49.096906],[36.548166,49.096566],[36.548216,49.096209],[36.548177,49.09578],[36.547928,49.095579],[36.54771810382514,49.095508],[36.54772,49.095508],[36.545935,49.094905]]]}},{"type":"Feature","properties":{"cadnum":"6323986000:02:000:0102"},"geometry":{"type":"Polygon","coordinates":[[[36.553423,49.081473],[36.554467,49.081725],[36.555674,49.082251],[36.555844,49.082446],[36.555804,49.08341],[36.556921,49.08348365787432],[36.556921,49.083484],[36.558926,49.083616],[36.5592,49.083477],[36.55928,49.082802],[36.557916,49.081463],[36.557904,49.081452],[36.55706441926118,49.08145712460268],[36.553423,49.081473]]]}},{"type":"Feature","properties":{"cadnum":"6323986000:02:000:0158"},"geometry":{"type":"Polygon","coordinates":[[[36.56694835571325,49.07029414559738],[36.565658,49.070211],[36.565651519434624,49.070211],[36.563,49.070041],[36.562951,49.070324],[36.562951824242425,49.070324],[36.562943,49.070376],[36.562815,49.071096],[36.568079,49.071433],[36.568079,49.070367],[36.56741167307694,49.070324],[36.567414,49.070324],[36.56694835571325,49.07029414559738]]]}},{"type":"Feature","properties":{"cadnum":"6323986000:02:000:0162"},"geometry":{"type":"Polygon","coordinates":[[[36.563188,49.068977],[36.56312,49.069361],[36.563,49.070041],[36.56694835571325,49.07029414559738],[36.568079,49.070367],[36.568079,49.070324],[36.569224,49.070324],[36.569291,49.069828],[36.569352,49.069373],[36.56801225754297,49.069287701518306],[36.563188,49.068977]]]}},{"type":"Feature","properties":{"cadnum":"6323986000:02:000:0543"},"geometry":{"type":"Polygon","coordinates":[[[36.568079,49.072493],[36.568079,49.071433],[36.562815,49.071096],[36.562764,49.071389],[36.562631,49.072143],[36.568079,49.072493]]]}},{"type":"Feature","properties":{"cadnum":"6323986000:02:000:0152"},"geometry":{"type":"Polygon","coordinates":[[[36.568079,49.072493],[36.562631,49.072143],[36.562587,49.0724],[36.562444,49.073217],[36.568079,49.073579],[36.568079,49.072493]]]}},{"type":"Feature","properties":{"cadnum":"6323986000:02:000:0196"},"geometry":{"type":"Polygon","coordinates":[[[36.558123,49.061698],[36.557895,49.062752],[36.562414,49.063041963547214],[36.562414,49.063042],[36.56414,49.063153],[36.564164,49.063013],[36.56416370068027,49.063013],[36.564325,49.062096],[36.5625444157634,49.061982325862445],[36.558123,49.061698]]]}},{"type":"Feature","properties":{"cadnum":"6323986000:02:000:0233"},"geometry":{"type":"Polygon","coordinates":[[[36.562586,49.06090998046689],[36.564513,49.061033],[36.564701,49.059962],[36.562414,49.059815],[36.562414,49.059815908772805],[36.558585,49.059569],[36.558353,49.060638],[36.562414,49.060898947791166],[36.562414,49.060899],[36.562539169724616,49.06090699082568],[36.562586,49.06091],[36.562586,49.06090998046689]]]}},{"type":"Feature","properties":{"cadnum":"6323986000:02:000:0199"},"geometry":{"type":"Polygon","coordinates":[[[36.568079,49.06145099171597],[36.570442,49.061602],[36.570595,49.06055],[36.570608,49.060465],[36.567907,49.060291],[36.567907,49.060291904890484],[36.564746,49.060088],[36.56458,49.061038],[36.564548,49.061224],[36.567907,49.0614399425092],[36.567907,49.06144],[36.56805733742187,49.061449607361865],[36.568079,49.061451],[36.568079,49.06145099171597]]]}},{"type":"Feature","properties":{"cadnum":"6323986000:02:000:0197"},"geometry":{"type":"Polygon","coordinates":[[[36.564548,49.061224],[36.564394,49.062101],[36.564349,49.062353],[36.567907,49.062581932975874],[36.567907,49.062582],[36.570276,49.062734],[36.570442,49.061602],[36.56805733742187,49.061449607361865],[36.564548,49.061224]]]}},{"type":"Feature","properties":{"cadnum":"6323986000:02:000:0198"},"geometry":{"type":"Polygon","coordinates":[[[36.562586,49.06198498063841],[36.564325,49.062096],[36.564513,49.061033],[36.562539169724616,49.06090699082568],[36.558353,49.060638],[36.558123,49.061698],[36.562414,49.06197393927851],[36.562414,49.061974],[36.5625444157634,49.061982325862445],[36.562586,49.061985],[36.562586,49.06198498063841]]]}},{"type":"Feature","properties":{"cadnum":"6323986000:02:000:0193"},"geometry":{"type":"Polygon","coordinates":[[[36.557837621983914,49.063013],[36.557837,49.063013],[36.557668,49.063798],[36.562414,49.06410294835298],[36.562414,49.064103],[36.563956,49.064202],[36.56414,49.063153],[36.5637046126126,49.063125],[36.563715,49.063125],[36.56251296398551,49.06304831361322],[36.557895,49.062752],[36.557837621983914,49.063013]]]}},{"type":"Feature","properties":{"cadnum":"6323986000:02:000:0271"},"geometry":{"type":"Polygon","coordinates":[[[36.552243,49.074896],[36.5516,49.07569836932515],[36.5516,49.075698],[36.550138,49.07752],[36.550138182700074,49.07752],[36.5473426192401,49.081006],[36.547341,49.081006],[36.545935,49.082762],[36.545935,49.083471],[36.546305,49.083242],[36.546745,49.082229],[36.547124,49.081995],[36.547379,49.081995],[36.548081394337714,49.081119],[36.548082,49.081119],[36.55096624306117,49.07752],[36.550967,49.07752],[36.551428,49.076946116903635],[36.551428,49.076947],[36.5529,49.07511],[36.552243,49.074896]]]}},{"type":"Feature","properties":{"cadnum":"6323986000:02:000:0272"},"geometry":{"type":"Polygon","coordinates":[[[36.551632,49.074696],[36.551428,49.074951],[36.551428,49.07495136453202],[36.54945686561265,49.077408],[36.549456,49.077408],[36.54657158879008,49.081006],[36.54657,49.081006],[36.545935,49.0818],[36.545935,49.082762],[36.547250522779045,49.081119],[36.547252,49.081119],[36.550228,49.077408],[36.55022787047201,49.077408],[36.551428,49.075912352941174],[36.551428,49.075913],[36.552243,49.074896],[36.551632,49.074696]]]}},{"type":"Feature","properties":{"cadnum":"6323986000:02:000:0683"},"geometry":{"type":"Polygon","coordinates":[[[36.551435,49.074632],[36.551169,49.074555],[36.54879,49.07752],[36.54879019874761,49.07752],[36.54599513476722,49.081006],[36.545995,49.081006],[36.54598636627918,49.08101693604637],[36.545935,49.081081],[36.545935,49.081082],[36.545935,49.081119],[36.545935,49.0818],[36.54647962846348,49.081119],[36.546481,49.081119],[36.54936621288062,49.07752],[36.549367,49.07752],[36.5516,49.074737],[36.5516,49.074736],[36.551632,49.074696],[36.551435,49.074632]]]}},{"type":"Feature","properties":{"cadnum":"6323986000:02:000:0632"},"geometry":{"type":"Polygon","coordinates":[[[36.547539,49.084716],[36.54754285853657,49.084716],[36.546776,49.084849],[36.545935,49.084976],[36.545935,49.085072],[36.546227,49.085457],[36.547958,49.084644],[36.547539,49.084716]]]}},{"type":"Feature","properties":{"cadnum":"6323986000:02:000:0190"},"geometry":{"type":"Polygon","coordinates":[[[36.562586,49.064114],[36.557668,49.063798],[36.557525,49.064458],[36.557439,49.064837],[36.562414,49.0651569387993],[36.562414,49.065157],[36.563774,49.065244],[36.563956,49.064202],[36.562586,49.064114042801556],[36.562586,49.064114]]]}},{"type":"Feature","properties":{"cadnum":"6323986000:02:000:0187"},"geometry":{"type":"Polygon","coordinates":[[[36.562586,49.06621495076401],[36.563592,49.066279],[36.563774,49.065244],[36.562586,49.06516800294118],[36.562586,49.065168],[36.557439,49.064837],[36.557208,49.065869],[36.562414,49.06620393417627],[36.562414,49.066204],[36.56251239830101,49.06621026474752],[36.562586,49.066215],[36.562586,49.06621495076401]]]}},{"type":"Feature","properties":{"cadnum":"6323986000:02:000:0178"},"geometry":{"type":"Polygon","coordinates":[[[36.554785,49.058846],[36.553448,49.058806],[36.553281,49.059526],[36.553281255995685,49.059526],[36.552454,49.063125],[36.55245528398792,49.063125],[36.552253,49.064006],[36.553575,49.064115],[36.553801388384755,49.063125],[36.553802,49.063125],[36.55462731635678,49.059526],[36.554628,49.059526],[36.554785,49.058846]]]}},{"type":"Feature","properties":{"cadnum":"6323986000:02:000:0179"},"geometry":{"type":"Polygon","coordinates":[[[36.556083,49.058885],[36.554857,49.058849],[36.554785,49.058846],[36.55465385882353,49.059414],[36.554653,49.059414],[36.55382768364322,49.063013],[36.553827,49.063013],[36.553575,49.064115],[36.554858,49.06422],[36.555135,49.063013],[36.55513471382377,49.063013],[36.555961,49.059414],[36.555960859594386,49.059414],[36.556083,49.058885]]]}},{"type":"Feature","properties":{"cadnum":"6323986000:02:000:0693"},"geometry":{"type":"Polygon","coordinates":[[[36.562586,49.083997],[36.560899,49.083984],[36.56103,49.084131],[36.561184,49.0846],[36.562414,49.08460965049929],[36.562414,49.08461],[36.564522,49.084625],[36.565429,49.084163],[36.565425,49.084018],[36.562586,49.08399725672534],[36.562586,49.083997]]]}},{"type":"Feature","properties":{"cadnum":"6323986000:02:000:0695"},"geometry":{"type":"Polygon","coordinates":[[[36.561184,49.0846],[36.561185310344825,49.084604],[36.561184,49.084604],[36.56167,49.086079],[36.562414,49.085699689956336],[36.562414,49.0857],[36.564522,49.084625],[36.562586,49.084611223908915],[36.562586,49.084611],[36.561184,49.0846]]]}},{"type":"Feature","properties":{"cadnum":"6323986000:02:000:0698"},"geometry":{"type":"Polygon","coordinates":[[[36.560044,49.083029],[36.560432,49.083462],[36.562414,49.08347764252553],[36.562414,49.083478],[36.56541,49.0835],[36.566761,49.083123],[36.562776,49.083049],[36.56256049498499,49.08304780936456],[36.560044,49.083029]]]}},{"type":"Feature","properties":{"cadnum":"6323986000:02:000:0694"},"geometry":{"type":"Polygon","coordinates":[[[36.562586,49.083479],[36.560432,49.083462],[36.560899,49.083984],[36.562414,49.08399567457024],[36.562414,49.083996],[36.565425,49.084018],[36.56541,49.0835],[36.562586,49.08347926301736],[36.562586,49.083479]],[[36.561416,49.083546],[36.561438,49.083535],[36.561455,49.083549],[36.561434,49.08356],[36.561416,49.083546]]]}},{"type":"Feature","properties":{"cadnum":"6323986000:02:000:0265"},"geometry":{"type":"Polygon","coordinates":[[[36.562939,49.079493],[36.562586,49.07928417079208],[36.562586,49.079284],[36.562535,49.079254],[36.561946,49.078926],[36.560566,49.078347],[36.557715,49.079698],[36.557799,49.079747],[36.558599,49.080347],[36.559394,49.080836],[36.559394,49.081006],[36.559394,49.081119],[36.55939468072289,49.081119],[36.559395,49.081172],[36.55950674698796,49.081119],[36.559508,49.081119],[36.561993,49.079941],[36.562063,49.079274],[36.562233,49.079298],[36.562414,49.07940157507082],[36.562414,49.079402],[36.562739,49.079588],[36.562939,49.079493]]]}},{"type":"Feature","properties":{"cadnum":"6323986000:02:000:0264"},"geometry":{"type":"Polygon","coordinates":[[[36.562509,49.07971],[36.563432,49.080276],[36.563541,49.08075],[36.562586,49.080698309671696],[36.562586,49.080698],[36.561762,49.080653],[36.561827,49.080021],[36.55974665846995,49.081006],[36.559745,49.081006],[36.559229,49.081251],[36.55923,49.081396],[36.559528,49.082258],[36.559839,49.082634],[36.56028,49.082836],[36.56107,49.08239],[36.561631,49.082078],[36.56226,49.081624],[36.562586,49.081512],[36.562586,49.0815119704142],[36.563428,49.081223],[36.564195,49.081127],[36.56515,49.081143],[36.564899,49.081006],[36.56489840277778,49.081006],[36.564842,49.080975],[36.562715,49.07962],[36.562586,49.0796763592233],[36.562586,49.079676],[36.562509,49.07971]],[[36.564897,49.08109],[36.564917,49.081102],[36.564897,49.081115],[36.564878,49.081102],[36.564897,49.08109]],[[36.564007,49.080521],[36.564028,49.080534],[36.564007,49.080547],[36.563989,49.080534],[36.564007,49.080521]],[[36.563086,49.079932],[36.563106,49.079944],[36.563087,49.079957],[36.563067,49.079944],[36.563086,49.079932]]]}},{"type":"Feature","properties":{"cadnum":"6323986000:02:000:0259"},"geometry":{"type":"Polygon","coordinates":[[[36.573572,49.05176397081081],[36.576175,49.05193],[36.576233,49.051529],[36.573572,49.05140501411931],[36.573572,49.051404],[36.572289,49.051344],[36.572242,49.051678],[36.5734,49.05175287819549],[36.5734,49.051753],[36.57353874999914,49.05176184999994],[36.573572,49.051764],[36.573572,49.05176397081081]]]}},{"type":"Feature","properties":{"cadnum":"6323986000:02:000:0261"},"geometry":{"type":"Polygon","coordinates":[[[36.568079,49.05091506804734],[36.571963,49.051165],[36.572104,49.05023],[36.567907,49.049975],[36.567907,49.049975528497406],[36.566535,49.049892],[36.566374,49.050806],[36.568079,49.050916],[36.568079,49.05091506804734]]]}},{"type":"Feature","properties":{"cadnum":"6323986000:02:000:0705"},"geometry":{"type":"Polygon","coordinates":[[[36.56829,49.080962],[36.568818,49.080815],[36.568208,49.079548],[36.567907,49.079537],[36.567907,49.079537470715835],[36.566235,49.079474],[36.56632161155015,49.081006],[36.566321,49.081006],[36.56633,49.081155],[36.56681537931034,49.081119],[36.56682,49.081119],[36.567112,49.081097],[36.568079,49.080987],[36.568079,49.08098624020888],[36.56829,49.080962]]]}},{"type":"Feature","properties":{"cadnum":"6323986000:02:000:0128"},"geometry":{"type":"Polygon","coordinates":[[[36.546835,49.072758],[36.54712,49.072307],[36.54737,49.071915],[36.545935,49.071669],[36.545935,49.072604],[36.546835,49.072758]]]}},{"type":"Feature","properties":{"cadnum":"6323986000:02:000:0136"},"geometry":{"type":"Polygon","coordinates":[[[36.548479,49.070163],[36.545935,49.069728],[36.545935,49.070211],[36.545935,49.070324],[36.545935,49.070713],[36.547915,49.071051],[36.548098,49.070764],[36.54837648101266,49.070324],[36.548377,49.070324],[36.548479,49.070163]]]}},{"type":"Feature","properties":{"cadnum":"6323986000:02:000:0281"},"geometry":{"type":"Polygon","coordinates":[[[36.545951,49.073922],[36.546219,49.073587],[36.546216,49.073587],[36.545935,49.073546],[36.545935,49.073922],[36.545951,49.073922]]]}},{"type":"Feature","properties":{"cadnum":"6323986000:02:000:0280"},"geometry":{"type":"Polygon","coordinates":[[[36.546108,49.073725],[36.54604025888325,49.07381],[36.546039,49.07381],[36.545935,49.073941],[36.545935,49.074968],[36.546851,49.073825],[36.546108,49.073725]]]}},{"type":"Feature","properties":{"cadnum":"6323986000:02:000:0279"},"geometry":{"type":"Polygon","coordinates":[[[36.546851,49.073825],[36.546773,49.073922],[36.54677326421697,49.073922],[36.545935,49.074968],[36.545935,49.07598],[36.547583,49.073924],[36.547568212121256,49.073922],[36.547569,49.073922],[36.546851,49.073825]]]}},{"type":"Feature","properties":{"cadnum":"6323986000:02:000:0132"},"geometry":{"type":"Polygon","coordinates":[[[36.54737,49.071915],[36.547599,49.071552],[36.547915,49.071051],[36.545935,49.070713],[36.545935,49.071669],[36.54737,49.071915]]]}},{"type":"Feature","properties":{"cadnum":"6323986000:02:000:0121"},"geometry":{"type":"Polygon","coordinates":[[[36.546316,49.073579],[36.546835,49.072758],[36.545935,49.072604],[36.545935,49.073516],[36.546316,49.073579]]]}},{"type":"Feature","properties":{"cadnum":"6323986000:01:000:0228"},"geometry":{"type":"Polygon","coordinates":[[[36.554106,49.054647],[36.552658,49.054685],[36.552613,49.055723],[36.552404,49.055926],[36.55240516853932,49.055926],[36.55179,49.056526],[36.551587,49.05712],[36.551542,49.058508],[36.551652,49.058708],[36.553163,49.058753],[36.553838,49.055814],[36.55383683268179,49.055814],[36.554106,49.054647]]]}},{"type":"Feature","properties":{"cadnum":"6323986000:02:000:0229"},"geometry":{"type":"Polygon","coordinates":[[[36.555853,49.05451],[36.554774,49.05463],[36.554106,49.054647],[36.553811,49.055926],[36.553812276964955,49.055926],[36.553163,49.058753],[36.554866,49.058804],[36.555527266220736,49.055926],[36.555528,49.055926],[36.555853,49.05451]]]}},{"type":"Feature","properties":{"cadnum":"6323986000:02:000:0274"},"geometry":{"type":"Polygon","coordinates":[[[36.551013,49.07451],[36.550449,49.074346],[36.550388,49.074334],[36.547832,49.07752],[36.547832264516124,49.07752],[36.545935,49.079888],[36.545935,49.080844],[36.548689,49.077408],[36.548687860465115,49.077408],[36.551013,49.07451]]]}},{"type":"Feature","properties":{"cadnum":"6323986000:02:000:0275"},"geometry":{"type":"Polygon","coordinates":[[[36.550388,49.074334],[36.549718,49.07421],[36.54715283685801,49.077408],[36.547152,49.077408],[36.545935,49.078929],[36.545935,49.079888],[36.547922,49.077408],[36.54792185310735,49.077408],[36.550388,49.074334]]]}},{"type":"Feature","properties":{"cadnum":"6323986000:02:000:0278"},"geometry":{"type":"Polygon","coordinates":[[[36.545935,49.076975],[36.548304,49.074021],[36.547583,49.073924],[36.545935,49.07598],[36.545935,49.076975]]]}},{"type":"Feature","properties":{"cadnum":"6323986000:02:000:0276"},"geometry":{"type":"Polygon","coordinates":[[[36.549718,49.07421],[36.549711,49.074209],[36.549017,49.074115],[36.546285,49.07752],[36.546286359346645,49.07752],[36.545935,49.077959],[36.545935,49.078929],[36.547062385272845,49.07752],[36.547063,49.07752],[36.549718,49.07421]]]}},{"type":"Feature","properties":{"cadnum":"6323986000:02:000:0682"},"geometry":{"type":"Polygon","coordinates":[[[36.551169,49.074555],[36.551013,49.07451],[36.548598,49.07752],[36.548599230500585,49.07752],[36.545935,49.080844],[36.545935,49.081081],[36.54888,49.077408],[36.54887986441821,49.077408],[36.551169,49.074555]]]}},{"type":"Feature","properties":{"cadnum":"6323986000:02:000:0277"},"geometry":{"type":"Polygon","coordinates":[[[36.549017,49.074115],[36.548304,49.074021],[36.545935,49.076975],[36.545935,49.077408],[36.545935,49.07752],[36.545935,49.077959],[36.546376,49.077408],[36.54637486314244,49.077408],[36.549017,49.074115]]]}},{"type":"Feature","properties":{"cadnum":"6323986000:02:000:0140"},"geometry":{"type":"Polygon","coordinates":[[[36.548479,49.070163],[36.54862,49.06994],[36.549058,49.069247],[36.545935,49.068713],[36.545935,49.069728],[36.548479,49.070163]]]}},{"type":"Feature","properties":{"cadnum":"6323986000:02:000:0141"},"geometry":{"type":"Polygon","coordinates":[[[36.549058,49.069247],[36.549167,49.069075],[36.54966,49.068296],[36.547924,49.067999],[36.545935,49.067659],[36.545935,49.068713],[36.549058,49.069247]]]}},{"type":"Feature","properties":{"cadnum":"6323986000:02:000:0163"},"geometry":{"type":"Polygon","coordinates":[[[36.568079,49.06929195086505],[36.569352,49.069373],[36.569455,49.068596],[36.569448,49.068394],[36.569463,49.068292],[36.56798308713676,49.068197841019625],[36.563376,49.067902],[36.563299,49.06834],[36.563188,49.068977],[36.567907,49.06928092251073],[36.567907,49.069281],[36.56801225754297,49.069287701518306],[36.568079,49.069292],[36.568079,49.06929195086505]]]}},{"type":"Feature","properties":{"cadnum":"6323986000:02:000:0183"},"geometry":{"type":"Polygon","coordinates":[[[36.568079,49.06820394344473],[36.569463,49.068292],[36.569623,49.067197],[36.567981809627184,49.06709275189357],[36.563568,49.066809],[36.563479,49.067314],[36.563376,49.067902],[36.567907,49.068192955135025],[36.567907,49.068193],[36.56798308713676,49.068197841019625],[36.568079,49.068204],[36.568079,49.06820394344473]]]}},{"type":"Feature","properties":{"cadnum":"6323986000:02:000:0240"},"geometry":{"type":"Polygon","coordinates":[[[36.571507,49.056798],[36.571249,49.058477],[36.5734,49.05861496771416],[36.5734,49.058616],[36.575176,49.058729],[36.575423,49.057049],[36.5734,49.056919],[36.5734,49.0569199220339],[36.571507,49.056798]]]}},{"type":"Feature","properties":{"cadnum":"6323986000:02:000:0206"},"geometry":{"type":"Polygon","coordinates":[[[36.54957,49.057785],[36.548181,49.057268],[36.545935,49.059489],[36.545935,49.05949],[36.545935,49.059526],[36.545935,49.061383],[36.54781086236668,49.059526],[36.547811,49.059526],[36.54957,49.057785]]]}},{"type":"Feature","properties":{"cadnum":"6323986000:02:000:0207"},"geometry":{"type":"Polygon","coordinates":[[[36.55067,49.058623],[36.550549,49.058151],[36.54957,49.057785],[36.5479241579552,49.059414],[36.547924,49.059414],[36.545935,49.061383],[36.545935,49.061509],[36.547256,49.062002],[36.549871,49.059414],[36.54987024031008,49.059414],[36.55067,49.058623]]]}},{"type":"Feature","properties":{"cadnum":"6323986000:02:000:0125"},"geometry":{"type":"Polygon","coordinates":[[[36.557093,49.07676722222222],[36.5585400701107,49.077408],[36.55854,49.077408],[36.561415,49.078681],[36.561618380204244,49.07752],[36.561619,49.07752],[36.561811,49.07643],[36.55709,49.076127],[36.556957,49.076707],[36.557093,49.076768],[36.557093,49.07676722222222]]]}},{"type":"Feature","properties":{"cadnum":"6323986000:02:000:0126"},"geometry":{"type":"Polygon","coordinates":[[[36.562586,49.077501],[36.562586,49.0775],[36.561702,49.077444],[36.561687,49.07752],[36.56168860237154,49.07752],[36.561479,49.078709],[36.561828,49.078864],[36.56217,49.078727],[36.562414,49.078711907216494],[36.562414,49.078712],[36.562558,49.078703],[36.562586,49.078705],[36.562586,49.07870387898089],[36.564756,49.078772],[36.56723,49.078853],[36.567433,49.078139],[36.567552,49.077819],[36.562586,49.07750101362397],[36.562586,49.077501]]]}},{"type":"Feature","properties":{"cadnum":"6323986000:02:000:0734"},"geometry":{"type":"Polygon","coordinates":[[[36.548904,49.088102],[36.549124,49.087914],[36.548188,49.088314],[36.54818845454546,49.088314],[36.54809,49.088356],[36.547873,49.088391],[36.547555,49.088736],[36.547894,49.088832],[36.548766,49.088202],[36.54876532075471,49.088202],[36.548904,49.088102]]]}},{"type":"Feature","properties":{"cadnum":"6323986000:02:000:0737"},"geometry":{"type":"Polygon","coordinates":[[[36.547378,49.08806],[36.547641,49.087953],[36.547799,49.087944],[36.549372,49.087336],[36.549401,49.087174],[36.54734,49.087273],[36.546652,49.087816],[36.546163,49.087854],[36.546188,49.088019],[36.54603973898305,49.088202],[36.546039,49.088202],[36.54598086666692,49.08827466666635],[36.545949,49.088314],[36.545949400000005,49.088314],[36.545935,49.088332],[36.545935,49.088692],[36.545987,49.088679],[36.5461,49.088562],[36.546337,49.088431],[36.54664,49.088401],[36.546969,49.088502],[36.547235972851354,49.08821285972778],[36.547378,49.08806]]]}},{"type":"Feature","properties":{"cadnum":"6323986000:02:000:0733"},"geometry":{"type":"Polygon","coordinates":[[[36.545935,49.08989],[36.546745,49.089128],[36.546228,49.089231],[36.545935,49.089258],[36.545935,49.08989]]]}},{"type":"Feature","properties":{"cadnum":"6323986000:02:000:0697"},"geometry":{"type":"Polygon","coordinates":[[[36.55924,49.055599],[36.55947,49.054525],[36.559503,49.054341],[36.558011,49.05427],[36.557516,49.054324],[36.557238,49.055541],[36.55924,49.055599]]]}},{"type":"Feature","properties":{"cadnum":"6323986000:02:000:0254"},"geometry":{"type":"Polygon","coordinates":[[[36.562586,49.053081],[36.559968,49.052913],[36.55976,49.053874],[36.559717,49.054083],[36.562414,49.054255968978744],[36.562414,49.054257],[36.565665,49.054465],[36.56587,49.053292],[36.562586,49.05308104861111],[36.562586,49.053081]]]}},{"type":"Feature","properties":{"cadnum":"6323986000:02:000:0247"},"geometry":{"type":"Polygon","coordinates":[[[36.562586,49.054267],[36.559717,49.054083],[36.559484,49.055226],[36.562414,49.0554139658285],[36.562414,49.055415],[36.565464,49.05561],[36.565665,49.054465],[36.562586,49.05426800461397],[36.562586,49.054267]]]}},{"type":"Feature","properties":{"cadnum":"6323986000:02:000:0691"},"geometry":{"type":"Polygon","coordinates":[[[36.545935,49.101731],[36.54691,49.101159],[36.546489,49.100967],[36.545935,49.101292],[36.545935,49.101731]]]}},{"type":"Feature","properties":{"cadnum":"6323986000:02:000:0556"},"geometry":{"type":"Polygon","coordinates":[[[36.549078,49.098679],[36.548274,49.098258],[36.547363,49.098251],[36.545935,49.097868],[36.545935,49.098993],[36.545935,49.099105],[36.545935,49.10066],[36.546963,49.101128],[36.547568,49.100773],[36.547937,49.0997],[36.548727,49.098993],[36.548726408450705,49.098993],[36.549078,49.098679]]]}},{"type":"Feature","properties":{"cadnum":"6323986000:02:000:0692"},"geometry":{"type":"Polygon","coordinates":[[[36.545935,49.101292],[36.546489,49.100967],[36.546067,49.100774],[36.545935,49.100852],[36.545935,49.101292]]]}},{"type":"Feature","properties":{"cadnum":"6323986000:02:000:0690"},"geometry":{"type":"Polygon","coordinates":[[[36.545935,49.100852],[36.546067,49.100774],[36.545935,49.100715],[36.545935,49.100852]]]}},{"type":"Feature","properties":{"cadnum":"6323986000:02:000:0130"},"geometry":{"type":"Polygon","coordinates":[[[36.557093,49.07612719254395],[36.561811,49.07643],[36.561985,49.075433],[36.556921,49.075108],[36.556921,49.075108860103626],[36.555163,49.074995],[36.5549,49.075796],[36.554955,49.07582],[36.555403,49.076019],[36.556921,49.07611618079431],[36.556921,49.076117],[36.55709,49.076127],[36.557093,49.076128],[36.557093,49.07612719254395]]]}},{"type":"Feature","properties":{"cadnum":"6323986000:02:000:0134"},"geometry":{"type":"Polygon","coordinates":[[[36.557093,49.07511903870458],[36.561985,49.075433],[36.562162,49.074428],[36.557093,49.07410399408509],[36.557093,49.074103],[36.555388,49.073993],[36.555172,49.074967],[36.555163,49.074995],[36.557093,49.07512],[36.557093,49.07511903870458]]]}},{"type":"Feature","properties":{"cadnum":"6323986000:02:000:0625"},"geometry":{"type":"Polygon","coordinates":[[[36.55709,49.076127],[36.555403,49.076019],[36.556957,49.076707],[36.55709,49.076127]]]}},{"type":"Feature","properties":{"cadnum":"6323986000:02:000:0226"},"geometry":{"type":"Polygon","coordinates":[[[36.550863,49.055301],[36.549102,49.054643],[36.547804,49.055926],[36.547804816067654,49.055926],[36.546962,49.05676],[36.550535,49.058094],[36.550165,49.056651],[36.55053832735962,49.055926],[36.550539,49.055926],[36.550863,49.055301]]]}},{"type":"Feature","properties":{"cadnum":"6323986000:01:000:0225"},"geometry":{"type":"Polygon","coordinates":[[[36.549102,49.054643],[36.550494,49.053264],[36.549,49.052789],[36.54594509884679,49.055814],[36.545944,49.055814],[36.545935,49.055824],[36.545935,49.055926],[36.545935,49.056377],[36.546962,49.05676],[36.547918,49.055814],[36.54791730943102,49.055814],[36.549102,49.054643]]]}},{"type":"Feature","properties":{"cadnum":"6323986000:02:000:0204"},"geometry":{"type":"Polygon","coordinates":[[[36.545935,49.057603],[36.546796,49.056751],[36.545935,49.056429],[36.545935,49.057603]]]}},{"type":"Feature","properties":{"cadnum":"6323986000:02:000:0205"},"geometry":{"type":"Polygon","coordinates":[[[36.545935,49.059489],[36.548181,49.057268],[36.546924,49.056798],[36.546796,49.056751],[36.545935,49.057603],[36.545935,49.059489]]]}},{"type":"Feature","properties":{"cadnum":"6323986000:02:000:0220"},"geometry":{"type":"Polygon","coordinates":[[[36.545935,49.053806],[36.546502,49.053243],[36.545935,49.053032],[36.545935,49.053806]]]}},{"type":"Feature","properties":{"cadnum":"6323986000:02:000:0224"},"geometry":{"type":"Polygon","coordinates":[[[36.545935,49.055824],[36.549,49.052789],[36.54752,49.052317],[36.546562,49.053265],[36.545935,49.053887],[36.545935,49.055824]]]}},{"type":"Feature","properties":{"cadnum":"6323986000:02:000:0740"},"geometry":{"type":"Polygon","coordinates":[[[36.545935,49.085647],[36.546058,49.085612],[36.546227,49.085457],[36.545935,49.085072],[36.545935,49.085647]]]}}]}