{"type":"FeatureCollection","features":[{"type":"Feature","properties":{"cadnum":"6323782505:00:001:0005"},"geometry":{"type":"Polygon","coordinates":[[[37.886438,49.60895362264151],[37.88791,49.609398],[37.888044,49.608236],[37.886546,49.607951],[37.886943,49.608956],[37.88661,49.60891],[37.886267,49.608043],[37.886267,49.60804326180257],[37.886205,49.607886],[37.885492,49.60775],[37.885097,49.60855],[37.886438,49.608954],[37.886438,49.60895362264151]]]}},{"type":"Feature","properties":{"cadnum":"6323782505:00:001:0010"},"geometry":{"type":"Polygon","coordinates":[[[37.880945,49.606553],[37.880945,49.606552785831965],[37.881381,49.606463],[37.881841,49.60655],[37.881798,49.606865],[37.88287,49.60697],[37.883538,49.60707],[37.88468601368075,49.60717339725866],[37.885125,49.607213],[37.88512648305085,49.607206],[37.885127,49.607206],[37.885296,49.606408],[37.884804,49.606327],[37.88457,49.607014],[37.884065,49.60697],[37.884074,49.606353],[37.88378,49.606326],[37.883531,49.606625],[37.883159,49.60672],[37.882549,49.60655],[37.882489,49.606463],[37.882552,49.606204],[37.882092,49.606169],[37.880916,49.606007],[37.88091,49.605437],[37.880543,49.605381],[37.880735,49.606596],[37.880945,49.606553]]]}},{"type":"Feature","properties":{"cadnum":"6323782505:00:001:0004"},"geometry":{"type":"Polygon","coordinates":[[[37.878989,49.606718],[37.878508,49.606863],[37.877665,49.606777],[37.877696,49.606407],[37.878534,49.606498],[37.879734,49.606549],[37.87966,49.605516],[37.878883,49.605561],[37.878877,49.606193],[37.877162,49.606079],[37.877071,49.607206],[37.87707213385827,49.607206],[37.877071,49.607222],[37.878909,49.607372],[37.878943,49.607095],[37.878941875,49.607095],[37.878989,49.606718]]]}},{"type":"Feature","properties":{"cadnum":"6323782505:00:001:0003"},"geometry":{"type":"Polygon","coordinates":[[[37.878508,49.606863],[37.878534,49.606498],[37.877696,49.606407],[37.877665,49.606777],[37.878508,49.606863]]]}},{"type":"Feature","properties":{"cadnum":"6323782505:00:001:0007"},"geometry":{"type":"Polygon","coordinates":[[[37.872889,49.592816],[37.872381,49.592579],[37.87238177683616,49.592854],[37.872381,49.592854],[37.872382,49.592933],[37.871847,49.592898],[37.871881,49.592965],[37.87188109233792,49.592965],[37.872365,49.593916],[37.872668,49.593953],[37.872865,49.594306],[37.873112,49.594364],[37.873367,49.594424],[37.873651,49.594598],[37.873938,49.594844],[37.874508,49.594779],[37.8747,49.594955],[37.874815,49.595154],[37.875196,49.595364],[37.87487,49.594409],[37.874728,49.593991],[37.874217,49.594],[37.873984,49.594005],[37.874052,49.594461],[37.873717,49.59455],[37.873452,49.594416],[37.873132,49.5938],[37.872899,49.592854],[37.87289818120806,49.592854],[37.872889,49.592816]]]}},{"type":"Feature","properties":{"cadnum":"6323782505:00:001:0009"},"geometry":{"type":"Polygon","coordinates":[[[37.886252,49.605982],[37.886206,49.60618],[37.886138,49.606486],[37.886267,49.60652126],[37.886267,49.606522],[37.886741,49.60665],[37.886787,49.606838],[37.888488,49.606953],[37.888508,49.605802],[37.886326,49.605654],[37.886252,49.605982]]]}},{"type":"Feature","properties":{"cadnum":"6323782505:00:001:0006"},"geometry":{"type":"Polygon","coordinates":[[[37.886138,49.606486],[37.886206,49.60618],[37.884378,49.605845],[37.883847,49.60588],[37.883095,49.605818],[37.882919,49.605628],[37.881321,49.605457],[37.88091,49.605437],[37.880916,49.606007],[37.882092,49.606169],[37.883224,49.606254],[37.884074,49.606326],[37.88433,49.606221],[37.885301,49.606381],[37.8855,49.606356],[37.886138,49.606486]]]}},{"type":"Feature","properties":{"cadnum":"6323782505:00:001:0008"},"geometry":{"type":"Polygon","coordinates":[[[37.886267,49.60591551351352],[37.886267,49.605917],[37.886326,49.605654],[37.886438,49.605662],[37.886438,49.60566159670027],[37.888508,49.605802],[37.888431,49.605452],[37.886509,49.605335],[37.886438,49.60533059917355],[37.886438,49.60533],[37.883837,49.605169],[37.88116,49.605005],[37.881141,49.605234],[37.883118,49.605378],[37.883605,49.605362],[37.884361,49.605503],[37.884753,49.605699],[37.885622,49.605788],[37.886252,49.605982],[37.886267,49.60591551351352]]]}}]}