{"type":"FeatureCollection","features":[{"type":"Feature","properties":{"cadnum":"6323785502:00:002:0102"},"geometry":{"type":"Polygon","coordinates":[[[37.674085,49.714974],[37.67482,49.714687],[37.674993,49.714622],[37.675247,49.71454],[37.67506,49.714336],[37.674643,49.714495],[37.67392,49.714756],[37.673887,49.714768],[37.674085,49.714974]]]}},{"type":"Feature","properties":{"cadnum":"6323785502:00:002:0085"},"geometry":{"type":"Polygon","coordinates":[[[37.678068,49.713708],[37.677923,49.713606],[37.677897,49.713619],[37.677835,49.713657],[37.677592986013984,49.713769],[37.677592,49.713769],[37.67754081506863,49.71379314383555],[37.677526,49.7138],[37.677526,49.71380013207547],[37.677486,49.713819],[37.677327,49.71388],[37.67732820661156,49.71388],[37.676547,49.714182],[37.676675,49.714297],[37.676863,49.71422],[37.67752,49.713952],[37.677698,49.713877],[37.677698,49.713876],[37.677698,49.713875732467535],[37.677911,49.713785],[37.678068,49.713708]]]}},{"type":"Feature","properties":{"cadnum":"6323785502:00:001:0054"},"geometry":{"type":"Polygon","coordinates":[[[37.677867,49.716555],[37.678245,49.716468],[37.678214,49.716376],[37.678534,49.716316],[37.678518,49.716195],[37.678158,49.716262],[37.677733,49.716364],[37.677698,49.71637310958904],[37.677698,49.716373],[37.677587,49.716402],[37.677526,49.716417],[37.677526,49.716417172588834],[37.67739,49.716451],[37.677484,49.716645],[37.677698,49.716595],[37.677698,49.71659464809384],[37.677867,49.716555]]]}},{"type":"Feature","properties":{"cadnum":"6323785502:00:002:0063"},"geometry":{"type":"Polygon","coordinates":[[[37.678924,49.715229],[37.678841,49.71509],[37.678452,49.715196],[37.677698,49.71541422030237],[37.677698,49.715414],[37.677108,49.715585],[37.677221,49.7157],[37.677526,49.71561559748427],[37.677526,49.715616],[37.678924,49.715229]]]}},{"type":"Feature","properties":{"cadnum":"6323785502:00:001:0066"},"geometry":{"type":"Polygon","coordinates":[[[37.677733,49.716364],[37.678158,49.716262],[37.678095,49.716042],[37.677608,49.716178],[37.677289,49.716267],[37.67739,49.716451],[37.677587,49.716402],[37.677733,49.716364]]]}},{"type":"Feature","properties":{"cadnum":"6323785502:00:002:0077"},"geometry":{"type":"Polygon","coordinates":[[[37.67892,49.715478],[37.679151,49.715409],[37.679509,49.715289],[37.679543,49.715277],[37.679454,49.71516],[37.679427,49.715125],[37.67933,49.715157],[37.67934,49.715171],[37.679314,49.715181],[37.679246,49.715207],[37.679134,49.715308],[37.67901,49.715348],[37.678862,49.715382],[37.677604,49.715684],[37.677665,49.715774],[37.67892,49.715478]]]}},{"type":"Feature","properties":{"cadnum":"6323785502:00:002:0060"},"geometry":{"type":"Polygon","coordinates":[[[37.678174,49.714199],[37.678239,49.714174],[37.678311,49.714144],[37.678469,49.714073],[37.678414,49.714022],[37.678414,49.714005],[37.678354,49.713956],[37.677526,49.714318],[37.677526,49.71431800255755],[37.676916,49.714584],[37.677025,49.714683],[37.677698,49.7144],[37.677698,49.71439953703704],[37.678174,49.714199]]]}},{"type":"Feature","properties":{"cadnum":"6323785502:00:002:0061"},"geometry":{"type":"Polygon","coordinates":[[[37.677835,49.713657],[37.677897,49.713619],[37.677923,49.713606],[37.677797,49.713521],[37.677748,49.713545],[37.677557341177256,49.71364204705843],[37.677502,49.71367],[37.677417,49.713708],[37.6772616627907,49.713769],[37.677261,49.713769],[37.67700498304591,49.71386979661211],[37.676979,49.71388],[37.67697906709264,49.71388],[37.676466,49.714082],[37.676547,49.714182],[37.677486,49.713819],[37.677698,49.713721],[37.677698,49.713720401294495],[37.677835,49.713657]]]}},{"type":"Feature","properties":{"cadnum":"6323785502:00:002:0095"},"geometry":{"type":"Polygon","coordinates":[[[37.676612,49.713643],[37.676983,49.713499],[37.677065,49.713466],[37.67719,49.713405],[37.677282,49.713329],[37.677402,49.713244],[37.677246,49.713159],[37.677206,49.713189],[37.677131,49.713239],[37.676934,49.713351],[37.676889,49.713373],[37.676592,49.713528],[37.67610738043479,49.713769],[37.676106,49.713769],[37.676037,49.713804],[37.675892,49.71388],[37.6758929650655,49.71388],[37.675603,49.714033],[37.675661,49.714082],[37.675991,49.713938],[37.676301,49.713791],[37.676612,49.713643]]]}},{"type":"Feature","properties":{"cadnum":"6323785502:00:001:0074"},"geometry":{"type":"Polygon","coordinates":[[[37.676325,49.717353],[37.676446,49.717321],[37.676445228571446,49.717321],[37.676851,49.717213],[37.677109,49.717141],[37.677451,49.717047],[37.67739,49.716915],[37.677366,49.716877],[37.67736,49.716869],[37.677099,49.716942],[37.676967,49.716978],[37.676207,49.717194],[37.675977,49.717259],[37.676012209876546,49.717321],[37.676011,49.717321],[37.676069,49.717421],[37.676325,49.717353]]]}},{"type":"Feature","properties":{"cadnum":"6323785502:00:002:0091"},"geometry":{"type":"Polygon","coordinates":[[[37.677533,49.716078],[37.677698,49.716031],[37.677698,49.71603022222222],[37.67783,49.715992],[37.677984,49.715953],[37.677816,49.715738],[37.677698,49.715766132450334],[37.677698,49.715766],[37.677665,49.715774],[37.677604,49.715684],[37.677552,49.715608],[37.677221,49.7157],[37.677006,49.715769],[37.677081,49.715959],[37.677104,49.71599],[37.67723,49.716168],[37.677526,49.71608007920792],[37.677526,49.716081],[37.677533,49.716078]]]}},{"type":"Feature","properties":{"cadnum":"6323785502:00:001:0076"},"geometry":{"type":"Polygon","coordinates":[[[37.677984,49.716772],[37.678339,49.716694],[37.678229,49.716471],[37.677867,49.716555],[37.677526,49.716635],[37.677526,49.71663518691589],[37.677484,49.716645],[37.6775,49.716678],[37.677517,49.716713],[37.677526,49.71673018181818],[37.677526,49.716731],[37.677594,49.71686],[37.677698,49.716837],[37.677698,49.71683653333333],[37.677984,49.716772]]]}},{"type":"Feature","properties":{"cadnum":"6323785502:00:002:0071"},"geometry":{"type":"Polygon","coordinates":[[[37.675665,49.716196],[37.676246,49.716008],[37.676757,49.715836],[37.676649,49.71569],[37.676259,49.715824],[37.675559,49.716066],[37.675665,49.716196]]]}},{"type":"Feature","properties":{"cadnum":"6323785502:00:002:0104"},"geometry":{"type":"Polygon","coordinates":[[[37.675015,49.715552],[37.675794,49.715259],[37.675788,49.715254],[37.675928,49.715194],[37.675963,49.715215],[37.67605,49.715179],[37.676196,49.71512],[37.676118,49.715036],[37.676039,49.714986],[37.675916,49.715027],[37.675908,49.715021],[37.675776,49.715062],[37.675554,49.71514],[37.675413,49.715189],[37.675019,49.715331],[37.675015,49.715552]]]}},{"type":"Feature","properties":{"cadnum":"6323785502:00:002:0084"},"geometry":{"type":"Polygon","coordinates":[[[37.67762530795817,49.71532212456754],[37.677698,49.715305],[37.677698,49.715304648083624],[37.677813,49.715277],[37.678303,49.715079],[37.678758,49.714911],[37.678901,49.714853],[37.6791,49.714757],[37.679019,49.714671],[37.678817,49.714761],[37.678457,49.714928],[37.677773,49.715205],[37.677526,49.715279],[37.677526,49.715279016949154],[37.677462,49.715298],[37.676918,49.715457],[37.676957,49.71551],[37.67749,49.715354],[37.677526,49.715345519230766],[37.677526,49.715346],[37.67762530795817,49.71532212456754]]]}},{"type":"Feature","properties":{"cadnum":"6323785502:00:001:0049"},"geometry":{"type":"Polygon","coordinates":[[[37.681083,49.724992],[37.681098,49.724775],[37.680482,49.724771],[37.680231,49.724778],[37.679554,49.724777],[37.679552,49.72496],[37.679645,49.724962],[37.680383,49.724981],[37.681083,49.724992]]]}},{"type":"Feature","properties":{"cadnum":"6323785502:00:001:0022"},"geometry":{"type":"Polygon","coordinates":[[[37.67846,49.725145],[37.679038,49.725118],[37.679495,49.725097],[37.680374,49.725096],[37.680383,49.724981],[37.679645,49.724962],[37.678822,49.724943],[37.678488,49.724938],[37.678441,49.725051],[37.678444,49.725061],[37.67846,49.725145]]]}},{"type":"Feature","properties":{"cadnum":"6323785502:00:001:0021"},"geometry":{"type":"Polygon","coordinates":[[[37.681589,49.72515],[37.681589,49.725044],[37.681574,49.725006],[37.681451,49.725003],[37.68143,49.725003],[37.681318,49.725002],[37.681259,49.725002],[37.681259,49.725025],[37.681264,49.725128],[37.681345,49.725133],[37.681432,49.725134],[37.681448,49.725134],[37.681522,49.725135],[37.681522,49.725149],[37.681589,49.72515]]]}},{"type":"Feature","properties":{"cadnum":"6323785502:00:002:0096"},"geometry":{"type":"Polygon","coordinates":[[[37.663468,49.711874],[37.6636,49.71172],[37.663139,49.711593],[37.662756,49.711506],[37.66257,49.711463],[37.662485,49.711567],[37.662595,49.711607],[37.662659,49.71163],[37.662701,49.711665],[37.662947,49.711735],[37.663468,49.711874]]]}},{"type":"Feature","properties":{"cadnum":"6323785502:00:002:0032"},"geometry":{"type":"Polygon","coordinates":[[[37.66671,49.712793],[37.666744,49.712813],[37.666851,49.712874],[37.666883,49.712891],[37.667001,49.712957],[37.66735,49.713156],[37.667681,49.713297],[37.667934,49.713316],[37.668361,49.713355],[37.668414,49.713284],[37.668178,49.713238],[37.667735,49.713098],[37.667347,49.712938],[37.667122,49.712808],[37.666934,49.712698],[37.666788,49.712614],[37.666622,49.712741],[37.66671,49.712793]]]}},{"type":"Feature","properties":{"cadnum":"6323785502:00:002:0042"},"geometry":{"type":"Polygon","coordinates":[[[37.661732,49.712219],[37.661778,49.712162],[37.661836,49.712089],[37.661864,49.712052],[37.66196,49.711931],[37.661735,49.711895],[37.661532,49.711867],[37.661377,49.712145],[37.661508,49.712173],[37.661732,49.712219]]]}},{"type":"Feature","properties":{"cadnum":"6323785502:00:002:0092"},"geometry":{"type":"Polygon","coordinates":[[[37.66446,49.711212],[37.664535,49.71111],[37.664459,49.71106],[37.664032,49.710794],[37.66371,49.710598],[37.663512,49.710472],[37.663355,49.710608],[37.663666,49.710783],[37.663878,49.710894],[37.66446,49.711212]]]}},{"type":"Feature","properties":{"cadnum":"6323785502:00:002:0058"},"geometry":{"type":"Polygon","coordinates":[[[37.664503,49.710103],[37.664417,49.710176],[37.664384,49.710206],[37.664373,49.710213],[37.664385,49.710219],[37.664241,49.710328],[37.66424241919193,49.710328],[37.664126,49.710417],[37.663991,49.71053],[37.664252,49.710671],[37.664606,49.710375],[37.664785,49.710236],[37.664503,49.710103]]]}},{"type":"Feature","properties":{"cadnum":"6323785502:00:002:0062"},"geometry":{"type":"Polygon","coordinates":[[[37.662286,49.713084],[37.662309,49.713038],[37.662294,49.713036],[37.662359,49.712881],[37.662332,49.712824],[37.662215,49.712805],[37.662163,49.712804],[37.662108,49.712809],[37.662029,49.712895],[37.66194,49.712876],[37.66187,49.712983],[37.662074,49.713042],[37.662286,49.713084]]]}},{"type":"Feature","properties":{"cadnum":"6323785502:00:002:0028"},"geometry":{"type":"Polygon","coordinates":[[[37.664172,49.713543],[37.664209,49.713472],[37.664373,49.713146],[37.664447,49.713042],[37.664561,49.712897],[37.664382,49.712804],[37.664224,49.712928],[37.664098,49.713061],[37.664038,49.71305],[37.663898,49.713254],[37.663776,49.713433],[37.663764,49.713451],[37.664172,49.713543]]]}},{"type":"Feature","properties":{"cadnum":"6323785502:00:002:0082"},"geometry":{"type":"Polygon","coordinates":[[[37.666712,49.7117],[37.666686,49.711686],[37.666395,49.711502],[37.666189,49.711651],[37.66654,49.711875827915875],[37.66654,49.711876],[37.666988,49.712163],[37.66726,49.711997],[37.666712,49.711700087108014],[37.666712,49.7117]]]}},{"type":"Feature","properties":{"cadnum":"6323785502:00:002:0064"},"geometry":{"type":"Polygon","coordinates":[[[37.66552,49.711271],[37.665608,49.711037],[37.665376,49.710989],[37.66485,49.710904],[37.664728,49.711103],[37.665251,49.711215],[37.66552,49.711271]]]}},{"type":"Feature","properties":{"cadnum":"6323785502:00:002:0094"},"geometry":{"type":"Polygon","coordinates":[[[37.663401,49.711938],[37.663468,49.711874],[37.662947,49.711735],[37.662701,49.711665],[37.662659,49.71163],[37.662595,49.711607],[37.662485,49.711567],[37.662357,49.711721],[37.662541,49.711781],[37.662898,49.711869],[37.662969,49.711883],[37.663162,49.711891],[37.663236,49.711899],[37.663401,49.711938]]]}},{"type":"Feature","properties":{"cadnum":"6323785502:00:002:0066"},"geometry":{"type":"Polygon","coordinates":[[[37.661047,49.71229779295154],[37.661047,49.712298],[37.661168,49.712285],[37.661141,49.712082],[37.660776,49.712056],[37.660775,49.712137],[37.659745,49.712109],[37.659764,49.712232],[37.660941,49.712309],[37.661047,49.71229779295154]]]}},{"type":"Feature","properties":{"cadnum":"6323785502:00:002:0052"},"geometry":{"type":"Polygon","coordinates":[[[37.666712,49.71345929946524],[37.667288,49.713611],[37.667372,49.713617],[37.667546,49.713479],[37.667474,49.713459],[37.667101,49.713382],[37.666924,49.713321],[37.666666,49.713183],[37.666299,49.712989],[37.666075,49.713258],[37.666436,49.713387],[37.666712,49.71346],[37.666712,49.71345929946524]]]}},{"type":"Feature","properties":{"cadnum":"6323785502:00:002:0027"},"geometry":{"type":"Polygon","coordinates":[[[37.66472,49.713482],[37.664828,49.713281],[37.664731,49.713221],[37.664732,49.713198],[37.664743,49.713199],[37.664758,49.713165],[37.664743,49.713162],[37.664779,49.713074],[37.664815,49.712966],[37.66464,49.712917],[37.664628,49.712913],[37.664561,49.712897],[37.664447,49.713042],[37.664373,49.713146],[37.664209,49.713472],[37.66472,49.713482]]]}},{"type":"Feature","properties":{"cadnum":"6323785502:00:002:0083"},"geometry":{"type":"Polygon","coordinates":[[[37.666536,49.712744],[37.666395,49.712853],[37.666457,49.712885],[37.666523,49.712918],[37.666556,49.712934],[37.666629,49.712965],[37.666658,49.712977],[37.666759,49.713037],[37.666814,49.713066],[37.667004,49.713199],[37.667242,49.713304],[37.667589,49.713413],[37.667689,49.713436],[37.668019,49.713479],[37.668145,49.713476],[37.668276,49.713491],[37.668588,49.713502],[37.668589,49.713392],[37.668486,49.713384],[37.668081,49.713369],[37.667664,49.713313],[37.667334,49.713171],[37.66668579652578,49.71282485607926],[37.666536,49.712744]]]}},{"type":"Feature","properties":{"cadnum":"6323785502:00:002:0029"},"geometry":{"type":"Polygon","coordinates":[[[37.663764,49.713451],[37.663776,49.713433],[37.663898,49.713254],[37.664038,49.713049],[37.663776,49.712977],[37.663716,49.712957],[37.663587,49.713123],[37.663552,49.713169],[37.663356,49.713099],[37.663155,49.713279],[37.663764,49.713451]]]}},{"type":"Feature","properties":{"cadnum":"6323785502:00:002:0089"},"geometry":{"type":"Polygon","coordinates":[[[37.666712,49.711417],[37.6666,49.711352],[37.666395,49.711502],[37.66654,49.7115936838488],[37.66654,49.711594],[37.666686,49.711686],[37.66726,49.711997],[37.667535,49.7119],[37.667225,49.71171],[37.666889,49.71152],[37.666712,49.711417107266435],[37.666712,49.711417]]]}},{"type":"Feature","properties":{"cadnum":"6323785502:00:002:0073"},"geometry":{"type":"Polygon","coordinates":[[[37.664247,49.710181],[37.664114,49.710167],[37.663959000000006,49.710217],[37.663957,49.710217],[37.663928,49.710227],[37.663768,49.710328],[37.66376914070352,49.710328],[37.663615,49.710426],[37.664578,49.710962],[37.664672,49.7109],[37.664515,49.710815],[37.664252,49.710671],[37.663991,49.71053],[37.664126,49.710417],[37.664364,49.710234],[37.664247,49.710181]]]}},{"type":"Feature","properties":{"cadnum":"6323785502:00:002:0078"},"geometry":{"type":"Polygon","coordinates":[[[37.661219,49.71196372527473],[37.661229,49.711964],[37.661231,49.711946],[37.661254,49.711947],[37.661219,49.71176302564105],[37.661219,49.711763],[37.661215,49.711742],[37.661056,49.711732],[37.660816,49.71173],[37.659985,49.711726],[37.659966,49.711832],[37.660513,49.711892],[37.660639,49.711898],[37.66076,49.711941],[37.660803,49.71195],[37.660901,49.711954],[37.661047,49.71195859119497],[37.661047,49.711959],[37.661149869565236,49.711961826086956],[37.661219,49.711964],[37.661219,49.71196372527473]]]}},{"type":"Feature","properties":{"cadnum":"6323785502:00:002:0093"},"geometry":{"type":"Polygon","coordinates":[[[37.662765,49.710776],[37.662857,49.710606],[37.662876,49.710569],[37.662794,49.710553],[37.66271,49.710534],[37.662108,49.71041],[37.661868,49.710397],[37.661794,49.710568],[37.662179,49.710644],[37.662424,49.710697],[37.662765,49.710776]]]}},{"type":"Feature","properties":{"cadnum":"6323785502:00:002:0076"},"geometry":{"type":"Polygon","coordinates":[[[37.665431,49.711487],[37.665498,49.711321],[37.665517,49.711276],[37.66552,49.711271],[37.665269,49.711219],[37.665251,49.711215],[37.664748,49.711108],[37.664649,49.711337],[37.665431,49.711487]]]}},{"type":"Feature","properties":{"cadnum":"6323785502:00:002:0097"},"geometry":{"type":"Polygon","coordinates":[[[37.664009,49.711736],[37.664068,49.711639],[37.663256,49.711444],[37.663212,49.711443],[37.662925,49.711373],[37.662785,49.711338],[37.662731,49.711327],[37.662679,49.711314],[37.66257,49.711463],[37.662756,49.711506],[37.663139,49.711593],[37.6636,49.71172],[37.663704,49.711676],[37.664009,49.711736]]]}},{"type":"Feature","properties":{"cadnum":"6323785502:00:002:0088"},"geometry":{"type":"Polygon","coordinates":[[[37.670244,49.712421],[37.670317,49.712337],[37.670677,49.711892],[37.670499,49.711834],[37.67009,49.712382],[37.670244,49.712421]]]}},{"type":"Feature","properties":{"cadnum":"6323785502:00:002:0098"},"geometry":{"type":"Polygon","coordinates":[[[37.670047,49.71163],[37.670299,49.711245],[37.670323,49.711253],[37.670408,49.711103],[37.670466,49.710976],[37.670459,49.710949],[37.670449,49.710927],[37.670425,49.710915],[37.670436,49.7109],[37.670476,49.710842],[37.670502,49.710807],[37.670511,49.710791],[37.670287,49.71072],[37.670227,49.710704],[37.67015,49.710686],[37.670061,49.710912],[37.669998,49.711038],[37.669939,49.711314],[37.669822,49.711566],[37.670047,49.71163]]]}},{"type":"Feature","properties":{"cadnum":"6323785502:00:002:0087"},"geometry":{"type":"Polygon","coordinates":[[[37.669064,49.712208],[37.669035,49.711493],[37.668954,49.71103],[37.668733,49.711045],[37.668758,49.711152],[37.668813,49.711503],[37.668852,49.711735],[37.668911,49.712078],[37.668933,49.712204],[37.669064,49.712208]]]}},{"type":"Feature","properties":{"cadnum":"6323785502:00:002:0112"},"geometry":{"type":"Polygon","coordinates":[[[37.67009,49.712382],[37.670499,49.711834],[37.670562,49.711749],[37.670778,49.711418],[37.670915,49.711226],[37.670998,49.711053],[37.671065,49.71094],[37.670883,49.710916],[37.670801,49.711045],[37.670813,49.711051],[37.67079,49.711088],[37.67081,49.711093],[37.670782,49.711139],[37.670757,49.711131],[37.670712,49.711192],[37.670624,49.711325],[37.670444,49.711611],[37.670122,49.712082],[37.669922,49.712351],[37.67009,49.712382]]]}},{"type":"Feature","properties":{"cadnum":"6323785502:00:002:0004"},"geometry":{"type":"Polygon","coordinates":[[[37.670466,49.712414],[37.670958,49.711826],[37.671347,49.711321],[37.671538,49.711049],[37.671294,49.710998],[37.671135,49.711272],[37.670711,49.711878],[37.670695,49.71187],[37.670317,49.712337],[37.670466,49.712414]]]}},{"type":"Feature","properties":{"cadnum":"6323785502:00:002:0080"},"geometry":{"type":"Polygon","coordinates":[[[37.669764,49.712288],[37.670479,49.711241],[37.670597,49.711061],[37.670728,49.710875],[37.670719,49.710868],[37.670672,49.710857],[37.670502,49.710807],[37.670476,49.710842],[37.670436,49.7109],[37.670425,49.710915],[37.670449,49.710927],[37.670459,49.710949],[37.670466,49.710976],[37.670408,49.711103],[37.670323,49.711253],[37.670299,49.711245],[37.670004,49.711697],[37.669934,49.711675],[37.669721,49.711977],[37.669779,49.711996],[37.669631,49.712263],[37.669764,49.712288]]]}},{"type":"Feature","properties":{"cadnum":"6323785502:00:002:0044"},"geometry":{"type":"Polygon","coordinates":[[[37.669343,49.711697],[37.669366,49.711532],[37.669492,49.711168],[37.669347,49.710775],[37.669082,49.710843],[37.669138,49.710975],[37.668968,49.711029],[37.669051,49.71131],[37.669119,49.711695],[37.669343,49.711697]]]}},{"type":"Feature","properties":{"cadnum":"6323785502:00:002:0072"},"geometry":{"type":"Polygon","coordinates":[[[37.670677,49.711892],[37.670695,49.71187],[37.670711,49.711878],[37.671135,49.711272],[37.671294,49.710998],[37.671298,49.710993],[37.67116,49.710962],[37.671154,49.710964],[37.671103,49.710952],[37.671065,49.71094],[37.670998,49.711053],[37.670915,49.711226],[37.670778,49.711418],[37.670562,49.711749],[37.670499,49.711834],[37.670677,49.711892]]]}},{"type":"Feature","properties":{"cadnum":"6323785502:00:002:0026"},"geometry":{"type":"Polygon","coordinates":[[[37.668592,49.713319],[37.668608,49.713278],[37.668217,49.713182],[37.667726,49.713031],[37.667397,49.712898],[37.667231,49.712792],[37.667038,49.712664],[37.666995,49.712636],[37.666882,49.712565],[37.666838,49.712536],[37.666812,49.712552],[37.666749,49.712591],[37.666788,49.712614],[37.667347,49.712938],[37.667735,49.713098],[37.668178,49.713238],[37.668592,49.713319]]]}},{"type":"Feature","properties":{"cadnum":"6323785502:00:002:0090"},"geometry":{"type":"Polygon","coordinates":[[[37.670462,49.712605],[37.670804,49.712187],[37.670838,49.712199],[37.671095,49.711861],[37.671225,49.711727],[37.671418,49.711502],[37.671553,49.711307],[37.671615,49.711217],[37.671707,49.711083],[37.671538,49.711049],[37.671347,49.711321],[37.670958,49.711826],[37.670466,49.712414],[37.670339,49.712567],[37.670462,49.712605]]]}},{"type":"Feature","properties":{"cadnum":"6323785502:00:002:0045"},"geometry":{"type":"Polygon","coordinates":[[[37.669301,49.712438],[37.669289,49.712075],[37.669343,49.711697],[37.669119,49.711695],[37.669245,49.712416],[37.669301,49.712438]]]}},{"type":"Feature","properties":{"cadnum":"6323785502:00:002:0057"},"geometry":{"type":"Polygon","coordinates":[[[37.668077,49.712593],[37.668349,49.712526],[37.668223,49.712311],[37.667887,49.711928],[37.667858,49.71194],[37.667676,49.71201],[37.668077,49.712593]]]}},{"type":"Feature","properties":{"cadnum":"6323785502:00:001:0027"},"geometry":{"type":"Polygon","coordinates":[[[37.679652,49.715725],[37.679829,49.715666],[37.679857,49.715659],[37.679861,49.715622],[37.679847,49.715601],[37.679837,49.715589],[37.67982,49.71557],[37.679794,49.715562],[37.679746,49.715565],[37.679653,49.715598],[37.679672,49.715625],[37.679593,49.71565],[37.679652,49.715725]]]}},{"type":"Feature","properties":{"cadnum":"6323785502:00:001:0029"},"geometry":{"type":"Polygon","coordinates":[[[37.680013,49.715498],[37.680207,49.715454],[37.680045,49.715246],[37.679914,49.715047],[37.67969,49.715115],[37.679864,49.715358],[37.679904,49.715346],[37.680013,49.715498]]]}},{"type":"Feature","properties":{"cadnum":"6323785502:00:002:0103"},"geometry":{"type":"Polygon","coordinates":[[[37.677923,49.715877],[37.679085,49.715598],[37.679639,49.715409],[37.679543,49.715277],[37.679509,49.715289],[37.679151,49.715409],[37.67892,49.715478],[37.677816,49.715738],[37.677923,49.715877]]]}},{"type":"Feature","properties":{"cadnum":"6323785502:00:001:0077"},"geometry":{"type":"Polygon","coordinates":[[[37.678158,49.716262],[37.678518,49.716195],[37.678664,49.716165],[37.679281,49.716039],[37.679518,49.715986],[37.679684,49.715944],[37.680003,49.715857],[37.679915,49.715723],[37.679542,49.715834],[37.679399,49.715867],[37.679173,49.715921],[37.678607,49.716054],[37.67813,49.716162],[37.678158,49.716262]]]}},{"type":"Feature","properties":{"cadnum":"6323785502:00:001:0062"},"geometry":{"type":"Polygon","coordinates":[[[37.678712,49.71682],[37.679074,49.716745],[37.679982,49.716599],[37.680268,49.71656],[37.680348,49.716546],[37.68038,49.716524],[37.680311,49.7164],[37.680024,49.716461],[37.679743,49.716504],[37.678657,49.716658],[37.678712,49.71682]]]}},{"type":"Feature","properties":{"cadnum":"6323785502:00:001:0047"},"geometry":{"type":"Polygon","coordinates":[[[37.678826,49.717428],[37.678713,49.717209],[37.678186,49.717344],[37.678035,49.717377],[37.677854,49.717418],[37.67786,49.717432],[37.67786200930233,49.717432],[37.677977,49.717633],[37.678328,49.717548],[37.678809399999984,49.717432],[37.678811,49.717432],[37.678826,49.717428]]]}},{"type":"Feature","properties":{"cadnum":"6323785502:00:001:0067"},"geometry":{"type":"Polygon","coordinates":[[[37.678319,49.71664],[37.678872,49.716557],[37.679635,49.716426],[37.679908,49.716361],[37.680071,49.716323],[37.680248,49.716283],[37.680183,49.716174],[37.679922,49.71624],[37.679818,49.716266],[37.679533,49.716339],[37.678271,49.716535],[37.678319,49.71664]]]}},{"type":"Feature","properties":{"cadnum":"6323785502:00:001:0055"},"geometry":{"type":"Polygon","coordinates":[[[37.678744,49.716956],[37.679152,49.716892],[37.679926,49.716775],[37.680399,49.716704],[37.680358,49.716578],[37.680348,49.716546],[37.680268,49.71656],[37.679982,49.716599],[37.679074,49.716745],[37.678716,49.71682],[37.678744,49.716956]]]}},{"type":"Feature","properties":{"cadnum":"6323785502:00:002:0034"},"geometry":{"type":"Polygon","coordinates":[[[37.652661,49.713625],[37.652644,49.713353],[37.652642,49.71333],[37.652636,49.713249],[37.652645,49.71294],[37.652646,49.712879],[37.652648,49.712657],[37.65259,49.712656],[37.652581,49.712328],[37.652359,49.712309],[37.652066,49.712284],[37.651677,49.71253],[37.651552,49.713199],[37.651533,49.713286],[37.652319,49.71334],[37.652523,49.713351],[37.652487,49.713625],[37.652661,49.713625]]]}},{"type":"Feature","properties":{"cadnum":"6323785502:00:002:0043"},"geometry":{"type":"Polygon","coordinates":[[[37.652798,49.712565],[37.653202,49.712558],[37.653549,49.712552],[37.654041,49.712544],[37.654132,49.71254],[37.654293,49.712531],[37.654646,49.712509],[37.654513,49.712022],[37.654186,49.711997],[37.654152,49.712015],[37.65404,49.712007],[37.654013,49.711984],[37.653558,49.711947],[37.653526,49.711963],[37.653432,49.711958],[37.653419,49.711951],[37.653391,49.711939],[37.65302,49.711913],[37.652939,49.711906],[37.6529,49.711918],[37.652835,49.71191],[37.652831,49.711905],[37.652775,49.711902],[37.652771,49.711945],[37.652798,49.712565]]]}},{"type":"Feature","properties":{"cadnum":"6323785502:00:002:0033"},"geometry":{"type":"Polygon","coordinates":[[[37.654942,49.71337],[37.654749,49.712952],[37.65465,49.712526],[37.654646,49.712509],[37.654293,49.712531],[37.654132,49.71254],[37.654041,49.712544],[37.653549,49.712552],[37.653202,49.712558],[37.652798,49.712565],[37.652797,49.712565],[37.652831,49.712905],[37.652874,49.713359],[37.65291428384279,49.713769],[37.652913,49.713769],[37.652919,49.713817],[37.652927,49.71388],[37.65292739398281,49.71388],[37.653012,49.714515],[37.653027,49.714579],[37.653062,49.714741],[37.653696,49.71472],[37.65412,49.714705],[37.654697,49.71468],[37.655158,49.714665],[37.655168,49.714283],[37.655165,49.713907],[37.65511189610368,49.71378064935014],[37.654942,49.71337]]]}},{"type":"Feature","properties":{"cadnum":"6323785502:00:001:0046"},"geometry":{"type":"Polygon","coordinates":[[[37.677958,49.721721],[37.678538,49.721618],[37.678963,49.72153],[37.678912,49.721389],[37.678902,49.721361],[37.678894,49.721354],[37.67853,49.721421],[37.678176,49.721489],[37.677927,49.721536],[37.677901,49.721541],[37.677958,49.721721]]]}},{"type":"Feature","properties":{"cadnum":"6323785502:00:001:0039"},"geometry":{"type":"Polygon","coordinates":[[[37.679141,49.721416],[37.679607,49.721363],[37.680319,49.721283],[37.680296,49.721125],[37.680293,49.721104],[37.679507,49.721198],[37.679455,49.721205],[37.679097,49.721241],[37.679141,49.721416]]]}},{"type":"Feature","properties":{"cadnum":"6323785502:00:001:0040"},"geometry":{"type":"Polygon","coordinates":[[[37.681784,49.723695],[37.681797,49.723525],[37.680915,49.723525],[37.680147,49.723437],[37.680087,49.723564],[37.680834,49.723655],[37.681358,49.723687],[37.681705,49.72369],[37.681784,49.723695]]]}},{"type":"Feature","properties":{"cadnum":"6323785502:00:001:0048"},"geometry":{"type":"Polygon","coordinates":[[[37.680068,49.722299],[37.681324,49.721907],[37.681654,49.721833],[37.681595,49.721669],[37.681481,49.721684],[37.6813,49.721722],[37.681255,49.721733],[37.679946,49.722143],[37.680068,49.722299]]]}},{"type":"Feature","properties":{"cadnum":"6323785502:00:001:0036"},"geometry":{"type":"Polygon","coordinates":[[[37.679686,49.721856],[37.680241,49.721573],[37.680211,49.721552],[37.680248,49.721529],[37.680213,49.721498],[37.680073,49.721549],[37.679586,49.721738],[37.679585,49.721739],[37.679686,49.721856]]]}},{"type":"Feature","properties":{"cadnum":"6323785502:00:001:0063"},"geometry":{"type":"Polygon","coordinates":[[[37.677709,49.721391],[37.677855,49.721362],[37.678394,49.721256],[37.678834,49.721168],[37.67878,49.720991],[37.678452,49.721061],[37.678233,49.721105],[37.677732,49.721194],[37.677702,49.721199],[37.677709,49.721391]]]}},{"type":"Feature","properties":{"cadnum":"6323785502:00:001:0037"},"geometry":{"type":"Polygon","coordinates":[[[37.681471,49.721275],[37.681598,49.721258],[37.681704,49.721246],[37.681735,49.721248],[37.681853,49.721231],[37.681862,49.721231],[37.681827,49.721054],[37.681672,49.721076],[37.681605,49.721087],[37.681583,49.721091],[37.681408,49.721129],[37.681471,49.721275]]]}},{"type":"Feature","properties":{"cadnum":"6323785502:00:001:0050"},"geometry":{"type":"Polygon","coordinates":[[[37.680445,49.722904],[37.681428,49.722676],[37.681689,49.722638],[37.681772,49.72263],[37.681764,49.722598],[37.681717,49.722439],[37.681554,49.722474],[37.681406,49.722507],[37.680399,49.722795],[37.680445,49.722904]]]}},{"type":"Feature","properties":{"cadnum":"6323785502:00:001:0026"},"geometry":{"type":"Polygon","coordinates":[[[37.677927,49.721536],[37.678176,49.721489],[37.67853,49.721421],[37.678894,49.721354],[37.678851,49.721216],[37.678834,49.721168],[37.678394,49.721256],[37.677855,49.721362],[37.677927,49.721536]]]}},{"type":"Feature","properties":{"cadnum":"6323785502:00:001:0064"},"geometry":{"type":"Polygon","coordinates":[[[37.6787,49.720776],[37.6782003756906,49.720872],[37.678197,49.720872],[37.677758,49.720957],[37.677702,49.721199],[37.677732,49.721194],[37.678233,49.721105],[37.678452,49.721061],[37.67878,49.720991],[37.678743468634565,49.720894394833614],[37.6787,49.720776]]]}},{"type":"Feature","properties":{"cadnum":"6323785502:00:001:0053"},"geometry":{"type":"Polygon","coordinates":[[[37.681193,49.720899],[37.681241,49.720895],[37.681366,49.720885],[37.681606,49.720867],[37.681563,49.720608],[37.681036,49.720654],[37.680329,49.72074],[37.68037430508475,49.720872],[37.680374,49.720872],[37.68041,49.720976],[37.681193,49.720899]]]}},{"type":"Feature","properties":{"cadnum":"6323785502:00:002:0039"},"geometry":{"type":"Polygon","coordinates":[[[37.654014,49.715408],[37.654143,49.715398],[37.654647,49.715359],[37.654604,49.715003],[37.65421,49.715021],[37.654075,49.715026],[37.653961,49.714911],[37.653349,49.714937],[37.65335,49.714948],[37.65389,49.714975],[37.653965,49.714999],[37.653971,49.715026],[37.654014,49.715408]]]}},{"type":"Feature","properties":{"cadnum":"6323785502:00:002:0031"},"geometry":{"type":"Polygon","coordinates":[[[37.651706,49.716734],[37.651805,49.71673],[37.65191,49.716682],[37.651981,49.716665],[37.652145,49.716662],[37.652228,49.716669],[37.652284,49.71667],[37.65231,49.716643],[37.652311,49.716625],[37.653006,49.716647],[37.653008,49.716623],[37.65302,49.716455],[37.653041,49.716229],[37.652999,49.71618],[37.652937,49.716133],[37.652905,49.71615],[37.652851,49.716109],[37.652884,49.716091],[37.652873,49.716084],[37.652799,49.716025],[37.652776,49.716003],[37.652743,49.715986],[37.652657,49.715986],[37.652614,49.715994],[37.652534,49.715974],[37.652464,49.715942],[37.652279,49.715899],[37.65222,49.715885],[37.652174,49.715886],[37.651921,49.715942],[37.651419,49.716056],[37.651398,49.71608],[37.651521,49.716325],[37.651697,49.716667],[37.651706,49.716734]],[[37.652972,49.716339],[37.652956,49.716319],[37.652987,49.716309],[37.653003,49.71633],[37.652972,49.716339]],[[37.65237,49.716534],[37.652355,49.716514],[37.652386,49.716503],[37.652402,49.716523],[37.65237,49.716534]],[[37.651761,49.71673],[37.65176,49.716708],[37.651795,49.716707],[37.651796,49.716729],[37.651761,49.71673]]]}},{"type":"Feature","properties":{"cadnum":"6323785502:00:002:0037"},"geometry":{"type":"Polygon","coordinates":[[[37.650232,49.716780620183485],[37.650678,49.71686],[37.650836,49.71645],[37.650877,49.716345],[37.650963,49.716127],[37.650497,49.716042],[37.650393,49.716023],[37.650315,49.716009],[37.650427,49.715749],[37.650068956521324,49.71568443478253],[37.649857,49.715646],[37.649754,49.715907],[37.649636,49.716206],[37.649475,49.71664],[37.650061,49.71674954103344],[37.650061,49.71675],[37.650133,49.716763],[37.650232,49.716782],[37.650232,49.716780620183485]]]}},{"type":"Feature","properties":{"cadnum":"6323785502:00:001:0068"},"geometry":{"type":"Polygon","coordinates":[[[37.67762272371723,49.71836160880174],[37.677698,49.718343],[37.677698,49.71834262608696],[37.677756,49.718328],[37.678067,49.718253],[37.677973,49.718084],[37.677526,49.718193],[37.677526,49.7181936969697],[37.676906,49.718344],[37.676659,49.718404],[37.676762,49.718575],[37.676982,49.71852],[37.677526,49.71838551955307],[37.677526,49.718386],[37.67762272371723,49.71836160880174]]]}},{"type":"Feature","properties":{"cadnum":"6323785502:00:001:0057"},"geometry":{"type":"Polygon","coordinates":[[[37.677973,49.718084],[37.677885,49.717917],[37.677603,49.717984],[37.676897,49.718167],[37.676797,49.718191],[37.676906,49.718344],[37.677698,49.718152],[37.677698,49.718151058165546],[37.677973,49.718084]]]}},{"type":"Feature","properties":{"cadnum":"6323785502:00:001:0043"},"geometry":{"type":"Polygon","coordinates":[[[37.677603,49.717984],[37.677698,49.717962],[37.677698,49.71796142907802],[37.677885,49.717917],[37.677803,49.717758],[37.677791,49.717735],[37.677752,49.717744],[37.677526,49.717801],[37.677526,49.71780151190477],[37.677362,49.717843],[37.676792,49.717997],[37.676897,49.718167],[37.677526,49.71800395892351],[37.677526,49.718004],[37.677603,49.717984]]]}},{"type":"Feature","properties":{"cadnum":"6323785502:00:001:0070"},"geometry":{"type":"Polygon","coordinates":[[[37.677811,49.7185],[37.678162,49.718419],[37.678067,49.718253],[37.677756,49.718328],[37.67762272371723,49.71836160880174],[37.676982,49.71852],[37.676762,49.718575],[37.676864,49.71874],[37.677091,49.718683],[37.677698,49.71853],[37.677698,49.718528943859646],[37.677811,49.7185]]]}},{"type":"Feature","properties":{"cadnum":"6323785502:00:001:0017"},"geometry":{"type":"Polygon","coordinates":[[[37.678308,49.719496],[37.678645,49.71943],[37.678579,49.719277],[37.678245,49.719352],[37.677560945322085,49.71951468894287],[37.677525,49.719523],[37.677526,49.71952456043956],[37.677526,49.719526],[37.677616,49.719665],[37.677698,49.719646],[37.677698,49.71964497398844],[37.678308,49.719496]]]}},{"type":"Feature","properties":{"cadnum":"6323785502:00:001:0045"},"geometry":{"type":"Polygon","coordinates":[[[37.677560945322085,49.71951468894287],[37.677698,49.719483],[37.677698,49.71948209318498],[37.678245,49.719352],[37.678579,49.719277],[37.678524,49.719145],[37.678508,49.71911],[37.678504,49.719102],[37.678141,49.719189],[37.677526,49.719339],[37.677526,49.71934013654619],[37.677449,49.719359],[37.677525,49.719523],[37.677526,49.71952276878613],[37.677526,49.719523],[37.677560945322085,49.71951468894287]]]}},{"type":"Feature","properties":{"cadnum":"6323785502:00:001:0069"},"geometry":{"type":"Polygon","coordinates":[[[37.678141,49.719189],[37.678504,49.719102],[37.678422,49.718929],[37.678244,49.718974],[37.678178,49.718987],[37.67805,49.719019],[37.677698,49.719101625954195],[37.677698,49.719101],[37.677341,49.719184],[37.677186,49.719221],[37.677293,49.719397],[37.677449,49.719359],[37.677698,49.719298],[37.677698,49.71929704878048],[37.678141,49.719189]]]}},{"type":"Feature","properties":{"cadnum":"6323785502:00:001:0056"},"geometry":{"type":"Polygon","coordinates":[[[37.678727,49.71962],[37.678684,49.719498],[37.678664,49.719457],[37.678645,49.71943],[37.678308,49.719496],[37.677616,49.719665],[37.677526,49.719687],[37.677526,49.71968715384615],[37.677486,49.719697],[37.677509,49.719916],[37.677526,49.71991195238095],[37.677526,49.719913],[37.678727,49.71962]]]}},{"type":"Feature","properties":{"cadnum":"6323785502:00:002:0070"},"geometry":{"type":"Polygon","coordinates":[[[37.674349,49.713603],[37.674475,49.713487],[37.674296,49.713407],[37.674168,49.713522],[37.674349,49.713603]]]}},{"type":"Feature","properties":{"cadnum":"6323785502:00:002:0075"},"geometry":{"type":"Polygon","coordinates":[[[37.672931,49.713001],[37.673158,49.712774],[37.672867,49.712658],[37.672615,49.712911],[37.672931,49.713001]]]}},{"type":"Feature","properties":{"cadnum":"6323785502:00:002:0059"},"geometry":{"type":"Polygon","coordinates":[[[37.674728,49.713413],[37.675666,49.712605],[37.675739,49.712531],[37.675892,49.712407],[37.67574,49.712333],[37.675515,49.712534],[37.674616,49.713358],[37.674728,49.713413]]]}},{"type":"Feature","properties":{"cadnum":"6323785502:00:002:0051"},"geometry":{"type":"Polygon","coordinates":[[[37.6725,49.712883],[37.673171,49.712258],[37.673085,49.712175],[37.67322,49.711994],[37.673546,49.71158],[37.673444,49.711549],[37.673439,49.711554],[37.673413,49.71159],[37.673345,49.711674],[37.673191,49.711899],[37.672808,49.712312],[37.672359,49.712821],[37.6725,49.712883]]]}},{"type":"Feature","properties":{"cadnum":"6323785502:00:002:0101"},"geometry":{"type":"Polygon","coordinates":[[[37.67563,49.713551],[37.675916,49.713309],[37.676155,49.71314],[37.676353,49.712994],[37.676388,49.712963],[37.676537,49.712832],[37.676251,49.712681],[37.675799,49.713076],[37.675397,49.713416],[37.67563,49.713551]]]}},{"type":"Feature","properties":{"cadnum":"6323785502:00:002:0074"},"geometry":{"type":"Polygon","coordinates":[[[37.673158,49.712774],[37.67346,49.712476],[37.673385,49.712448],[37.673723,49.712104],[37.673938,49.711849],[37.673899,49.711809],[37.673958,49.711725],[37.67383,49.711693],[37.672867,49.712658],[37.673158,49.712774]]]}},{"type":"Feature","properties":{"cadnum":"6323785502:00:002:0046"},"geometry":{"type":"Polygon","coordinates":[[[37.674714,49.713022],[37.675343,49.712444],[37.675357,49.712435],[37.675401,49.712402],[37.675536,49.712246],[37.675389,49.712202],[37.675174,49.712428],[37.675135,49.712466],[37.675123,49.712477],[37.674607,49.712979],[37.674714,49.713022]]]}},{"type":"Feature","properties":{"cadnum":"6323785502:00:002:0099"},"geometry":{"type":"Polygon","coordinates":[[[37.674164,49.713232],[37.674378,49.713001],[37.674486,49.712883],[37.674966,49.712418],[37.675222,49.712146],[37.675131,49.712095],[37.675086,49.712077],[37.675079,49.712078],[37.674974,49.712187],[37.674874,49.712291],[37.674783,49.712369],[37.674766,49.712387],[37.674547,49.712604],[37.674335,49.712807],[37.674129,49.713009],[37.67403,49.713109],[37.673981,49.713158],[37.674164,49.713232]]]}},{"type":"Feature","properties":{"cadnum":"6323785502:00:002:0069"},"geometry":{"type":"Polygon","coordinates":[[[37.674475,49.713487],[37.675515,49.712534],[37.67574,49.712333],[37.675536,49.712246],[37.675516,49.712271],[37.675473,49.712319],[37.675401,49.712402],[37.675357,49.712435],[37.675343,49.712444],[37.674714,49.713022],[37.674296,49.713407],[37.674475,49.713487]]]}},{"type":"Feature","properties":{"cadnum":"6323785502:00:002:0068"},"geometry":{"type":"Polygon","coordinates":[[[37.6757,49.713757],[37.675813,49.713677],[37.676576,49.713131],[37.676643,49.713077],[37.676692,49.713042],[37.676792,49.712969],[37.676641,49.712887],[37.676537,49.712832],[37.676388,49.712963],[37.676353,49.712994],[37.676155,49.71314],[37.675916,49.713309],[37.675519,49.713645],[37.6757,49.713757]]]}},{"type":"Feature","properties":{"cadnum":"6323785502:00:002:0050"},"geometry":{"type":"Polygon","coordinates":[[[37.662552,49.710265],[37.662714,49.709737],[37.662375,49.709692],[37.662212,49.710221],[37.662552,49.710265]]]}},{"type":"Feature","properties":{"cadnum":"6323785502:00:002:0036"},"geometry":{"type":"Polygon","coordinates":[[[37.663127,49.709959],[37.663178,49.709794],[37.663076,49.709778],[37.663099,49.709717],[37.663052,49.70971],[37.663029,49.70977],[37.662896,49.70975],[37.662841,49.709924],[37.663127,49.709959]]]}},{"type":"Feature","properties":{"cadnum":"6323785502:00:002:0086"},"geometry":{"type":"Polygon","coordinates":[[[37.66254,49.707519],[37.662848,49.707506],[37.663533,49.707444],[37.663481,49.707216],[37.66253,49.707306],[37.66254,49.707519]]]}},{"type":"Feature","properties":{"cadnum":"6323785502:00:002:0065"},"geometry":{"type":"Polygon","coordinates":[[[37.66383,49.707597],[37.664559,49.70751],[37.664633,49.707502],[37.664806,49.70748],[37.664919,49.707465],[37.664837,49.707228],[37.663783,49.707388],[37.66383,49.707597]]]}},{"type":"Feature","properties":{"cadnum":"6323785502:00:002:0079"},"geometry":{"type":"Polygon","coordinates":[[[37.664374,49.708672],[37.66485,49.708628],[37.664866,49.708627],[37.665026,49.708601],[37.665047,49.708599],[37.665136,49.708592],[37.665237,49.708583],[37.665308,49.708577],[37.665214,49.708378],[37.66474,49.70843],[37.664333,49.708473],[37.664374,49.708672]]]}},{"type":"Feature","properties":{"cadnum":"6323785502:00:002:0048"},"geometry":{"type":"Polygon","coordinates":[[[37.663666,49.707256],[37.664358,49.707163],[37.664797,49.707094],[37.664734,49.706929],[37.664421,49.706967],[37.664258,49.706991],[37.663639,49.707059],[37.663608,49.707066],[37.663666,49.707256]]]}},{"type":"Feature","properties":{"cadnum":"6323785502:00:002:0038"},"geometry":{"type":"Polygon","coordinates":[[[37.665333,49.708827],[37.66533,49.708768],[37.665321,49.708667],[37.665317,49.70864],[37.665308,49.708577],[37.665237,49.708583],[37.665139,49.708592],[37.665047,49.708599],[37.665026,49.708601],[37.664866,49.708627],[37.66485,49.708628],[37.664374,49.708672],[37.664412,49.708823],[37.664479,49.708825],[37.665333,49.708827]]]}},{"type":"Feature","properties":{"cadnum":"6323785502:00:002:0081"},"geometry":{"type":"Polygon","coordinates":[[[37.662509,49.707721],[37.663588,49.707653],[37.663608,49.707437],[37.662848,49.707506],[37.66254,49.707519],[37.662509,49.707522],[37.662509,49.707721]]]}},{"type":"Feature","properties":{"cadnum":"6323785502:00:002:0067"},"geometry":{"type":"Polygon","coordinates":[[[37.662553,49.707108],[37.663552,49.706945],[37.663552,49.706915],[37.663496,49.706765],[37.663232,49.706778],[37.663202,49.70673],[37.662746,49.70685],[37.66275,49.706857],[37.662533,49.706906],[37.662553,49.707108]]]}},{"type":"Feature","properties":{"cadnum":"6323785502:00:002:0156"},"geometry":{"type":"Polygon","coordinates":[[[37.663654,49.708893],[37.663666,49.708686],[37.663646,49.708188],[37.663378,49.708228],[37.663376,49.708533],[37.663334,49.708842],[37.663654,49.708893]]]}},{"type":"Feature","properties":{"cadnum":"6323785502:00:002:0030"},"geometry":{"type":"Polygon","coordinates":[[[37.664333,49.708473],[37.66474,49.70843],[37.665214,49.708378],[37.66518,49.708254],[37.665171,49.708218],[37.665163,49.708195],[37.664873,49.708225],[37.664276,49.70829],[37.664001,49.708318],[37.664016,49.708381],[37.664294,49.708354],[37.664333,49.708473]]]}},{"type":"Feature","properties":{"cadnum":"6323785502:00:001:0024"},"geometry":{"type":"Polygon","coordinates":[[[37.663633,49.708061],[37.664562,49.707949],[37.664617,49.707943],[37.664645,49.707939],[37.665047,49.707878],[37.665023,49.707796],[37.665009,49.707758],[37.665007,49.707746],[37.664507,49.70781],[37.664209,49.707849],[37.663613,49.707926],[37.663621,49.707958],[37.663633,49.708061]]]}},{"type":"Feature","properties":{"cadnum":"6323785502:00:001:0018"},"geometry":{"type":"Polygon","coordinates":[[[37.663613,49.707926],[37.664209,49.707849],[37.664507,49.70781],[37.665007,49.707746],[37.664967,49.707606],[37.664553,49.707659],[37.663586,49.707782],[37.663607,49.707856],[37.663613,49.707926]]]}},{"type":"Feature","properties":{"cadnum":"6323785502:00:001:0042"},"geometry":{"type":"Polygon","coordinates":[[[37.663602,49.70778],[37.664553,49.707659],[37.664967,49.707606],[37.664932,49.707503],[37.664919,49.707465],[37.664806,49.70748],[37.664633,49.707502],[37.664559,49.70751],[37.66383,49.707597],[37.663631,49.70762],[37.663602,49.70778]]]}},{"type":"Feature","properties":{"cadnum":"6323785502:00:001:0023"},"geometry":{"type":"Polygon","coordinates":[[[37.678251,49.718198],[37.67842,49.71816],[37.679274,49.717972],[37.67925,49.717936],[37.679145,49.717801],[37.678648,49.717913],[37.678465,49.717951],[37.678434,49.717959],[37.678428,49.717945],[37.678335,49.717967],[37.678342,49.717981],[37.678162,49.718023],[37.678212,49.718127],[37.678251,49.718198]]]}},{"type":"Feature","properties":{"cadnum":"6323785502:00:001:0079"},"geometry":{"type":"Polygon","coordinates":[[[37.678598,49.718887],[37.678657,49.71887],[37.678796,49.718836],[37.679011,49.718796],[37.679632,49.718654],[37.67955,49.718478],[37.678746,49.718663],[37.678583,49.7187],[37.678512,49.718714],[37.678598,49.718887]]]}},{"type":"Feature","properties":{"cadnum":"6323785502:00:001:0060"},"geometry":{"type":"Polygon","coordinates":[[[37.678512,49.718714],[37.678583,49.7187],[37.678746,49.718663],[37.67955,49.718478],[37.679489,49.718371],[37.679454,49.718303],[37.678819,49.718447],[37.678426,49.718542],[37.678512,49.718714]]]}},{"type":"Feature","properties":{"cadnum":"6323785502:00:001:0072"},"geometry":{"type":"Polygon","coordinates":[[[37.679269,49.717869],[37.679458,49.717832],[37.679777,49.71777],[37.680122,49.717696],[37.680156,49.717676],[37.680366,49.717632],[37.680691,49.717566],[37.680809,49.717545],[37.680877,49.717528],[37.680862,49.717503],[37.680834,49.717455],[37.680823,49.717435],[37.680807,49.717408],[37.680792,49.717383],[37.680666,49.717406],[37.680563,49.717422],[37.68056,49.717418],[37.680415,49.717445],[37.680072,49.717506],[37.67979,49.717556],[37.679541,49.717604],[37.679177,49.717682],[37.679269,49.717869]]]}},{"type":"Feature","properties":{"cadnum":"6323785502:00:001:0073"},"geometry":{"type":"Polygon","coordinates":[[[37.680073,49.719024],[37.681021,49.718876],[37.681127,49.718863],[37.681337,49.718835],[37.681475,49.718812],[37.681562,49.718798],[37.681548,49.718762],[37.68151,49.718669],[37.681295,49.718707],[37.681286,49.718686],[37.681229,49.718695],[37.681227,49.718693],[37.681063,49.718721],[37.680944,49.718745],[37.680822,49.718767],[37.680028,49.718923],[37.680073,49.719024]]]}},{"type":"Feature","properties":{"cadnum":"6323785502:00:001:0059"},"geometry":{"type":"Polygon","coordinates":[[[37.678426,49.718542],[37.678819,49.718447],[37.679454,49.718303],[37.679443,49.718282],[37.679387,49.718158],[37.678345,49.718367],[37.678426,49.718542]]]}},{"type":"Feature","properties":{"cadnum":"6323785502:00:001:0038"},"geometry":{"type":"Polygon","coordinates":[[[37.679475,49.718276],[37.680673,49.718033],[37.681162,49.71794],[37.681119,49.717836],[37.681109,49.717809],[37.681067,49.717816],[37.680654,49.717917],[37.679435,49.71817],[37.679475,49.718276]]]}},{"type":"Feature","properties":{"cadnum":"6323785502:00:001:0075"},"geometry":{"type":"Polygon","coordinates":[[[37.678072,49.717835],[37.678237,49.7178],[37.678319,49.71778],[37.679006,49.717639],[37.678826,49.717428],[37.678328,49.717548],[37.677977,49.717633],[37.677999,49.717666],[37.678013,49.717702],[37.678072,49.717835]]]}},{"type":"Feature","properties":{"cadnum":"6323785502:00:001:0051"},"geometry":{"type":"Polygon","coordinates":[[[37.679489,49.718371],[37.680808,49.718134],[37.680953,49.718106],[37.681147,49.718068],[37.681223,49.718056],[37.681194,49.718003],[37.681185,49.717982],[37.681162,49.71794],[37.680673,49.718033],[37.679475,49.718276],[37.679443,49.718282],[37.679489,49.718371]]]}},{"type":"Feature","properties":{"cadnum":"6323785502:00:001:0052"},"geometry":{"type":"Polygon","coordinates":[[[37.678162,49.718023],[37.678342,49.717981],[37.678335,49.717967],[37.678428,49.717945],[37.678434,49.717959],[37.678465,49.717951],[37.678648,49.717913],[37.679145,49.717801],[37.679006,49.717639],[37.678319,49.71778],[37.678237,49.7178],[37.678072,49.717835],[37.678162,49.718023]]]}},{"type":"Feature","properties":{"cadnum":"6323785502:00:001:0061"},"geometry":{"type":"Polygon","coordinates":[[[37.680323,49.719917],[37.681365,49.719728],[37.681755,49.719664],[37.68176,49.719654],[37.681746,49.719607],[37.681679,49.719497],[37.681532,49.719522],[37.681355,49.719556],[37.680242,49.719737],[37.680323,49.719917]]]}},{"type":"Feature","properties":{"cadnum":"6323785502:00:001:0071"},"geometry":{"type":"Polygon","coordinates":[[[37.68012,49.719421],[37.680839,49.719325],[37.681105,49.719286],[37.681632,49.719203],[37.681581,49.719087],[37.680068,49.719289],[37.68012,49.719421]]]}},{"type":"Feature","properties":{"cadnum":"6323785502:00:001:0044"},"geometry":{"type":"Polygon","coordinates":[[[37.679266,49.720286],[37.679674,49.720202],[37.680331,49.720079],[37.680238,49.719916],[37.67955,49.720034],[37.679189,49.720117],[37.679266,49.720286]]]}},{"type":"Feature","properties":{"cadnum":"6323785502:00:001:0065"},"geometry":{"type":"Polygon","coordinates":[[[37.680162,49.719553],[37.681472,49.719359],[37.681672,49.719322],[37.681632,49.719203],[37.681105,49.719286],[37.680839,49.719325],[37.68012,49.719421],[37.680162,49.719553]]]}},{"type":"Feature","properties":{"cadnum":"6323785502:00:001:0041"},"geometry":{"type":"Polygon","coordinates":[[[37.67784,49.720781],[37.679141,49.720468],[37.67907,49.720325],[37.677756,49.720613],[37.67784,49.720781]]]}},{"type":"Feature","properties":{"cadnum":"6323785502:00:001:0078"},"geometry":{"type":"Polygon","coordinates":[[[37.678138,49.720871],[37.678708,49.720758],[37.678866,49.720723],[37.678856,49.720701],[37.678919,49.720688],[37.678921,49.720697],[37.678965,49.720687],[37.678957,49.720679],[37.679043,49.720659],[37.67909,49.720649],[37.679191,49.720628],[37.679204,49.720637],[37.679214,49.720618],[37.67918,49.720549],[37.679161,49.720512],[37.679141,49.720468],[37.67806,49.720729],[37.678138,49.720871]]]}},{"type":"Feature","properties":{"cadnum":"6323785502:00:001:0058"},"geometry":{"type":"Polygon","coordinates":[[[37.677756,49.720613],[37.67907,49.720325],[37.678994,49.720171],[37.67898,49.720148],[37.678976,49.720143],[37.678819,49.720188],[37.678704,49.720212],[37.678629,49.720242],[37.678029,49.720365],[37.677702,49.720439],[37.677756,49.720613]]]}}]}