{"type":"FeatureCollection","features":[{"type":"Feature","properties":{"cadnum":"6323782008:00:001:0005"},"geometry":{"type":"Polygon","coordinates":[[[37.864447,49.661609],[37.863737,49.661608],[37.862941,49.661551],[37.86299,49.662001],[37.863555,49.661931],[37.864294,49.6620033623011],[37.864294,49.662004],[37.864372,49.662011],[37.864447,49.661609]]]}},{"type":"Feature","properties":{"cadnum":"6323782008:00:001:0003"},"geometry":{"type":"Polygon","coordinates":[[[37.867089,49.662199],[37.867145,49.662056],[37.867584,49.662067],[37.867679,49.661785],[37.866374,49.661761],[37.866015,49.661737],[37.865887,49.662115],[37.867089,49.662199]]]}},{"type":"Feature","properties":{"cadnum":"6323782008:00:001:0002"},"geometry":{"type":"Polygon","coordinates":[[[37.858973,49.661105],[37.858765,49.661064],[37.858428,49.662324],[37.858671,49.66304],[37.858801,49.66305635761589],[37.858801,49.663057],[37.860123,49.663221],[37.859887,49.6626],[37.859353,49.662517],[37.85926,49.662337],[37.859399,49.662127],[37.860039,49.662095],[37.860233,49.661815],[37.859823,49.661492],[37.859956,49.661294],[37.858973,49.66110505974026],[37.858973,49.661105]]]}},{"type":"Feature","properties":{"cadnum":"6323782008:00:001:0004"},"geometry":{"type":"Polygon","coordinates":[[[37.861133,49.660408],[37.861547,49.65985],[37.861189,49.659779],[37.861079,49.659203],[37.861246,49.658944],[37.859968,49.658798],[37.859205,49.659985],[37.859646,49.66006],[37.859543,49.66031],[37.861133,49.660408]]]}},{"type":"Feature","properties":{"cadnum":"6323782008:00:001:0006"},"geometry":{"type":"Polygon","coordinates":[[[37.861259,49.655949],[37.862128,49.655036],[37.862624,49.654221],[37.861338,49.654012],[37.860355,49.653936],[37.860855,49.654474],[37.861146,49.654209],[37.86169,49.654306],[37.861197,49.655361],[37.860952,49.655834],[37.861259,49.655949]]]}}]}