{"type":"FeatureCollection","features":[{"type":"Feature","properties":{"cadnum":"6323783008:00:001:0055"},"geometry":{"type":"Polygon","coordinates":[[[37.549957,49.766667],[37.549993,49.766622],[37.5496,49.766493],[37.549169,49.767099],[37.549274,49.76713],[37.549276446601944,49.76713],[37.549526,49.767202],[37.549674,49.767019],[37.54967342332614,49.767019],[37.549957,49.766667]]]}},{"type":"Feature","properties":{"cadnum":"6323783008:00:001:0009"},"geometry":{"type":"Polygon","coordinates":[[[37.549093,49.768442],[37.549297,49.768136],[37.549373,49.768021],[37.548896,49.767893],[37.548874,49.767925],[37.548595,49.768355],[37.549093,49.768442]]]}},{"type":"Feature","properties":{"cadnum":"6323783008:00:001:0025"},"geometry":{"type":"Polygon","coordinates":[[[37.551457,49.766988],[37.551357,49.76713],[37.55135786592179,49.76713],[37.551355,49.76713407142857],[37.551355,49.767134],[37.551141,49.767438],[37.551024,49.767589],[37.55125227586136,49.767648999999814],[37.551514,49.767718],[37.551565,49.767635],[37.551704,49.767395],[37.551809,49.7672],[37.551813,49.767191],[37.551717,49.767167],[37.55178,49.767063],[37.551457,49.766988]]]}},{"type":"Feature","properties":{"cadnum":"6323783008:00:001:0050"},"geometry":{"type":"Polygon","coordinates":[[[37.550814,49.767936],[37.550571,49.768344],[37.550541,49.768393],[37.551261,49.768566],[37.551531,49.768113],[37.551313871344945,49.76805981286548],[37.550814,49.767936]]]}},{"type":"Feature","properties":{"cadnum":"6323783008:00:001:0019"},"geometry":{"type":"Polygon","coordinates":[[[37.550186144444275,49.76708782222249],[37.550229,49.767019],[37.55022880479452,49.767019],[37.550341,49.766838],[37.549957,49.766667],[37.549584,49.76713],[37.54958422950819,49.76713],[37.549526,49.767202],[37.550026,49.767345],[37.5501598803681,49.76713],[37.55016,49.76713],[37.550186144444275,49.76708782222249]]]}},{"type":"Feature","properties":{"cadnum":"6323783008:00:001:0038"},"geometry":{"type":"Polygon","coordinates":[[[37.550979,49.766991],[37.550958453237406,49.767019],[37.550957,49.767019],[37.55062,49.767483],[37.551024,49.767589],[37.551141,49.767439],[37.551184,49.767377915887856],[37.551184,49.767378],[37.55120480733823,49.767348357799904],[37.551355,49.767135],[37.551355,49.767134392857145],[37.551436,49.767019],[37.5514358839779,49.767019],[37.551485,49.766949],[37.551221550495164,49.76685359801984],[37.551147,49.766826],[37.550979,49.766991]]]}},{"type":"Feature","properties":{"cadnum":"6323783008:00:001:0036"},"geometry":{"type":"Polygon","coordinates":[[[37.550571,49.768344],[37.550814,49.767936],[37.549749,49.76767],[37.549506,49.768078],[37.550571,49.768344]]]}},{"type":"Feature","properties":{"cadnum":"6323783008:00:001:0008"},"geometry":{"type":"Polygon","coordinates":[[[37.549373,49.768021],[37.549389,49.767996],[37.549491,49.767837],[37.549751,49.767443],[37.549396,49.767372],[37.549263,49.767345],[37.549085,49.767616],[37.548896,49.767893],[37.549373,49.768021]]]}},{"type":"Feature","properties":{"cadnum":"6323783008:00:001:0049"},"geometry":{"type":"Polygon","coordinates":[[[37.559529,49.770394],[37.559611,49.770288],[37.559017,49.769812],[37.558701,49.770227],[37.559529,49.770394]]]}},{"type":"Feature","properties":{"cadnum":"6323783008:00:001:0041"},"geometry":{"type":"Polygon","coordinates":[[[37.558701,49.770227],[37.559017,49.769812],[37.55836,49.769592],[37.557984,49.770083],[37.558701,49.770227]]]}},{"type":"Feature","properties":{"cadnum":"6323783008:00:001:0044"},"geometry":{"type":"Polygon","coordinates":[[[37.556849,49.76958],[37.556849,49.76957832384341],[37.557005,49.769253],[37.556696,49.769187],[37.556677,49.769229],[37.556677,49.76922946448088],[37.556513,49.769596],[37.556415,49.769777],[37.556677,49.76982956957929],[37.556677,49.76983],[37.556724,49.769839],[37.556849,49.76958]]]}},{"type":"Feature","properties":{"cadnum":"6323783008:00:001:0053"},"geometry":{"type":"Polygon","coordinates":[[[37.557786,49.77009],[37.557966,49.769738],[37.557904,49.769725],[37.557978,49.769584],[37.558148,49.769622],[37.558206,49.769512],[37.557621,49.769383],[37.557342,49.770001],[37.557581,49.770049],[37.557786,49.77009]]]}},{"type":"Feature","properties":{"cadnum":"6323783008:00:001:0022"},"geometry":{"type":"Polygon","coordinates":[[[37.552519,49.766557],[37.552035,49.766469],[37.55178,49.767063],[37.552131,49.76713],[37.55213175,49.76713],[37.552263,49.767155],[37.55227366176471,49.76713],[37.552274,49.76713],[37.552519,49.766557]]]}},{"type":"Feature","properties":{"cadnum":"6323783008:00:001:0030"},"geometry":{"type":"Polygon","coordinates":[[[37.552696,49.765688],[37.553936,49.764969],[37.553576,49.764843],[37.553171,49.765213],[37.552549,49.765577],[37.552696,49.765688]]]}},{"type":"Feature","properties":{"cadnum":"6323783008:00:001:0037"},"geometry":{"type":"Polygon","coordinates":[[[37.553926,49.764634],[37.553997,49.764521],[37.554109,49.764372],[37.554,49.764335],[37.553903,49.764303],[37.553997,49.76418],[37.553777,49.763947],[37.553395,49.764032],[37.553456,49.764069],[37.553477,49.764384],[37.553453,49.764554],[37.553873,49.764623],[37.553926,49.764634]]]}},{"type":"Feature","properties":{"cadnum":"6323783008:00:001:0052"},"geometry":{"type":"Polygon","coordinates":[[[37.555451,49.763149],[37.55498,49.76327],[37.555161,49.763581],[37.55516164835165,49.763581],[37.555203,49.763652],[37.555355,49.763936],[37.555601,49.763863],[37.555667,49.763622],[37.55563602026995,49.76355472972904],[37.555451,49.763149]]]}},{"type":"Feature","properties":{"cadnum":"6323783008:00:001:0021"},"geometry":{"type":"Polygon","coordinates":[[[37.551739,49.76713],[37.55173941346153,49.76713],[37.551717,49.767167],[37.551813,49.767191],[37.551809,49.7672],[37.551704,49.767395],[37.551565,49.767635],[37.551514,49.767718],[37.551595,49.767738],[37.551912,49.767819],[37.552021,49.767655],[37.552124,49.767512],[37.552263,49.767155],[37.55178,49.767063],[37.551739,49.76713]]]}},{"type":"Feature","properties":{"cadnum":"6323783008:00:001:0023"},"geometry":{"type":"Polygon","coordinates":[[[37.553571,49.763313],[37.55330572413793,49.76347],[37.553304,49.76347],[37.553277,49.763487],[37.553535,49.763691],[37.553997,49.76418],[37.553903,49.764303],[37.554,49.764335],[37.554109,49.764372],[37.554141,49.764332],[37.554334,49.764105],[37.55392,49.763807],[37.553759721068246,49.763581],[37.55376,49.763581],[37.553571,49.763313]]]}},{"type":"Feature","properties":{"cadnum":"6323783008:00:001:0034"},"geometry":{"type":"Polygon","coordinates":[[[37.553453,49.764554],[37.553477,49.764384],[37.553456,49.764069],[37.552699,49.764065],[37.552843,49.764481],[37.55313,49.764519],[37.553203,49.764528],[37.553453,49.764554]]]}},{"type":"Feature","properties":{"cadnum":"6323783008:00:001:0032"},"geometry":{"type":"Polygon","coordinates":[[[37.554905,49.76314],[37.554322,49.763386],[37.554535,49.763581],[37.55453500290698,49.763581],[37.554789,49.763814],[37.555203,49.763652],[37.555097,49.76347],[37.55509656462585,49.76347],[37.554905,49.76314]]]}},{"type":"Feature","properties":{"cadnum":"6323783008:00:001:0048"},"geometry":{"type":"Polygon","coordinates":[[[37.552069,49.765367],[37.552456,49.764999],[37.552599,49.764776],[37.552639,49.764641],[37.552298,49.764586],[37.552253,49.764688],[37.551795,49.765275],[37.552069,49.765367]]]}},{"type":"Feature","properties":{"cadnum":"6323783008:00:001:0013"},"geometry":{"type":"Polygon","coordinates":[[[37.552549,49.765577],[37.553171,49.765213],[37.553576,49.764843],[37.553481,49.764811],[37.553431,49.764793],[37.553281,49.764741],[37.553046,49.765005],[37.552468,49.765527],[37.552549,49.765577]]]}},{"type":"Feature","properties":{"cadnum":"6323783008:00:001:0035"},"geometry":{"type":"Polygon","coordinates":[[[37.553456,49.764069],[37.552922,49.763735],[37.5526,49.763778],[37.552699,49.764065],[37.553456,49.764069]]]}},{"type":"Feature","properties":{"cadnum":"6323783008:00:001:0058"},"geometry":{"type":"Polygon","coordinates":[[[37.557361,49.765987],[37.557374,49.765951],[37.55748,49.765666],[37.557756,49.764955],[37.55812,49.765002],[37.55871,49.765103],[37.559031,49.765139],[37.559098,49.765001],[37.559077,49.764694],[37.559157,49.764336],[37.559087,49.764252],[37.558935,49.76425],[37.558243,49.764301],[37.557441,49.764509],[37.556893,49.764659],[37.556771,49.764739],[37.556677,49.764986],[37.556677,49.764986799107135],[37.556323,49.76592],[37.556405,49.765931],[37.556672,49.765971],[37.556677,49.76597175],[37.556677,49.765972],[37.556712,49.765977],[37.556849,49.76599],[37.556849,49.76598925203252],[37.557081,49.76601],[37.557345,49.766031],[37.557361,49.765987]]]}},{"type":"Feature","properties":{"cadnum":"6323783008:00:001:0051"},"geometry":{"type":"Polygon","coordinates":[[[37.552171,49.765607],[37.552813,49.764979],[37.552955,49.76469],[37.552639,49.764641],[37.552599,49.764776],[37.552456,49.764999],[37.551866,49.76556],[37.552171,49.765607]]]}},{"type":"Feature","properties":{"cadnum":"6323783008:00:001:0039"},"geometry":{"type":"Polygon","coordinates":[[[37.548948,49.76626],[37.549218,49.765687],[37.548944,49.765644],[37.548664,49.765627],[37.548457,49.766163],[37.548948,49.76626]]]}},{"type":"Feature","properties":{"cadnum":"6323783008:00:001:0020"},"geometry":{"type":"Polygon","coordinates":[[[37.549704,49.766178],[37.549896,49.765897],[37.549321,49.765738],[37.549177,49.766057],[37.549704,49.766178]]]}},{"type":"Feature","properties":{"cadnum":"6323783008:00:001:0054"},"geometry":{"type":"Polygon","coordinates":[[[37.554102,49.768126],[37.554144,49.768041],[37.554363,49.767562],[37.554299,49.767545],[37.554188,49.767729],[37.554107,49.767709],[37.55422,49.767524],[37.554051,49.767482],[37.553773,49.768057],[37.554102,49.768126]]]}},{"type":"Feature","properties":{"cadnum":"6323783008:00:001:0010"},"geometry":{"type":"Polygon","coordinates":[[[37.554076,49.768321],[37.554184,49.768137],[37.554102,49.768126],[37.554076,49.76812],[37.553773,49.768057],[37.553698,49.768223],[37.55369,49.768239],[37.554076,49.768321]]]}},{"type":"Feature","properties":{"cadnum":"6323783008:00:001:0047"},"geometry":{"type":"Polygon","coordinates":[[[37.554365,49.768398],[37.554452,49.768244],[37.554479,49.768184],[37.5545,49.768132],[37.554732,49.767622],[37.554363,49.767562],[37.554144,49.768041],[37.554102,49.768126],[37.554184,49.768137],[37.554076,49.768321],[37.554365,49.768398]]]}},{"type":"Feature","properties":{"cadnum":"6323783008:00:001:0040"},"geometry":{"type":"Polygon","coordinates":[[[37.551872,49.768803],[37.552017,49.768543],[37.55211,49.768567],[37.552242,49.768274],[37.551721,49.768156],[37.551559,49.768399],[37.551401,49.768681],[37.551662,49.768749],[37.551872,49.768803]]]}},{"type":"Feature","properties":{"cadnum":"6323783008:00:001:0043"},"geometry":{"type":"Polygon","coordinates":[[[37.554154,49.769275],[37.554409,49.768711],[37.554032,49.768637],[37.553751,49.769194],[37.554154,49.769275]]]}},{"type":"Feature","properties":{"cadnum":"6323783008:00:001:0046"},"geometry":{"type":"Polygon","coordinates":[[[37.553347,49.76915],[37.553427,49.768968],[37.553611,49.768552],[37.553215,49.768469],[37.553014,49.768922],[37.552947,49.76907],[37.553092,49.769099],[37.553347,49.76915]]]}},{"type":"Feature","properties":{"cadnum":"6323783008:00:001:0045"},"geometry":{"type":"Polygon","coordinates":[[[37.555479,49.769627],[37.5558,49.76899],[37.555497,49.768923],[37.555298,49.769321],[37.555149,49.76956],[37.555479,49.769627]]]}},{"type":"Feature","properties":{"cadnum":"6323783008:00:001:0056"},"geometry":{"type":"Polygon","coordinates":[[[37.55611,49.769753],[37.556406,49.769123],[37.556089,49.769058],[37.555907,49.769439],[37.555786,49.769688],[37.55611,49.769753]]]}},{"type":"Feature","properties":{"cadnum":"6323783008:00:001:0033"},"geometry":{"type":"Polygon","coordinates":[[[37.556397,49.769811],[37.556513,49.769596],[37.556696,49.769187],[37.556406,49.769123],[37.55611,49.769753],[37.556397,49.769811]]]}},{"type":"Feature","properties":{"cadnum":"6323783008:00:001:0042"},"geometry":{"type":"Polygon","coordinates":[[[37.553453,49.768189],[37.553637,49.767879],[37.553812,49.767534],[37.553386,49.767447],[37.553036,49.768106],[37.553453,49.768189]]]}},{"type":"Feature","properties":{"cadnum":"6323783008:00:001:0057"},"geometry":{"type":"Polygon","coordinates":[[[37.554654,49.76846],[37.554858,49.768106],[37.555057,49.767638],[37.554732,49.767622],[37.5545,49.768132],[37.554479,49.768184],[37.554452,49.768244],[37.554365,49.768398],[37.554654,49.76846]]]}},{"type":"Feature","properties":{"cadnum":"6323783008:00:001:0024"},"geometry":{"type":"Polygon","coordinates":[[[37.553277,49.763487],[37.553571,49.763313],[37.553442,49.76313],[37.553379,49.762899],[37.553052,49.763009],[37.553005,49.763271],[37.553277,49.763487]]]}}]}