{"type":"FeatureCollection","features":[{"type":"Feature","properties":{"cadnum":"6323987001:00:002:0050"},"geometry":{"type":"Polygon","coordinates":[[[36.615003,49.080389],[36.615661,49.080333],[36.615641,49.079891],[36.614972,49.079906],[36.615003,49.080389]]]}},{"type":"Feature","properties":{"cadnum":"6323987001:00:002:0001"},"geometry":{"type":"Polygon","coordinates":[[[36.61198237333258,49.07962708000006],[36.612024,49.079624],[36.612024,49.079623888178915],[36.612166,49.079613],[36.612543,49.079603],[36.612526,49.07938],[36.612146,49.079385],[36.611853,49.079386],[36.611542,49.079386],[36.611578,49.079657],[36.611853,49.07963665246637],[36.611853,49.079637],[36.61198237333258,49.07962708000006]]]}},{"type":"Feature","properties":{"cadnum":"6323987001:00:002:0070"},"geometry":{"type":"Polygon","coordinates":[[[36.612853,49.080649],[36.613261,49.080587],[36.613231,49.080455],[36.613204,49.080282],[36.613133,49.079945],[36.612711,49.07998],[36.612763,49.080315],[36.612789,49.080389],[36.612853,49.080649]]]}},{"type":"Feature","properties":{"cadnum":"6323987001:00:002:0045"},"geometry":{"type":"Polygon","coordinates":[[[36.615547,49.077325],[36.615547,49.077314],[36.614995,49.077341],[36.614995,49.077348],[36.615001075949365,49.077408],[36.615,49.077408],[36.615011,49.077506],[36.615011,49.07752],[36.61501163636364,49.07752],[36.615012,49.077528],[36.61502,49.077687],[36.615046,49.077899],[36.615588,49.077874],[36.615569,49.077618],[36.615553,49.077408],[36.615552958974355,49.077408],[36.615547,49.077325]]]}},{"type":"Feature","properties":{"cadnum":"6323987001:00:002:0049"},"geometry":{"type":"Polygon","coordinates":[[[36.612838,49.07845],[36.613242,49.078445],[36.613851,49.078426],[36.613879,49.078121],[36.613347,49.078138],[36.612868,49.078147],[36.612838,49.07845]]]}},{"type":"Feature","properties":{"cadnum":"6323987001:00:002:0063"},"geometry":{"type":"Polygon","coordinates":[[[36.614665,49.08098],[36.614579,49.08062],[36.614162,49.080683],[36.614321199430194,49.081006],[36.61432,49.081006],[36.614335,49.081034],[36.614362,49.081119],[36.61436261603375,49.081119],[36.614489,49.081508],[36.614811,49.081511],[36.614672,49.081006],[36.614671920863316,49.081006],[36.614665,49.08098]]]}},{"type":"Feature","properties":{"cadnum":"6323987001:00:002:0047"},"geometry":{"type":"Polygon","coordinates":[[[36.614763,49.078691],[36.615132,49.078675],[36.615077,49.078175],[36.614711,49.078192],[36.614763,49.078691]]]}},{"type":"Feature","properties":{"cadnum":"6323987001:00:002:0064"},"geometry":{"type":"Polygon","coordinates":[[[36.61719,49.080889],[36.616846,49.080907],[36.61685829813665,49.081006],[36.616858,49.081006],[36.616866,49.081068],[36.616871,49.081119],[36.61687245233969,49.081119],[36.616939,49.081645],[36.617284,49.081633],[36.617209308056886,49.08104760189581],[36.61719,49.080889]]]}},{"type":"Feature","properties":{"cadnum":"6323987001:00:002:0061"},"geometry":{"type":"Polygon","coordinates":[[[36.612664,49.08091],[36.612394,49.080951],[36.612456,49.081119],[36.612457058295966,49.081119],[36.612498,49.081229],[36.61259,49.081481],[36.612805,49.082009],[36.613073,49.081963],[36.612848,49.081437],[36.612698,49.081006],[36.612697071770334,49.081006],[36.612664,49.08091]]]}},{"type":"Feature","properties":{"cadnum":"6323987001:00:002:0056"},"geometry":{"type":"Polygon","coordinates":[[[36.613627,49.080526],[36.614027,49.080467],[36.613989,49.080313],[36.613985,49.080247],[36.613998,49.079834],[36.613414,49.079909],[36.613512,49.080226],[36.613595,49.080431],[36.613627,49.080526]]]}},{"type":"Feature","properties":{"cadnum":"6323987001:00:002:0057"},"geometry":{"type":"Polygon","coordinates":[[[36.613414,49.079909],[36.613998,49.079834],[36.614,49.079823],[36.613411,49.079898],[36.613414,49.079909]]]}},{"type":"Feature","properties":{"cadnum":"6323987001:00:002:0048"},"geometry":{"type":"Polygon","coordinates":[[[36.613851,49.078426],[36.614539,49.078405],[36.614566,49.078099],[36.613879,49.078121],[36.613851,49.078426]]]}},{"type":"Feature","properties":{"cadnum":"6323987001:00:002:0010"},"geometry":{"type":"Polygon","coordinates":[[[36.61363,49.077332],[36.613396,49.077341],[36.613211,49.077364],[36.613219,49.07739],[36.613078,49.077406],[36.613078736842105,49.077408],[36.613078,49.077408],[36.613099,49.077463],[36.612837,49.077491],[36.612846,49.077592],[36.612852,49.077634],[36.612861,49.077791],[36.613404,49.077773],[36.613666,49.07776],[36.613639271111104,49.07745649777766],[36.61363,49.077332]]]}},{"type":"Feature","properties":{"cadnum":"6323987001:00:002:0041"},"geometry":{"type":"Polygon","coordinates":[[[36.613939,49.080716],[36.613486,49.080782],[36.613569,49.080998],[36.61357145614035,49.081006],[36.613571,49.081006],[36.613604,49.081112],[36.613605,49.081119],[36.613606980645166,49.081119],[36.61367,49.081267],[36.614119,49.0812],[36.614068,49.081061],[36.613939,49.080716]]]}},{"type":"Feature","properties":{"cadnum":"6323987001:00:002:0044"},"geometry":{"type":"Polygon","coordinates":[[[36.61195835294103,49.07919447058825],[36.612024,49.079189],[36.612024,49.079188532663316],[36.612052,49.079186],[36.612128,49.079188],[36.612504,49.079156],[36.612464,49.078951],[36.612432,49.078785],[36.611853,49.07883],[36.611853,49.07883012020461],[36.611633,49.078847],[36.611664,49.079219],[36.611853,49.07920325],[36.611853,49.079204],[36.61195835294103,49.07919447058825]]]}},{"type":"Feature","properties":{"cadnum":"6323987001:00:002:0051"},"geometry":{"type":"Polygon","coordinates":[[[36.614972,49.079906],[36.615641,49.079891],[36.6156,49.078979],[36.614914,49.079004],[36.614972,49.079906]]]}},{"type":"Feature","properties":{"cadnum":"6323987001:00:002:0039"},"geometry":{"type":"Polygon","coordinates":[[[36.614162,49.080683],[36.613939,49.080716],[36.61404743478261,49.081006],[36.614047,49.081006],[36.614068,49.081061],[36.614088,49.081119],[36.614089288389515,49.081119],[36.614264,49.081595],[36.614489,49.081508],[36.614335,49.081034],[36.614162,49.080683]]]}},{"type":"Feature","properties":{"cadnum":"6323987001:00:002:0052"},"geometry":{"type":"Polygon","coordinates":[[[36.616866,49.081068],[36.616792,49.080483],[36.616226,49.080528],[36.616273,49.080715],[36.616317,49.08081],[36.61634184507042,49.081006],[36.616341,49.081006],[36.616353,49.081094],[36.616866,49.081068]]]}},{"type":"Feature","properties":{"cadnum":"6323987001:00:002:0011"},"geometry":{"type":"Polygon","coordinates":[[[36.614355,49.077302],[36.61363,49.077332],[36.61363565957447,49.077408],[36.613635,49.077408],[36.613639271111104,49.07745649777766],[36.613644,49.07752],[36.61364486363637,49.07752],[36.613666,49.07776],[36.61439,49.077721],[36.614372661341854,49.07752],[36.614373,49.07752],[36.614355,49.077302]]]}},{"type":"Feature","properties":{"cadnum":"6323987001:00:002:0046"},"geometry":{"type":"Polygon","coordinates":[[[36.614995,49.077348],[36.614995,49.077341],[36.614955,49.077343],[36.614618,49.077358],[36.614619,49.077365],[36.614623993548385,49.077408],[36.614623,49.077408],[36.614669,49.077792],[36.614711,49.078192],[36.615077,49.078175],[36.615046,49.077899],[36.61502,49.077687],[36.615012,49.077528],[36.615011,49.077506],[36.614995,49.077348]]]}},{"type":"Feature","properties":{"cadnum":"6323987001:00:002:0003"},"geometry":{"type":"Polygon","coordinates":[[[36.622985,49.083311],[36.623582,49.083269],[36.623566,49.082985],[36.622997,49.083027],[36.622492,49.083042],[36.622496,49.083331],[36.622839,49.083316971370145],[36.622839,49.083317],[36.622985,49.083311]]]}},{"type":"Feature","properties":{"cadnum":"6323987001:00:002:0004"},"geometry":{"type":"Polygon","coordinates":[[[36.623582,49.083269],[36.624519,49.083204],[36.62445,49.082918],[36.623566,49.082985],[36.623582,49.083269]]]}},{"type":"Feature","properties":{"cadnum":"6323987001:00:002:0036"},"geometry":{"type":"Polygon","coordinates":[[[36.625553,49.082234],[36.626286,49.082199],[36.626253,49.081904],[36.625482,49.081946],[36.625553,49.082234]]]}},{"type":"Feature","properties":{"cadnum":"6323987001:00:002:0035"},"geometry":{"type":"Polygon","coordinates":[[[36.626286,49.082199],[36.62694,49.082167],[36.62731,49.08215],[36.627277,49.081848],[36.626253,49.081904],[36.626286,49.082199]]]}},{"type":"Feature","properties":{"cadnum":"6323987001:00:002:0015"},"geometry":{"type":"Polygon","coordinates":[[[36.62399,49.080943],[36.623532,49.080966],[36.62353566013072,49.081006],[36.623535,49.081006],[36.623556,49.08124],[36.624067,49.081208],[36.624040564356434,49.081119],[36.624041,49.081119],[36.62399,49.080943]]]}},{"type":"Feature","properties":{"cadnum":"6323987001:00:002:0073"},"geometry":{"type":"Polygon","coordinates":[[[36.622956,49.081567],[36.623011,49.081563],[36.623011,49.08156262189055],[36.623559,49.081519],[36.623539,49.081241],[36.622919,49.08128],[36.622459,49.081304],[36.62248,49.081585],[36.622792,49.081574],[36.622839,49.08157199390244],[36.622839,49.081572],[36.622956,49.081567]]]}},{"type":"Feature","properties":{"cadnum":"6323987001:00:002:0016"},"geometry":{"type":"Polygon","coordinates":[[[36.624537,49.080917],[36.624285,49.080928],[36.62430582722513,49.081006],[36.624305,49.081006],[36.62433490714282,49.08111490714271],[36.624336,49.081119],[36.624336031088085,49.081119],[36.624358,49.081199],[36.624576,49.081187],[36.62455375647663,49.08103788600998],[36.624537,49.080917]]]}},{"type":"Feature","properties":{"cadnum":"6323987001:00:002:0013"},"geometry":{"type":"Polygon","coordinates":[[[36.623552,49.082419],[36.624344,49.08238],[36.624283,49.08209],[36.623544,49.082121],[36.623552,49.082419]]]}},{"type":"Feature","properties":{"cadnum":"6323987001:00:002:0014"},"geometry":{"type":"Polygon","coordinates":[[[36.622905,49.080998],[36.622445,49.081018],[36.62245,49.081119],[36.62245064596273,49.081119],[36.622454,49.081179],[36.622441,49.08118],[36.622445,49.081221],[36.622453,49.081221],[36.622459,49.081304],[36.622839,49.08128417391304],[36.622839,49.081285],[36.622919,49.08128],[36.623011,49.081275],[36.623011,49.08127422291994],[36.623556,49.08124],[36.62354514102564,49.081119],[36.623546,49.081119],[36.623532,49.080966],[36.622905,49.080998]]]}},{"type":"Feature","properties":{"cadnum":"6323987001:00:002:0012"},"geometry":{"type":"Polygon","coordinates":[[[36.622876479451165,49.082450013698654],[36.623011,49.082447],[36.623011,49.08244647368421],[36.623029,49.082446],[36.623552,49.082419],[36.623544,49.082121],[36.623067,49.08214],[36.622839,49.082153],[36.622839,49.082153052631575],[36.622517,49.08217],[36.62252,49.082458],[36.622839,49.08245085336049],[36.622839,49.082451],[36.622876479451165,49.082450013698654]]]}},{"type":"Feature","properties":{"cadnum":"6323987001:00:002:0065"},"geometry":{"type":"Polygon","coordinates":[[[36.619724,49.080927],[36.61971,49.080739],[36.618991,49.080781],[36.61904,49.081119],[36.61904078451883,49.081119],[36.619095,49.081484],[36.619764,49.081445],[36.619737902439,49.08111766202056],[36.619724,49.080927]]]}},{"type":"Feature","properties":{"cadnum":"6323987001:00:002:0034"},"geometry":{"type":"Polygon","coordinates":[[[36.618211,49.07717],[36.617802,49.077194],[36.617808,49.077276],[36.617818,49.077348],[36.61782671794872,49.077408],[36.617826,49.077408],[36.617835,49.077465],[36.617882,49.077932],[36.618297,49.077915],[36.61826,49.077569],[36.618253913043475,49.07752],[36.618254,49.07752],[36.618211,49.07717]]]}},{"type":"Feature","properties":{"cadnum":"6323987001:00:002:0029"},"geometry":{"type":"Polygon","coordinates":[[[36.620241,49.080893],[36.619724,49.080927],[36.61972976041667,49.081006],[36.619729,49.081006],[36.61973615034167,49.08109363325728],[36.619738,49.081119],[36.61973822011385,49.081119],[36.619772,49.081533],[36.620287,49.081511],[36.620249,49.081006],[36.620241,49.080893]]]}},{"type":"Feature","properties":{"cadnum":"6323987001:00:002:0066"},"geometry":{"type":"Polygon","coordinates":[[[36.621019,49.078274],[36.621117,49.078272],[36.621649,49.078254],[36.622025,49.07824],[36.62202,49.077925],[36.621757,49.077944],[36.621633,49.07795],[36.621015,49.07797],[36.621019,49.078274]]]}},{"type":"Feature","properties":{"cadnum":"6323987001:00:002:0068"},"geometry":{"type":"Polygon","coordinates":[[[36.620021,49.078305],[36.621019,49.078274],[36.621015,49.07797],[36.619993,49.078005],[36.620021,49.078305]]]}},{"type":"Feature","properties":{"cadnum":"6323987001:00:002:0062"},"geometry":{"type":"Polygon","coordinates":[[[36.618991,49.080781],[36.61971,49.080739],[36.619698,49.080587],[36.61967,49.080316],[36.618955,49.080357],[36.618962,49.080395],[36.61896,49.080573],[36.618991,49.080781]]]}},{"type":"Feature","properties":{"cadnum":"6323987001:00:002:0031"},"geometry":{"type":"Polygon","coordinates":[[[36.6196,49.079472],[36.620072,49.079452],[36.620019,49.078734],[36.619553,49.078765],[36.6196,49.079472]]]}},{"type":"Feature","properties":{"cadnum":"6323987001:00:002:0030"},"geometry":{"type":"Polygon","coordinates":[[[36.61962,49.080116],[36.620125,49.080085],[36.620099,49.079811],[36.620072,49.079452],[36.6196,49.079472],[36.619626,49.079856],[36.61962,49.080116]]]}},{"type":"Feature","properties":{"cadnum":"6323987001:00:002:0028"},"geometry":{"type":"Polygon","coordinates":[[[36.619724,49.080927],[36.620241,49.080893],[36.620217,49.080568],[36.620188,49.080556],[36.620146,49.080288],[36.61967,49.080316],[36.619698,49.080587],[36.619724,49.080927]]]}},{"type":"Feature","properties":{"cadnum":"6323987001:00:002:0067"},"geometry":{"type":"Polygon","coordinates":[[[36.623476,49.07844],[36.623469,49.078164],[36.622839,49.078181],[36.622839,49.078181109215016],[36.622718,49.078184],[36.622455,49.07819],[36.622349,49.078195],[36.622358,49.078472],[36.622594,49.078462],[36.622701,49.078457],[36.623011,49.078451],[36.623011,49.07845021978022],[36.623476,49.07844]]]}},{"type":"Feature","properties":{"cadnum":"6323987001:00:001:0041"},"geometry":{"type":"Polygon","coordinates":[[[36.591303,49.089154],[36.592263,49.088921],[36.592145,49.088637],[36.591692,49.088739],[36.59118,49.088854],[36.591303,49.089154]]]}},{"type":"Feature","properties":{"cadnum":"6323987001:00:001:0037"},"geometry":{"type":"Polygon","coordinates":[[[36.602846,49.087336],[36.603154,49.087054],[36.603278,49.087063],[36.603613,49.087123],[36.603919,49.087107],[36.604143,49.087074],[36.604305,49.087015],[36.604477,49.086907],[36.602984,49.086204],[36.602336,49.086304],[36.602249,49.086382],[36.602576,49.086838],[36.602846,49.087336]]]}},{"type":"Feature","properties":{"cadnum":"6323987001:00:001:0040"},"geometry":{"type":"Polygon","coordinates":[[[36.605785,49.08552],[36.606012,49.085325],[36.605228,49.084894],[36.60501,49.085092],[36.605785,49.08552]]]}},{"type":"Feature","properties":{"cadnum":"6323987001:00:001:0039"},"geometry":{"type":"Polygon","coordinates":[[[36.604259,49.084361],[36.604041,49.08456],[36.60412138461538,49.084604],[36.60412,49.084604],[36.604655,49.084896],[36.604988,49.085079],[36.60501,49.085092],[36.605228,49.084894],[36.604701,49.084604],[36.604700507042246,49.084604],[36.604259,49.084361]]]}},{"type":"Feature","properties":{"cadnum":"6323987001:00:001:0017"},"geometry":{"type":"Polygon","coordinates":[[[36.603358,49.088127],[36.602941,49.087962],[36.602772,49.088245],[36.603263,49.088433],[36.603642,49.08859],[36.60384,49.088311],[36.603358,49.088127]]]}},{"type":"Feature","properties":{"cadnum":"6323987001:00:001:0012"},"geometry":{"type":"Polygon","coordinates":[[[36.605532,49.085704],[36.605785,49.08552],[36.604988,49.085079],[36.604734,49.085269],[36.605532,49.085704]]]}},{"type":"Feature","properties":{"cadnum":"6323987001:00:001:0018"},"geometry":{"type":"Polygon","coordinates":[[[36.605714,49.084505],[36.605279,49.084271],[36.604734,49.083964],[36.604497,49.084162],[36.604966,49.084405],[36.60532642657343,49.084604],[36.605325,49.084604],[36.605484,49.084691],[36.605714,49.084505]]]}},{"type":"Feature","properties":{"cadnum":"6323987001:00:001:0011"},"geometry":{"type":"Polygon","coordinates":[[[36.604041,49.08456],[36.603874,49.084716],[36.60387521212122,49.084716],[36.603819,49.084769],[36.60419,49.084973],[36.604734,49.085269],[36.604988,49.085079],[36.604655,49.084896],[36.604325205479455,49.084716],[36.604326,49.084716],[36.604041,49.08456]]]}},{"type":"Feature","properties":{"cadnum":"6323987001:00:002:0020"},"geometry":{"type":"Polygon","coordinates":[[[36.610803,49.080957],[36.611268,49.080898],[36.61128,49.080918],[36.611757,49.080841],[36.611686,49.080574],[36.611174,49.080645],[36.610734,49.080699],[36.610803,49.080957]]]}},{"type":"Feature","properties":{"cadnum":"6323987001:00:002:0025"},"geometry":{"type":"Polygon","coordinates":[[[36.60942,49.080858],[36.609614,49.080826],[36.609565,49.080681],[36.609114,49.080749],[36.609164,49.080895],[36.60936,49.080866],[36.609408142292494,49.081006],[36.609408,49.081006],[36.6094143476071,49.08102404534018],[36.609447,49.081119],[36.60944774874372,49.081119],[36.609478,49.081205],[36.609534,49.081196],[36.60947,49.081006],[36.60946933333334,49.081006],[36.60942,49.080858]]]}},{"type":"Feature","properties":{"cadnum":"6323987001:00:002:0002"},"geometry":{"type":"Polygon","coordinates":[[[36.620746,49.081971],[36.621531,49.081883],[36.621526,49.081732],[36.621517,49.081443],[36.62072,49.081468],[36.620746,49.081971]]]}},{"type":"Feature","properties":{"cadnum":"6323987001:00:002:0069"},"geometry":{"type":"Polygon","coordinates":[[[36.617653,49.082121],[36.618254,49.082075],[36.618193,49.081593],[36.61776,49.081617],[36.617575,49.081626],[36.617653,49.082121]]]}},{"type":"Feature","properties":{"cadnum":"6323987001:00:001:0036"},"geometry":{"type":"Polygon","coordinates":[[[36.607683,49.082084],[36.608391,49.082015],[36.608381,49.081951],[36.608275,49.08195],[36.608165,49.081554],[36.607546,49.081598],[36.607683,49.082084]]]}},{"type":"Feature","properties":{"cadnum":"6323987001:00:001:0043"},"geometry":{"type":"Polygon","coordinates":[[[36.606447,49.082158],[36.606661,49.081947],[36.606531,49.08191428476821],[36.606531,49.081914],[36.605916,49.08176],[36.605612,49.08203],[36.605877,49.082141],[36.606266,49.082319],[36.606447,49.082158]]]}},{"type":"Feature","properties":{"cadnum":"6323987001:00:002:0060"},"geometry":{"type":"Polygon","coordinates":[[[36.610493,49.082232],[36.611055,49.082164],[36.610951,49.081839],[36.610381,49.081884],[36.610493,49.082232]]]}},{"type":"Feature","properties":{"cadnum":"6323987001:00:001:0030"},"geometry":{"type":"Polygon","coordinates":[[[36.60803,49.082536],[36.608629,49.08246],[36.608537,49.081939],[36.608381,49.081951],[36.608403,49.082084],[36.607935,49.08213],[36.60803,49.082536]]]}},{"type":"Feature","properties":{"cadnum":"6323987001:00:002:0059"},"geometry":{"type":"Polygon","coordinates":[[[36.609668,49.082338],[36.609739,49.082327],[36.609946,49.0823],[36.609979,49.082296],[36.610054,49.082285],[36.610144,49.082275],[36.610493,49.082232],[36.610381,49.081884],[36.610167,49.0819],[36.609551,49.081973],[36.609657,49.082306],[36.609668,49.082338]]]}},{"type":"Feature","properties":{"cadnum":"6323987001:00:002:0042"},"geometry":{"type":"Polygon","coordinates":[[[36.609557,49.081907],[36.610329,49.081797],[36.610249,49.081543],[36.60995,49.081586],[36.60947,49.081656],[36.609557,49.081907]]]}},{"type":"Feature","properties":{"cadnum":"6323987001:00:001:0033"},"geometry":{"type":"Polygon","coordinates":[[[36.607976,49.082304],[36.607935,49.08213],[36.608403,49.082084],[36.608391,49.082015],[36.607683,49.082084],[36.607546,49.081598],[36.607493,49.081603],[36.607196,49.08181],[36.607976,49.082304]]]}},{"type":"Feature","properties":{"cadnum":"6323987001:00:001:0005"},"geometry":{"type":"Polygon","coordinates":[[[36.609224,49.084205],[36.60972,49.084022],[36.60971,49.084011],[36.60973,49.084003],[36.609836,49.083963],[36.609864,49.08395],[36.610001,49.083872],[36.610005,49.083839],[36.609921,49.083641],[36.609581,49.083712],[36.609533,49.083725],[36.609023,49.083867],[36.608983,49.083899],[36.609224,49.084205]]]}},{"type":"Feature","properties":{"cadnum":"6323987001:00:002:0071"},"geometry":{"type":"Polygon","coordinates":[[[36.609801,49.082728],[36.610265,49.082649],[36.610575,49.082595],[36.610453,49.082238],[36.610144,49.082275],[36.610054,49.082285],[36.609979,49.082296],[36.609946,49.0823],[36.609739,49.082327],[36.609668,49.082338],[36.609801,49.082728]]]}},{"type":"Feature","properties":{"cadnum":"6323987001:00:002:0072"},"geometry":{"type":"Polygon","coordinates":[[[36.610575,49.082595],[36.610966,49.082528],[36.611281,49.082475],[36.611232,49.082363],[36.611127,49.082155],[36.611055,49.082164],[36.610493,49.082232],[36.610453,49.082238],[36.610575,49.082595]]]}},{"type":"Feature","properties":{"cadnum":"6323987001:00:002:0053"},"geometry":{"type":"Polygon","coordinates":[[[36.612035,49.082527],[36.611971,49.082237],[36.611853,49.082257],[36.611853,49.082257119079834],[36.611232,49.082363],[36.611281,49.082475],[36.610966,49.082528],[36.611044,49.082754],[36.611853,49.082568260204084],[36.611853,49.082569],[36.612035,49.082527]]]}},{"type":"Feature","properties":{"cadnum":"6323987001:00:002:0054"},"geometry":{"type":"Polygon","coordinates":[[[36.609888,49.082981],[36.610403,49.082902],[36.611044,49.082754],[36.610966,49.082528],[36.610265,49.082649],[36.609801,49.082728],[36.609888,49.082981]]]}},{"type":"Feature","properties":{"cadnum":"6323987001:00:001:0029"},"geometry":{"type":"Polygon","coordinates":[[[36.608629,49.08246],[36.609439,49.082356],[36.609322,49.08206],[36.609016,49.082096],[36.608878,49.082113],[36.608843,49.081914],[36.608537,49.081939],[36.608629,49.08246]]]}},{"type":"Feature","properties":{"cadnum":"6323987001:00:002:0043"},"geometry":{"type":"Polygon","coordinates":[[[36.60947,49.081656],[36.60995,49.081586],[36.60986,49.081323],[36.609378,49.081394],[36.60947,49.081656]]]}},{"type":"Feature","properties":{"cadnum":"6323987001:00:001:0024"},"geometry":{"type":"Polygon","coordinates":[[[36.609173,49.083825],[36.609533,49.083725],[36.609581,49.083712],[36.609921,49.083641],[36.609781,49.083271],[36.60939,49.083354],[36.609022,49.083428],[36.609173,49.083825]]]}},{"type":"Feature","properties":{"cadnum":"6323987001:00:001:0023"},"geometry":{"type":"Polygon","coordinates":[[[36.604324,49.082925],[36.604616,49.082679],[36.603636,49.082188],[36.60335,49.08243],[36.604324,49.082925]]]}},{"type":"Feature","properties":{"cadnum":"6323987001:00:001:0032"},"geometry":{"type":"Polygon","coordinates":[[[36.605398,49.083079],[36.60568,49.082838],[36.605517,49.082756],[36.605498,49.082772],[36.605221,49.082633],[36.605252,49.082607],[36.604898,49.082441],[36.604859,49.082422],[36.60458,49.082661],[36.604616,49.082679],[36.605008,49.082876],[36.605398,49.083079]]]}},{"type":"Feature","properties":{"cadnum":"6323987001:00:001:0010"},"geometry":{"type":"Polygon","coordinates":[[[36.60568,49.082838],[36.605834,49.0827],[36.605863,49.082676],[36.605971,49.082579],[36.605566,49.082391],[36.605179,49.082217],[36.605163,49.082209],[36.604898,49.082441],[36.605252,49.082607],[36.605221,49.082633],[36.605498,49.082772],[36.605517,49.082756],[36.60568,49.082838]]]}},{"type":"Feature","properties":{"cadnum":"6323987001:00:001:0009"},"geometry":{"type":"Polygon","coordinates":[[[36.605971,49.082579],[36.606266,49.082319],[36.605877,49.082141],[36.605466,49.081969],[36.605179,49.082217],[36.605566,49.082391],[36.605971,49.082579]]]}},{"type":"Feature","properties":{"cadnum":"6323987001:00:001:0016"},"geometry":{"type":"Polygon","coordinates":[[[36.605116,49.083317],[36.605398,49.083079],[36.605008,49.082876],[36.604616,49.082679],[36.604324,49.082925],[36.604609,49.083071],[36.605116,49.083317]]]}},{"type":"Feature","properties":{"cadnum":"6323987001:00:001:0031"},"geometry":{"type":"Polygon","coordinates":[[[36.604898,49.082441],[36.605163,49.082209],[36.604085,49.081721],[36.603818,49.081933],[36.604898,49.082441]]]}},{"type":"Feature","properties":{"cadnum":"6323987001:00:001:0020"},"geometry":{"type":"Polygon","coordinates":[[[36.603429,49.083398],[36.60366,49.083205],[36.602859,49.082814],[36.602626,49.083009],[36.603429,49.083398]]]}},{"type":"Feature","properties":{"cadnum":"6323987001:00:001:0035"},"geometry":{"type":"Polygon","coordinates":[[[36.60458,49.082661],[36.604859,49.082422],[36.603853,49.081949],[36.603582,49.082164],[36.603636,49.082188],[36.60458,49.082661]]]}},{"type":"Feature","properties":{"cadnum":"6323987001:00:001:0019"},"geometry":{"type":"Polygon","coordinates":[[[36.604455,49.083893],[36.604603,49.083764],[36.604644,49.083727],[36.604674,49.083701],[36.6044,49.083568],[36.60366,49.083205],[36.603429,49.083398],[36.604015,49.083681],[36.604455,49.083893]]]}},{"type":"Feature","properties":{"cadnum":"6323987001:00:001:0021"},"geometry":{"type":"Polygon","coordinates":[[[36.592718,49.093906],[36.59307,49.09384],[36.592974,49.093258],[36.592911,49.09302],[36.592908,49.09301],[36.592561,49.093082],[36.592718,49.093906]]]}},{"type":"Feature","properties":{"cadnum":"6323987001:00:001:0042"},"geometry":{"type":"Polygon","coordinates":[[[36.59478,49.093917],[36.595271,49.093903],[36.595138,49.093271],[36.595136,49.093253],[36.594693,49.093299],[36.59478,49.093917]]]}},{"type":"Feature","properties":{"cadnum":"6323987001:00:001:0038"},"geometry":{"type":"Polygon","coordinates":[[[36.600401,49.091497],[36.599848,49.091564],[36.59991369164265,49.091799],[36.599913,49.091799],[36.600118,49.092531],[36.600452,49.092502],[36.600416,49.091799],[36.60041558937198,49.091799],[36.600401,49.091497]]]}},{"type":"Feature","properties":{"cadnum":"6323987001:00:001:0034"},"geometry":{"type":"Polygon","coordinates":[[[36.596673,49.092624],[36.597119,49.092559],[36.597099,49.092489],[36.596926,49.091881],[36.596455,49.092011],[36.596577,49.092278],[36.596673,49.092624]]]}},{"type":"Feature","properties":{"cadnum":"6323987001:00:001:0025"},"geometry":{"type":"Polygon","coordinates":[[[36.597768,49.091646],[36.597381,49.091753],[36.59739410126582,49.091799],[36.597393,49.091799],[36.597411810810826,49.09186118018024],[36.597426,49.091911],[36.59742688235294,49.091911],[36.597429,49.091918],[36.597496,49.092155],[36.597559,49.0924],[36.598,49.092316],[36.597911,49.091914],[36.597849,49.091799],[36.59784883018868,49.091799],[36.597768,49.091646]]]}},{"type":"Feature","properties":{"cadnum":"6323987001:00:001:0027"},"geometry":{"type":"Polygon","coordinates":[[[36.597381,49.091753],[36.59721748437499,49.091799],[36.597217,49.091799],[36.596926,49.091881],[36.596934,49.091911],[36.596934536184214,49.091911],[36.597099,49.092489],[36.597559,49.0924],[36.597496,49.092155],[36.597429,49.091918],[36.597411810810826,49.09186118018024],[36.597381,49.091753]]]}},{"type":"Feature","properties":{"cadnum":"6323987001:00:001:0026"},"geometry":{"type":"Polygon","coordinates":[[[36.597719,49.09306],[36.598157,49.093015],[36.598,49.092316],[36.597559,49.0924],[36.597656,49.092777],[36.597719,49.09306]]]}},{"type":"Feature","properties":{"cadnum":"6323987001:00:001:0028"},"geometry":{"type":"Polygon","coordinates":[[[36.597288,49.093152],[36.597732,49.093117],[36.597719,49.09306],[36.597656,49.092777],[36.597559,49.0924],[36.597099,49.092489],[36.597288,49.093152]]]}},{"type":"Feature","properties":{"cadnum":"6323987001:00:001:0022"},"geometry":{"type":"Polygon","coordinates":[[[36.599848,49.091564],[36.600401,49.091497],[36.600393,49.091345],[36.600369,49.091272],[36.600338,49.091281],[36.600174,49.090919],[36.599706,49.091053],[36.599788,49.091349],[36.599848,49.091564]]]}},{"type":"Feature","properties":{"cadnum":"6323987001:00:002:0037"},"geometry":{"type":"Polygon","coordinates":[[[36.612625,49.077216],[36.613262,49.077179],[36.613258,49.076795],[36.613257,49.076716],[36.612624,49.076718],[36.612613,49.076796],[36.612625,49.077216]]]}},{"type":"Feature","properties":{"cadnum":"6323987001:00:002:0040"},"geometry":{"type":"Polygon","coordinates":[[[36.613262,49.077179],[36.613644,49.077157],[36.613682,49.075959],[36.613249,49.075962],[36.613257,49.076716],[36.613258,49.076795],[36.613262,49.077179]]]}},{"type":"Feature","properties":{"cadnum":"6323987001:00:002:0038"},"geometry":{"type":"Polygon","coordinates":[[[36.612624,49.076718],[36.613257,49.076716],[36.613249,49.075962],[36.612722,49.075967],[36.612624,49.076718]]]}},{"type":"Feature","properties":{"cadnum":"6323987001:00:002:0058"},"geometry":{"type":"Polygon","coordinates":[[[36.612948,49.082422],[36.613183,49.082246],[36.613241,49.082103],[36.613133,49.081952],[36.612782,49.082013],[36.612948,49.082422]]]}},{"type":"Feature","properties":{"cadnum":"6323987001:00:002:0055"},"geometry":{"type":"Polygon","coordinates":[[[36.616426,49.081662],[36.616939,49.081645],[36.616866,49.081068],[36.616353,49.081094],[36.616426,49.081662]]]}}]}