{"type":"FeatureCollection","features":[{"type":"Feature","properties":{"cadnum":"6323783503:00:001:0006"},"geometry":{"type":"Polygon","coordinates":[[[37.779272,49.654227],[37.779583,49.6541],[37.7797,49.654071],[37.779719,49.654064],[37.779914,49.653992],[37.779661,49.65376],[37.779035,49.653972],[37.779272,49.654227]]]}},{"type":"Feature","properties":{"cadnum":"6323783503:00:001:0007"},"geometry":{"type":"Polygon","coordinates":[[[37.7808,49.654533],[37.780994,49.654461],[37.781437,49.654291],[37.781188,49.654057],[37.780855,49.654204],[37.78055,49.654313],[37.7808,49.654533]]]}},{"type":"Feature","properties":{"cadnum":"6323783503:00:001:0005"},"geometry":{"type":"Polygon","coordinates":[[[37.784848,49.654548],[37.785032,49.654505],[37.784972,49.654384],[37.784788,49.654426],[37.784848,49.654548]]]}},{"type":"Feature","properties":{"cadnum":"6323783503:00:001:0008"},"geometry":{"type":"Polygon","coordinates":[[[37.786574,49.653331],[37.78649652173914,49.653349],[37.786495,49.653349],[37.786277,49.6534],[37.786306,49.65346],[37.786306857142854,49.65346],[37.786486,49.65382],[37.786621,49.654058],[37.786919,49.653994],[37.786584,49.653349],[37.78658334883721,49.653349],[37.786574,49.653331]]]}},{"type":"Feature","properties":{"cadnum":"6323783503:00:003:0055"},"geometry":{"type":"Polygon","coordinates":[[[37.66431,49.695109],[37.664347,49.695084],[37.664388,49.695058],[37.664508,49.69497],[37.664386,49.694927],[37.664314,49.694903],[37.66428,49.694892],[37.664185,49.694859],[37.664109,49.694961],[37.664097,49.694983],[37.664138,49.695005],[37.66431,49.695109]]]}}]}