{"type":"FeatureCollection","features":[{"type":"Feature","properties":{"cadnum":"6323783701:00:001:0171"},"geometry":{"type":"Polygon","coordinates":[[[37.633624,49.479529],[37.63365,49.479509],[37.633695,49.479459],[37.633725,49.479426],[37.63375,49.479398],[37.633753,49.479396],[37.633753,49.47939525],[37.633774,49.479376],[37.633957,49.479206],[37.63367,49.478995],[37.633621,49.478973],[37.633562,49.479023],[37.63344,49.479128],[37.633183,49.479293],[37.633141,49.479296],[37.633003,49.479407],[37.633477,49.479663],[37.633581,49.47956819727891],[37.633581,49.479569],[37.633624,49.479529]]]}},{"type":"Feature","properties":{"cadnum":"6323783701:00:001:0119"},"geometry":{"type":"Polygon","coordinates":[[[37.633175,49.480859],[37.633552,49.480475],[37.633255,49.480356],[37.633223,49.480391],[37.633161,49.48045],[37.633045,49.480552],[37.632936,49.480752],[37.633175,49.480859]]]}},{"type":"Feature","properties":{"cadnum":"6323783701:00:001:0195"},"geometry":{"type":"Polygon","coordinates":[[[37.633155,49.478696],[37.632923,49.478578],[37.63271122018349,49.478777],[37.632711,49.478777],[37.632691,49.478796],[37.632579,49.478888],[37.6325806,49.478888],[37.632577,49.478891],[37.632457,49.478985],[37.63268,49.479085],[37.632857,49.478934],[37.633053,49.478777],[37.63305290625,49.478777],[37.633155,49.478696]]]}},{"type":"Feature","properties":{"cadnum":"6323783701:00:001:0153"},"geometry":{"type":"Polygon","coordinates":[[[37.631911,49.479569],[37.631956,49.479521],[37.632038,49.479434],[37.632152,49.479333],[37.63218,49.479305],[37.632347,49.479219],[37.632546,49.479031],[37.632338,49.478938],[37.632133,49.479139],[37.631745,49.479498],[37.631911,49.479569]]]}},{"type":"Feature","properties":{"cadnum":"6323783701:00:001:0045"},"geometry":{"type":"Polygon","coordinates":[[[37.631553,49.479412],[37.631596,49.479364],[37.631685,49.479279],[37.631785,49.479187],[37.631842,49.479145],[37.631928,49.47911],[37.63198,49.479046],[37.632146,49.4789],[37.632066,49.478873],[37.632015,49.47888],[37.631921,49.478954],[37.63187,49.479019],[37.631827,49.478995],[37.631741,49.478961],[37.63172,49.478953],[37.631596,49.479083],[37.63156,49.479112],[37.631502,49.479169],[37.631489,49.47919],[37.631342,49.479333],[37.631437,49.479369],[37.631486,49.479387],[37.631553,49.479412]]]}},{"type":"Feature","properties":{"cadnum":"6323783701:00:001:0118"},"geometry":{"type":"Polygon","coordinates":[[[37.63169,49.478768],[37.631509,49.478726],[37.631437,49.47878],[37.631307,49.478888],[37.63130761386139,49.478888],[37.630953,49.479184],[37.631186,49.479276],[37.63124,49.47922],[37.631333,49.479126],[37.631391,49.479073],[37.631568,49.478877],[37.63169,49.478768]]]}},{"type":"Feature","properties":{"cadnum":"6323783701:00:001:0067"},"geometry":{"type":"Polygon","coordinates":[[[37.630514,49.480736],[37.630841,49.480534],[37.630774,49.480488],[37.630692,49.480434],[37.630576,49.480533],[37.630628,49.480586],[37.63044,49.480686],[37.630514,49.480736]]]}},{"type":"Feature","properties":{"cadnum":"6323783701:00:001:0124"},"geometry":{"type":"Polygon","coordinates":[[[37.632852,49.481929],[37.633269,49.481502],[37.632748,49.481277],[37.632377,49.481633],[37.632477,49.481696],[37.632852,49.481929]]]}},{"type":"Feature","properties":{"cadnum":"6323783701:00:001:0157"},"geometry":{"type":"Polygon","coordinates":[[[37.634248,49.482244],[37.63449,49.482023],[37.634211,49.4819],[37.634183,49.481926],[37.634135,49.481967],[37.634005,49.482098],[37.633869,49.482175],[37.63368,49.482347],[37.633542,49.482557],[37.633581,49.48256162085308],[37.633581,49.482563],[37.633923,49.482601],[37.634073,49.482441],[37.634248,49.482244]]]}},{"type":"Feature","properties":{"cadnum":"6323783701:00:001:0106"},"geometry":{"type":"Polygon","coordinates":[[[37.632936,49.480752],[37.633045,49.480552],[37.633161,49.48045],[37.633223,49.480391],[37.633255,49.480356],[37.633041,49.480271],[37.632962,49.480284],[37.63257,49.48057],[37.632936,49.480752]]]}},{"type":"Feature","properties":{"cadnum":"6323783701:00:001:0065"},"geometry":{"type":"Polygon","coordinates":[[[37.63368,49.482347],[37.633682,49.482346],[37.63368112307692,49.482346],[37.633753,49.482282],[37.633753,49.48228056613756],[37.633869,49.482175],[37.634005,49.482098],[37.634135,49.481967],[37.634183,49.481926],[37.634211,49.4819],[37.633942,49.481771],[37.633746,49.481967],[37.633643,49.482071],[37.633407,49.482313],[37.633415479166665,49.482346],[37.633415,49.482346],[37.63342606825935,49.48238721160396],[37.633444,49.482457],[37.633444811428575,49.482457],[37.633462,49.482521],[37.633474,49.482565],[37.633542,49.482557],[37.633607714285716,49.482457],[37.633608,49.482457],[37.633609,49.482457],[37.63368,49.482347]]]}},{"type":"Feature","properties":{"cadnum":"6323783701:00:001:0071"},"geometry":{"type":"Polygon","coordinates":[[[37.631921,49.482067],[37.632249,49.481878],[37.631806,49.48158],[37.631426,49.481324],[37.631156,49.481493],[37.631516,49.481762],[37.631921,49.482067]]]}},{"type":"Feature","properties":{"cadnum":"6323783701:00:001:0094"},"geometry":{"type":"Polygon","coordinates":[[[37.632249,49.481878],[37.632477,49.481696],[37.632377,49.481633],[37.632162,49.4815],[37.632118,49.481439],[37.631972,49.481243],[37.631771,49.481109],[37.631426,49.481324],[37.631806,49.48158],[37.632249,49.481878]]]}},{"type":"Feature","properties":{"cadnum":"6323783701:00:001:0077"},"geometry":{"type":"Polygon","coordinates":[[[37.631623,49.480529],[37.63167,49.480495],[37.631745,49.480444],[37.63197,49.480281],[37.631725,49.480177],[37.631595,49.480289],[37.631501,49.480247],[37.631401,49.480339],[37.631359,49.480381],[37.631623,49.480529]]]}},{"type":"Feature","properties":{"cadnum":"6323783701:00:001:0076"},"geometry":{"type":"Polygon","coordinates":[[[37.631784,49.480625],[37.632154,49.480359],[37.63197,49.480281],[37.631745,49.480444],[37.63167,49.480495],[37.631623,49.480529],[37.631784,49.480625]]]}},{"type":"Feature","properties":{"cadnum":"6323783701:00:001:0066"},"geometry":{"type":"Polygon","coordinates":[[[37.631256,49.481238],[37.631327,49.48119],[37.631374,49.481161],[37.631578,49.48104],[37.631198,49.480779],[37.630965,49.480619],[37.630911,49.480581],[37.63088,49.480559],[37.630841,49.480586],[37.630823,49.480572],[37.63086,49.480547],[37.630841,49.480534],[37.630514,49.480736],[37.630632,49.480816],[37.630863,49.480973],[37.631256,49.481238]]]}},{"type":"Feature","properties":{"cadnum":"6323783701:00:001:0109"},"geometry":{"type":"Polygon","coordinates":[[[37.632074,49.480803],[37.632499,49.480505],[37.632347,49.48044],[37.632063,49.480644],[37.631989,49.480693],[37.631945,49.480724],[37.632074,49.480803]]]}},{"type":"Feature","properties":{"cadnum":"6323783701:00:001:0073"},"geometry":{"type":"Polygon","coordinates":[[[37.634211,49.477731],[37.634181,49.477688],[37.633753,49.47783708666667],[37.633753,49.477836],[37.633045,49.478081],[37.632888,49.478011],[37.632561,49.478279],[37.632991,49.478487],[37.633308,49.478145],[37.633753,49.477942],[37.633753,49.4779410984127],[37.634211,49.477731]]]}},{"type":"Feature","properties":{"cadnum":"6323783701:00:001:0121"},"geometry":{"type":"Polygon","coordinates":[[[37.633581,49.47785156198347],[37.633581,49.477852],[37.633688,49.47781],[37.63347,49.477337],[37.63298,49.477538],[37.633061,49.477595],[37.633109,49.477635],[37.633085,49.477649],[37.633101,49.47766],[37.633145,49.477694],[37.633446,49.477904],[37.633581,49.47785156198347]]]}},{"type":"Feature","properties":{"cadnum":"6323783701:00:001:0137"},"geometry":{"type":"Polygon","coordinates":[[[37.634181,49.477688],[37.634139,49.477653],[37.633688,49.47781],[37.633446,49.477904],[37.633145,49.477694],[37.633101,49.47766],[37.633085,49.477649],[37.63311,49.477635],[37.633061,49.477595],[37.63298,49.477538],[37.632837,49.477613],[37.632531,49.477841],[37.632888,49.478011],[37.632954,49.47804],[37.633045,49.478081],[37.633581,49.477895519774016],[37.633581,49.477897],[37.634181,49.477688]]]}},{"type":"Feature","properties":{"cadnum":"6323783701:00:001:0034"},"geometry":{"type":"Polygon","coordinates":[[[37.638718,49.476585],[37.638701,49.476436],[37.638571,49.476183],[37.638506,49.476099],[37.638986,49.476042],[37.638895,49.475919],[37.638439,49.475963],[37.638419,49.475965],[37.638023,49.476276],[37.638107,49.476369],[37.638267,49.476541],[37.638396,49.476503],[37.638439,49.476576],[37.638718,49.476585]]]}},{"type":"Feature","properties":{"cadnum":"6323783701:00:001:0042"},"geometry":{"type":"Polygon","coordinates":[[[37.63818,49.474645],[37.638188,49.474465],[37.637737,49.47471],[37.638121,49.474921],[37.63820148241206,49.475207],[37.638201,49.475207],[37.63821695907919,49.47526199744211],[37.638233,49.475319],[37.6382335,49.475319],[37.638266,49.475431],[37.638,49.475488],[37.637832909896204,49.47527839143229],[37.63759,49.474971],[37.637473,49.474825],[37.637435,49.474837],[37.636689,49.475107],[37.63649272670808,49.475207],[37.636491,49.475207],[37.636373,49.475268],[37.63644,49.475319],[37.63644093960924,49.475319],[37.637123,49.475831],[37.637153,49.475854],[37.637335,49.476264],[37.637362,49.476291],[37.637555,49.47649],[37.637672,49.47661],[37.63785,49.476762],[37.63833,49.476726],[37.638834,49.47669],[37.63885,49.476688],[37.638921,49.476683],[37.638718,49.476585],[37.638439,49.476576],[37.638396,49.476503],[37.638267,49.476541],[37.638107,49.476369],[37.638048,49.476304],[37.638023,49.476276],[37.638419,49.475965],[37.638895,49.475919],[37.638718,49.475715],[37.638561,49.475445],[37.638447,49.475207],[37.638446824925815,49.475207],[37.63818,49.474645]]]}},{"type":"Feature","properties":{"cadnum":"6323783701:00:001:0033"},"geometry":{"type":"Polygon","coordinates":[[[37.639246,49.476724],[37.639246,49.47672315315315],[37.639298,49.476718],[37.639304,49.476718],[37.639473,49.476702],[37.639457,49.476679],[37.639455,49.476678],[37.639246,49.47639549343832],[37.639246,49.476395],[37.638986,49.476042],[37.638506,49.476099],[37.638571,49.476183],[37.638701,49.476436],[37.638718,49.476585],[37.638921,49.476683],[37.639058,49.476694],[37.639187,49.476729],[37.639246,49.476724]]]}},{"type":"Feature","properties":{"cadnum":"6323783701:00:001:0043"},"geometry":{"type":"Polygon","coordinates":[[[37.638121,49.474921],[37.637737,49.47471],[37.637635,49.474766],[37.637473,49.474825],[37.63759,49.474971],[37.637776494252876,49.475207],[37.637776,49.475207],[37.637832909896204,49.47527839143229],[37.637865,49.475319],[37.637865281138794,49.475319],[37.638,49.475488],[37.638266,49.475431],[37.63821695907919,49.47526199744211],[37.638121,49.474921]]]}},{"type":"Feature","properties":{"cadnum":"6323783701:00:001:0041"},"geometry":{"type":"Polygon","coordinates":[[[37.639246,49.47732867657992],[37.639463,49.47744],[37.639498,49.477457],[37.639777,49.477599],[37.640256,49.477541],[37.640246,49.477438],[37.640277,49.477393],[37.639805,49.477415],[37.639609,49.477007],[37.639104,49.47707],[37.639194,49.477302],[37.639246,49.477329],[37.639246,49.47732867657992]]]}},{"type":"Feature","properties":{"cadnum":"6323783701:00:001:0040"},"geometry":{"type":"Polygon","coordinates":[[[37.639104,49.47707],[37.639246,49.477053],[37.639246,49.47705228514852],[37.639609,49.477007],[37.639805,49.477415],[37.640277,49.477393],[37.640351,49.477351],[37.640322,49.477247],[37.640304,49.477227],[37.640209,49.477195],[37.640195,49.477165],[37.640225,49.477069],[37.640012,49.476999],[37.639915,49.476946],[37.63986,49.476751],[37.639744,49.476691],[37.639662,49.476679],[37.639473,49.476702],[37.639304,49.476718],[37.639187,49.476729],[37.639074,49.476698],[37.639074,49.476698341085275],[37.639058,49.476694],[37.638921,49.476683],[37.63885,49.476688],[37.638834,49.47669],[37.63833,49.476726],[37.63785,49.476762],[37.638221,49.477079],[37.638756,49.477537],[37.639074,49.47795533587786],[37.639074,49.477956],[37.639149,49.478054],[37.639389,49.478614],[37.639428,49.478704],[37.639506,49.478888],[37.6395066576087,49.478888],[37.639538,49.478961],[37.640017,49.479128],[37.63993444827604,49.47887382758676],[37.639895,49.478751],[37.639756,49.478141],[37.640303,49.478097],[37.640256,49.477541],[37.639777,49.477599],[37.639498,49.477457],[37.639463,49.47744],[37.639194,49.477302],[37.639104,49.47707]]]}},{"type":"Feature","properties":{"cadnum":"6323783701:00:001:0165"},"geometry":{"type":"Polygon","coordinates":[[[37.621915,49.478504],[37.621597,49.478331],[37.621765,49.478193],[37.621377,49.47799],[37.621561,49.477841],[37.62166,49.477766],[37.621698,49.477738],[37.62146,49.477592],[37.620201,49.47825],[37.620387,49.47842],[37.620234,49.478512],[37.620546220744686,49.478777],[37.620546,49.478777],[37.620995,49.479158],[37.621531,49.478777],[37.6215303828125,49.478777],[37.621915,49.478504]]]}},{"type":"Feature","properties":{"cadnum":"6323783701:00:001:0205"},"geometry":{"type":"Polygon","coordinates":[[[37.623167,49.478602],[37.623387,49.478414],[37.623193,49.47831],[37.622766,49.47865665053764],[37.622766,49.478656],[37.622635,49.478763],[37.62261652,49.478777],[37.622616,49.478777],[37.6225756835444,49.47880793670879],[37.62247,49.478888],[37.622471345744685,49.478888],[37.622371,49.478965],[37.62252,49.479051],[37.622595,49.47909063414634],[37.622595,49.479091],[37.622643000000174,49.47911600000009],[37.622766,49.479181],[37.622766,49.4791800625],[37.622931,49.479266],[37.623176,49.479057],[37.62339333333461,49.47886683333222],[37.623515,49.478761],[37.623167,49.478602]]]}},{"type":"Feature","properties":{"cadnum":"6323783701:00:001:0167"},"geometry":{"type":"Polygon","coordinates":[[[37.623066,49.478242],[37.622809,49.478114],[37.622595,49.478277],[37.622595,49.47827751893551],[37.621789,49.478888],[37.6217897862069,49.478888],[37.621745,49.478922],[37.621859,49.478988],[37.622096,49.478812],[37.622211,49.478878],[37.622347,49.478777],[37.62234672639225,49.478777],[37.622595,49.47859224864865],[37.622595,49.478593],[37.623066,49.478242]]]}},{"type":"Feature","properties":{"cadnum":"6323783701:00:001:0145"},"geometry":{"type":"Polygon","coordinates":[[[37.622635,49.478763],[37.623193,49.47831],[37.623066,49.478242],[37.622766,49.47846556687898],[37.622766,49.478465],[37.622211,49.478878],[37.622371,49.478965],[37.6225756835444,49.47880793670879],[37.622595,49.47879330303031],[37.622595,49.478794],[37.622635,49.478763]]]}},{"type":"Feature","properties":{"cadnum":"6323783701:00:001:0095"},"geometry":{"type":"Polygon","coordinates":[[[37.623021,49.475003],[37.622728,49.475193],[37.62274911111111,49.475207],[37.622749,49.475207],[37.62277483098646,49.475224056338384],[37.622918,49.475319],[37.62291861849711,49.475319],[37.623535,49.475726],[37.62383,49.475536],[37.623331,49.475207],[37.6233302278481,49.475207],[37.623021,49.475003]]]}},{"type":"Feature","properties":{"cadnum":"6323783701:00:001:0162"},"geometry":{"type":"Polygon","coordinates":[[[37.623532,49.474648],[37.624656,49.47398],[37.623849,49.473323],[37.622766,49.4739785],[37.622766,49.473978],[37.622332,49.47424],[37.621673,49.474638],[37.62249,49.4753],[37.62272592328803,49.47515212054772],[37.623532,49.474648]]]}},{"type":"Feature","properties":{"cadnum":"6323783701:00:001:0168"},"geometry":{"type":"Polygon","coordinates":[[[37.640394,49.478663],[37.640303,49.478097],[37.639756,49.478141],[37.639895,49.478751],[37.63990335036497,49.478777],[37.639903,49.478777],[37.63993444827604,49.47887382758676],[37.639939,49.478888],[37.63993905128205,49.478888],[37.640017,49.479128],[37.640237,49.479204],[37.640633,49.479125],[37.64046740425531,49.478806617021256],[37.640394,49.478663]]]}},{"type":"Feature","properties":{"cadnum":"6323783701:00:001:0103"},"geometry":{"type":"Polygon","coordinates":[[[37.624741,49.4786],[37.624584,49.478757],[37.6246281221374,49.478777],[37.624628,49.478777],[37.624695870967,49.478807709677085],[37.624873,49.478888],[37.62487331932773,49.478888],[37.625154,49.479015],[37.625584,49.479235],[37.625787,49.479007],[37.625276,49.478815],[37.624741,49.4786]]]}},{"type":"Feature","properties":{"cadnum":"6323783701:00:001:0144"},"geometry":{"type":"Polygon","coordinates":[[[37.625449,49.478652],[37.625392,49.478629],[37.625343,49.47861],[37.624903,49.478437],[37.624741,49.4786],[37.62518144186047,49.478777],[37.625179,49.478777],[37.625276,49.478815],[37.62547,49.478888],[37.62547028645833,49.478888],[37.625787,49.479007],[37.625926,49.478839],[37.625449,49.478652]]]}},{"type":"Feature","properties":{"cadnum":"6323783701:00:001:0074"},"geometry":{"type":"Polygon","coordinates":[[[37.623281,49.477742],[37.622954,49.477617],[37.622799,49.477766],[37.622766,49.47779750967742],[37.622766,49.477797],[37.622644,49.477914],[37.622766,49.477972],[37.622766,49.47797061437908],[37.62295,49.478056],[37.623281,49.477742]]]}},{"type":"Feature","properties":{"cadnum":"6323783701:00:001:0178"},"geometry":{"type":"Polygon","coordinates":[[[37.622217,49.477142],[37.62247,49.476998],[37.622336,49.476909],[37.622073,49.476734],[37.621817,49.476874],[37.622084,49.477053],[37.622217,49.477142]]]}},{"type":"Feature","properties":{"cadnum":"6323783701:00:001:0161"},"geometry":{"type":"Polygon","coordinates":[[[37.622083,49.478359],[37.62253,49.47802],[37.622207,49.477846],[37.621821,49.477645],[37.62166,49.477766],[37.621561,49.477841],[37.621377,49.47799],[37.622083,49.478359]]]}},{"type":"Feature","properties":{"cadnum":"6323783701:00:001:0111"},"geometry":{"type":"Polygon","coordinates":[[[37.622766,49.47748398607242],[37.622954,49.477617],[37.623281,49.477742],[37.623539,49.477841],[37.623724,49.477704],[37.623147,49.477479],[37.622689,49.477145],[37.622465,49.477271],[37.622595,49.47736299335548],[37.622595,49.477363],[37.622650230766574,49.477402076921194],[37.622766,49.477484],[37.622766,49.47748398607242]]]}},{"type":"Feature","properties":{"cadnum":"6323783701:00:001:0175"},"geometry":{"type":"Polygon","coordinates":[[[37.621959,49.477288],[37.622037,49.477244],[37.621978,49.477206],[37.622028,49.477175],[37.622088,49.477215],[37.622217,49.477142],[37.622084,49.477053],[37.621817,49.476874],[37.621557,49.477015],[37.62183,49.477201],[37.621959,49.477288]]]}},{"type":"Feature","properties":{"cadnum":"6323783701:00:001:0163"},"geometry":{"type":"Polygon","coordinates":[[[37.621673,49.474638],[37.62073135095448,49.475207],[37.620729,49.475207],[37.620546,49.475319],[37.619534,49.47593],[37.620469,49.476575],[37.621939,49.475644],[37.62249,49.4753],[37.622376,49.475207],[37.62237522507553,49.475207],[37.621673,49.474638]]]}},{"type":"Feature","properties":{"cadnum":"6323783701:00:001:0108"},"geometry":{"type":"Polygon","coordinates":[[[37.621773,49.47686],[37.62207,49.476672],[37.621256,49.476141],[37.620963,49.476331],[37.621773,49.47686]]]}},{"type":"Feature","properties":{"cadnum":"6323783701:00:001:0174"},"geometry":{"type":"Polygon","coordinates":[[[37.622595,49.47692671900827],[37.622595,49.476928],[37.622712,49.47686],[37.622584,49.476772],[37.622302,49.476577],[37.622073,49.476734],[37.622336,49.476909],[37.62247,49.476998],[37.622595,49.47692671900827]]]}},{"type":"Feature","properties":{"cadnum":"6323783701:00:001:0160"},"geometry":{"type":"Polygon","coordinates":[[[37.631683,49.483218],[37.631835,49.483107],[37.631276,49.482713],[37.631014,49.482543],[37.630741,49.482741],[37.631037,49.482912],[37.631683,49.483218]]]}},{"type":"Feature","properties":{"cadnum":"6323783701:00:001:0176"},"geometry":{"type":"Polygon","coordinates":[[[37.643548,49.485646],[37.643218,49.48574],[37.643179,49.485673],[37.642883,49.485754],[37.643076529411765,49.485914],[37.643076,49.485914],[37.643127096773846,49.48595580645133],[37.643212,49.486026],[37.64321288888889,49.486026],[37.643307,49.486103],[37.643453,49.485926],[37.643548,49.485646]]]}},{"type":"Feature","properties":{"cadnum":"6323783701:00:001:0080"},"geometry":{"type":"Polygon","coordinates":[[[37.63436,49.479756],[37.634826,49.479427],[37.634313,49.479123],[37.634159,49.479241],[37.634119,49.479272],[37.634142,49.479284],[37.634104,49.479313],[37.633857,49.479528],[37.63436,49.479756]]]}},{"type":"Feature","properties":{"cadnum":"6323783701:00:001:0120"},"geometry":{"type":"Polygon","coordinates":[[[37.635231,49.480991],[37.635707,49.480715],[37.63596,49.480572],[37.635444,49.480406],[37.634945,49.480856],[37.635231,49.480991]]]}},{"type":"Feature","properties":{"cadnum":"6323783701:00:001:0085"},"geometry":{"type":"Polygon","coordinates":[[[37.636344,49.480795],[37.636709,49.480619],[37.636237,49.480415],[37.63596,49.480572],[37.636344,49.480795]]]}},{"type":"Feature","properties":{"cadnum":"6323783701:00:001:0083"},"geometry":{"type":"Polygon","coordinates":[[[37.636886,49.481196],[37.636919,49.481181],[37.636819,49.480901],[37.636654,49.480979],[37.636886,49.481196]]]}},{"type":"Feature","properties":{"cadnum":"6323783701:00:001:0152"},"geometry":{"type":"Polygon","coordinates":[[[37.635263,49.482393],[37.635282,49.482373],[37.634962,49.482245],[37.634957,49.482252],[37.63489,49.482324],[37.634868,49.482346],[37.634867,49.482346],[37.63478,49.482434],[37.634767,49.482457],[37.634767876355745,49.482457],[37.634537,49.482895],[37.634796,49.482933],[37.634736,49.483106],[37.634871,49.483108],[37.634972,49.482711],[37.635172,49.482477],[37.635207,49.482448],[37.635263,49.482393]]]}},{"type":"Feature","properties":{"cadnum":"6323783701:00:001:0072"},"geometry":{"type":"Polygon","coordinates":[[[37.636432,49.482092],[37.636813,49.481899],[37.637221,49.481692],[37.637045,49.48147],[37.636521,49.481695],[37.636152,49.481853],[37.636432,49.482092]]]}},{"type":"Feature","properties":{"cadnum":"6323783701:00:001:0164"},"geometry":{"type":"Polygon","coordinates":[[[37.635263,49.482393],[37.635207,49.482448],[37.635196,49.482457],[37.63519613793104,49.482457],[37.635172,49.482477],[37.634972,49.482711],[37.634871,49.483108],[37.635115,49.483109],[37.635217,49.482949],[37.635245,49.482834],[37.635598,49.482526],[37.635282,49.482373],[37.635263,49.482393]]]}},{"type":"Feature","properties":{"cadnum":"6323783701:00:001:0082"},"geometry":{"type":"Polygon","coordinates":[[[37.635931,49.481647],[37.636886,49.481196],[37.636654,49.480979],[37.6357,49.481432],[37.635931,49.481647]]]}},{"type":"Feature","properties":{"cadnum":"6323783701:00:001:0044"},"geometry":{"type":"Polygon","coordinates":[[[37.640843,49.484903],[37.640949,49.484898],[37.641075,49.484836],[37.641067,49.484572],[37.640984,49.484573],[37.640959,49.484545],[37.640929,49.484496],[37.640851,49.484371],[37.640503,49.484429],[37.640322,49.484446],[37.640301,49.4846],[37.640279,49.484781],[37.640603,49.484821],[37.640613,49.484824],[37.640843,49.484903]]]}},{"type":"Feature","properties":{"cadnum":"6323783701:00:001:0123"},"geometry":{"type":"Polygon","coordinates":[[[37.642361,49.485939],[37.642748,49.485872],[37.642878,49.485872],[37.642778,49.485717],[37.64262,49.485485],[37.642545,49.485307],[37.642376,49.485373],[37.641955,49.485537],[37.642361,49.485939]]]}},{"type":"Feature","properties":{"cadnum":"6323783701:00:001:0048"},"geometry":{"type":"Polygon","coordinates":[[[37.643755,49.485493],[37.643814,49.485473],[37.644172,49.485351],[37.643885,49.485005],[37.64355,49.485109],[37.643517,49.485119],[37.643469,49.485134],[37.643755,49.485493]]]}},{"type":"Feature","properties":{"cadnum":"6323783701:00:001:0149"},"geometry":{"type":"Polygon","coordinates":[[[37.643068,49.48498],[37.643378,49.484881],[37.643186,49.484553],[37.642878,49.484747],[37.643068,49.48498]]]}},{"type":"Feature","properties":{"cadnum":"6323783701:00:001:0136"},"geometry":{"type":"Polygon","coordinates":[[[37.642117,49.484299],[37.64287,49.484018],[37.642772,49.483962],[37.643314,49.483759],[37.643248,49.483648],[37.642721,49.483845],[37.64276,49.483885],[37.641991,49.484172],[37.642117,49.484299]]]}},{"type":"Feature","properties":{"cadnum":"6323783701:00:001:0047"},"geometry":{"type":"Polygon","coordinates":[[[37.642972,49.485676],[37.643259,49.485581],[37.643304,49.485647],[37.643755,49.485493],[37.643469,49.485134],[37.64323,49.485208],[37.643031,49.48527],[37.64276,49.485353],[37.642773,49.485365],[37.642792,49.485395],[37.642805,49.485412],[37.642879,49.48553],[37.6429,49.485555],[37.642972,49.485676]]]}},{"type":"Feature","properties":{"cadnum":"6323783701:00:001:0037"},"geometry":{"type":"Polygon","coordinates":[[[37.642585,49.485135],[37.642785,49.485071],[37.643068,49.48498],[37.642878,49.484747],[37.642726,49.484826],[37.642638,49.484872],[37.642436,49.484925],[37.642585,49.485135]]]}},{"type":"Feature","properties":{"cadnum":"6323783701:00:001:0133"},"geometry":{"type":"Polygon","coordinates":[[[37.642207,49.484505],[37.642643,49.484437],[37.6426,49.484294],[37.642155,49.484383],[37.642207,49.484505]]]}},{"type":"Feature","properties":{"cadnum":"6323783701:00:001:0132"},"geometry":{"type":"Polygon","coordinates":[[[37.642436,49.484925],[37.642638,49.484872],[37.642726,49.484826],[37.642878,49.484747],[37.643186,49.484553],[37.643082,49.484375],[37.642772,49.484474],[37.642703,49.484496],[37.642658,49.484526],[37.64228,49.48454],[37.642158,49.484593],[37.642081,49.484661],[37.642317,49.484883],[37.642436,49.484925]]]}},{"type":"Feature","properties":{"cadnum":"6323783701:00:001:0064"},"geometry":{"type":"Polygon","coordinates":[[[37.64276,49.485353],[37.643031,49.48527],[37.64323,49.485208],[37.643469,49.485134],[37.643517,49.485119],[37.64355,49.485109],[37.643378,49.484881],[37.643068,49.48498],[37.642827,49.485057],[37.642785,49.485071],[37.642585,49.485135],[37.642667,49.485237],[37.642674,49.485246],[37.642732,49.485318],[37.64275,49.485342],[37.64276,49.485353]]]}},{"type":"Feature","properties":{"cadnum":"6323783701:00:001:0135"},"geometry":{"type":"Polygon","coordinates":[[[37.641105,49.484295],[37.641661,49.484227],[37.641566,49.48402],[37.641039,49.484121],[37.641105,49.484295]]]}},{"type":"Feature","properties":{"cadnum":"6323783701:00:001:0134"},"geometry":{"type":"Polygon","coordinates":[[[37.641234,49.484752],[37.641825,49.484578],[37.64184,49.48455],[37.641715,49.484338],[37.641677,49.484325],[37.641082,49.484377],[37.641078,49.484611],[37.641259,49.484585],[37.641234,49.484752]]]}},{"type":"Feature","properties":{"cadnum":"6323783701:00:001:0061"},"geometry":{"type":"Polygon","coordinates":[[[37.640017,49.479969],[37.640952,49.47986],[37.640913,49.479672],[37.639992,49.479793],[37.640016,49.47996],[37.640017,49.479969]]]}},{"type":"Feature","properties":{"cadnum":"6323783701:00:001:0060"},"geometry":{"type":"Polygon","coordinates":[[[37.639447,49.480055],[37.639786,49.480006],[37.639886,49.479991],[37.639968,49.479979],[37.639899,49.47978],[37.639651,49.479802],[37.639597,49.47981],[37.639388,49.479824],[37.639447,49.480055]]]}},{"type":"Feature","properties":{"cadnum":"6323783701:00:001:0049"},"geometry":{"type":"Polygon","coordinates":[[[37.639487,49.48021],[37.639765,49.480182],[37.639819,49.480174],[37.640024,49.480144],[37.639968,49.479979],[37.639886,49.479991],[37.639786,49.480006],[37.639447,49.480055],[37.639487,49.48021]]]}},{"type":"Feature","properties":{"cadnum":"6323783701:00:001:0063"},"geometry":{"type":"Polygon","coordinates":[[[37.640218,49.480532],[37.640989,49.480419],[37.640944,49.4802],[37.640132,49.480312],[37.640218,49.480532]]]}},{"type":"Feature","properties":{"cadnum":"6323783701:00:001:0050"},"geometry":{"type":"Polygon","coordinates":[[[37.640073,49.480136],[37.640979,49.479989],[37.640952,49.47986],[37.640017,49.479969],[37.640073,49.480136]]]}},{"type":"Feature","properties":{"cadnum":"6323783701:00:001:0142"},"geometry":{"type":"Polygon","coordinates":[[[37.639793,49.481141],[37.640151,49.481087],[37.640249,49.481071],[37.640327,49.481056],[37.640241,49.480846],[37.639702,49.480917],[37.639793,49.481141]]]}},{"type":"Feature","properties":{"cadnum":"6323783701:00:001:0062"},"geometry":{"type":"Polygon","coordinates":[[[37.639698,49.480613],[37.639815,49.480593],[37.640178,49.480528],[37.640088,49.480322],[37.640002,49.480336],[37.639907,49.48035],[37.639723,49.480385],[37.639658,49.480396],[37.63958,49.480411],[37.639698,49.480613]]]}},{"type":"Feature","properties":{"cadnum":"6323783701:00:001:0141"},"geometry":{"type":"Polygon","coordinates":[[[37.640681,49.481009],[37.641086,49.480951],[37.641061,49.480671],[37.640614,49.480723],[37.640681,49.481009]]]}},{"type":"Feature","properties":{"cadnum":"6323783701:00:001:0090"},"geometry":{"type":"Polygon","coordinates":[[[37.628426,49.476996],[37.628174,49.476866],[37.628118,49.47692],[37.628088,49.476949],[37.628088,49.47694909302326],[37.627688,49.477337],[37.627311,49.477654],[37.627604,49.477775],[37.627927,49.477476],[37.62826,49.477157],[37.62826,49.47715561538462],[37.628426,49.476996]]]}},{"type":"Feature","properties":{"cadnum":"6323783701:00:001:0159"},"geometry":{"type":"Polygon","coordinates":[[[37.628595,49.478168],[37.628874,49.47788],[37.629013,49.477741],[37.628689,49.477564],[37.628477,49.477782],[37.62824,49.478025],[37.628595,49.478168]]]}},{"type":"Feature","properties":{"cadnum":"6323783701:00:001:0158"},"geometry":{"type":"Polygon","coordinates":[[[37.628109,49.477599],[37.62826,49.477474],[37.62826,49.477472907216494],[37.628497,49.477275],[37.628606,49.477174],[37.628426,49.476996],[37.628088,49.477321],[37.628088,49.47732176876877],[37.627927,49.477476],[37.627604,49.477775],[37.62784,49.477864],[37.628088,49.47761968773234],[37.628088,49.47762],[37.628109,49.477599]]]}},{"type":"Feature","properties":{"cadnum":"6323783701:00:001:0177"},"geometry":{"type":"Polygon","coordinates":[[[37.632699,49.47737],[37.632767,49.477334],[37.63319,49.476989],[37.633387,49.476998],[37.633483,49.47693],[37.633192,49.476763],[37.633141,49.476809],[37.632587,49.477306],[37.632699,49.47737]]]}},{"type":"Feature","properties":{"cadnum":"6323783701:00:001:0122"},"geometry":{"type":"Polygon","coordinates":[[[37.632927,49.477447],[37.633401,49.4772],[37.63319,49.476989],[37.632767,49.477334],[37.632927,49.477447]]]}},{"type":"Feature","properties":{"cadnum":"6323783701:00:001:0117"},"geometry":{"type":"Polygon","coordinates":[[[37.628225,49.476816],[37.628203,49.476799],[37.628092,49.476907],[37.628118,49.47692],[37.628225,49.476816]]]}},{"type":"Feature","properties":{"cadnum":"6323783701:00:001:0138"},"geometry":{"type":"Polygon","coordinates":[[[37.632834,49.476857],[37.633031,49.476623],[37.633164,49.476465],[37.632908,49.476398],[37.632781,49.476556],[37.632601,49.47678],[37.632834,49.476857]]]}},{"type":"Feature","properties":{"cadnum":"6323783701:00:001:0116"},"geometry":{"type":"Polygon","coordinates":[[[37.628203,49.476799],[37.628088,49.476709],[37.628088,49.47670914336918],[37.627645,49.476363],[37.627569,49.476286],[37.627228,49.476125],[37.626974,49.476353],[37.627411,49.476553],[37.627856,49.476784],[37.628088,49.47690491525423],[37.628088,49.476905],[37.628092,49.476907],[37.628203,49.476799]]]}},{"type":"Feature","properties":{"cadnum":"6323783701:00:001:0091"},"geometry":{"type":"Polygon","coordinates":[[[37.62826,49.47691036507936],[37.628426,49.476996],[37.628469,49.476956],[37.62826,49.476836081967214],[37.62826,49.476836],[37.628225,49.476816],[37.628174,49.476866],[37.62826,49.476911],[37.62826,49.47691036507936]]]}},{"type":"Feature","properties":{"cadnum":"6323783701:00:001:0069"},"geometry":{"type":"Polygon","coordinates":[[[37.631215,49.476733],[37.631413,49.476561],[37.631246,49.47648],[37.631052,49.47665],[37.631215,49.476733]]]}},{"type":"Feature","properties":{"cadnum":"6323783701:00:001:0156"},"geometry":{"type":"Polygon","coordinates":[[[37.6299,49.478723],[37.630198,49.47864],[37.630387,49.478466],[37.630734,49.478148],[37.631083,49.478176],[37.63138,49.47831],[37.6315,49.478204],[37.631645,49.478229],[37.631757,49.478131],[37.631456,49.477843],[37.631697,49.477595],[37.631435,49.477467],[37.631283,49.477303],[37.631425,49.477188],[37.630967,49.477054],[37.630737,49.477033],[37.630436,49.477138],[37.629963,49.476951],[37.629858,49.477003],[37.629838,49.477055],[37.629693,49.477321],[37.629172,49.477775],[37.62911,49.477823],[37.628768,49.478141],[37.628942,49.478188],[37.628906,49.47824],[37.628717,49.478188],[37.628694,49.47821],[37.629143,49.478402],[37.629502,49.478556],[37.6299,49.478723]]]}},{"type":"Feature","properties":{"cadnum":"6323783701:00:001:0180"},"geometry":{"type":"Polygon","coordinates":[[[37.631812,49.47706],[37.631953,49.47681],[37.632051,49.476637],[37.631756,49.476589],[37.631839,49.476432],[37.63159,49.47639],[37.631454,49.476585],[37.63132,49.476657],[37.631246,49.476902],[37.631812,49.47706]]]}},{"type":"Feature","properties":{"cadnum":"6323783701:00:001:0179"},"geometry":{"type":"Polygon","coordinates":[[[37.632051,49.476637],[37.632249,49.476282],[37.631713,49.476212],[37.63159,49.47639],[37.631839,49.476432],[37.631756,49.476589],[37.632051,49.476637]]]}},{"type":"Feature","properties":{"cadnum":"6323783701:00:001:0068"},"geometry":{"type":"Polygon","coordinates":[[[37.628962,49.476766],[37.629012,49.476715],[37.629031,49.476567],[37.629036,49.476522],[37.629056,49.476356],[37.629094,49.476142],[37.629111,49.476043],[37.62873,49.476016],[37.628708,49.476112],[37.628663,49.476312],[37.628714,49.476765],[37.628962,49.476766]]]}},{"type":"Feature","properties":{"cadnum":"6323783701:00:001:0154"},"geometry":{"type":"Polygon","coordinates":[[[37.62941,49.476754],[37.629418,49.476696],[37.629461,49.476393],[37.629464,49.476371],[37.629473,49.476321],[37.629497,49.476174],[37.629514,49.476076],[37.629111,49.476043],[37.629094,49.476142],[37.629056,49.476356],[37.629036,49.476522],[37.629031,49.476567],[37.629013,49.476715],[37.62939,49.476752],[37.62941,49.476754]]]}},{"type":"Feature","properties":{"cadnum":"6323783701:00:001:0166"},"geometry":{"type":"Polygon","coordinates":[[[37.623205,49.478173],[37.623477,49.477935],[37.62322,49.477802],[37.62295,49.478056],[37.623205,49.478173]]]}},{"type":"Feature","properties":{"cadnum":"6323783701:00:001:0038"},"geometry":{"type":"Polygon","coordinates":[[[37.623434,49.478694],[37.623552,49.478582],[37.623345,49.478471],[37.623209,49.478595],[37.623434,49.478694]]]}},{"type":"Feature","properties":{"cadnum":"6323783701:00:001:0070"},"geometry":{"type":"Polygon","coordinates":[[[37.626416,49.477896],[37.626518,49.477797],[37.626747,49.477573],[37.626417,49.477416],[37.626181,49.477637],[37.62607,49.477731],[37.626218,49.477812],[37.626416,49.477896]]]}},{"type":"Feature","properties":{"cadnum":"6323783701:00:001:0169"},"geometry":{"type":"Polygon","coordinates":[[[37.627311,49.477654],[37.627688,49.477337],[37.628069,49.476968],[37.627793,49.47684],[37.627668,49.476947],[37.627391,49.477181],[37.62725,49.477308],[37.62701,49.477516],[37.627311,49.477654]]]}},{"type":"Feature","properties":{"cadnum":"6323783701:00:001:0155"},"geometry":{"type":"Polygon","coordinates":[[[37.62447,49.478472],[37.624641,49.478313],[37.624235,49.47815],[37.623865,49.477975],[37.62378,49.478026],[37.624053,49.478163],[37.623973,49.478249],[37.62447,49.478472]]]}},{"type":"Feature","properties":{"cadnum":"6323783701:00:001:0102"},"geometry":{"type":"Polygon","coordinates":[[[37.624297,49.478639],[37.62447,49.478472],[37.623973,49.478249],[37.623788,49.478426],[37.624297,49.478639]]]}},{"type":"Feature","properties":{"cadnum":"6323783701:00:001:0104"},"geometry":{"type":"Polygon","coordinates":[[[37.626092,49.478281],[37.62626,49.478084],[37.626056,49.477994],[37.625559,49.477776],[37.62538,49.477958],[37.625877,49.478182],[37.626092,49.478281]]]}},{"type":"Feature","properties":{"cadnum":"6323783701:00:001:0150"},"geometry":{"type":"Polygon","coordinates":[[[37.624641,49.478313],[37.624792,49.478167],[37.624295,49.477951],[37.623724,49.477704],[37.623539,49.477841],[37.623865,49.477975],[37.624235,49.47815],[37.624641,49.478313]]]}},{"type":"Feature","properties":{"cadnum":"6323783701:00:001:0079"},"geometry":{"type":"Polygon","coordinates":[[[37.625117,49.477855],[37.625281,49.477705],[37.624865,49.477527],[37.624318,49.477253],[37.624263,49.477294],[37.624132,49.477395],[37.624641,49.477643],[37.625117,49.477855]]]}},{"type":"Feature","properties":{"cadnum":"6323783701:00:001:0096"},"geometry":{"type":"Polygon","coordinates":[[[37.627079,49.478649],[37.627431,49.478314],[37.627751,49.47801],[37.627427,49.477867],[37.6271,49.478161],[37.62675,49.478497],[37.627079,49.478649]]]}},{"type":"Feature","properties":{"cadnum":"6323783701:00:001:0107"},"geometry":{"type":"Polygon","coordinates":[[[37.626359,49.478398],[37.626762,49.478018],[37.627085,49.477718],[37.626747,49.477573],[37.626451,49.477862],[37.626416,49.477896],[37.62626,49.478084],[37.626092,49.478281],[37.626359,49.478398]]]}},{"type":"Feature","properties":{"cadnum":"6323783701:00:001:0170"},"geometry":{"type":"Polygon","coordinates":[[[37.628069,49.476968],[37.628118,49.47692],[37.628092,49.476907],[37.627856,49.476784],[37.627793,49.47684],[37.628069,49.476968]]]}},{"type":"Feature","properties":{"cadnum":"6323783701:00:001:0100"},"geometry":{"type":"Polygon","coordinates":[[[37.627668,49.476947],[37.627856,49.476784],[37.627411,49.476553],[37.626974,49.476353],[37.626754,49.476555],[37.627014,49.476678],[37.627177,49.476742],[37.627325,49.4768],[37.627668,49.476947]]]}},{"type":"Feature","properties":{"cadnum":"6323783701:00:001:0087"},"geometry":{"type":"Polygon","coordinates":[[[37.626428,49.477241],[37.626732,49.476946],[37.627014,49.476678],[37.626754,49.476555],[37.626487,49.476815],[37.626202,49.477092],[37.626347,49.477203],[37.626428,49.477241]]]}},{"type":"Feature","properties":{"cadnum":"6323783701:00:001:0147"},"geometry":{"type":"Polygon","coordinates":[[[37.627098,49.475933],[37.627267,49.475797],[37.626717,49.475404],[37.626544,49.475543],[37.626504,49.475575],[37.627098,49.475933]]]}},{"type":"Feature","properties":{"cadnum":"6323783701:00:001:0148"},"geometry":{"type":"Polygon","coordinates":[[[37.626338,49.476633],[37.626518,49.476452],[37.626067,49.476237],[37.625804,49.476103],[37.625765,49.476131],[37.625573,49.47628],[37.625878,49.476429],[37.626338,49.476633]]]}},{"type":"Feature","properties":{"cadnum":"6323783701:00:001:0172"},"geometry":{"type":"Polygon","coordinates":[[[37.626024,49.475946],[37.626131,49.47587],[37.626224,49.475799],[37.626028,49.475664],[37.625991,49.475639],[37.625932,49.4756],[37.625875,49.47556],[37.625699,49.475444],[37.625681,49.475453],[37.625645,49.475474],[37.625634,49.47548],[37.625626,49.475485],[37.625437,49.475593],[37.625636,49.475725],[37.625646,49.475731],[37.625803,49.475834],[37.626024,49.475946]]]}},{"type":"Feature","properties":{"cadnum":"6323783701:00:001:0114"},"geometry":{"type":"Polygon","coordinates":[[[37.626518,49.476452],[37.626729,49.476231],[37.62633,49.47599],[37.626131,49.47587],[37.625969,49.475986],[37.625804,49.476103],[37.626067,49.476237],[37.626518,49.476452]]]}},{"type":"Feature","properties":{"cadnum":"6323783701:00:001:0105"},"geometry":{"type":"Polygon","coordinates":[[[37.626158,49.476807],[37.626338,49.476633],[37.625878,49.476429],[37.625573,49.47628],[37.625561,49.476291],[37.625374,49.476436],[37.625693,49.476607],[37.626158,49.476807]]]}},{"type":"Feature","properties":{"cadnum":"6323783701:00:001:0101"},"geometry":{"type":"Polygon","coordinates":[[[37.624792,49.478167],[37.624965,49.478],[37.624447,49.47778],[37.623927,49.47755],[37.623904,49.477567],[37.623724,49.477704],[37.624295,49.477951],[37.624792,49.478167]]]}},{"type":"Feature","properties":{"cadnum":"6323783701:00:001:0099"},"geometry":{"type":"Polygon","coordinates":[[[37.623904,49.477567],[37.623927,49.47755],[37.624083,49.477431],[37.623585,49.477193],[37.623137,49.476885],[37.622907,49.477021],[37.623385,49.477338],[37.623904,49.477567]]]}},{"type":"Feature","properties":{"cadnum":"6323783701:00:001:0151"},"geometry":{"type":"Polygon","coordinates":[[[37.626154,49.478732],[37.6263,49.478576],[37.625223,49.478116],[37.625068,49.47827],[37.62559,49.478501],[37.626154,49.478732]]]}},{"type":"Feature","properties":{"cadnum":"6323783701:00:001:0078"},"geometry":{"type":"Polygon","coordinates":[[[37.62598,49.476997],[37.626158,49.476807],[37.625693,49.476607],[37.625374,49.476436],[37.625356,49.47645],[37.625168,49.476596],[37.625156,49.476606],[37.625518,49.476812],[37.62598,49.476997]]]}},{"type":"Feature","properties":{"cadnum":"6323783701:00:001:0110"},"geometry":{"type":"Polygon","coordinates":[[[37.6258,49.477181],[37.62598,49.476997],[37.625518,49.476812],[37.625156,49.476606],[37.624977,49.476746],[37.624948,49.476769],[37.625372,49.476983],[37.6258,49.477181]]]}},{"type":"Feature","properties":{"cadnum":"6323783701:00:001:0173"},"geometry":{"type":"Polygon","coordinates":[[[37.62444,49.477163],[37.624623,49.477023],[37.624228,49.476786],[37.623831,49.476494],[37.623599,49.476624],[37.624015,49.476923],[37.62444,49.477163]]]}},{"type":"Feature","properties":{"cadnum":"6323783701:00:001:0097"},"geometry":{"type":"Polygon","coordinates":[[[37.624965,49.478],[37.625117,49.477855],[37.624641,49.477643],[37.624132,49.477395],[37.624083,49.477431],[37.623927,49.47755],[37.624447,49.47778],[37.624965,49.478]]]}},{"type":"Feature","properties":{"cadnum":"6323783701:00:001:0146"},"geometry":{"type":"Polygon","coordinates":[[[37.626729,49.476231],[37.627098,49.475933],[37.626504,49.475575],[37.626251,49.475777],[37.626131,49.47587],[37.626729,49.476231]]]}},{"type":"Feature","properties":{"cadnum":"6323783701:00:001:0086"},"geometry":{"type":"Polygon","coordinates":[[[37.625561,49.476291],[37.625573,49.47628],[37.625765,49.476131],[37.625213,49.475719],[37.624971,49.475852],[37.625339,49.476123],[37.625561,49.476291]]]}},{"type":"Feature","properties":{"cadnum":"6323783701:00:001:0075"},"geometry":{"type":"Polygon","coordinates":[[[37.624623,49.477023],[37.624739,49.476931],[37.6248,49.476884],[37.624464,49.47665],[37.624058,49.476362],[37.623831,49.476494],[37.624228,49.476786],[37.624623,49.477023]]]}}]}