{"type":"FeatureCollection","features":[{"type":"Feature","properties":{"cadnum":"6323785007:00:001:0009"},"geometry":{"type":"Polygon","coordinates":[[[37.571481,49.64553],[37.571121,49.645613],[37.57135186648502,49.646236],[37.571351,49.646236],[37.57137473134333,49.646297701492664],[37.571393,49.646347],[37.57139369230769,49.646347],[37.571416,49.646405],[37.571778,49.646335],[37.571481,49.64553]]]}},{"type":"Feature","properties":{"cadnum":"6323785007:00:001:0010"},"geometry":{"type":"Polygon","coordinates":[[[37.574826,49.645335],[37.573156,49.645829],[37.573156,49.64582972455089],[37.57266,49.645976],[37.57282539083558,49.646236],[37.572825,49.646236],[37.573235,49.646879],[37.573328,49.646865],[37.573328,49.646863395973156],[37.57398,49.646754],[37.575113298392544,49.64631850403016],[37.575537,49.646156],[37.574826,49.645335]]]}},{"type":"Feature","properties":{"cadnum":"6323785007:00:001:0008"},"geometry":{"type":"Polygon","coordinates":[[[37.569779,49.645907],[37.569468,49.645981],[37.569582262295086,49.646236],[37.569582,49.646236],[37.569775,49.646665],[37.570064,49.646618],[37.569911,49.646236],[37.5699106,49.646236],[37.569779,49.645907]]]}},{"type":"Feature","properties":{"cadnum":"6323785007:00:001:0011"},"geometry":{"type":"Polygon","coordinates":[[[37.57266,49.645976],[37.571783099631,49.646236],[37.571783,49.646236],[37.571746,49.646247],[37.571778,49.646335],[37.571715,49.646347],[37.57171594285715,49.646347],[37.571416,49.646405],[37.571365,49.646269],[37.570681,49.646347],[37.57068154545453,49.646347],[37.570112,49.646412],[37.570182,49.64716],[37.571188,49.647223],[37.573235,49.646879],[37.57289577760498,49.646347],[37.572896,49.646347],[37.57266,49.645976]]]}},{"type":"Feature","properties":{"cadnum":"6323785007:00:001:0012"},"geometry":{"type":"Polygon","coordinates":[[[37.579527,49.643944],[37.579032,49.643569],[37.57865,49.64373],[37.57865,49.64373016513761],[37.574897,49.645314],[37.574826,49.645335],[37.575537,49.646156],[37.576077,49.645948],[37.575619,49.645446],[37.57865,49.64428168707058],[37.57865,49.644282],[37.579527,49.643944]]]}},{"type":"Feature","properties":{"cadnum":"6323785007:00:001:0006"},"geometry":{"type":"Polygon","coordinates":[[[37.557142,49.647927],[37.559358,49.647607],[37.560227,49.647445],[37.560203,49.646541],[37.559839,49.646583],[37.558829,49.646957],[37.558285,49.647017],[37.557456,49.647078],[37.55749,49.647188],[37.557022,49.64725],[37.557142,49.647927]]]}},{"type":"Feature","properties":{"cadnum":"6323785007:00:001:0007"},"geometry":{"type":"Polygon","coordinates":[[[37.557022,49.64725],[37.55749,49.647188],[37.557456,49.647078],[37.558285,49.647017],[37.558279,49.646973],[37.558267,49.646858],[37.558246,49.646837],[37.557425,49.646889],[37.556922,49.64692],[37.556988,49.647139],[37.556997,49.647168],[37.557003,49.647186],[37.557022,49.64725]]]}}]}