{"type":"FeatureCollection","features":[{"type":"Feature","properties":{"cadnum":"6323784501:00:002:0010"},"geometry":{"type":"Polygon","coordinates":[[[37.812395,49.55971],[37.812935,49.558631],[37.812055,49.558363],[37.811402,49.559585],[37.812395,49.55971]]]}},{"type":"Feature","properties":{"cadnum":"6323784501:00:002:0011"},"geometry":{"type":"Polygon","coordinates":[[[37.81405,49.560018],[37.814607,49.558892],[37.814288,49.55883],[37.813878,49.558749],[37.813321,49.559927],[37.81405,49.560018]]]}},{"type":"Feature","properties":{"cadnum":"6323784501:00:002:0013"},"geometry":{"type":"Polygon","coordinates":[[[37.814963,49.55879],[37.81468,49.55875],[37.814072,49.560119],[37.81466,49.560313],[37.8147,49.560248],[37.814856,49.55998990825689],[37.814856,49.559991],[37.815255,49.559331],[37.81497108290161,49.55924347668395],[37.814743,49.559172],[37.814856,49.55897579090909],[37.814856,49.558978],[37.814963,49.55879]]]}},{"type":"Feature","properties":{"cadnum":"6323784501:00:002:0012"},"geometry":{"type":"Polygon","coordinates":[[[37.813025,49.559863],[37.813529,49.558645],[37.812969,49.558547],[37.812935,49.558631],[37.812395,49.55971],[37.813025,49.559863]]]}},{"type":"Feature","properties":{"cadnum":"6323784501:00:002:0001"},"geometry":{"type":"Polygon","coordinates":[[[37.809505,49.557904],[37.809096,49.557766],[37.808138,49.55964],[37.8085,49.55974],[37.809505,49.557904]]]}},{"type":"Feature","properties":{"cadnum":"6323784501:00:002:0002"},"geometry":{"type":"Polygon","coordinates":[[[37.810816,49.560034],[37.8117,49.558347],[37.811121,49.558191],[37.810136,49.559885],[37.810816,49.560034]]]}},{"type":"Feature","properties":{"cadnum":"6323784501:00:002:0003"},"geometry":{"type":"Polygon","coordinates":[[[37.810694,49.558196],[37.810661,49.557912],[37.810376,49.557809],[37.810128,49.558108],[37.809806,49.558048],[37.80939291922059,49.55890114206018],[37.809047,49.559615],[37.809534,49.559736],[37.809534,49.559735556701035],[37.809847,49.559813],[37.810694,49.558196]]]}},{"type":"Feature","properties":{"cadnum":"6323784501:00:002:0007"},"geometry":{"type":"Polygon","coordinates":[[[37.816093,49.560088],[37.816262,49.55969],[37.815456,49.559404],[37.815659,49.559058],[37.815463,49.558989],[37.815027,49.55970944151565],[37.815027,49.559708],[37.8147,49.560248],[37.814856,49.56030190825688],[37.814856,49.560302],[37.814891991957126,49.56031434584451],[37.815027,49.560361],[37.815027,49.56036065586592],[37.815751,49.560609],[37.816093,49.560088]]]}},{"type":"Feature","properties":{"cadnum":"6323784501:00:001:0001"},"geometry":{"type":"Polygon","coordinates":[[[37.820553,49.566873],[37.820349,49.566826],[37.820349,49.566826573122526],[37.819761,49.566691],[37.819351,49.567304],[37.820156,49.567492],[37.820349,49.56719083516484],[37.820349,49.567192],[37.820553,49.566873]]]}},{"type":"Feature","properties":{"cadnum":"6323784501:00:001:0002"},"geometry":{"type":"Polygon","coordinates":[[[37.82052,49.56686539705883],[37.820553,49.566873],[37.820707,49.566633],[37.820743,49.566556],[37.820688,49.566544],[37.820689,49.566541],[37.820684,49.56654],[37.820726,49.566464],[37.820464551084456,49.56642308359147],[37.820321,49.5664],[37.82003,49.566426],[37.819921,49.566454],[37.819761,49.566691],[37.82052,49.566866],[37.82052,49.56686539705883]]]}},{"type":"Feature","properties":{"cadnum":"6323784501:00:003:0045"},"geometry":{"type":"Polygon","coordinates":[[[37.826014,49.56711119553072],[37.826362,49.567118],[37.826452,49.56638],[37.826345,49.56627],[37.82611,49.56623],[37.825909,49.566196],[37.825842,49.566426],[37.825842,49.56642643939394],[37.825645,49.567104],[37.825842,49.56710784122563],[37.825842,49.567108],[37.826004,49.567111],[37.826014,49.567112],[37.826014,49.56711119553072]]]}},{"type":"Feature","properties":{"cadnum":"6323784501:00:003:0012"},"geometry":{"type":"Polygon","coordinates":[[[37.839437,49.574669],[37.837599,49.574165],[37.83686397760011,49.57486951563361],[37.836561,49.575158],[37.83656285820896,49.575158],[37.836539,49.575181],[37.835762,49.575924],[37.836364,49.576177],[37.836779,49.575747],[37.837,49.575576],[37.837,49.57557588516746],[37.837664,49.575062],[37.838733,49.575176],[37.838969,49.575047],[37.83896786577182,49.575047],[37.839313,49.57486],[37.839437,49.574669]]]}},{"type":"Feature","properties":{"cadnum":"6323784501:00:006:0007"},"geometry":{"type":"Polygon","coordinates":[[[37.829435,49.563985],[37.829913,49.563263],[37.829703,49.56317],[37.82984,49.563031],[37.829067,49.562739],[37.828491,49.563371],[37.828339,49.563539],[37.829435,49.563985]]]}},{"type":"Feature","properties":{"cadnum":"6323784501:00:006:0013"},"geometry":{"type":"Polygon","coordinates":[[[37.827132,49.562443],[37.826117,49.562341],[37.826024,49.56258],[37.825842,49.562953],[37.825842,49.56295328813559],[37.82566,49.563325],[37.825842,49.56337692655367],[37.825842,49.563377],[37.82594465979579,49.56340621649541],[37.826014,49.563426],[37.826014,49.56342595039165],[37.826225,49.563486],[37.827132,49.562443]]]}},{"type":"Feature","properties":{"cadnum":"6323784501:00:006:0003"},"geometry":{"type":"Polygon","coordinates":[[[37.828491,49.563371],[37.829067,49.562739],[37.828474,49.562482],[37.828074,49.562982],[37.827919,49.563174],[37.828491,49.563371]]]}},{"type":"Feature","properties":{"cadnum":"6323784501:00:006:0010"},"geometry":{"type":"Polygon","coordinates":[[[37.826683,49.563615],[37.827691,49.562535],[37.827132,49.562443],[37.826225,49.563486],[37.826683,49.563615]]]}},{"type":"Feature","properties":{"cadnum":"6323784501:00:006:0002"},"geometry":{"type":"Polygon","coordinates":[[[37.830357,49.563484],[37.829913,49.563263],[37.82918717218543,49.564359],[37.829187,49.564359],[37.829054,49.56456],[37.829518,49.564643],[37.829723,49.564359],[37.82972224822695,49.564359],[37.830357,49.563484]]]}},{"type":"Feature","properties":{"cadnum":"6323784501:00:006:0006"},"geometry":{"type":"Polygon","coordinates":[[[37.826014,49.562578681318676],[37.826024,49.56258],[37.826117,49.562341],[37.826225,49.562057],[37.826014,49.56204212532637],[37.826014,49.562042],[37.825706,49.56202],[37.825586,49.562523],[37.826014,49.562579],[37.826014,49.562578681318676]]]}},{"type":"Feature","properties":{"cadnum":"6323784501:00:006:0001"},"geometry":{"type":"Polygon","coordinates":[[[37.827132,49.562443],[37.82717,49.562396],[37.82727,49.562129],[37.826777,49.562116],[37.826225,49.562057],[37.826117,49.562341],[37.827132,49.562443]]]}},{"type":"Feature","properties":{"cadnum":"6323784501:00:006:0005"},"geometry":{"type":"Polygon","coordinates":[[[37.827624,49.563524],[37.827919,49.563174],[37.828474,49.562482],[37.828028,49.562301],[37.827624,49.5628],[37.827176,49.56337],[37.827624,49.563524]]]}},{"type":"Feature","properties":{"cadnum":"6323784501:00:006:0004"},"geometry":{"type":"Polygon","coordinates":[[[37.831507,49.564327],[37.831507,49.56432599266055],[37.831995,49.563778],[37.8315,49.563599],[37.831167,49.564001],[37.831047,49.564233],[37.831335,49.56434519851117],[37.831335,49.564346],[37.83145,49.56439],[37.831507,49.564327]]]}},{"type":"Feature","properties":{"cadnum":"6323784501:00:004:0001"},"geometry":{"type":"Polygon","coordinates":[[[37.852036,49.574869],[37.851989,49.575078],[37.852322,49.575158],[37.85232216455697,49.575158],[37.853305,49.575394],[37.853308,49.57538729166667],[37.853308,49.575389],[37.853377,49.575233],[37.853479,49.575255],[37.853479,49.57525398365122],[37.854111,49.575384],[37.854346,49.575051],[37.853308,49.574949],[37.853308,49.57494907897241],[37.852428,49.574862],[37.852036,49.574869]]]}},{"type":"Feature","properties":{"cadnum":"6323784501:00:002:0008"},"geometry":{"type":"Polygon","coordinates":[[[37.819076,49.560489],[37.819097,49.560254],[37.819134,49.560096],[37.819532,49.559466],[37.818525,49.559128],[37.818231,49.559099],[37.817992,49.559183],[37.81799,49.559341],[37.818988,49.559732],[37.818632,49.560278],[37.819076,49.560489]]]}},{"type":"Feature","properties":{"cadnum":"6323784501:00:002:0014"},"geometry":{"type":"Polygon","coordinates":[[[37.817712,49.56076],[37.817789,49.560639],[37.817606,49.560432],[37.817889,49.560142],[37.817628,49.559989],[37.81689561262241,49.560797],[37.816895,49.560797],[37.816414,49.561329],[37.817101,49.561596],[37.817182,49.561515],[37.81787,49.56083],[37.817712,49.56076]]]}},{"type":"Feature","properties":{"cadnum":"6323784501:00:002:0009"},"geometry":{"type":"Polygon","coordinates":[[[37.81819,49.56071],[37.818086,49.560616],[37.817791,49.560908],[37.817792381615604,49.560908],[37.817182,49.561515],[37.817586,49.561739],[37.818734,49.562416],[37.81924,49.562047],[37.818821,49.561722],[37.818907,49.561626],[37.818475,49.561118],[37.818208,49.560916],[37.81820589235129,49.560895099150294],[37.81819,49.56071]]]}},{"type":"Feature","properties":{"cadnum":"6323784501:00:002:0005"},"geometry":{"type":"Polygon","coordinates":[[[37.817628,49.559989],[37.817577,49.559938],[37.817329,49.560174],[37.816901,49.56],[37.816207574889866,49.560797],[37.816207,49.560797],[37.8159,49.561151],[37.816414,49.561329],[37.81679464097745,49.560908],[37.816795,49.560908],[37.817628,49.559989]]]}},{"type":"Feature","properties":{"cadnum":"6323784501:00:005:0012"},"geometry":{"type":"Polygon","coordinates":[[[37.85008,49.567873],[37.85003465217391,49.567922],[37.850033,49.567922],[37.849869,49.568101],[37.849649,49.567936],[37.849203,49.568204],[37.849551,49.568462],[37.849384,49.56853],[37.849453,49.568593],[37.84918,49.568728],[37.849551,49.569074],[37.850334,49.568725],[37.850292,49.568495],[37.850442,49.56844],[37.850388,49.568279],[37.850516,49.568098],[37.850175,49.567922],[37.85017465217392,49.567922],[37.85008,49.567873]]]}},{"type":"Feature","properties":{"cadnum":"6323784501:00:003:0047"},"geometry":{"type":"Polygon","coordinates":[[[37.831505,49.567713],[37.831507,49.567712],[37.831507,49.567711277227716],[37.831606,49.567626],[37.831335,49.567534],[37.831335,49.5675348141264],[37.830969,49.567411],[37.830793,49.567677],[37.830734,49.568034],[37.830735080000004,49.568034],[37.830733,49.568047],[37.830915,49.568076],[37.830941,49.56798],[37.831111,49.567985],[37.83119,49.567927],[37.831335,49.56782849206349],[37.831335,49.567829],[37.831505,49.567713]]]}},{"type":"Feature","properties":{"cadnum":"6323784501:00:006:0012"},"geometry":{"type":"Polygon","coordinates":[[[37.832377,49.564211],[37.832118,49.563946],[37.831929,49.563888],[37.831511320754714,49.564359],[37.831509,49.564359],[37.831335,49.564556],[37.831335,49.56455604780115],[37.830984,49.56495],[37.831335,49.56505738049713],[37.831335,49.565058],[37.8314943975908,49.56510614457844],[37.831507,49.56511],[37.831507,49.56510995102041],[37.83158,49.565132],[37.83215121345408,49.564471],[37.832152,49.564471],[37.832377,49.564211]]]}},{"type":"Feature","properties":{"cadnum":"6323784501:00:006:0011"},"geometry":{"type":"Polygon","coordinates":[[[37.837,49.56574860119047],[37.837566,49.565912],[37.837603,49.565865],[37.837776,49.56552],[37.837118,49.56544],[37.837143,49.565376],[37.837264,49.565081],[37.837,49.56512821410579],[37.837,49.565128],[37.836867,49.565152],[37.836828,49.565151],[37.836828,49.56515107692307],[37.836698,49.565148],[37.836497,49.565142],[37.835565,49.565014],[37.835498,49.565315],[37.836388,49.565572],[37.836828,49.565698956521736],[37.836828,49.5657],[37.836894,49.565718],[37.837,49.565749],[37.837,49.56574860119047]],[[37.836893,49.565272],[37.836909,49.565248],[37.836944,49.56526],[37.836927,49.565282],[37.836893,49.565272]]]}},{"type":"Feature","properties":{"cadnum":"6323784501:00:006:0008"},"geometry":{"type":"Polygon","coordinates":[[[37.837776,49.56552],[37.838008,49.565058],[37.837442,49.565028],[37.837264,49.565081],[37.837118,49.56544],[37.837776,49.56552]]]}},{"type":"Feature","properties":{"cadnum":"6323784501:00:002:0015"},"geometry":{"type":"Polygon","coordinates":[[[37.820806,49.562281],[37.8212,49.561743],[37.821383,49.561489],[37.820549,49.561198],[37.82052,49.561226431372546],[37.82052,49.561226],[37.820498,49.561248],[37.819878,49.561746],[37.819638,49.561661],[37.8197,49.561605],[37.819395,49.561496],[37.819536,49.56135],[37.819103,49.561198],[37.819264,49.561647],[37.819667,49.562034],[37.820012,49.562553],[37.820309,49.563086],[37.820349,49.563021165876776],[37.820349,49.563022],[37.820806,49.562281]]]}},{"type":"Feature","properties":{"cadnum":"6323784501:00:001:0003"},"geometry":{"type":"Polygon","coordinates":[[[37.811637,49.564224],[37.811669,49.56411],[37.811099,49.563983],[37.811051,49.564159],[37.81095612820513,49.564359],[37.810954,49.564359],[37.81094,49.564393],[37.811095,49.564471],[37.81109653608247,49.564471],[37.811524,49.564684],[37.811599527472566,49.564373285714126],[37.811637,49.564224]]]}},{"type":"Feature","properties":{"cadnum":"6323784501:00:003:0014"},"geometry":{"type":"Polygon","coordinates":[[[37.83686397759995,49.574869515633765],[37.837,49.57474],[37.837,49.57473913878079],[37.837599,49.574165],[37.837,49.57400107133593],[37.837,49.574001],[37.836465,49.573854],[37.835523,49.574755],[37.835101,49.575158],[37.83510158536585,49.575158],[37.834745,49.575498],[37.835762,49.575924],[37.836539,49.575181],[37.836678,49.575047],[37.83667757655503,49.575047],[37.836828,49.574903772209574],[37.836828,49.574904],[37.83686397759995,49.574869515633765]]]}},{"type":"Feature","properties":{"cadnum":"6323784501:00:003:0013"},"geometry":{"type":"Polygon","coordinates":[[[37.835523,49.574755],[37.836465,49.573854],[37.835243,49.573519],[37.83443,49.574297],[37.833654,49.575041],[37.83366830769231,49.575047],[37.833667,49.575047],[37.834745,49.575498],[37.835218,49.575047],[37.835217233250624,49.575047],[37.835523,49.574755]]]}},{"type":"Feature","properties":{"cadnum":"6323784501:00:003:0015"},"geometry":{"type":"Polygon","coordinates":[[[37.833654,49.575041],[37.83443,49.574297],[37.835243,49.573519],[37.833596,49.573067],[37.832912,49.573891],[37.833396,49.574136],[37.832745,49.57466],[37.833654,49.575041]]]}},{"type":"Feature","properties":{"cadnum":"6323784501:00:003:0050"},"geometry":{"type":"Polygon","coordinates":[[[37.835899,49.573127],[37.836187,49.572845],[37.834681,49.572364],[37.834456,49.572767],[37.835899,49.573127]]]}},{"type":"Feature","properties":{"cadnum":"6323784501:00:003:0027"},"geometry":{"type":"Polygon","coordinates":[[[37.836209,49.573783],[37.836441,49.573413],[37.835836,49.573254],[37.833624,49.572736],[37.833414,49.573017],[37.833596,49.573067],[37.835243,49.573519],[37.836209,49.573783]]]}},{"type":"Feature","properties":{"cadnum":"6323784501:00:003:0033"},"geometry":{"type":"Polygon","coordinates":[[[37.837212,49.573056],[37.837,49.573025083333334],[37.837,49.573025],[37.836712,49.572981],[37.836441,49.573413],[37.836209,49.573783],[37.836465,49.573854],[37.836671,49.57391],[37.837,49.573392],[37.837,49.573390562499995],[37.837212,49.573056]]]}},{"type":"Feature","properties":{"cadnum":"6323784501:00:005:0007"},"geometry":{"type":"Polygon","coordinates":[[[37.845547,49.56759],[37.844792,49.567203],[37.844147409145606,49.567922],[37.844147,49.567922],[37.84410844329912,49.56796546391735],[37.844047,49.568034],[37.8440476451613,49.568034],[37.844037,49.568046],[37.844662,49.568441],[37.845084684007716,49.568034],[37.845085,49.568034],[37.845547,49.56759]]]}},{"type":"Feature","properties":{"cadnum":"6323784501:00:005:0008"},"geometry":{"type":"Polygon","coordinates":[[[37.843786,49.567804],[37.844658,49.566892],[37.844471,49.566755],[37.844063,49.567091],[37.843837,49.567018],[37.843319,49.567573],[37.843786,49.567804]]]}},{"type":"Feature","properties":{"cadnum":"6323784501:00:005:0006"},"geometry":{"type":"Polygon","coordinates":[[[37.845874,49.567526],[37.845956,49.567434],[37.845879,49.567376],[37.845559,49.567578],[37.845084,49.568034],[37.845084684007716,49.568034],[37.844662,49.568441],[37.844859,49.568539],[37.845477,49.567922],[37.84547644094487,49.567922],[37.845874,49.567526]]]}},{"type":"Feature","properties":{"cadnum":"6323784501:00:005:0009"},"geometry":{"type":"Polygon","coordinates":[[[37.846433,49.567798],[37.845874,49.567526],[37.845364,49.568034],[37.845364818476504,49.568034],[37.844859,49.568539],[37.845855,49.568543],[37.846337,49.567922],[37.84633632203389,49.567922],[37.846433,49.567798]]]}},{"type":"Feature","properties":{"cadnum":"6323784501:00:005:0010"},"geometry":{"type":"Polygon","coordinates":[[[37.847174,49.567836],[37.846903,49.567766],[37.846689113207546,49.567922],[37.846688,49.567922],[37.846685,49.567925],[37.84668,49.567922],[37.846679047244095,49.567922],[37.846433,49.567798],[37.846249,49.568034],[37.84625006924316,49.568034],[37.845855,49.568543],[37.846432,49.568641],[37.84699003477052,49.568034],[37.846991,49.568034],[37.847174,49.567836]]]}},{"type":"Feature","properties":{"cadnum":"6323784501:00:005:0001"},"geometry":{"type":"Polygon","coordinates":[[[37.844792,49.567203],[37.844705,49.567092],[37.843894324796274,49.567922],[37.843893,49.567922],[37.843866,49.567951],[37.844014,49.568034],[37.84401539999999,49.568034],[37.844037,49.568046],[37.84410844329912,49.56796546391735],[37.844792,49.567203]]]}},{"type":"Feature","properties":{"cadnum":"6323784501:00:003:0049"},"geometry":{"type":"Polygon","coordinates":[[[37.831507,49.56987851034483],[37.831625,49.569931],[37.831819,49.56975],[37.831348,49.569538],[37.831157,49.569722],[37.831335,49.56980184571429],[37.831335,49.569802],[37.831376210526635,49.56982033157909],[37.831507,49.569879],[37.831507,49.56987851034483]]]}},{"type":"Feature","properties":{"cadnum":"6323784501:00:003:0044"},"geometry":{"type":"Polygon","coordinates":[[[37.831507,49.568633],[37.831507,49.568631238095236],[37.831737,49.568226],[37.831470928057044,49.56811943884872],[37.831289,49.568046],[37.831094,49.568154],[37.830925,49.56849],[37.830973,49.568532],[37.831335,49.568629570312496],[37.831335,49.56863],[37.831485,49.56867],[37.831507,49.568633]]]}},{"type":"Feature","properties":{"cadnum":"6323784501:00:003:0010"},"geometry":{"type":"Polygon","coordinates":[[[37.832337,49.570539],[37.832456,49.570404],[37.832669,49.570184],[37.832526,49.570111],[37.832569,49.570067],[37.831984,49.569813],[37.831953,49.569796],[37.831849,49.569754],[37.831728,49.569899],[37.831598,49.569952],[37.831559,49.56999],[37.831416,49.570123],[37.83139,49.570161],[37.831229,49.570359],[37.831169,49.570535],[37.831335,49.57060179289941],[37.831335,49.570602],[37.831393786408576,49.570625446602264],[37.831507,49.570671],[37.831507,49.57067060115607],[37.832027,49.570878],[37.832337,49.570539]]]}},{"type":"Feature","properties":{"cadnum":"6323784501:00:003:0048"},"geometry":{"type":"Polygon","coordinates":[[[37.830018,49.568559],[37.830144,49.568303],[37.829683,49.568206],[37.829555,49.568464],[37.830018,49.568559]]]}},{"type":"Feature","properties":{"cadnum":"6323784501:00:003:0046"},"geometry":{"type":"Polygon","coordinates":[[[37.829946,49.569515],[37.83019,49.56916],[37.829891,49.569055],[37.82949,49.568909],[37.82924,49.569265],[37.829946,49.569515]]]}},{"type":"Feature","properties":{"cadnum":"6323784501:00:005:0015"},"geometry":{"type":"Polygon","coordinates":[[[37.853434,49.571359],[37.853479,49.571342],[37.853479,49.57134105844156],[37.854204,49.571052],[37.854082,49.570967],[37.853308,49.571218],[37.853308,49.57121803448276],[37.853218,49.571247],[37.852747,49.571141],[37.85260108351648,49.571485],[37.852601,49.571485],[37.852588679687955,49.571514242186424],[37.852554,49.571596],[37.85255423350254,49.571596],[37.852435,49.571879],[37.852872,49.571981],[37.853011,49.571777],[37.853109,49.571759],[37.853308,49.57151448878925],[37.853308,49.571515],[37.853434,49.571359]]]}},{"type":"Feature","properties":{"cadnum":"6323784501:00:003:0026"},"geometry":{"type":"Polygon","coordinates":[[[37.84258,49.569956],[37.84241853138411,49.56993542677867],[37.841684,49.569841],[37.841283,49.570266],[37.84201,49.570651],[37.842493,49.570063],[37.842493,49.570061810810806],[37.84258,49.569956]]]}},{"type":"Feature","properties":{"cadnum":"6323784501:00:003:0032"},"geometry":{"type":"Polygon","coordinates":[[[37.846204,49.571467],[37.84651,49.571172],[37.845873,49.570965],[37.845615,49.57126],[37.845918,49.571368],[37.846204,49.571467]]]}},{"type":"Feature","properties":{"cadnum":"6323784501:00:003:0017"},"geometry":{"type":"Polygon","coordinates":[[[37.845393,49.570858],[37.845009,49.570787],[37.844287,49.571596],[37.84428751111111,49.571596],[37.844266,49.57162],[37.844627,49.571772],[37.844867,49.571485],[37.844866252032524,49.571485],[37.845393,49.570858]]]}},{"type":"Feature","properties":{"cadnum":"6323784501:00:003:0025"},"geometry":{"type":"Polygon","coordinates":[[[37.845615,49.57126],[37.845873,49.570965],[37.845393,49.570858],[37.845181,49.571111],[37.845615,49.57126]]]}},{"type":"Feature","properties":{"cadnum":"6323784501:00:003:0028"},"geometry":{"type":"Polygon","coordinates":[[[37.846204,49.571467],[37.845918,49.571368],[37.845643,49.571596],[37.84564322727273,49.571596],[37.844796,49.572299],[37.845257,49.572478],[37.846339,49.571524],[37.846204,49.571467]]]}},{"type":"Feature","properties":{"cadnum":"6323784501:00:003:0021"},"geometry":{"type":"Polygon","coordinates":[[[37.843131,49.570075],[37.842862,49.570007],[37.84236001803008,49.57062775034728],[37.842238,49.570778],[37.842321,49.57081538429752],[37.842321,49.570817],[37.84248,49.570887],[37.842493,49.570871],[37.842493,49.570870784946244],[37.843131,49.570075]]]}},{"type":"Feature","properties":{"cadnum":"6323784501:00:003:0042"},"geometry":{"type":"Polygon","coordinates":[[[37.846907,49.571392],[37.84651,49.571172],[37.846204,49.571467],[37.84624663157896,49.571485],[37.846245,49.571485],[37.846339,49.571524],[37.846256,49.571596],[37.84625743356643,49.571596],[37.845853,49.571953],[37.846126,49.572083],[37.84676972586895,49.57151270656351],[37.846907,49.571392]]]}},{"type":"Feature","properties":{"cadnum":"6323784501:00:003:0024"},"geometry":{"type":"Polygon","coordinates":[[[37.846915,49.571402],[37.846723,49.571596],[37.84672368181818,49.571596],[37.846313,49.572013],[37.846659,49.572173],[37.847174,49.571586],[37.846915,49.571402]]]}},{"type":"Feature","properties":{"cadnum":"6323784501:00:003:0037"},"geometry":{"type":"Polygon","coordinates":[[[37.845918,49.571368],[37.845615,49.57126],[37.845181,49.571111],[37.84486714845361,49.571485],[37.844867,49.571485],[37.844839645161635,49.57151777419313],[37.844774,49.571596],[37.84477435433071,49.571596],[37.844761,49.571612],[37.845032,49.571722],[37.844637,49.572113],[37.844267,49.572433],[37.84447,49.572537],[37.844796,49.572299],[37.845777,49.571485],[37.84577688157894,49.571485],[37.845918,49.571368]]]}},{"type":"Feature","properties":{"cadnum":"6323784501:00:005:0019"},"geometry":{"type":"Polygon","coordinates":[[[37.847241,49.568998],[37.847824,49.568448],[37.847579,49.568338],[37.847322,49.568539],[37.847151,49.568459],[37.847322,49.568279],[37.847096,49.56815],[37.846955,49.568074],[37.846432,49.568641],[37.846361,49.568718],[37.847241,49.568998]]]}},{"type":"Feature","properties":{"cadnum":"6323784501:00:005:0021"},"geometry":{"type":"Polygon","coordinates":[[[37.848449,49.569077],[37.848323,49.568705],[37.848588,49.568516],[37.848411,49.568425],[37.84836,49.568399],[37.84825,49.568338],[37.847984,49.568588],[37.847756,49.568833],[37.847986,49.568947],[37.847986,49.56894581149013],[37.848372,49.569135],[37.848449,49.569077]]]}},{"type":"Feature","properties":{"cadnum":"6323784501:00:003:0038"},"geometry":{"type":"Polygon","coordinates":[[[37.841753,49.571596],[37.84175323,49.571596],[37.841617,49.571835],[37.841548,49.571993],[37.841514,49.572082],[37.841442,49.572251],[37.841759,49.572302],[37.841852,49.571993],[37.841978,49.571627],[37.841788,49.571535],[37.841753,49.571596]]]}},{"type":"Feature","properties":{"cadnum":"6323784501:00:003:0041"},"geometry":{"type":"Polygon","coordinates":[[[37.841289,49.57135],[37.841464,49.571116],[37.841329,49.571073],[37.84114,49.571306],[37.840996054166666,49.571485],[37.840995,49.571485],[37.840947,49.571546],[37.840779,49.571555],[37.840764,49.571596],[37.840765140845065,49.571596],[37.840731,49.571697],[37.840707,49.571839],[37.840689,49.571888],[37.840668,49.571947],[37.840602,49.572137],[37.840884,49.572181],[37.84103,49.571784],[37.841157,49.571562],[37.841289,49.57135]]]}},{"type":"Feature","properties":{"cadnum":"6323784501:00:003:0031"},"geometry":{"type":"Polygon","coordinates":[[[37.827443,49.566731],[37.827455,49.566205],[37.827115,49.56623],[37.827104,49.566718],[37.827443,49.566731]]]}},{"type":"Feature","properties":{"cadnum":"6323784501:00:003:0029"},"geometry":{"type":"Polygon","coordinates":[[[37.827351,49.567646],[37.827434,49.567202],[37.827443,49.566731],[37.827104,49.566718],[37.827093,49.567175],[37.827019,49.567633],[37.827351,49.567646]]]}},{"type":"Feature","properties":{"cadnum":"6323784501:00:003:0051"},"geometry":{"type":"Polygon","coordinates":[[[37.827007,49.567646],[37.827019,49.567633],[37.827093,49.567175],[37.827103,49.566765],[37.826747,49.56677],[37.826722,49.567215],[37.826698,49.567459],[37.826687,49.567526],[37.826676,49.567623],[37.827007,49.567646]]]}},{"type":"Feature","properties":{"cadnum":"6323784501:00:003:0055"},"geometry":{"type":"Polygon","coordinates":[[[37.828469,49.567733],[37.828523,49.567495],[37.828586,49.567202],[37.828622,49.566918],[37.828206,49.566887],[37.828183,49.567287],[37.828166,49.567467],[37.828158,49.567566],[37.828146,49.567712],[37.828469,49.567733]]]}},{"type":"Feature","properties":{"cadnum":"6323784501:00:002:0006"},"geometry":{"type":"Polygon","coordinates":[[[37.808322,49.55691],[37.80815,49.556876],[37.80794904477612,49.557233],[37.807949,49.557233],[37.80792799999857,49.557270386366184],[37.807886,49.557345],[37.8078860893617,49.557345],[37.807553,49.557938],[37.806958,49.559001],[37.807414,49.559184],[37.808174,49.557789],[37.808115,49.557573],[37.808185411764704,49.557345],[37.808186,49.557345],[37.808322,49.55691]]]}},{"type":"Feature","properties":{"cadnum":"6323784501:00:002:0004"},"geometry":{"type":"Polygon","coordinates":[[[37.808147,49.559478],[37.808906,49.557938],[37.808174,49.557789],[37.807414,49.559184],[37.808147,49.559478]]]}},{"type":"Feature","properties":{"cadnum":"6323784501:00:003:0018"},"geometry":{"type":"Polygon","coordinates":[[[37.845678,49.574404],[37.845791,49.574028],[37.844813,49.573849],[37.845068,49.574282],[37.845678,49.574404]]]}},{"type":"Feature","properties":{"cadnum":"6323784501:00:003:0040"},"geometry":{"type":"Polygon","coordinates":[[[37.842804,49.571856],[37.84261,49.571746],[37.842445,49.572061],[37.842431,49.572087],[37.842269,49.572399],[37.842493,49.572436],[37.842493,49.57243496747967],[37.842567,49.572447],[37.842804,49.571856]]]}},{"type":"Feature","properties":{"cadnum":"6323784501:00:003:0035"},"geometry":{"type":"Polygon","coordinates":[[[37.84743,49.573136],[37.847738,49.572149],[37.847247,49.572033],[37.847365,49.571677],[37.847179,49.57159],[37.846739,49.572248],[37.847145,49.572323],[37.846932,49.572994],[37.84743,49.573136]]]}},{"type":"Feature","properties":{"cadnum":"6323784501:00:003:0039"},"geometry":{"type":"Polygon","coordinates":[[[37.845791,49.574028],[37.846013,49.573294],[37.84585,49.573239],[37.84661,49.57217],[37.846307,49.572015],[37.845026,49.573246],[37.845336,49.573432],[37.845181,49.573616],[37.844714,49.573681],[37.844813,49.573849],[37.845791,49.574028]]]}},{"type":"Feature","properties":{"cadnum":"6323784501:00:003:0020"},"geometry":{"type":"Polygon","coordinates":[[[37.847548,49.574144],[37.847536,49.573991],[37.847102,49.573913],[37.84743,49.573136],[37.846932,49.572994],[37.847145,49.572323],[37.846739,49.572248],[37.84611,49.573194],[37.846807,49.573341],[37.84637,49.573942],[37.847548,49.574144]]]}},{"type":"Feature","properties":{"cadnum":"6323784501:00:006:0009"},"geometry":{"type":"Polygon","coordinates":[[[37.824245,49.562886],[37.824646,49.562434],[37.825586,49.562523],[37.825706,49.56202],[37.825151,49.561886],[37.824906,49.562067],[37.82443,49.561918],[37.824271,49.562324],[37.823889,49.562761],[37.824245,49.562886]]]}},{"type":"Feature","properties":{"cadnum":"6323784501:00:003:0052"},"geometry":{"type":"Polygon","coordinates":[[[37.833626,49.571232],[37.834044,49.570864],[37.833543,49.570622],[37.833124,49.570992],[37.833626,49.571232]]]}},{"type":"Feature","properties":{"cadnum":"6323784501:00:003:0008"},"geometry":{"type":"Polygon","coordinates":[[[37.834703,49.571517],[37.834782,49.571408],[37.834562,49.571327],[37.834472,49.571437],[37.834703,49.571517]]]}},{"type":"Feature","properties":{"cadnum":"6323784501:00:003:0016"},"geometry":{"type":"Polygon","coordinates":[[[37.83522,49.571254],[37.835676,49.57073],[37.835286,49.570533],[37.834799,49.571039],[37.834784,49.571053],[37.83522,49.571254]]]}},{"type":"Feature","properties":{"cadnum":"6323784501:00:001:0004"},"geometry":{"type":"Polygon","coordinates":[[[37.811669,49.56411],[37.811877,49.563377],[37.811936,49.56317],[37.811299,49.563058],[37.811243,49.563265],[37.81115,49.5638],[37.811099,49.563983],[37.811669,49.56411]]]}},{"type":"Feature","properties":{"cadnum":"6323784501:00:005:0014"},"geometry":{"type":"Polygon","coordinates":[[[37.851161,49.571469],[37.851135047244085,49.571485],[37.851135,49.571485],[37.851125721713586,49.571490749234826],[37.850955,49.571596],[37.85095586489362,49.571596],[37.849618,49.572425],[37.849986,49.572678],[37.851254,49.571827],[37.85116599164337,49.571488810584626],[37.851161,49.571469]]]}},{"type":"Feature","properties":{"cadnum":"6323784501:00:005:0004"},"geometry":{"type":"Polygon","coordinates":[[[37.850137,49.571121],[37.850603,49.570843],[37.850789,49.570742],[37.850823,49.570751],[37.851146,49.570617],[37.851119,49.570586],[37.851084,49.570557],[37.851081,49.570557],[37.850894,49.570401],[37.850753,49.570473],[37.850745,49.570466],[37.850631,49.570517],[37.850576,49.570551],[37.850355,49.570678],[37.849912,49.570943],[37.850137,49.571121]]]}},{"type":"Feature","properties":{"cadnum":"6323784501:00:005:0005"},"geometry":{"type":"Polygon","coordinates":[[[37.851224,49.571047],[37.851212,49.57067],[37.850041,49.571366],[37.849653,49.571596],[37.849654256147545,49.571596],[37.84902,49.571973],[37.84933,49.572161],[37.850479,49.571485],[37.85047884153005,49.571485],[37.851224,49.571047]]]}},{"type":"Feature","properties":{"cadnum":"6323784501:00:005:0013"},"geometry":{"type":"Polygon","coordinates":[[[37.851161,49.571469],[37.851132,49.571253],[37.85056,49.571596],[37.85056067584481,49.571596],[37.849412,49.572284],[37.849618,49.572425],[37.851125721713586,49.571490749234826],[37.851161,49.571469]]]}},{"type":"Feature","properties":{"cadnum":"6323784501:00:005:0017"},"geometry":{"type":"Polygon","coordinates":[[[37.849443,49.57044],[37.849983,49.570102],[37.849472,49.569751],[37.848985,49.570115],[37.849443,49.57044]]]}},{"type":"Feature","properties":{"cadnum":"6323784501:00:005:0011"},"geometry":{"type":"Polygon","coordinates":[[[37.850137,49.571121],[37.849912,49.570943],[37.84900562327718,49.571485],[37.849005,49.571485],[37.848678,49.571681],[37.848913,49.571853],[37.849528,49.571485],[37.84952777894736,49.571485],[37.850137,49.571121]]]}},{"type":"Feature","properties":{"cadnum":"6323784501:00:005:0002"},"geometry":{"type":"Polygon","coordinates":[[[37.852747,49.571141],[37.852402,49.571049],[37.852197,49.571596],[37.85219761310452,49.571596],[37.852,49.572126],[37.852311,49.572168],[37.852553869692535,49.571596],[37.852554,49.571596],[37.852747,49.571141]]]}},{"type":"Feature","properties":{"cadnum":"6323784501:00:005:0003"},"geometry":{"type":"Polygon","coordinates":[[[37.851151,49.573581],[37.851393,49.572795],[37.851122,49.57268],[37.850485,49.573202],[37.850676,49.57341],[37.851151,49.573581]]]}},{"type":"Feature","properties":{"cadnum":"6323784501:00:005:0018"},"geometry":{"type":"Polygon","coordinates":[[[37.850243,49.572654],[37.850682,49.572366],[37.850963,49.572562],[37.851205,49.572384],[37.851283,49.57224],[37.851254,49.571827],[37.850131,49.572581],[37.850243,49.572654]]]}},{"type":"Feature","properties":{"cadnum":"6323784501:00:005:0022"},"geometry":{"type":"Polygon","coordinates":[[[37.850507,49.573184],[37.851122,49.57268],[37.850963,49.572562],[37.850682,49.572366],[37.850243,49.572654],[37.850131,49.572581],[37.849986,49.572678],[37.850507,49.573184]]]}},{"type":"Feature","properties":{"cadnum":"6323784501:00:005:0020"},"geometry":{"type":"Polygon","coordinates":[[[37.850972,49.574043],[37.85104,49.573828],[37.849959,49.573372],[37.849519,49.572894],[37.84832,49.572097],[37.848195,49.572356],[37.848362,49.573172],[37.84907,49.573614],[37.850972,49.574043]]]}},{"type":"Feature","properties":{"cadnum":"6323784501:00:005:0016"},"geometry":{"type":"Polygon","coordinates":[[[37.854571,49.572056],[37.854588,49.571978],[37.854806,49.571999],[37.854869,49.571716],[37.853628,49.571606],[37.853396,49.571906],[37.854571,49.572056]]]}},{"type":"Feature","properties":{"cadnum":"6323784501:00:003:0022"},"geometry":{"type":"Polygon","coordinates":[[[37.839945,49.573156],[37.840146,49.57277],[37.840329,49.572369],[37.83997,49.572298],[37.839948,49.572343],[37.839839,49.572583],[37.839657,49.572954],[37.839591,49.573085],[37.839945,49.573156]]]}},{"type":"Feature","properties":{"cadnum":"6323784501:00:003:0054"},"geometry":{"type":"Polygon","coordinates":[[[37.839437,49.574669],[37.840544,49.573887],[37.840618,49.573834],[37.839138,49.573485],[37.839103,49.57353],[37.838463,49.574402],[37.839437,49.574669]]]}},{"type":"Feature","properties":{"cadnum":"6323784501:00:003:0058"},"geometry":{"type":"Polygon","coordinates":[[[37.840657,49.573795],[37.841242,49.572938],[37.840915,49.572875],[37.840401,49.573734],[37.840657,49.573795]]]}},{"type":"Feature","properties":{"cadnum":"6323784501:00:003:0030"},"geometry":{"type":"Polygon","coordinates":[[[37.839395,49.573479],[37.839591,49.573085],[37.839657,49.572954],[37.839226,49.572877],[37.839193,49.57297],[37.839057,49.573353],[37.839395,49.573479]]]}},{"type":"Feature","properties":{"cadnum":"6323784501:00:003:0023"},"geometry":{"type":"Polygon","coordinates":[[[37.839717,49.573594],[37.839945,49.573156],[37.839591,49.573085],[37.839395,49.573479],[37.839717,49.573594]]]}},{"type":"Feature","properties":{"cadnum":"6323784501:00:003:0053"},"geometry":{"type":"Polygon","coordinates":[[[37.840192,49.573727],[37.840299,49.573523],[37.84064,49.572875],[37.840719,49.572758],[37.840732,49.572735],[37.840754,49.572699],[37.840759,49.572687],[37.840779,49.572637],[37.840849,49.572478],[37.840798,49.572467],[37.840648,49.572434],[37.840633,49.572432],[37.840601,49.572424],[37.840504,49.572637],[37.840417,49.572833],[37.840243,49.57316],[37.839995,49.573681],[37.840192,49.573727]]]}},{"type":"Feature","properties":{"cadnum":"6323784501:00:003:0036"},"geometry":{"type":"Polygon","coordinates":[[[37.837339,49.574094],[37.837858,49.573183],[37.837465,49.57312],[37.836942,49.573985],[37.837339,49.574094]]]}},{"type":"Feature","properties":{"cadnum":"6323784501:00:003:0034"},"geometry":{"type":"Polygon","coordinates":[[[37.8384,49.573254],[37.838741,49.572645],[37.838098,49.572568],[37.837821,49.573129],[37.8384,49.573254]]]}},{"type":"Feature","properties":{"cadnum":"6323784501:00:003:0056"},"geometry":{"type":"Polygon","coordinates":[[[37.83744,49.572917],[37.837701,49.572308],[37.837833,49.572071],[37.837432,49.572008],[37.837355,49.57219],[37.837315,49.572414],[37.837115,49.572867],[37.83744,49.572917]]]}},{"type":"Feature","properties":{"cadnum":"6323784501:00:003:0019"},"geometry":{"type":"Polygon","coordinates":[[[37.838463,49.574402],[37.839138,49.573485],[37.837858,49.573183],[37.837339,49.574094],[37.838463,49.574402]]]}},{"type":"Feature","properties":{"cadnum":"6323784501:00:003:0057"},"geometry":{"type":"Polygon","coordinates":[[[37.839057,49.573353],[37.839067,49.573328],[37.839193,49.57297],[37.838788,49.572928],[37.838959,49.572394],[37.838856,49.572382],[37.838741,49.572645],[37.838435,49.573194],[37.8384,49.573254],[37.839057,49.573353]]]}},{"type":"Feature","properties":{"cadnum":"6323784501:00:003:0011"},"geometry":{"type":"Polygon","coordinates":[[[37.839193,49.57297],[37.839355,49.57251],[37.83939,49.572433],[37.839437,49.572253],[37.839022,49.572201],[37.838788,49.572928],[37.839193,49.57297]]]}},{"type":"Feature","properties":{"cadnum":"6323784501:00:003:0043"},"geometry":{"type":"Polygon","coordinates":[[[37.839657,49.572954],[37.839839,49.572583],[37.839948,49.572343],[37.839635,49.572286],[37.839584,49.572279],[37.839437,49.572253],[37.83939,49.572433],[37.839355,49.57251],[37.839226,49.572877],[37.839657,49.572954]]]}}]}