{"type":"FeatureCollection","features":[{"type":"Feature","properties":{"cadnum":"6323783707:00:001:0001"},"geometry":{"type":"Polygon","coordinates":[[[37.627116,49.45941],[37.627674,49.459245],[37.627344,49.458781],[37.627066,49.458861],[37.626762,49.458948],[37.626929,49.459107],[37.627116,49.45941]]]}},{"type":"Feature","properties":{"cadnum":"6323783707:00:001:0007"},"geometry":{"type":"Polygon","coordinates":[[[37.626676,49.458772],[37.627474,49.458493],[37.627238,49.458193],[37.626456,49.458439],[37.626676,49.458772]]]}},{"type":"Feature","properties":{"cadnum":"6323783707:00:001:0009"},"geometry":{"type":"Polygon","coordinates":[[[37.627431,49.459885],[37.627975,49.459698],[37.627674,49.459245],[37.627116,49.45941],[37.627431,49.459885]]]}},{"type":"Feature","properties":{"cadnum":"6323783707:00:001:0002"},"geometry":{"type":"Polygon","coordinates":[[[37.628843,49.458898],[37.62847,49.458644],[37.62839,49.45853],[37.628442,49.458404],[37.628384,49.458333],[37.62809558974275,49.45845771794908],[37.627344,49.458781],[37.627674,49.459245],[37.62826,49.459071],[37.62826,49.45907096953643],[37.628843,49.458898]]]}},{"type":"Feature","properties":{"cadnum":"6323783707:00:001:0022"},"geometry":{"type":"Polygon","coordinates":[[[37.62260489485564,49.46561383085959],[37.622766,49.465351],[37.622766,49.46535056964657],[37.623076,49.464844],[37.622766,49.46483304365904],[37.622766,49.464833],[37.622387,49.464819],[37.62159,49.464563],[37.621242,49.464896],[37.62146,49.465257],[37.621317,49.465507],[37.620699,49.465583],[37.620747,49.465734],[37.620579,49.465762],[37.620747,49.466099],[37.621254,49.466033],[37.621382,49.46621],[37.621302,49.466365],[37.622085,49.466462],[37.622595,49.465629973568284],[37.622595,49.46563],[37.62260489485564,49.46561383085959]]]}},{"type":"Feature","properties":{"cadnum":"6323783707:00:001:0026"},"geometry":{"type":"Polygon","coordinates":[[[37.622766,49.46364152672606],[37.622766,49.463641],[37.621306,49.46373],[37.62159,49.464563],[37.622387,49.464819],[37.622595,49.46482668337731],[37.622595,49.464827],[37.623076,49.464844],[37.623847,49.464878],[37.623753098674534,49.4645413726068],[37.623493,49.463597],[37.622766,49.46364152672606]]]}},{"type":"Feature","properties":{"cadnum":"6323783707:00:001:0006"},"geometry":{"type":"Polygon","coordinates":[[[37.618702,49.465781],[37.618602,49.465542],[37.617952,49.465501],[37.617131,49.465804],[37.6172,49.465961],[37.618702,49.465781]]]}},{"type":"Feature","properties":{"cadnum":"6323783707:00:001:0005"},"geometry":{"type":"Polygon","coordinates":[[[37.617288,49.466165],[37.617854,49.466088],[37.618086,49.466053],[37.618786,49.465984],[37.618702,49.465781],[37.6172,49.465961],[37.617288,49.466165]]]}},{"type":"Feature","properties":{"cadnum":"6323783707:00:001:0023"},"geometry":{"type":"Polygon","coordinates":[[[37.615219,49.464171],[37.614488,49.464173],[37.61468656979405,49.464498],[37.614686,49.464498],[37.615278,49.465461],[37.615778,49.465324],[37.61566,49.464986],[37.617002,49.464681],[37.617102,49.46472860147602],[37.617102,49.464729],[37.61723958903996,49.46479409588987],[37.617273,49.46481],[37.617273,49.464809903225806],[37.617381,49.464861],[37.617955,49.464759],[37.617869,49.464498],[37.61786837297297,49.464498],[37.617784,49.46424],[37.617171,49.464339],[37.617102,49.464308],[37.617102,49.46430866666667],[37.616343,49.463975],[37.615219,49.464171]]]}},{"type":"Feature","properties":{"cadnum":"6323783707:00:001:0021"},"geometry":{"type":"Polygon","coordinates":[[[37.620236,49.466418],[37.620307,49.466016],[37.620029,49.465105],[37.618515,49.465334],[37.618602,49.465542],[37.618702,49.465781],[37.618786,49.465984],[37.618857,49.466179],[37.619438,49.466132],[37.620236,49.466418]]]}},{"type":"Feature","properties":{"cadnum":"6323783707:00:001:0024"},"geometry":{"type":"Polygon","coordinates":[[[37.625327,49.464467],[37.625155,49.464151],[37.624754,49.463071],[37.624381,49.463178],[37.624306,49.463329],[37.624254,49.463559],[37.624035,49.463601],[37.623629,49.463151],[37.623508,49.463194],[37.623606,49.463385],[37.623625,49.463575],[37.623574,49.463633],[37.623802,49.464363],[37.62381948987854,49.464498],[37.623819,49.464498],[37.62382628915667,49.464550481928036],[37.623834,49.46461],[37.623834555555554,49.46461],[37.623849,49.464714],[37.624,49.46531],[37.624242,49.465257],[37.624211,49.465071],[37.624738,49.464911],[37.624847,49.464613],[37.624856808695654,49.46461],[37.624857,49.46461],[37.625327,49.464467]]]}},{"type":"Feature","properties":{"cadnum":"6323783707:00:001:0025"},"geometry":{"type":"Polygon","coordinates":[[[37.614488,49.464173],[37.613853116279074,49.464498],[37.613852,49.464498],[37.613816,49.464517],[37.612523,49.464713],[37.612581,49.465281],[37.613656,49.465108],[37.614083,49.465257],[37.614342,49.465719],[37.615278,49.465461],[37.614754851505715,49.46461],[37.614755,49.46461],[37.614488,49.464173]]]}}]}