{"type":"FeatureCollection","features":[{"type":"Feature","properties":{"cadnum":"6323782504:00:001:0001"},"geometry":{"type":"Polygon","coordinates":[[[37.909735,49.610358],[37.909503,49.6102],[37.908239,49.610297],[37.908239,49.610297189775366],[37.90712,49.610383],[37.90718863446475,49.610654],[37.907188,49.610654],[37.907357,49.611307],[37.907684,49.61129],[37.908411,49.611204],[37.908411,49.611202895705524],[37.908565,49.611184],[37.909339,49.611042],[37.910356,49.61089],[37.910356,49.610766],[37.910357,49.610645],[37.909735,49.610358]]]}},{"type":"Feature","properties":{"cadnum":"6323782504:00:001:0002"},"geometry":{"type":"Polygon","coordinates":[[[37.90712,49.610383],[37.906566,49.6104],[37.906693,49.610654],[37.906749,49.610766],[37.90675008737864,49.610766],[37.906798,49.61086],[37.906555,49.611001],[37.906145,49.611016],[37.906027,49.610654],[37.90602695847751,49.610654],[37.90597,49.610477],[37.9053122214533,49.610654],[37.90531,49.610654],[37.904247,49.61094],[37.903096,49.610819],[37.903126,49.610989],[37.903273,49.611179],[37.903554,49.61134],[37.903913,49.611392],[37.904372,49.611422],[37.904707,49.611399],[37.905593,49.611389],[37.90631,49.611356],[37.907357,49.611307],[37.907216986217456,49.610766],[37.907217,49.610766],[37.90712,49.610383]]]}}]}