{"type":"FeatureCollection","features":[{"type":"Feature","properties":{"cadnum":"6323784000:03:000:0505"},"geometry":{"type":"Polygon","coordinates":[[[37.54624,49.702743],[37.546247,49.70209],[37.546243,49.701769],[37.545691,49.702407],[37.545691,49.703112],[37.545691,49.703223],[37.545691,49.704278],[37.546193,49.704373],[37.546206,49.703359],[37.546219,49.703112],[37.546218474999996,49.703112],[37.54624,49.702743]]]}},{"type":"Feature","properties":{"cadnum":"6323784000:03:000:0503"},"geometry":{"type":"Polygon","coordinates":[[[37.545691,49.702407],[37.546243,49.701769],[37.54624,49.701501],[37.546239,49.701501],[37.545691,49.701314],[37.545691,49.702407]]]}},{"type":"Feature","properties":{"cadnum":"6323784000:03:000:0515"},"geometry":{"type":"Polygon","coordinates":[[[37.546224,49.698805],[37.545691,49.698803],[37.545691,49.699559],[37.545691,49.69967],[37.545691,49.701314],[37.546239,49.701501],[37.546231,49.700097],[37.54622782527881,49.69967],[37.546228,49.69967],[37.546224,49.698805]]]}},{"type":"Feature","properties":{"cadnum":"6323784000:03:000:0152"},"geometry":{"type":"Polygon","coordinates":[[[37.546285,49.698693],[37.546274,49.698532],[37.546362,49.698531],[37.546391,49.698332],[37.546392,49.698321],[37.546366,49.698322],[37.54637,49.698336],[37.546303,49.698342],[37.546293,49.698296],[37.54636,49.69829],[37.546364,49.698306],[37.546393,49.698304],[37.546395,49.698289],[37.546404,49.698256],[37.546283,49.697735],[37.545826,49.697738],[37.545829,49.697639],[37.545873,49.697558],[37.545947,49.697377],[37.546267,49.696661],[37.546442,49.696293],[37.546462,49.696222],[37.54648,49.696162],[37.546488,49.696136],[37.546503,49.696084],[37.546478,49.696084],[37.546463,49.696083],[37.546392,49.69608],[37.546379,49.696079],[37.546369,49.696078],[37.546364,49.69609],[37.546348,49.696128],[37.546291,49.696261],[37.546187,49.696528],[37.546144,49.696633],[37.545825,49.697369],[37.545713,49.697596],[37.545691,49.697611],[37.545691,49.698688],[37.546285,49.698693]],[[37.54614,49.697992],[37.546184,49.697992],[37.546184,49.698021],[37.54614,49.698021],[37.54614,49.697992]]]}}]}