{"type":"FeatureCollection","features":[{"type":"Feature","properties":{"cadnum":"6323782502:00:001:0014"},"geometry":{"type":"Polygon","coordinates":[[[37.900203,49.631427],[37.899562,49.631151],[37.89877717919075,49.632006],[37.898777,49.632006],[37.898768,49.632016],[37.898684,49.632109],[37.898713,49.632118],[37.89871536363636,49.632118],[37.899489,49.63234],[37.899564,49.632243],[37.899661573839666,49.632118],[37.899662,49.632118],[37.900203,49.631427]]]}},{"type":"Feature","properties":{"cadnum":"6323782502:00:001:0016"},"geometry":{"type":"Polygon","coordinates":[[[37.902139,49.631688],[37.901799,49.631591],[37.901492,49.632118],[37.90149304361874,49.632118],[37.901199,49.632625],[37.901126,49.632751],[37.901653,49.632859],[37.902164,49.63294],[37.902746,49.63309437665782],[37.902746,49.633095],[37.9028882368431,49.63313210526342],[37.902918,49.63314],[37.902918,49.63313986956522],[37.902953,49.633149],[37.902994,49.633035],[37.903276,49.632271],[37.902918,49.63217719711539],[37.902918,49.632177],[37.90286,49.632162],[37.902776,49.632424],[37.902381,49.632349],[37.902204,49.632821],[37.902175,49.6329],[37.901663,49.632818],[37.901696,49.63274],[37.90195785013624,49.632118],[37.901958,49.632118],[37.902139,49.631688]]]}},{"type":"Feature","properties":{"cadnum":"6323782502:00:001:0015"},"geometry":{"type":"Polygon","coordinates":[[[37.902918,49.63196651724137],[37.90293,49.631927],[37.902984,49.631806],[37.903006,49.631756],[37.903037,49.631704],[37.90275907865238,49.63161422471933],[37.902697,49.631594],[37.902651,49.63158],[37.902638,49.631576],[37.902604,49.631681],[37.902556,49.631817],[37.902467,49.632118],[37.9024681724138,49.632118],[37.902467,49.632122],[37.902381,49.632349],[37.902746,49.632418303797465],[37.902746,49.632419],[37.902776,49.632424],[37.90286,49.632162],[37.902897333333314,49.632035391304406],[37.902918,49.631968],[37.902918,49.63196651724137]]]}},{"type":"Feature","properties":{"cadnum":"6323782502:00:002:0014"},"geometry":{"type":"Polygon","coordinates":[[[37.897425,49.62388367771084],[37.897932,49.624606],[37.899326,49.624866],[37.89934,49.624132],[37.897268,49.62366],[37.897425,49.623884],[37.897425,49.62388367771084]]]}},{"type":"Feature","properties":{"cadnum":"6323782502:00:002:0011"},"geometry":{"type":"Polygon","coordinates":[[[37.904225,49.628359],[37.904191,49.628341],[37.904081,49.628288],[37.904174,49.6282],[37.904157,49.628192],[37.904097,49.628165],[37.904083,49.628159],[37.903869,49.628372],[37.903807615384615,49.628448],[37.903807,49.628448],[37.903743,49.628528],[37.903713,49.62856],[37.903713871201155,49.62856],[37.903114,49.629219],[37.903315,49.629303],[37.903912,49.628692],[37.904035885245904,49.62856],[37.904036,49.62856],[37.904225,49.628359]]]}},{"type":"Feature","properties":{"cadnum":"6323782502:00:001:0007"},"geometry":{"type":"Polygon","coordinates":[[[37.909606,49.635635],[37.909626,49.635554],[37.909711,49.635289],[37.909342,49.635199],[37.909204,49.635441],[37.90915652631579,49.635564],[37.909155,49.635564],[37.909116,49.635669],[37.909065,49.635803],[37.909733,49.635922],[37.909658,49.635641],[37.909606,49.635635]]]}},{"type":"Feature","properties":{"cadnum":"6323782502:00:001:0009"},"geometry":{"type":"Polygon","coordinates":[[[37.907228,49.635593],[37.907435,49.635202],[37.907672,49.634795],[37.907384,49.634726],[37.907377,49.634731],[37.907334,49.63472],[37.907309,49.634765],[37.907295,49.634762],[37.907086,49.635119],[37.906892,49.635509],[37.907228,49.635593]]]}},{"type":"Feature","properties":{"cadnum":"6323782502:00:001:0006"},"geometry":{"type":"Polygon","coordinates":[[[37.906901,49.635491],[37.907086,49.635119],[37.907295,49.634762],[37.907309,49.634765],[37.907334,49.63472],[37.907338,49.634715],[37.907284,49.634702],[37.906973,49.634627],[37.90672,49.635068],[37.906535,49.6354],[37.906901,49.635491]]]}},{"type":"Feature","properties":{"cadnum":"6323782502:00:001:0005"},"geometry":{"type":"Polygon","coordinates":[[[37.906559,49.635357],[37.90672,49.635068],[37.906973,49.634627],[37.906666,49.634554],[37.906614,49.634541],[37.906598,49.634536],[37.906342,49.634993],[37.906181,49.635274],[37.906559,49.635357]]]}},{"type":"Feature","properties":{"cadnum":"6323782502:00:001:0008"},"geometry":{"type":"Polygon","coordinates":[[[37.904653,49.634981],[37.905031,49.634333],[37.90512,49.634179],[37.904761,49.634092],[37.90455,49.634488],[37.904338,49.634898],[37.904653,49.634981]]]}},{"type":"Feature","properties":{"cadnum":"6323782502:00:001:0004"},"geometry":{"type":"Polygon","coordinates":[[[37.907771,49.635303],[37.908018,49.634877],[37.907672,49.634795],[37.907435,49.635202],[37.9072437371134,49.635564],[37.907243,49.635564],[37.90723,49.63559],[37.907557,49.63568],[37.907622,49.635564],[37.90762155645161,49.635564],[37.907771,49.635303]]]}},{"type":"Feature","properties":{"cadnum":"6323782502:00:001:0010"},"geometry":{"type":"Polygon","coordinates":[[[37.907557,49.634152],[37.907923,49.633302],[37.907597,49.63321],[37.907428,49.633446],[37.907134,49.63339],[37.90682,49.633977],[37.907557,49.634152]]]}},{"type":"Feature","properties":{"cadnum":"6323782502:00:001:0017"},"geometry":{"type":"Polygon","coordinates":[[[37.909618,49.634693],[37.909678,49.634567],[37.909913,49.634081],[37.908616,49.633807],[37.908306,49.634466],[37.908411,49.634497],[37.908411,49.634495820000005],[37.909556,49.634821],[37.909618,49.634693]]]}},{"type":"Feature","properties":{"cadnum":"6323782502:00:001:0013"},"geometry":{"type":"Polygon","coordinates":[[[37.908411,49.634244],[37.908411,49.63424279032259],[37.908616,49.633807],[37.908248750001036,49.63375050000016],[37.907762,49.633674],[37.907557,49.634152],[37.90749,49.634281],[37.908239,49.634450810049024],[37.908239,49.634451],[37.908306,49.634466],[37.908411,49.634244]]]}},{"type":"Feature","properties":{"cadnum":"6323782502:00:001:0012"},"geometry":{"type":"Polygon","coordinates":[[[37.906743,49.634111],[37.90682,49.633977],[37.907134,49.63339],[37.90654,49.633271],[37.906196,49.63385],[37.906126,49.633968],[37.906743,49.634111]]]}},{"type":"Feature","properties":{"cadnum":"6323782502:00:001:0018"},"geometry":{"type":"Polygon","coordinates":[[[37.904955,49.633634],[37.904997,49.633544],[37.905385,49.632684],[37.905034,49.632544],[37.904643,49.633453],[37.904604,49.633544],[37.904955,49.633634]]]}},{"type":"Feature","properties":{"cadnum":"6323782502:00:002:0010"},"geometry":{"type":"Polygon","coordinates":[[[37.905746,49.63227],[37.905795,49.632178],[37.905781,49.632175],[37.905691,49.632155],[37.905674,49.632151],[37.905624,49.632243],[37.905746,49.63227]]]}},{"type":"Feature","properties":{"cadnum":"6323782502:00:001:0011"},"geometry":{"type":"Polygon","coordinates":[[[37.910156,49.634723],[37.910325,49.634379],[37.910344,49.634147],[37.909975,49.633951],[37.909678,49.634567],[37.910156,49.634723]]]}},{"type":"Feature","properties":{"cadnum":"6323782502:00:002:0013"},"geometry":{"type":"Polygon","coordinates":[[[37.900967,49.626479],[37.901769,49.626185],[37.90126,49.625675],[37.900191,49.626033],[37.900673,49.62638],[37.900967,49.626479]]]}},{"type":"Feature","properties":{"cadnum":"6323782502:00:002:0017"},"geometry":{"type":"Polygon","coordinates":[[[37.8986,49.627943],[37.899387,49.627558],[37.899566,49.62747],[37.899777,49.627325],[37.89965,49.627217],[37.898625,49.627702],[37.898461,49.627782],[37.8986,49.627943]]]}},{"type":"Feature","properties":{"cadnum":"6323782502:00:002:0018"},"geometry":{"type":"Polygon","coordinates":[[[37.899934,49.626144],[37.900191,49.626033],[37.901089,49.625734],[37.900697,49.625523],[37.899836,49.62608],[37.899934,49.626144]]]}},{"type":"Feature","properties":{"cadnum":"6323782502:00:002:0009"},"geometry":{"type":"Polygon","coordinates":[[[37.898919,49.62814],[37.899627,49.627755],[37.899801,49.62766],[37.899566,49.62747],[37.899387,49.627558],[37.8986,49.627943],[37.898919,49.62814]]]}},{"type":"Feature","properties":{"cadnum":"6323782502:00:002:0015"},"geometry":{"type":"Polygon","coordinates":[[[37.905959,49.631683],[37.906269,49.63114],[37.906036,49.630758],[37.905609,49.631561],[37.905959,49.631683]]]}},{"type":"Feature","properties":{"cadnum":"6323782502:00:002:0016"},"geometry":{"type":"Polygon","coordinates":[[[37.9052,49.631598],[37.905687,49.630769],[37.905391,49.630769],[37.904991,49.631536],[37.9052,49.631598]]]}},{"type":"Feature","properties":{"cadnum":"6323782502:00:002:0019"},"geometry":{"type":"Polygon","coordinates":[[[37.905835,49.630548],[37.905968,49.630236],[37.906407,49.630314],[37.906739,49.629534],[37.906299,49.629456],[37.906167,49.629766],[37.905742,49.629658],[37.905915,49.629241],[37.905532,49.629174],[37.905286,49.629532],[37.904806,49.629457],[37.90442,49.629322],[37.903837,49.630029],[37.905835,49.630548]]]}},{"type":"Feature","properties":{"cadnum":"6323782502:00:002:0012"},"geometry":{"type":"Polygon","coordinates":[[[37.904806,49.629457],[37.905096,49.629009],[37.905259,49.62875],[37.904904,49.628646],[37.904692,49.628954],[37.90442,49.629322],[37.904806,49.629457]]]}},{"type":"Feature","properties":{"cadnum":"6323782502:00:002:0008"},"geometry":{"type":"Polygon","coordinates":[[[37.905785,49.631873],[37.906307,49.631787],[37.906487,49.631526],[37.906428,49.631338],[37.906465,49.631222],[37.906269,49.63114],[37.905959,49.631683],[37.905785,49.631873]]]}}]}