{"type":"FeatureCollection","features":[{"type":"Feature","properties":{"cadnum":"6323783004:00:001:0014"},"geometry":{"type":"Polygon","coordinates":[[[37.551551,49.788946],[37.551841,49.788894],[37.5517,49.788445],[37.551184,49.788501],[37.551184,49.788501381107494],[37.551048,49.788516],[37.551212,49.788995],[37.551355,49.788975],[37.551355,49.78897433038348],[37.551551,49.788946]]]}},{"type":"Feature","properties":{"cadnum":"6323783004:00:001:0015"},"geometry":{"type":"Polygon","coordinates":[[[37.551558,49.787992],[37.551355,49.78802239572193],[37.551355,49.788022],[37.550902,49.788088],[37.55097443076923,49.788302],[37.550974,49.788302],[37.55099431372563,49.788360745098466],[37.551012,49.788413],[37.55101238317757,49.788413],[37.551048,49.788516],[37.551355,49.788483],[37.551355,49.78848244186047],[37.5517,49.788445],[37.551657,49.788306],[37.551558,49.787992]]]}},{"type":"Feature","properties":{"cadnum":"6323783004:00:001:0022"},"geometry":{"type":"Polygon","coordinates":[[[37.562342,49.786432],[37.562342,49.78643092226148],[37.562736,49.786023],[37.56217,49.785775],[37.56217,49.7857755061082],[37.561196,49.785348],[37.560736,49.785642],[37.559776,49.785194],[37.559265,49.78566],[37.561217,49.786475],[37.561988,49.786797],[37.562342,49.786432]]]}},{"type":"Feature","properties":{"cadnum":"6323783004:00:001:0018"},"geometry":{"type":"Polygon","coordinates":[[[37.553736,49.788305],[37.554271,49.788196],[37.55406,49.787822],[37.553332,49.788005],[37.553450644908615,49.788302],[37.55345,49.788302],[37.553485,49.788388],[37.553736,49.788305]]]}},{"type":"Feature","properties":{"cadnum":"6323783004:00:001:0019"},"geometry":{"type":"Polygon","coordinates":[[[37.556665,49.781726],[37.556677,49.78177490566037],[37.556677,49.781775],[37.556824,49.782374],[37.556877,49.783176],[37.557036,49.783375],[37.557313,49.78358],[37.55757,49.783543],[37.558057,49.783518],[37.558042,49.78254],[37.558014,49.782206],[37.557968,49.782012],[37.557684,49.782091],[37.557347,49.781849],[37.557472,49.781758],[37.557845,49.781677],[37.557747,49.781298],[37.557598,49.781365],[37.557406,49.781623],[37.557228,49.781764],[37.557208,49.781675],[37.556887,49.78148],[37.55671518181869,49.78167063636308],[37.556665,49.781726]]]}},{"type":"Feature","properties":{"cadnum":"6323783004:00:002:0002"},"geometry":{"type":"Polygon","coordinates":[[[37.568226,49.784],[37.568244,49.783893],[37.568066,49.783881],[37.568047,49.783993],[37.568226,49.784]]]}},{"type":"Feature","properties":{"cadnum":"6323783004:00:002:0003"},"geometry":{"type":"Polygon","coordinates":[[[37.572562,49.783934],[37.572731,49.7828],[37.572395,49.782453],[37.571834,49.7825],[37.571556,49.783625],[37.572562,49.783934]]]}},{"type":"Feature","properties":{"cadnum":"6323783004:00:001:0013"},"geometry":{"type":"Polygon","coordinates":[[[37.556677,49.78741187193461],[37.556677,49.787412],[37.556843,49.787349],[37.556677,49.787172],[37.556677,49.78717217391304],[37.556521,49.787006],[37.556354,49.786797],[37.556033,49.786943],[37.556222,49.787174],[37.556476,49.787488],[37.556677,49.78741187193461]]]}},{"type":"Feature","properties":{"cadnum":"6323783004:00:001:0020"},"geometry":{"type":"Polygon","coordinates":[[[37.55633,49.784671],[37.556017,49.784337],[37.555161,49.784608],[37.555309,49.784846],[37.55531,49.784866],[37.55531108494208,49.784866],[37.555336,49.785105],[37.555467,49.785272],[37.555574,49.785508],[37.555781,49.785582],[37.555942,49.785539],[37.556233,49.785905],[37.556677,49.78569005420561],[37.556677,49.785691],[37.556768,49.785646],[37.556849,49.785583],[37.556849,49.78558228],[37.557068,49.78541],[37.55706,49.7854],[37.556973,49.785313],[37.556849,49.78518941891892],[37.556849,49.785189],[37.556414,49.784755],[37.55633,49.784671]]]}},{"type":"Feature","properties":{"cadnum":"6323783004:00:001:0012"},"geometry":{"type":"Polygon","coordinates":[[[37.553032,49.786056],[37.553049,49.785382],[37.552572,49.785425],[37.552546,49.786051],[37.553032,49.786056]]]}},{"type":"Feature","properties":{"cadnum":"6323783004:00:001:0011"},"geometry":{"type":"Polygon","coordinates":[[[37.552725,49.786766],[37.553013,49.786753],[37.553014,49.786683],[37.553032,49.786056],[37.552546,49.786051],[37.552572,49.785425],[37.551924,49.785484],[37.552163,49.785755],[37.552422,49.786177],[37.552595,49.786217],[37.552675,49.786411],[37.552715,49.786699],[37.552725,49.786766]]]}},{"type":"Feature","properties":{"cadnum":"6323783004:00:001:0017"},"geometry":{"type":"Polygon","coordinates":[[[37.553903,49.786575],[37.554422,49.786518],[37.554239,49.786041],[37.554184,49.785898],[37.553748,49.785916],[37.553903,49.786575]]]}},{"type":"Feature","properties":{"cadnum":"6323783004:00:001:0021"},"geometry":{"type":"Polygon","coordinates":[[[37.554786,49.78461],[37.555149,49.784582],[37.555994,49.784314],[37.555978,49.784297],[37.556016,49.784284],[37.555722,49.783942],[37.55474,49.783719],[37.553925,49.783535],[37.553745,49.783873],[37.553307,49.783932],[37.553012,49.784131],[37.552632,49.784387],[37.552796,49.784361],[37.552939,49.784341],[37.553486,49.784208],[37.553847,49.784246],[37.554042,49.78436],[37.554082,49.784391],[37.554217,49.784512],[37.554432,49.784731],[37.554492,49.784866],[37.55449299236641,49.784866],[37.554502,49.784886],[37.554543,49.785233],[37.55468709041382,49.78486070152536],[37.554786,49.78461]]]}},{"type":"Feature","properties":{"cadnum":"6323783004:00:001:0016"},"geometry":{"type":"Polygon","coordinates":[[[37.553748,49.785916],[37.554184,49.785898],[37.554131,49.785761],[37.554089,49.785602],[37.554093,49.785453],[37.554103,49.785219],[37.553918,49.785205],[37.553583,49.785215],[37.553748,49.785916]]]}}]}